{
"type": "FeatureCollection",
"name": "Baynes_Baynes_overhead",
"crs": { "type": "name", "properties": { "name": "urn:ogc:def:crs:OGC:1.3:CRS84" } },
"features": [
{ "type": "Feature", "properties": { "FEEDER_NAME": "Baynes", "SUBSTATION_NAME": "Baynes", "wmType": "PRIMARY OVERHEAD", "WKT": "LINESTRING (-79.25603489238193 36.28089178369068, -79.25605019453285 36.2808939884238)" }, "geometry": { "type": "LineString", "coordinates": [ [ -79.256034892381933, 36.280891783690677 ], [ -79.256050194532847, 36.280893988423799 ] ] } },
{ "type": "Feature", "properties": { "FEEDER_NAME": "Baynes", "SUBSTATION_NAME": "Baynes", "wmType": "PRIMARY OVERHEAD", "WKT": "LINESTRING (-79.25605019453285 36.2808939884238, -79.25606718194145 36.280896238298176)" }, "geometry": { "type": "LineString", "coordinates": [ [ -79.256050194532847, 36.280893988423799 ], [ -79.256067181941447, 36.280896238298176 ] ] } },
{ "type": "Feature", "properties": { "FEEDER_NAME": "Baynes", "SUBSTATION_NAME": "Baynes", "wmType": "PRIMARY OVERHEAD", "WKT": "LINESTRING (-79.25606718194145 36.280896238298176, -79.25608778325697 36.280898814953815)" }, "geometry": { "type": "LineString", "coordinates": [ [ -79.256067181941447, 36.280896238298176 ], [ -79.256087783256973, 36.280898814953815 ] ] } },
{ "type": "Feature", "properties": { "FEEDER_NAME": "Baynes", "SUBSTATION_NAME": "Baynes", "wmType": "PRIMARY OVERHEAD", "WKT": "LINESTRING (-79.25608778325697 36.280898814953815, -79.25610327763854 36.280905808063686)" }, "geometry": { "type": "LineString", "coordinates": [ [ -79.256087783256973, 36.280898814953815 ], [ -79.256103277638545, 36.280905808063686 ] ] } },
{ "type": "Feature", "properties": { "FEEDER_NAME": "Baynes", "SUBSTATION_NAME": "Baynes", "wmType": "PRIMARY OVERHEAD", "WKT": "LINESTRING (-79.25608778325697 36.280898814953815, -79.25609539118666 36.28091571841493)" }, "geometry": { "type": "LineString", "coordinates": [ [ -79.256087783256973, 36.280898814953815 ], [ -79.256095391186662, 36.280915718414931 ] ] } },
{ "type": "Feature", "properties": { "FEEDER_NAME": "Baynes", "SUBSTATION_NAME": "Baynes", "wmType": "PRIMARY OVERHEAD", "WKT": "LINESTRING (-79.25608778325697 36.280898814953815, -79.25609621453718 36.28092191670266)" }, "geometry": { "type": "LineString", "coordinates": [ [ -79.256087783256973, 36.280898814953815 ], [ -79.25609621453718, 36.28092191670266 ] ] } },
{ "type": "Feature", "properties": { "FEEDER_NAME": "Baynes", "SUBSTATION_NAME": "Baynes", "wmType": "PRIMARY OVERHEAD", "WKT": "LINESTRING (-79.25608778325697 36.280898814953815, -79.25609897093021 36.280887857764355)" }, "geometry": { "type": "LineString", "coordinates": [ [ -79.256087783256973, 36.280898814953815 ], [ -79.256098970930211, 36.280887857764355 ] ] } },
{ "type": "Feature", "properties": { "FEEDER_NAME": "Baynes", "SUBSTATION_NAME": "Baynes", "wmType": "PRIMARY OVERHEAD", "WKT": "LINESTRING (-79.25608778325697 36.280898814953815, -79.25610229882906 36.28090112135252)" }, "geometry": { "type": "LineString", "coordinates": [ [ -79.256087783256973, 36.280898814953815 ], [ -79.256102298829063, 36.280901121352521 ] ] } },
{ "type": "Feature", "properties": { "FEEDER_NAME": "Baynes", "SUBSTATION_NAME": "Baynes", "wmType": "PRIMARY OVERHEAD", "WKT": "LINESTRING (-79.25608778325697 36.280898814953815, -79.25588495999867 36.28105306979113)" }, "geometry": { "type": "LineString", "coordinates": [ [ -79.256087783256973, 36.280898814953815 ], [ -79.255884959998667, 36.281053069791128 ] ] } }
]
}
