{
"type": "FeatureCollection",
"name": "Bivins_WILLOWHAVEN_SOUTH_overhead",
"crs": { "type": "name", "properties": { "name": "urn:ogc:def:crs:OGC:1.3:CRS84" } },
"features": [
{ "type": "Feature", "properties": { "FEEDER_NAME": "WILLOWHAVEN SOUTH", "SUBSTATION_NAME": "Bivins", "wmType": "SECONDARY OVERHEAD", "WKT": "LINESTRING (-78.9584073766081 36.089081672668286, -78.95815970689348 36.08923582534975)" }, "geometry": { "type": "LineString", "coordinates": [ [ -78.958407376608093, 36.089081672668286 ], [ -78.958159706893483, 36.089235825349753 ] ] } },
{ "type": "Feature", "properties": { "FEEDER_NAME": "WILLOWHAVEN SOUTH", "SUBSTATION_NAME": "Bivins", "wmType": "SECONDARY OVERHEAD", "WKT": "LINESTRING (-78.95795337500735 36.09208867831362, -78.95784706486855 36.09216648254548)" }, "geometry": { "type": "LineString", "coordinates": [ [ -78.957953375007349, 36.092088678313623 ], [ -78.957847064868545, 36.09216648254548 ] ] } },
{ "type": "Feature", "properties": { "FEEDER_NAME": "WILLOWHAVEN SOUTH", "SUBSTATION_NAME": "Bivins", "wmType": "SECONDARY OVERHEAD", "WKT": "LINESTRING (-78.9649885144687 36.090378023515655, -78.96496279841305 36.09038462493421, -78.96483613481863 36.0905672353949)" }, "geometry": { "type": "LineString", "coordinates": [ [ -78.9649885144687, 36.090378023515655 ], [ -78.964962798413055, 36.09038462493421 ], [ -78.964836134818626, 36.0905672353949 ] ] } },
{ "type": "Feature", "properties": { "FEEDER_NAME": "WILLOWHAVEN SOUTH", "SUBSTATION_NAME": "Bivins", "wmType": "SECONDARY OVERHEAD", "WKT": "LINESTRING (-78.95846529939213 36.08856377540531, -78.95826837655575 36.08845967110436)" }, "geometry": { "type": "LineString", "coordinates": [ [ -78.958465299392131, 36.088563775405312 ], [ -78.95826837655575, 36.08845967110436 ] ] } },
{ "type": "Feature", "properties": { "FEEDER_NAME": "WILLOWHAVEN SOUTH", "SUBSTATION_NAME": "Bivins", "wmType": "SECONDARY OVERHEAD", "WKT": "LINESTRING (-78.9644767078031 36.076687874145144, -78.96448763517967 36.0766960813413, -78.96480919952056 36.076677422122465)" }, "geometry": { "type": "LineString", "coordinates": [ [ -78.964476707803101, 36.076687874145144 ], [ -78.964487635179665, 36.076696081341296 ], [ -78.964809199520559, 36.076677422122465 ] ] } },
{ "type": "Feature", "properties": { "FEEDER_NAME": "WILLOWHAVEN SOUTH", "SUBSTATION_NAME": "Bivins", "wmType": "SECONDARY OVERHEAD", "WKT": "LINESTRING (-78.95649763201575 36.08777519625871, -78.95644637324611 36.08759966970227)" }, "geometry": { "type": "LineString", "coordinates": [ [ -78.956497632015754, 36.087775196258711 ], [ -78.956446373246109, 36.087599669702271 ] ] } },
{ "type": "Feature", "properties": { "FEEDER_NAME": "WILLOWHAVEN SOUTH", "SUBSTATION_NAME": "Bivins", "wmType": "SECONDARY OVERHEAD", "WKT": "LINESTRING (-78.95359470042382 36.07644144811842, -78.95358213242852 36.07642901609581, -78.95358658075801 36.07605543141304)" }, "geometry": { "type": "LineString", "coordinates": [ [ -78.953594700423821, 36.076441448118423 ], [ -78.953582132428522, 36.076429016095808 ], [ -78.953586580758014, 36.076055431413039 ] ] } },
{ "type": "Feature", "properties": { "FEEDER_NAME": "WILLOWHAVEN SOUTH", "SUBSTATION_NAME": "Bivins", "wmType": "SECONDARY OVERHEAD", "WKT": "LINESTRING (-78.96151100266357 36.08934199775595, -78.96169166946268 36.08961164389091)" }, "geometry": { "type": "LineString", "coordinates": [ [ -78.96151100266357, 36.089341997755952 ], [ -78.961691669462681, 36.089611643890912 ] ] } },
{ "type": "Feature", "properties": { "FEEDER_NAME": "WILLOWHAVEN SOUTH", "SUBSTATION_NAME": "Bivins", "wmType": "SECONDARY OVERHEAD", "WKT": "LINESTRING (-78.96883261701751 36.09291622814535, -78.96924704181505 36.09340067972789)" }, "geometry": { "type": "LineString", "coordinates": [ [ -78.968832617017512, 36.092916228145349 ], [ -78.969247041815052, 36.093400679727893 ] ] } },
{ "type": "Feature", "properties": { "FEEDER_NAME": "WILLOWHAVEN SOUTH", "SUBSTATION_NAME": "Bivins", "wmType": "SECONDARY OVERHEAD", "WKT": "LINESTRING (-78.96362938570593 36.09149183785045, -78.96372838757367 36.09137167812244)" }, "geometry": { "type": "LineString", "coordinates": [ [ -78.963629385705929, 36.091491837850448 ], [ -78.963728387573667, 36.091371678122442 ] ] } },
{ "type": "Feature", "properties": { "FEEDER_NAME": "WILLOWHAVEN SOUTH", "SUBSTATION_NAME": "Bivins", "wmType": "SECONDARY OVERHEAD", "WKT": "LINESTRING (-78.94883335834307 36.07597564581866, -78.94929136072066 36.075722644664815)" }, "geometry": { "type": "LineString", "coordinates": [ [ -78.948833358343066, 36.075975645818659 ], [ -78.949291360720665, 36.075722644664815 ] ] } },
{ "type": "Feature", "properties": { "FEEDER_NAME": "WILLOWHAVEN SOUTH", "SUBSTATION_NAME": "Bivins", "wmType": "SECONDARY OVERHEAD", "WKT": "LINESTRING (-78.95812541864802 36.089047892644636, -78.95781438946511 36.08911986596381)" }, "geometry": { "type": "LineString", "coordinates": [ [ -78.958125418648024, 36.089047892644636 ], [ -78.957814389465113, 36.089119865963809 ] ] } },
{ "type": "Feature", "properties": { "FEEDER_NAME": "WILLOWHAVEN SOUTH", "SUBSTATION_NAME": "Bivins", "wmType": "SECONDARY OVERHEAD", "WKT": "LINESTRING (-78.95354485493745 36.08049354826835, -78.95341836847471 36.08021165460021)" }, "geometry": { "type": "LineString", "coordinates": [ [ -78.953544854937448, 36.08049354826835 ], [ -78.953418368474715, 36.080211654600213 ] ] } },
{ "type": "Feature", "properties": { "FEEDER_NAME": "WILLOWHAVEN SOUTH", "SUBSTATION_NAME": "Bivins", "wmType": "SECONDARY OVERHEAD", "WKT": "LINESTRING (-78.94881293904571 36.07757259357689, -78.94902415976316 36.077739012603594)" }, "geometry": { "type": "LineString", "coordinates": [ [ -78.948812939045709, 36.077572593576889 ], [ -78.949024159763155, 36.077739012603594 ] ] } },
{ "type": "Feature", "properties": { "FEEDER_NAME": "WILLOWHAVEN SOUTH", "SUBSTATION_NAME": "Bivins", "wmType": "SECONDARY OVERHEAD", "WKT": "LINESTRING (-78.96924704181505 36.09340067972789, -78.96927139795267 36.09319968195282)" }, "geometry": { "type": "LineString", "coordinates": [ [ -78.969247041815052, 36.093400679727893 ], [ -78.969271397952667, 36.093199681952818 ] ] } },
{ "type": "Feature", "properties": { "FEEDER_NAME": "WILLOWHAVEN SOUTH", "SUBSTATION_NAME": "Bivins", "wmType": "SECONDARY OVERHEAD", "WKT": "LINESTRING (-78.9648080851982 36.077721565694986, -78.96479339187358 36.07767765018254)" }, "geometry": { "type": "LineString", "coordinates": [ [ -78.9648080851982, 36.077721565694986 ], [ -78.964793391873584, 36.077677650182537 ] ] } },
{ "type": "Feature", "properties": { "FEEDER_NAME": "WILLOWHAVEN SOUTH", "SUBSTATION_NAME": "Bivins", "wmType": "SECONDARY OVERHEAD", "WKT": "LINESTRING (-78.95784706486855 36.09216648254548, -78.95768624289848 36.09249252732722)" }, "geometry": { "type": "LineString", "coordinates": [ [ -78.957847064868545, 36.09216648254548 ], [ -78.957686242898475, 36.092492527327217 ] ] } },
{ "type": "Feature", "properties": { "FEEDER_NAME": "WILLOWHAVEN SOUTH", "SUBSTATION_NAME": "Bivins", "wmType": "SECONDARY OVERHEAD", "WKT": "LINESTRING (-78.95768624289848 36.09249252732722, -78.957678961878 36.092572925134576)" }, "geometry": { "type": "LineString", "coordinates": [ [ -78.957686242898475, 36.092492527327217 ], [ -78.957678961878003, 36.092572925134576 ] ] } },
{ "type": "Feature", "properties": { "FEEDER_NAME": "WILLOWHAVEN SOUTH", "SUBSTATION_NAME": "Bivins", "wmType": "SECONDARY OVERHEAD", "WKT": "LINESTRING (-78.95795449751054 36.09316559385304, -78.95813980277825 36.09291762059836)" }, "geometry": { "type": "LineString", "coordinates": [ [ -78.957954497510542, 36.093165593853037 ], [ -78.958139802778248, 36.092917620598357 ] ] } },
{ "type": "Feature", "properties": { "FEEDER_NAME": "WILLOWHAVEN SOUTH", "SUBSTATION_NAME": "Bivins", "wmType": "SECONDARY OVERHEAD", "WKT": "LINESTRING (-78.95813980277825 36.09291762059836, -78.95822334995869 36.09293419498547)" }, "geometry": { "type": "LineString", "coordinates": [ [ -78.958139802778248, 36.092917620598357 ], [ -78.958223349958686, 36.092934194985467 ] ] } },
{ "type": "Feature", "properties": { "FEEDER_NAME": "WILLOWHAVEN SOUTH", "SUBSTATION_NAME": "Bivins", "wmType": "SECONDARY OVERHEAD", "WKT": "LINESTRING (-78.96054398388571 36.08586417339729, -78.96035331257009 36.085606968925504)" }, "geometry": { "type": "LineString", "coordinates": [ [ -78.960543983885714, 36.08586417339729 ], [ -78.960353312570092, 36.085606968925504 ] ] } },
{ "type": "Feature", "properties": { "FEEDER_NAME": "WILLOWHAVEN SOUTH", "SUBSTATION_NAME": "Bivins", "wmType": "SECONDARY OVERHEAD", "WKT": "LINESTRING (-78.95866847539492 36.090269267801304, -78.95828734993393 36.09024070072766)" }, "geometry": { "type": "LineString", "coordinates": [ [ -78.958668475394916, 36.090269267801304 ], [ -78.958287349933926, 36.090240700727662 ] ] } },
{ "type": "Feature", "properties": { "FEEDER_NAME": "WILLOWHAVEN SOUTH", "SUBSTATION_NAME": "Bivins", "wmType": "SECONDARY OVERHEAD", "WKT": "LINESTRING (-78.95866988456163 36.090862212051455, -78.95835881483863 36.090725009242014)" }, "geometry": { "type": "LineString", "coordinates": [ [ -78.95866988456163, 36.090862212051455 ], [ -78.958358814838633, 36.090725009242014 ] ] } },
{ "type": "Feature", "properties": { "FEEDER_NAME": "WILLOWHAVEN SOUTH", "SUBSTATION_NAME": "Bivins", "wmType": "SECONDARY OVERHEAD", "WKT": "LINESTRING (-78.95879666910461 36.088608328501586, -78.95864166745763 36.08846938889504)" }, "geometry": { "type": "LineString", "coordinates": [ [ -78.958796669104615, 36.088608328501586 ], [ -78.958641667457627, 36.088469388895042 ] ] } },
{ "type": "Feature", "properties": { "FEEDER_NAME": "WILLOWHAVEN SOUTH", "SUBSTATION_NAME": "Bivins", "wmType": "SECONDARY OVERHEAD", "WKT": "LINESTRING (-78.95879666910461 36.088608328501586, -78.95846529939213 36.08856377540531)" }, "geometry": { "type": "LineString", "coordinates": [ [ -78.958796669104615, 36.088608328501586 ], [ -78.958465299392131, 36.088563775405312 ] ] } },
{ "type": "Feature", "properties": { "FEEDER_NAME": "WILLOWHAVEN SOUTH", "SUBSTATION_NAME": "Bivins", "wmType": "SECONDARY OVERHEAD", "WKT": "LINESTRING (-78.95846529939213 36.08856377540531, -78.95858076168984 36.08850035289295)" }, "geometry": { "type": "LineString", "coordinates": [ [ -78.958465299392131, 36.088563775405312 ], [ -78.958580761689845, 36.08850035289295 ] ] } },
{ "type": "Feature", "properties": { "FEEDER_NAME": "WILLOWHAVEN SOUTH", "SUBSTATION_NAME": "Bivins", "wmType": "SECONDARY OVERHEAD", "WKT": "LINESTRING (-78.9590559915384 36.088453321313374, -78.95942331567713 36.08868745953228)" }, "geometry": { "type": "LineString", "coordinates": [ [ -78.959055991538406, 36.088453321313374 ], [ -78.959423315677128, 36.088687459532281 ] ] } },
{ "type": "Feature", "properties": { "FEEDER_NAME": "WILLOWHAVEN SOUTH", "SUBSTATION_NAME": "Bivins", "wmType": "SECONDARY OVERHEAD", "WKT": "LINESTRING (-78.95902423734793 36.08913703492106, -78.95885324131348 36.089168429856215)" }, "geometry": { "type": "LineString", "coordinates": [ [ -78.959024237347933, 36.089137034921059 ], [ -78.958853241313477, 36.089168429856215 ] ] } },
{ "type": "Feature", "properties": { "FEEDER_NAME": "WILLOWHAVEN SOUTH", "SUBSTATION_NAME": "Bivins", "wmType": "SECONDARY OVERHEAD", "WKT": "LINESTRING (-78.95902423734793 36.08913703492106, -78.95942357488852 36.08931706799346)" }, "geometry": { "type": "LineString", "coordinates": [ [ -78.959024237347933, 36.089137034921059 ], [ -78.959423574888518, 36.089317067993463 ] ] } },
{ "type": "Feature", "properties": { "FEEDER_NAME": "WILLOWHAVEN SOUTH", "SUBSTATION_NAME": "Bivins", "wmType": "SECONDARY OVERHEAD", "WKT": "LINESTRING (-78.95942357488852 36.08931706799346, -78.95932955856289 36.089374569161635)" }, "geometry": { "type": "LineString", "coordinates": [ [ -78.959423574888518, 36.089317067993463 ], [ -78.959329558562885, 36.089374569161635 ] ] } },
{ "type": "Feature", "properties": { "FEEDER_NAME": "WILLOWHAVEN SOUTH", "SUBSTATION_NAME": "Bivins", "wmType": "SECONDARY OVERHEAD", "WKT": "LINESTRING (-78.95942357488852 36.08931706799346, -78.95934489223306 36.08915781004538)" }, "geometry": { "type": "LineString", "coordinates": [ [ -78.959423574888518, 36.089317067993463 ], [ -78.959344892233062, 36.089157810045378 ] ] } },
{ "type": "Feature", "properties": { "FEEDER_NAME": "WILLOWHAVEN SOUTH", "SUBSTATION_NAME": "Bivins", "wmType": "SECONDARY OVERHEAD", "WKT": "LINESTRING (-78.95902423734793 36.08913703492106, -78.95880951158546 36.08904046081195)" }, "geometry": { "type": "LineString", "coordinates": [ [ -78.959024237347933, 36.089137034921059 ], [ -78.958809511585457, 36.089040460811951 ] ] } },
{ "type": "Feature", "properties": { "FEEDER_NAME": "WILLOWHAVEN SOUTH", "SUBSTATION_NAME": "Bivins", "wmType": "SECONDARY OVERHEAD", "WKT": "LINESTRING (-78.95880951158546 36.08904046081195, -78.9584073766081 36.089081672668286)" }, "geometry": { "type": "LineString", "coordinates": [ [ -78.958809511585457, 36.089040460811951 ], [ -78.958407376608093, 36.089081672668286 ] ] } },
{ "type": "Feature", "properties": { "FEEDER_NAME": "WILLOWHAVEN SOUTH", "SUBSTATION_NAME": "Bivins", "wmType": "SECONDARY OVERHEAD", "WKT": "LINESTRING (-78.9584073766081 36.089081672668286, -78.95812541864802 36.089047892644636)" }, "geometry": { "type": "LineString", "coordinates": [ [ -78.958407376608093, 36.089081672668286 ], [ -78.958125418648024, 36.089047892644636 ] ] } },
{ "type": "Feature", "properties": { "FEEDER_NAME": "WILLOWHAVEN SOUTH", "SUBSTATION_NAME": "Bivins", "wmType": "SECONDARY OVERHEAD", "WKT": "LINESTRING (-78.95902423734793 36.08913703492106, -78.9593345633679 36.089050443798484)" }, "geometry": { "type": "LineString", "coordinates": [ [ -78.959024237347933, 36.089137034921059 ], [ -78.959334563367904, 36.089050443798484 ] ] } },
{ "type": "Feature", "properties": { "FEEDER_NAME": "WILLOWHAVEN SOUTH", "SUBSTATION_NAME": "Bivins", "wmType": "SECONDARY OVERHEAD", "WKT": "LINESTRING (-78.9593345633679 36.089050443798484, -78.95928986768016 36.088967124691045)" }, "geometry": { "type": "LineString", "coordinates": [ [ -78.959334563367904, 36.089050443798484 ], [ -78.959289867680155, 36.088967124691045 ] ] } },
{ "type": "Feature", "properties": { "FEEDER_NAME": "WILLOWHAVEN SOUTH", "SUBSTATION_NAME": "Bivins", "wmType": "SECONDARY OVERHEAD", "WKT": "LINESTRING (-78.95893664123363 36.08968230830966, -78.95863116800365 36.0896716293295)" }, "geometry": { "type": "LineString", "coordinates": [ [ -78.958936641233635, 36.089682308309662 ], [ -78.958631168003649, 36.089671629329501 ] ] } },
{ "type": "Feature", "properties": { "FEEDER_NAME": "WILLOWHAVEN SOUTH", "SUBSTATION_NAME": "Bivins", "wmType": "SECONDARY OVERHEAD", "WKT": "LINESTRING (-78.95863116800365 36.0896716293295, -78.95832287446846 36.0897468799508)" }, "geometry": { "type": "LineString", "coordinates": [ [ -78.958631168003649, 36.089671629329501 ], [ -78.958322874468465, 36.089746879950802 ] ] } },
{ "type": "Feature", "properties": { "FEEDER_NAME": "WILLOWHAVEN SOUTH", "SUBSTATION_NAME": "Bivins", "wmType": "SECONDARY OVERHEAD", "WKT": "LINESTRING (-78.95832287446846 36.0897468799508, -78.95821919566055 36.08957916367161)" }, "geometry": { "type": "LineString", "coordinates": [ [ -78.958322874468465, 36.089746879950802 ], [ -78.958219195660547, 36.089579163671608 ] ] } },
{ "type": "Feature", "properties": { "FEEDER_NAME": "WILLOWHAVEN SOUTH", "SUBSTATION_NAME": "Bivins", "wmType": "SECONDARY OVERHEAD", "WKT": "LINESTRING (-78.95893664123363 36.08968230830966, -78.95933938609097 36.089890170309594)" }, "geometry": { "type": "LineString", "coordinates": [ [ -78.958936641233635, 36.089682308309662 ], [ -78.959339386090974, 36.089890170309594 ] ] } },
{ "type": "Feature", "properties": { "FEEDER_NAME": "WILLOWHAVEN SOUTH", "SUBSTATION_NAME": "Bivins", "wmType": "SECONDARY OVERHEAD", "WKT": "LINESTRING (-78.95933938609097 36.089890170309594, -78.95917223467167 36.08997467245517)" }, "geometry": { "type": "LineString", "coordinates": [ [ -78.959339386090974, 36.089890170309594 ], [ -78.959172234671669, 36.08997467245517 ] ] } },
{ "type": "Feature", "properties": { "FEEDER_NAME": "WILLOWHAVEN SOUTH", "SUBSTATION_NAME": "Bivins", "wmType": "SECONDARY OVERHEAD", "WKT": "LINESTRING (-78.95933938609097 36.089890170309594, -78.95936529283729 36.08968219642433)" }, "geometry": { "type": "LineString", "coordinates": [ [ -78.959339386090974, 36.089890170309594 ], [ -78.95936529283729, 36.089682196424327 ] ] } },
{ "type": "Feature", "properties": { "FEEDER_NAME": "WILLOWHAVEN SOUTH", "SUBSTATION_NAME": "Bivins", "wmType": "SECONDARY OVERHEAD", "WKT": "LINESTRING (-78.95893142791545 36.09021623737093, -78.95866847539492 36.090269267801304)" }, "geometry": { "type": "LineString", "coordinates": [ [ -78.958931427915445, 36.090216237370932 ], [ -78.958668475394916, 36.090269267801304 ] ] } },
{ "type": "Feature", "properties": { "FEEDER_NAME": "WILLOWHAVEN SOUTH", "SUBSTATION_NAME": "Bivins", "wmType": "SECONDARY OVERHEAD", "WKT": "LINESTRING (-78.95866847539492 36.090269267801304, -78.95857982552485 36.09028690118826)" }, "geometry": { "type": "LineString", "coordinates": [ [ -78.958668475394916, 36.090269267801304 ], [ -78.958579825524851, 36.090286901188257 ] ] } },
{ "type": "Feature", "properties": { "FEEDER_NAME": "WILLOWHAVEN SOUTH", "SUBSTATION_NAME": "Bivins", "wmType": "SECONDARY OVERHEAD", "WKT": "LINESTRING (-78.95893142791545 36.09021623737093, -78.95908531428545 36.09040302559577)" }, "geometry": { "type": "LineString", "coordinates": [ [ -78.958931427915445, 36.090216237370932 ], [ -78.959085314285446, 36.090403025595769 ] ] } },
{ "type": "Feature", "properties": { "FEEDER_NAME": "WILLOWHAVEN SOUTH", "SUBSTATION_NAME": "Bivins", "wmType": "SECONDARY OVERHEAD", "WKT": "LINESTRING (-78.95893142791545 36.09021623737093, -78.95916682711153 36.090397562490914)" }, "geometry": { "type": "LineString", "coordinates": [ [ -78.958931427915445, 36.090216237370932 ], [ -78.959166827111531, 36.090397562490914 ] ] } },
{ "type": "Feature", "properties": { "FEEDER_NAME": "WILLOWHAVEN SOUTH", "SUBSTATION_NAME": "Bivins", "wmType": "SECONDARY OVERHEAD", "WKT": "LINESTRING (-78.95893142791545 36.09021623737093, -78.95901281468541 36.09010243011156)" }, "geometry": { "type": "LineString", "coordinates": [ [ -78.958931427915445, 36.090216237370932 ], [ -78.959012814685408, 36.090102430111557 ] ] } },
{ "type": "Feature", "properties": { "FEEDER_NAME": "WILLOWHAVEN SOUTH", "SUBSTATION_NAME": "Bivins", "wmType": "SECONDARY OVERHEAD", "WKT": "LINESTRING (-78.95901281468541 36.09010243011156, -78.95944538796336 36.09015567349257)" }, "geometry": { "type": "LineString", "coordinates": [ [ -78.959012814685408, 36.090102430111557 ], [ -78.959445387963356, 36.090155673492568 ] ] } },
{ "type": "Feature", "properties": { "FEEDER_NAME": "WILLOWHAVEN SOUTH", "SUBSTATION_NAME": "Bivins", "wmType": "SECONDARY OVERHEAD", "WKT": "LINESTRING (-78.95944538796336 36.09015567349257, -78.95938336381289 36.08996490392713)" }, "geometry": { "type": "LineString", "coordinates": [ [ -78.959445387963356, 36.090155673492568 ], [ -78.95938336381289, 36.089964903927132 ] ] } },
{ "type": "Feature", "properties": { "FEEDER_NAME": "WILLOWHAVEN SOUTH", "SUBSTATION_NAME": "Bivins", "wmType": "SECONDARY OVERHEAD", "WKT": "LINESTRING (-78.95857833198552 36.0912611520965, -78.9584719598353 36.09112001635164)" }, "geometry": { "type": "LineString", "coordinates": [ [ -78.958578331985521, 36.0912611520965 ], [ -78.958471959835293, 36.091120016351638 ] ] } },
{ "type": "Feature", "properties": { "FEEDER_NAME": "WILLOWHAVEN SOUTH", "SUBSTATION_NAME": "Bivins", "wmType": "SECONDARY OVERHEAD", "WKT": "LINESTRING (-78.95857833198552 36.0912611520965, -78.95839487966128 36.09129393996569)" }, "geometry": { "type": "LineString", "coordinates": [ [ -78.958578331985521, 36.0912611520965 ], [ -78.958394879661284, 36.091293939965688 ] ] } },
{ "type": "Feature", "properties": { "FEEDER_NAME": "WILLOWHAVEN SOUTH", "SUBSTATION_NAME": "Bivins", "wmType": "SECONDARY OVERHEAD", "WKT": "LINESTRING (-78.95647224201669 36.092674565919445, -78.95636828137144 36.09252712602977)" }, "geometry": { "type": "LineString", "coordinates": [ [ -78.956472242016687, 36.092674565919445 ], [ -78.956368281371439, 36.092527126029772 ] ] } },
{ "type": "Feature", "properties": { "FEEDER_NAME": "WILLOWHAVEN SOUTH", "SUBSTATION_NAME": "Bivins", "wmType": "SECONDARY OVERHEAD", "WKT": "LINESTRING (-78.96232951135897 36.08815444541792, -78.96223269377357 36.0878754251503)" }, "geometry": { "type": "LineString", "coordinates": [ [ -78.962329511358973, 36.088154445417921 ], [ -78.962232693773572, 36.087875425150301 ] ] } },
{ "type": "Feature", "properties": { "FEEDER_NAME": "WILLOWHAVEN SOUTH", "SUBSTATION_NAME": "Bivins", "wmType": "SECONDARY OVERHEAD", "WKT": "LINESTRING (-78.96109201519367 36.08968499118713, -78.96121403051079 36.08945999689004)" }, "geometry": { "type": "LineString", "coordinates": [ [ -78.961092015193671, 36.089684991187127 ], [ -78.961214030510789, 36.089459996890042 ] ] } },
{ "type": "Feature", "properties": { "FEEDER_NAME": "WILLOWHAVEN SOUTH", "SUBSTATION_NAME": "Bivins", "wmType": "SECONDARY OVERHEAD", "WKT": "LINESTRING (-78.96109201519367 36.08968499118713, -78.96096602920555 36.08951197355419)" }, "geometry": { "type": "LineString", "coordinates": [ [ -78.961092015193671, 36.089684991187127 ], [ -78.960966029205551, 36.089511973554188 ] ] } },
{ "type": "Feature", "properties": { "FEEDER_NAME": "WILLOWHAVEN SOUTH", "SUBSTATION_NAME": "Bivins", "wmType": "SECONDARY OVERHEAD", "WKT": "LINESTRING (-78.96191000639007 36.09038298140199, -78.96161899930023 36.090176999752956)" }, "geometry": { "type": "LineString", "coordinates": [ [ -78.96191000639007, 36.090382981401987 ], [ -78.961618999300228, 36.090176999752956 ] ] } },
{ "type": "Feature", "properties": { "FEEDER_NAME": "WILLOWHAVEN SOUTH", "SUBSTATION_NAME": "Bivins", "wmType": "SECONDARY OVERHEAD", "WKT": "LINESTRING (-78.96358304965372 36.090826414580135, -78.96377934037712 36.09071231569531)" }, "geometry": { "type": "LineString", "coordinates": [ [ -78.963583049653721, 36.090826414580135 ], [ -78.963779340377116, 36.090712315695313 ] ] } },
{ "type": "Feature", "properties": { "FEEDER_NAME": "WILLOWHAVEN SOUTH", "SUBSTATION_NAME": "Bivins", "wmType": "SECONDARY OVERHEAD", "WKT": "LINESTRING (-78.96333994248073 36.0909004003205, -78.96308861764373 36.090880529029526)" }, "geometry": { "type": "LineString", "coordinates": [ [ -78.963339942480729, 36.0909004003205 ], [ -78.963088617643734, 36.090880529029526 ] ] } },
{ "type": "Feature", "properties": { "FEEDER_NAME": "WILLOWHAVEN SOUTH", "SUBSTATION_NAME": "Bivins", "wmType": "SECONDARY OVERHEAD", "WKT": "LINESTRING (-78.96333994248073 36.0909004003205, -78.9632412316808 36.09069653759248)" }, "geometry": { "type": "LineString", "coordinates": [ [ -78.963339942480729, 36.0909004003205 ], [ -78.963241231680797, 36.090696537592478 ] ] } },
{ "type": "Feature", "properties": { "FEEDER_NAME": "WILLOWHAVEN SOUTH", "SUBSTATION_NAME": "Bivins", "wmType": "SECONDARY OVERHEAD", "WKT": "LINESTRING (-78.96869056359043 36.09353533302223, -78.96854231683315 36.09336498274055)" }, "geometry": { "type": "LineString", "coordinates": [ [ -78.968690563590428, 36.093535333022231 ], [ -78.968542316833151, 36.093364982740553 ] ] } },
{ "type": "Feature", "properties": { "FEEDER_NAME": "WILLOWHAVEN SOUTH", "SUBSTATION_NAME": "Bivins", "wmType": "SECONDARY OVERHEAD", "WKT": "LINESTRING (-78.96905046528417 36.09146082480161, -78.9692933343566 36.09146907196338)" }, "geometry": { "type": "LineString", "coordinates": [ [ -78.96905046528417, 36.091460824801608 ], [ -78.969293334356607, 36.091469071963381 ] ] } },
{ "type": "Feature", "properties": { "FEEDER_NAME": "WILLOWHAVEN SOUTH", "SUBSTATION_NAME": "Bivins", "wmType": "SECONDARY OVERHEAD", "WKT": "LINESTRING (-78.96576965204378 36.0939520360239, -78.96548808154024 36.09427069384902)" }, "geometry": { "type": "LineString", "coordinates": [ [ -78.965769652043775, 36.0939520360239 ], [ -78.965488081540244, 36.094270693849019 ] ] } },
{ "type": "Feature", "properties": { "FEEDER_NAME": "WILLOWHAVEN SOUTH", "SUBSTATION_NAME": "Bivins", "wmType": "SECONDARY OVERHEAD", "WKT": "LINESTRING (-78.96576965204378 36.0939520360239, -78.96596070649416 36.09380795536773)" }, "geometry": { "type": "LineString", "coordinates": [ [ -78.965769652043775, 36.0939520360239 ], [ -78.965960706494158, 36.09380795536773 ] ] } },
{ "type": "Feature", "properties": { "FEEDER_NAME": "WILLOWHAVEN SOUTH", "SUBSTATION_NAME": "Bivins", "wmType": "SECONDARY OVERHEAD", "WKT": "LINESTRING (-78.96576965204378 36.0939520360239, -78.96621427786697 36.09395424781486)" }, "geometry": { "type": "LineString", "coordinates": [ [ -78.965769652043775, 36.0939520360239 ], [ -78.966214277866968, 36.093954247814857 ] ] } },
{ "type": "Feature", "properties": { "FEEDER_NAME": "WILLOWHAVEN SOUTH", "SUBSTATION_NAME": "Bivins", "wmType": "SECONDARY OVERHEAD", "WKT": "LINESTRING (-78.9642194697741 36.09318309823019, -78.96405664522949 36.093015869117544)" }, "geometry": { "type": "LineString", "coordinates": [ [ -78.964219469774093, 36.093183098230192 ], [ -78.964056645229491, 36.093015869117544 ] ] } },
{ "type": "Feature", "properties": { "FEEDER_NAME": "WILLOWHAVEN SOUTH", "SUBSTATION_NAME": "Bivins", "wmType": "SECONDARY OVERHEAD", "WKT": "LINESTRING (-78.96405664522949 36.093015869117544, -78.9641014584917 36.09287633284116)" }, "geometry": { "type": "LineString", "coordinates": [ [ -78.964056645229491, 36.093015869117544 ], [ -78.964101458491697, 36.092876332841158 ] ] } },
{ "type": "Feature", "properties": { "FEEDER_NAME": "WILLOWHAVEN SOUTH", "SUBSTATION_NAME": "Bivins", "wmType": "SECONDARY OVERHEAD", "WKT": "LINESTRING (-78.96383452785783 36.09555104314706, -78.96380380189161 36.09556260233175, -78.96356187039353 36.09550543355259)" }, "geometry": { "type": "LineString", "coordinates": [ [ -78.963834527857827, 36.095551043147061 ], [ -78.963803801891615, 36.095562602331754 ], [ -78.963561870393534, 36.095505433552589 ] ] } },
{ "type": "Feature", "properties": { "FEEDER_NAME": "WILLOWHAVEN SOUTH", "SUBSTATION_NAME": "Bivins", "wmType": "SECONDARY OVERHEAD", "WKT": "LINESTRING (-78.96499945162182 36.091477480714566, -78.96516975563618 36.09130858681907)" }, "geometry": { "type": "LineString", "coordinates": [ [ -78.964999451621821, 36.091477480714566 ], [ -78.965169755636182, 36.091308586819068 ] ] } },
{ "type": "Feature", "properties": { "FEEDER_NAME": "WILLOWHAVEN SOUTH", "SUBSTATION_NAME": "Bivins", "wmType": "SECONDARY OVERHEAD", "WKT": "LINESTRING (-78.96711295282084 36.08852308205962, -78.9671266866078 36.08837400634568)" }, "geometry": { "type": "LineString", "coordinates": [ [ -78.967112952820841, 36.088523082059623 ], [ -78.967126686607799, 36.088374006345681 ] ] } },
{ "type": "Feature", "properties": { "FEEDER_NAME": "WILLOWHAVEN SOUTH", "SUBSTATION_NAME": "Bivins", "wmType": "SECONDARY OVERHEAD", "WKT": "LINESTRING (-78.96616242512445 36.089869063032125, -78.96583784769093 36.089812934675194)" }, "geometry": { "type": "LineString", "coordinates": [ [ -78.966162425124452, 36.089869063032125 ], [ -78.965837847690935, 36.089812934675194 ] ] } },
{ "type": "Feature", "properties": { "FEEDER_NAME": "WILLOWHAVEN SOUTH", "SUBSTATION_NAME": "Bivins", "wmType": "SECONDARY OVERHEAD", "WKT": "LINESTRING (-78.96328164257332 36.08804692780726, -78.96304648140439 36.08830254672468)" }, "geometry": { "type": "LineString", "coordinates": [ [ -78.963281642573321, 36.088046927807262 ], [ -78.96304648140439, 36.088302546724677 ] ] } },
{ "type": "Feature", "properties": { "FEEDER_NAME": "WILLOWHAVEN SOUTH", "SUBSTATION_NAME": "Bivins", "wmType": "SECONDARY OVERHEAD", "WKT": "LINESTRING (-78.96328164257332 36.08804692780726, -78.96341871051033 36.088341913008406)" }, "geometry": { "type": "LineString", "coordinates": [ [ -78.963281642573321, 36.088046927807262 ], [ -78.963418710510325, 36.088341913008406 ] ] } },
{ "type": "Feature", "properties": { "FEEDER_NAME": "WILLOWHAVEN SOUTH", "SUBSTATION_NAME": "Bivins", "wmType": "SECONDARY OVERHEAD", "WKT": "LINESTRING (-78.96370263946955 36.08793613071774, -78.96373643686277 36.0879374439359, -78.96393594353349 36.08778893358477)" }, "geometry": { "type": "LineString", "coordinates": [ [ -78.963702639469545, 36.087936130717743 ], [ -78.963736436862774, 36.0879374439359 ], [ -78.963935943533485, 36.087788933584768 ] ] } },
{ "type": "Feature", "properties": { "FEEDER_NAME": "WILLOWHAVEN SOUTH", "SUBSTATION_NAME": "Bivins", "wmType": "SECONDARY OVERHEAD", "WKT": "LINESTRING (-78.96641841232703 36.086486663898974, -78.96627961620699 36.08609726742953)" }, "geometry": { "type": "LineString", "coordinates": [ [ -78.96641841232703, 36.086486663898974 ], [ -78.96627961620699, 36.08609726742953 ] ] } },
{ "type": "Feature", "properties": { "FEEDER_NAME": "WILLOWHAVEN SOUTH", "SUBSTATION_NAME": "Bivins", "wmType": "SECONDARY OVERHEAD", "WKT": "LINESTRING (-78.96340444748252 36.087330881055465, -78.96353054865394 36.08725589862144)" }, "geometry": { "type": "LineString", "coordinates": [ [ -78.963404447482517, 36.087330881055465 ], [ -78.963530548653935, 36.087255898621443 ] ] } },
{ "type": "Feature", "properties": { "FEEDER_NAME": "WILLOWHAVEN SOUTH", "SUBSTATION_NAME": "Bivins", "wmType": "SECONDARY OVERHEAD", "WKT": "LINESTRING (-78.95995246890566 36.08609305208539, -78.9598252396162 36.08584883101374)" }, "geometry": { "type": "LineString", "coordinates": [ [ -78.959952468905655, 36.086093052085388 ], [ -78.959825239616194, 36.085848831013742 ] ] } },
{ "type": "Feature", "properties": { "FEEDER_NAME": "WILLOWHAVEN SOUTH", "SUBSTATION_NAME": "Bivins", "wmType": "SECONDARY OVERHEAD", "WKT": "LINESTRING (-78.9598252396162 36.08584883101374, -78.95968163273074 36.085868766957745)" }, "geometry": { "type": "LineString", "coordinates": [ [ -78.959825239616194, 36.085848831013742 ], [ -78.959681632730735, 36.085868766957745 ] ] } },
{ "type": "Feature", "properties": { "FEEDER_NAME": "WILLOWHAVEN SOUTH", "SUBSTATION_NAME": "Bivins", "wmType": "SECONDARY OVERHEAD", "WKT": "LINESTRING (-78.9598252396162 36.08584883101374, -78.95991856590057 36.085832523048786)" }, "geometry": { "type": "LineString", "coordinates": [ [ -78.959825239616194, 36.085848831013742 ], [ -78.959918565900566, 36.085832523048786 ] ] } },
{ "type": "Feature", "properties": { "FEEDER_NAME": "WILLOWHAVEN SOUTH", "SUBSTATION_NAME": "Bivins", "wmType": "SECONDARY OVERHEAD", "WKT": "LINESTRING (-78.96400954111876 36.085113501441, -78.96370000849161 36.08521147755359)" }, "geometry": { "type": "LineString", "coordinates": [ [ -78.964009541118756, 36.085113501441 ], [ -78.963700008491614, 36.085211477553592 ] ] } },
{ "type": "Feature", "properties": { "FEEDER_NAME": "WILLOWHAVEN SOUTH", "SUBSTATION_NAME": "Bivins", "wmType": "SECONDARY OVERHEAD", "WKT": "LINESTRING (-78.96370000849161 36.08521147755359, -78.96363056831855 36.085046747090594)" }, "geometry": { "type": "LineString", "coordinates": [ [ -78.963700008491614, 36.085211477553592 ], [ -78.96363056831855, 36.085046747090594 ] ] } },
{ "type": "Feature", "properties": { "FEEDER_NAME": "WILLOWHAVEN SOUTH", "SUBSTATION_NAME": "Bivins", "wmType": "SECONDARY OVERHEAD", "WKT": "LINESTRING (-78.96432305552268 36.08244299866331, -78.96385272571507 36.08230031926872)" }, "geometry": { "type": "LineString", "coordinates": [ [ -78.964323055522684, 36.082442998663311 ], [ -78.963852725715071, 36.082300319268718 ] ] } },
{ "type": "Feature", "properties": { "FEEDER_NAME": "WILLOWHAVEN SOUTH", "SUBSTATION_NAME": "Bivins", "wmType": "SECONDARY OVERHEAD", "WKT": "LINESTRING (-78.96385272571507 36.08230031926872, -78.9641100997682 36.0823068948263)" }, "geometry": { "type": "LineString", "coordinates": [ [ -78.963852725715071, 36.082300319268718 ], [ -78.964110099768206, 36.082306894826303 ] ] } },
{ "type": "Feature", "properties": { "FEEDER_NAME": "WILLOWHAVEN SOUTH", "SUBSTATION_NAME": "Bivins", "wmType": "SECONDARY OVERHEAD", "WKT": "LINESTRING (-78.96530616649055 36.08129113844991, -78.96516278733029 36.08175132861957)" }, "geometry": { "type": "LineString", "coordinates": [ [ -78.965306166490549, 36.081291138449913 ], [ -78.965162787330286, 36.081751328619568 ] ] } },
{ "type": "Feature", "properties": { "FEEDER_NAME": "WILLOWHAVEN SOUTH", "SUBSTATION_NAME": "Bivins", "wmType": "SECONDARY OVERHEAD", "WKT": "LINESTRING (-78.96530616649055 36.08129113844991, -78.96507375142133 36.08097082852399)" }, "geometry": { "type": "LineString", "coordinates": [ [ -78.965306166490549, 36.081291138449913 ], [ -78.965073751421329, 36.080970828523988 ] ] } },
{ "type": "Feature", "properties": { "FEEDER_NAME": "WILLOWHAVEN SOUTH", "SUBSTATION_NAME": "Bivins", "wmType": "SECONDARY OVERHEAD", "WKT": "LINESTRING (-78.96864647001708 36.07725233941193, -78.9682548987584 36.07712845888877)" }, "geometry": { "type": "LineString", "coordinates": [ [ -78.968646470017077, 36.077252339411928 ], [ -78.968254898758403, 36.077128458888772 ] ] } },
{ "type": "Feature", "properties": { "FEEDER_NAME": "WILLOWHAVEN SOUTH", "SUBSTATION_NAME": "Bivins", "wmType": "SECONDARY OVERHEAD", "WKT": "LINESTRING (-78.96872092958004 36.076779380397156, -78.9685010277864 36.07682330374521)" }, "geometry": { "type": "LineString", "coordinates": [ [ -78.968720929580044, 36.076779380397156 ], [ -78.968501027786402, 36.076823303745208 ] ] } },
{ "type": "Feature", "properties": { "FEEDER_NAME": "WILLOWHAVEN SOUTH", "SUBSTATION_NAME": "Bivins", "wmType": "SECONDARY OVERHEAD", "WKT": "LINESTRING (-78.9692579584154 36.07595679174728, -78.96905800279902 36.07589020877402)" }, "geometry": { "type": "LineString", "coordinates": [ [ -78.969257958415398, 36.075956791747281 ], [ -78.969058002799017, 36.07589020877402 ] ] } },
{ "type": "Feature", "properties": { "FEEDER_NAME": "WILLOWHAVEN SOUTH", "SUBSTATION_NAME": "Bivins", "wmType": "SECONDARY OVERHEAD", "WKT": "LINESTRING (-78.96905800279902 36.07589020877402, -78.9689341590935 36.075911172757024)" }, "geometry": { "type": "LineString", "coordinates": [ [ -78.969058002799017, 36.07589020877402 ], [ -78.968934159093493, 36.075911172757024 ] ] } },
{ "type": "Feature", "properties": { "FEEDER_NAME": "WILLOWHAVEN SOUTH", "SUBSTATION_NAME": "Bivins", "wmType": "SECONDARY OVERHEAD", "WKT": "LINESTRING (-78.96667079263433 36.08031864409908, -78.96635901818911 36.08024298865126)" }, "geometry": { "type": "LineString", "coordinates": [ [ -78.966670792634332, 36.08031864409908 ], [ -78.96635901818911, 36.080242988651257 ] ] } },
{ "type": "Feature", "properties": { "FEEDER_NAME": "WILLOWHAVEN SOUTH", "SUBSTATION_NAME": "Bivins", "wmType": "SECONDARY OVERHEAD", "WKT": "LINESTRING (-78.9661837290957 36.07910590461647, -78.96571802494282 36.07942299800493)" }, "geometry": { "type": "LineString", "coordinates": [ [ -78.966183729095704, 36.079105904616469 ], [ -78.965718024942817, 36.079422998004929 ] ] } },
{ "type": "Feature", "properties": { "FEEDER_NAME": "WILLOWHAVEN SOUTH", "SUBSTATION_NAME": "Bivins", "wmType": "SECONDARY OVERHEAD", "WKT": "LINESTRING (-78.96649527056114 36.07679898141415, -78.96601540571665 36.0767874491638)" }, "geometry": { "type": "LineString", "coordinates": [ [ -78.96649527056114, 36.07679898141415 ], [ -78.966015405716647, 36.076787449163803 ] ] } },
{ "type": "Feature", "properties": { "FEEDER_NAME": "WILLOWHAVEN SOUTH", "SUBSTATION_NAME": "Bivins", "wmType": "SECONDARY OVERHEAD", "WKT": "LINESTRING (-78.96601540571665 36.0767874491638, -78.96586950421982 36.07707941419334)" }, "geometry": { "type": "LineString", "coordinates": [ [ -78.966015405716647, 36.076787449163803 ], [ -78.965869504219825, 36.077079414193342 ] ] } },
{ "type": "Feature", "properties": { "FEEDER_NAME": "WILLOWHAVEN SOUTH", "SUBSTATION_NAME": "Bivins", "wmType": "SECONDARY OVERHEAD", "WKT": "LINESTRING (-78.96586950421982 36.07707941419334, -78.9656738844889 36.07699071401301)" }, "geometry": { "type": "LineString", "coordinates": [ [ -78.965869504219825, 36.077079414193342 ], [ -78.965673884488893, 36.076990714013007 ] ] } },
{ "type": "Feature", "properties": { "FEEDER_NAME": "WILLOWHAVEN SOUTH", "SUBSTATION_NAME": "Bivins", "wmType": "SECONDARY OVERHEAD", "WKT": "LINESTRING (-78.96668112991416 36.07636394321573, -78.96660793120981 36.07611847125838)" }, "geometry": { "type": "LineString", "coordinates": [ [ -78.966681129914164, 36.076363943215732 ], [ -78.966607931209808, 36.076118471258383 ] ] } },
{ "type": "Feature", "properties": { "FEEDER_NAME": "WILLOWHAVEN SOUTH", "SUBSTATION_NAME": "Bivins", "wmType": "SECONDARY OVERHEAD", "WKT": "LINESTRING (-78.95517677442483 36.07861285180405, -78.95490069820707 36.0786334347312)" }, "geometry": { "type": "LineString", "coordinates": [ [ -78.955176774424828, 36.078612851804053 ], [ -78.954900698207069, 36.078633434731202 ] ] } },
{ "type": "Feature", "properties": { "FEEDER_NAME": "WILLOWHAVEN SOUTH", "SUBSTATION_NAME": "Bivins", "wmType": "SECONDARY OVERHEAD", "WKT": "LINESTRING (-78.95510703587128 36.07902918788549, -78.95465448833536 36.07892169549524)" }, "geometry": { "type": "LineString", "coordinates": [ [ -78.955107035871279, 36.079029187885489 ], [ -78.954654488335365, 36.078921695495239 ] ] } },
{ "type": "Feature", "properties": { "FEEDER_NAME": "WILLOWHAVEN SOUTH", "SUBSTATION_NAME": "Bivins", "wmType": "SECONDARY OVERHEAD", "WKT": "LINESTRING (-78.95326420044951 36.081104619694344, -78.95327334453528 36.081267355075056)" }, "geometry": { "type": "LineString", "coordinates": [ [ -78.95326420044951, 36.081104619694344 ], [ -78.953273344535276, 36.081267355075056 ] ] } },
{ "type": "Feature", "properties": { "FEEDER_NAME": "WILLOWHAVEN SOUTH", "SUBSTATION_NAME": "Bivins", "wmType": "SECONDARY OVERHEAD", "WKT": "LINESTRING (-78.95523385461881 36.08106250339793, -78.95570716879018 36.08139863266734)" }, "geometry": { "type": "LineString", "coordinates": [ [ -78.955233854618811, 36.081062503397931 ], [ -78.955707168790184, 36.081398632667337 ] ] } },
{ "type": "Feature", "properties": { "FEEDER_NAME": "WILLOWHAVEN SOUTH", "SUBSTATION_NAME": "Bivins", "wmType": "SECONDARY OVERHEAD", "WKT": "LINESTRING (-78.95570716879018 36.08139863266734, -78.95544460625513 36.081553560831125)" }, "geometry": { "type": "LineString", "coordinates": [ [ -78.955707168790184, 36.081398632667337 ], [ -78.955444606255128, 36.081553560831125 ] ] } },
{ "type": "Feature", "properties": { "FEEDER_NAME": "WILLOWHAVEN SOUTH", "SUBSTATION_NAME": "Bivins", "wmType": "SECONDARY OVERHEAD", "WKT": "LINESTRING (-78.95523385461881 36.08106250339793, -78.95515081628346 36.08074536007482)" }, "geometry": { "type": "LineString", "coordinates": [ [ -78.955233854618811, 36.081062503397931 ], [ -78.955150816283464, 36.080745360074822 ] ] } },
{ "type": "Feature", "properties": { "FEEDER_NAME": "WILLOWHAVEN SOUTH", "SUBSTATION_NAME": "Bivins", "wmType": "SECONDARY OVERHEAD", "WKT": "LINESTRING (-78.95533693985519 36.07842413691774, -78.95509625249018 36.07833933101366)" }, "geometry": { "type": "LineString", "coordinates": [ [ -78.955336939855187, 36.078424136917739 ], [ -78.955096252490179, 36.078339331013659 ] ] } },
{ "type": "Feature", "properties": { "FEEDER_NAME": "WILLOWHAVEN SOUTH", "SUBSTATION_NAME": "Bivins", "wmType": "SECONDARY OVERHEAD", "WKT": "LINESTRING (-78.95509625249018 36.07833933101366, -78.9548544608794 36.07823287816456)" }, "geometry": { "type": "LineString", "coordinates": [ [ -78.955096252490179, 36.078339331013659 ], [ -78.954854460879403, 36.078232878164563 ] ] } },
{ "type": "Feature", "properties": { "FEEDER_NAME": "WILLOWHAVEN SOUTH", "SUBSTATION_NAME": "Bivins", "wmType": "SECONDARY OVERHEAD", "WKT": "LINESTRING (-78.9548544608794 36.07823287816456, -78.95490635926839 36.07819292356945)" }, "geometry": { "type": "LineString", "coordinates": [ [ -78.954854460879403, 36.078232878164563 ], [ -78.954906359268392, 36.078192923569453 ] ] } },
{ "type": "Feature", "properties": { "FEEDER_NAME": "WILLOWHAVEN SOUTH", "SUBSTATION_NAME": "Bivins", "wmType": "SECONDARY OVERHEAD", "WKT": "LINESTRING (-78.95539698359643 36.07644692600882, -78.95519948773504 36.07646940654159)" }, "geometry": { "type": "LineString", "coordinates": [ [ -78.95539698359643, 36.076446926008821 ], [ -78.955199487735044, 36.076469406541591 ] ] } },
{ "type": "Feature", "properties": { "FEEDER_NAME": "WILLOWHAVEN SOUTH", "SUBSTATION_NAME": "Bivins", "wmType": "SECONDARY OVERHEAD", "WKT": "LINESTRING (-78.95147992903141 36.07574118620317, -78.9515178415025 36.075439032062675)" }, "geometry": { "type": "LineString", "coordinates": [ [ -78.951479929031407, 36.075741186203167 ], [ -78.951517841502493, 36.075439032062675 ] ] } },
{ "type": "Feature", "properties": { "FEEDER_NAME": "WILLOWHAVEN SOUTH", "SUBSTATION_NAME": "Bivins", "wmType": "SECONDARY OVERHEAD", "WKT": "LINESTRING (-78.9515178415025 36.075439032062675, -78.9515444287127 36.07530318542284)" }, "geometry": { "type": "LineString", "coordinates": [ [ -78.951517841502493, 36.075439032062675 ], [ -78.951544428712694, 36.07530318542284 ] ] } },
{ "type": "Feature", "properties": { "FEEDER_NAME": "WILLOWHAVEN SOUTH", "SUBSTATION_NAME": "Bivins", "wmType": "SECONDARY OVERHEAD", "WKT": "LINESTRING (-78.95147992903141 36.07574118620317, -78.95136099369496 36.07577844145161)" }, "geometry": { "type": "LineString", "coordinates": [ [ -78.951479929031407, 36.075741186203167 ], [ -78.951360993694962, 36.075778441451611 ] ] } },
{ "type": "Feature", "properties": { "FEEDER_NAME": "WILLOWHAVEN SOUTH", "SUBSTATION_NAME": "Bivins", "wmType": "SECONDARY OVERHEAD", "WKT": "LINESTRING (-78.95186703772542 36.075860202480754, -78.95192749942723 36.0757561226477)" }, "geometry": { "type": "LineString", "coordinates": [ [ -78.951867037725421, 36.075860202480754 ], [ -78.951927499427228, 36.075756122647697 ] ] } },
{ "type": "Feature", "properties": { "FEEDER_NAME": "WILLOWHAVEN SOUTH", "SUBSTATION_NAME": "Bivins", "wmType": "SECONDARY OVERHEAD", "WKT": "LINESTRING (-78.95035204568559 36.07691842685632, -78.95030434475822 36.076920375796945, -78.95018986012384 36.07684990422644)" }, "geometry": { "type": "LineString", "coordinates": [ [ -78.950352045685591, 36.076918426856317 ], [ -78.950304344758223, 36.076920375796945 ], [ -78.950189860123842, 36.076849904226442 ] ] } },
{ "type": "Feature", "properties": { "FEEDER_NAME": "WILLOWHAVEN SOUTH", "SUBSTATION_NAME": "Bivins", "wmType": "SECONDARY OVERHEAD", "WKT": "LINESTRING (-78.95018986012384 36.07684990422644, -78.95040923231784 36.07636957271432)" }, "geometry": { "type": "LineString", "coordinates": [ [ -78.950189860123842, 36.076849904226442 ], [ -78.950409232317838, 36.07636957271432 ] ] } },
{ "type": "Feature", "properties": { "FEEDER_NAME": "WILLOWHAVEN SOUTH", "SUBSTATION_NAME": "Bivins", "wmType": "SECONDARY OVERHEAD", "WKT": "LINESTRING (-78.94777942887025 36.07750798625914, -78.9479070748467 36.07739659562413)" }, "geometry": { "type": "LineString", "coordinates": [ [ -78.947779428870248, 36.077507986259143 ], [ -78.947907074846697, 36.07739659562413 ] ] } },
{ "type": "Feature", "properties": { "FEEDER_NAME": "WILLOWHAVEN SOUTH", "SUBSTATION_NAME": "Bivins", "wmType": "SECONDARY OVERHEAD", "WKT": "LINESTRING (-78.94659355212794 36.07855251355253, -78.94678870031119 36.078596229606624)" }, "geometry": { "type": "LineString", "coordinates": [ [ -78.946593552127936, 36.07855251355253 ], [ -78.946788700311188, 36.078596229606624 ] ] } },
{ "type": "Feature", "properties": { "FEEDER_NAME": "WILLOWHAVEN SOUTH", "SUBSTATION_NAME": "Bivins", "wmType": "SECONDARY OVERHEAD", "WKT": "LINESTRING (-78.94598418213847 36.079339479887636, -78.94618632622088 36.079488156916376)" }, "geometry": { "type": "LineString", "coordinates": [ [ -78.945984182138474, 36.079339479887636 ], [ -78.946186326220882, 36.079488156916376 ] ] } },
{ "type": "Feature", "properties": { "FEEDER_NAME": "WILLOWHAVEN SOUTH", "SUBSTATION_NAME": "Bivins", "wmType": "SECONDARY OVERHEAD", "WKT": "LINESTRING (-78.94618632622088 36.079488156916376, -78.94640236450464 36.07958015692877)" }, "geometry": { "type": "LineString", "coordinates": [ [ -78.946186326220882, 36.079488156916376 ], [ -78.946402364504635, 36.07958015692877 ] ] } },
{ "type": "Feature", "properties": { "FEEDER_NAME": "WILLOWHAVEN SOUTH", "SUBSTATION_NAME": "Bivins", "wmType": "SECONDARY OVERHEAD", "WKT": "LINESTRING (-78.94749329089485 36.07869343943044, -78.94773485252942 36.07835934391597)" }, "geometry": { "type": "LineString", "coordinates": [ [ -78.947493290894855, 36.078693439430438 ], [ -78.947734852529422, 36.07835934391597 ] ] } },
{ "type": "Feature", "properties": { "FEEDER_NAME": "WILLOWHAVEN SOUTH", "SUBSTATION_NAME": "Bivins", "wmType": "SECONDARY OVERHEAD", "WKT": "LINESTRING (-78.94907810455035 36.07837383754588, -78.94899504230528 36.07861422757338)" }, "geometry": { "type": "LineString", "coordinates": [ [ -78.949078104550352, 36.078373837545882 ], [ -78.948995042305285, 36.078614227573382 ] ] } },
{ "type": "Feature", "properties": { "FEEDER_NAME": "WILLOWHAVEN SOUTH", "SUBSTATION_NAME": "Bivins", "wmType": "SECONDARY OVERHEAD", "WKT": "LINESTRING (-78.94803650374621 36.078140454128366, -78.94829497099927 36.0782962084009)" }, "geometry": { "type": "LineString", "coordinates": [ [ -78.948036503746209, 36.078140454128366 ], [ -78.948294970999271, 36.0782962084009 ] ] } },
{ "type": "Feature", "properties": { "FEEDER_NAME": "WILLOWHAVEN SOUTH", "SUBSTATION_NAME": "Bivins", "wmType": "SECONDARY OVERHEAD", "WKT": "LINESTRING (-78.94844675075491 36.076007887674955, -78.94883335834307 36.07597564581866)" }, "geometry": { "type": "LineString", "coordinates": [ [ -78.948446750754911, 36.076007887674955 ], [ -78.948833358343066, 36.075975645818659 ] ] } },
{ "type": "Feature", "properties": { "FEEDER_NAME": "WILLOWHAVEN SOUTH", "SUBSTATION_NAME": "Bivins", "wmType": "SECONDARY OVERHEAD", "WKT": "LINESTRING (-78.94883335834307 36.07597564581866, -78.9490816615269 36.075935302526396)" }, "geometry": { "type": "LineString", "coordinates": [ [ -78.948833358343066, 36.075975645818659 ], [ -78.949081661526904, 36.075935302526396 ] ] } },
{ "type": "Feature", "properties": { "FEEDER_NAME": "WILLOWHAVEN SOUTH", "SUBSTATION_NAME": "Bivins", "wmType": "SECONDARY OVERHEAD", "WKT": "LINESTRING (-78.95239255111562 36.07585908968106, -78.9523439221455 36.07587520300971, -78.95172179879997 36.07641628400867)" }, "geometry": { "type": "LineString", "coordinates": [ [ -78.952392551115622, 36.07585908968106 ], [ -78.952343922145502, 36.075875203009709 ], [ -78.951721798799966, 36.076416284008673 ] ] } },
{ "type": "Feature", "properties": { "FEEDER_NAME": "WILLOWHAVEN SOUTH", "SUBSTATION_NAME": "Bivins", "wmType": "SECONDARY OVERHEAD", "WKT": "LINESTRING (-78.95172179879997 36.07641628400867, -78.95196276822594 36.076312176176536)" }, "geometry": { "type": "LineString", "coordinates": [ [ -78.951721798799966, 36.076416284008673 ], [ -78.95196276822594, 36.076312176176536 ] ] } },
{ "type": "Feature", "properties": { "FEEDER_NAME": "WILLOWHAVEN SOUTH", "SUBSTATION_NAME": "Bivins", "wmType": "SECONDARY OVERHEAD", "WKT": "LINESTRING (-78.95239255111562 36.07585908968106, -78.95273375671931 36.07569211244307)" }, "geometry": { "type": "LineString", "coordinates": [ [ -78.952392551115622, 36.07585908968106 ], [ -78.952733756719311, 36.075692112443072 ] ] } },
{ "type": "Feature", "properties": { "FEEDER_NAME": "WILLOWHAVEN SOUTH", "SUBSTATION_NAME": "Bivins", "wmType": "SECONDARY OVERHEAD", "WKT": "LINESTRING (-78.952969384031 36.07605369051978, -78.95251942070342 36.076302119397475)" }, "geometry": { "type": "LineString", "coordinates": [ [ -78.952969384030993, 36.076053690519778 ], [ -78.952519420703425, 36.076302119397475 ] ] } },
{ "type": "Feature", "properties": { "FEEDER_NAME": "WILLOWHAVEN SOUTH", "SUBSTATION_NAME": "Bivins", "wmType": "SECONDARY OVERHEAD", "WKT": "LINESTRING (-78.95251942070342 36.076302119397475, -78.95258703739928 36.07642013559219)" }, "geometry": { "type": "LineString", "coordinates": [ [ -78.952519420703425, 36.076302119397475 ], [ -78.952587037399283, 36.076420135592187 ] ] } },
{ "type": "Feature", "properties": { "FEEDER_NAME": "WILLOWHAVEN SOUTH", "SUBSTATION_NAME": "Bivins", "wmType": "SECONDARY OVERHEAD", "WKT": "LINESTRING (-78.95354485493745 36.08049354826835, -78.95377615699168 36.08031252674045)" }, "geometry": { "type": "LineString", "coordinates": [ [ -78.953544854937448, 36.08049354826835 ], [ -78.95377615699168, 36.08031252674045 ] ] } },
{ "type": "Feature", "properties": { "FEEDER_NAME": "WILLOWHAVEN SOUTH", "SUBSTATION_NAME": "Bivins", "wmType": "SECONDARY OVERHEAD", "WKT": "LINESTRING (-78.95355925961688 36.07980911320783, -78.95331474504077 36.07972460521162)" }, "geometry": { "type": "LineString", "coordinates": [ [ -78.953559259616881, 36.07980911320783 ], [ -78.953314745040771, 36.079724605211617 ] ] } },
{ "type": "Feature", "properties": { "FEEDER_NAME": "WILLOWHAVEN SOUTH", "SUBSTATION_NAME": "Bivins", "wmType": "SECONDARY OVERHEAD", "WKT": "LINESTRING (-78.95355925961688 36.07980911320783, -78.95373287042469 36.07967103293011)" }, "geometry": { "type": "LineString", "coordinates": [ [ -78.953559259616881, 36.07980911320783 ], [ -78.953732870424687, 36.079671032930108 ] ] } },
{ "type": "Feature", "properties": { "FEEDER_NAME": "WILLOWHAVEN SOUTH", "SUBSTATION_NAME": "Bivins", "wmType": "SECONDARY OVERHEAD", "WKT": "LINESTRING (-78.95355943266951 36.07915628994937, -78.95374336755235 36.07901178587486)" }, "geometry": { "type": "LineString", "coordinates": [ [ -78.953559432669508, 36.079156289949367 ], [ -78.953743367552349, 36.079011785874862 ] ] } },
{ "type": "Feature", "properties": { "FEEDER_NAME": "WILLOWHAVEN SOUTH", "SUBSTATION_NAME": "Bivins", "wmType": "SECONDARY OVERHEAD", "WKT": "LINESTRING (-78.95356876620612 36.07852072158702, -78.95342532711838 36.07874278922047)" }, "geometry": { "type": "LineString", "coordinates": [ [ -78.953568766206118, 36.078520721587019 ], [ -78.953425327118381, 36.07874278922047 ] ] } },
{ "type": "Feature", "properties": { "FEEDER_NAME": "WILLOWHAVEN SOUTH", "SUBSTATION_NAME": "Bivins", "wmType": "SECONDARY OVERHEAD", "WKT": "LINESTRING (-78.95356876620612 36.07852072158702, -78.95346739088012 36.078212882362166)" }, "geometry": { "type": "LineString", "coordinates": [ [ -78.953568766206118, 36.078520721587019 ], [ -78.953467390880121, 36.078212882362166 ] ] } },
{ "type": "Feature", "properties": { "FEEDER_NAME": "WILLOWHAVEN SOUTH", "SUBSTATION_NAME": "Bivins", "wmType": "SECONDARY OVERHEAD", "WKT": "LINESTRING (-78.95356876620612 36.07852072158702, -78.95374060685819 36.07833797403789)" }, "geometry": { "type": "LineString", "coordinates": [ [ -78.953568766206118, 36.078520721587019 ], [ -78.95374060685819, 36.078337974037893 ] ] } },
{ "type": "Feature", "properties": { "FEEDER_NAME": "WILLOWHAVEN SOUTH", "SUBSTATION_NAME": "Bivins", "wmType": "SECONDARY OVERHEAD", "WKT": "LINESTRING (-78.95358237554966 36.07768764537798, -78.95379968770254 36.077694128302895)" }, "geometry": { "type": "LineString", "coordinates": [ [ -78.953582375549658, 36.077687645377978 ], [ -78.953799687702542, 36.077694128302895 ] ] } },
{ "type": "Feature", "properties": { "FEEDER_NAME": "WILLOWHAVEN SOUTH", "SUBSTATION_NAME": "Bivins", "wmType": "SECONDARY OVERHEAD", "WKT": "LINESTRING (-78.95358404174362 36.077439400287396, -78.95331232317504 36.07724761134988)" }, "geometry": { "type": "LineString", "coordinates": [ [ -78.953584041743625, 36.077439400287396 ], [ -78.953312323175041, 36.077247611349883 ] ] } },
{ "type": "Feature", "properties": { "FEEDER_NAME": "WILLOWHAVEN SOUTH", "SUBSTATION_NAME": "Bivins", "wmType": "SECONDARY OVERHEAD", "WKT": "LINESTRING (-78.95358363312108 36.07703281758453, -78.95382508409908 36.07707545941293)" }, "geometry": { "type": "LineString", "coordinates": [ [ -78.953583633121085, 36.077032817584531 ], [ -78.95382508409908, 36.077075459412931 ] ] } },
{ "type": "Feature", "properties": { "FEEDER_NAME": "WILLOWHAVEN SOUTH", "SUBSTATION_NAME": "Bivins", "wmType": "SECONDARY OVERHEAD", "WKT": "LINESTRING (-78.95359470042382 36.07644144811842, -78.95384460332293 36.076434455314775)" }, "geometry": { "type": "LineString", "coordinates": [ [ -78.953594700423821, 36.076441448118423 ], [ -78.953844603322935, 36.076434455314775 ] ] } },
{ "type": "Feature", "properties": { "FEEDER_NAME": "WILLOWHAVEN SOUTH", "SUBSTATION_NAME": "Bivins", "wmType": "SECONDARY OVERHEAD", "WKT": "LINESTRING (-78.95663273686179 36.0761382510247, -78.95661787261683 36.07640827557442)" }, "geometry": { "type": "LineString", "coordinates": [ [ -78.956632736861792, 36.076138251024702 ], [ -78.956617872616832, 36.076408275574423 ] ] } },
{ "type": "Feature", "properties": { "FEEDER_NAME": "WILLOWHAVEN SOUTH", "SUBSTATION_NAME": "Bivins", "wmType": "SECONDARY OVERHEAD", "WKT": "LINESTRING (-78.95661787261683 36.07640827557442, -78.95679239569371 36.07659104834245)" }, "geometry": { "type": "LineString", "coordinates": [ [ -78.956617872616832, 36.076408275574423 ], [ -78.956792395693711, 36.076591048342451 ] ] } },
{ "type": "Feature", "properties": { "FEEDER_NAME": "WILLOWHAVEN SOUTH", "SUBSTATION_NAME": "Bivins", "wmType": "SECONDARY OVERHEAD", "WKT": "LINESTRING (-78.95661787261683 36.07640827557442, -78.95689732498974 36.07663818798142)" }, "geometry": { "type": "LineString", "coordinates": [ [ -78.956617872616832, 36.076408275574423 ], [ -78.95689732498974, 36.076638187981423 ] ] } },
{ "type": "Feature", "properties": { "FEEDER_NAME": "WILLOWHAVEN SOUTH", "SUBSTATION_NAME": "Bivins", "wmType": "SECONDARY OVERHEAD", "WKT": "LINESTRING (-78.96450103218672 36.07782203227604, -78.9648080851982 36.077721565694986)" }, "geometry": { "type": "LineString", "coordinates": [ [ -78.964501032186718, 36.077822032276039 ], [ -78.9648080851982, 36.077721565694986 ] ] } },
{ "type": "Feature", "properties": { "FEEDER_NAME": "WILLOWHAVEN SOUTH", "SUBSTATION_NAME": "Bivins", "wmType": "SECONDARY OVERHEAD", "WKT": "LINESTRING (-78.9648080851982 36.077721565694986, -78.96518692649582 36.07765287681331)" }, "geometry": { "type": "LineString", "coordinates": [ [ -78.9648080851982, 36.077721565694986 ], [ -78.965186926495818, 36.07765287681331 ] ] } },
{ "type": "Feature", "properties": { "FEEDER_NAME": "WILLOWHAVEN SOUTH", "SUBSTATION_NAME": "Bivins", "wmType": "SECONDARY OVERHEAD", "WKT": "LINESTRING (-78.96450054702693 36.07807656848524, -78.96416263087562 36.07783910225926)" }, "geometry": { "type": "LineString", "coordinates": [ [ -78.96450054702693, 36.078076568485237 ], [ -78.96416263087562, 36.077839102259261 ] ] } },
{ "type": "Feature", "properties": { "FEEDER_NAME": "WILLOWHAVEN SOUTH", "SUBSTATION_NAME": "Bivins", "wmType": "SECONDARY OVERHEAD", "WKT": "LINESTRING (-78.96416263087562 36.07783910225926, -78.9641555647213 36.07798558557716)" }, "geometry": { "type": "LineString", "coordinates": [ [ -78.96416263087562, 36.077839102259261 ], [ -78.964155564721295, 36.07798558557716 ] ] } },
{ "type": "Feature", "properties": { "FEEDER_NAME": "WILLOWHAVEN SOUTH", "SUBSTATION_NAME": "Bivins", "wmType": "SECONDARY OVERHEAD", "WKT": "LINESTRING (-78.964467756972 36.07853698247848, -78.96470739487606 36.07841563549772)" }, "geometry": { "type": "LineString", "coordinates": [ [ -78.964467756971999, 36.078536982478482 ], [ -78.964707394876058, 36.07841563549772 ] ] } },
{ "type": "Feature", "properties": { "FEEDER_NAME": "WILLOWHAVEN SOUTH", "SUBSTATION_NAME": "Bivins", "wmType": "SECONDARY OVERHEAD", "WKT": "LINESTRING (-78.96470739487606 36.07841563549772, -78.96504586419088 36.07840323337068)" }, "geometry": { "type": "LineString", "coordinates": [ [ -78.964707394876058, 36.07841563549772 ], [ -78.965045864190884, 36.078403233370679 ] ] } },
{ "type": "Feature", "properties": { "FEEDER_NAME": "WILLOWHAVEN SOUTH", "SUBSTATION_NAME": "Bivins", "wmType": "SECONDARY OVERHEAD", "WKT": "LINESTRING (-78.96512856445469 36.079113959200356, -78.96561387705133 36.07907995213832)" }, "geometry": { "type": "LineString", "coordinates": [ [ -78.965128564454687, 36.079113959200356 ], [ -78.965613877051325, 36.079079952138322 ] ] } },
{ "type": "Feature", "properties": { "FEEDER_NAME": "WILLOWHAVEN SOUTH", "SUBSTATION_NAME": "Bivins", "wmType": "SECONDARY OVERHEAD", "WKT": "LINESTRING (-78.96512856445469 36.079113959200356, -78.96492054110574 36.0791793434558)" }, "geometry": { "type": "LineString", "coordinates": [ [ -78.965128564454687, 36.079113959200356 ], [ -78.964920541105741, 36.079179343455799 ] ] } },
{ "type": "Feature", "properties": { "FEEDER_NAME": "WILLOWHAVEN SOUTH", "SUBSTATION_NAME": "Bivins", "wmType": "SECONDARY OVERHEAD", "WKT": "LINESTRING (-78.96441914355175 36.079271514706384, -78.9642719717518 36.079275290363306)" }, "geometry": { "type": "LineString", "coordinates": [ [ -78.964419143551751, 36.079271514706384 ], [ -78.964271971751799, 36.079275290363306 ] ] } },
{ "type": "Feature", "properties": { "FEEDER_NAME": "WILLOWHAVEN SOUTH", "SUBSTATION_NAME": "Bivins", "wmType": "SECONDARY OVERHEAD", "WKT": "LINESTRING (-78.9642719717518 36.079275290363306, -78.96401102893611 36.07928397663223)" }, "geometry": { "type": "LineString", "coordinates": [ [ -78.964271971751799, 36.079275290363306 ], [ -78.964011028936113, 36.079283976632233 ] ] } },
{ "type": "Feature", "properties": { "FEEDER_NAME": "WILLOWHAVEN SOUTH", "SUBSTATION_NAME": "Bivins", "wmType": "SECONDARY OVERHEAD", "WKT": "LINESTRING (-78.96401102893611 36.07928397663223, -78.96402200061107 36.07922100011007)" }, "geometry": { "type": "LineString", "coordinates": [ [ -78.964011028936113, 36.079283976632233 ], [ -78.964022000611067, 36.079221000110067 ] ] } },
{ "type": "Feature", "properties": { "FEEDER_NAME": "WILLOWHAVEN SOUTH", "SUBSTATION_NAME": "Bivins", "wmType": "SECONDARY OVERHEAD", "WKT": "LINESTRING (-78.96436139660568 36.080839014603946, -78.96433453999101 36.08065745782818)" }, "geometry": { "type": "LineString", "coordinates": [ [ -78.964361396605682, 36.080839014603946 ], [ -78.964334539991015, 36.080657457828181 ] ] } },
{ "type": "Feature", "properties": { "FEEDER_NAME": "WILLOWHAVEN SOUTH", "SUBSTATION_NAME": "Bivins", "wmType": "SECONDARY OVERHEAD", "WKT": "LINESTRING (-78.96433453999101 36.08065745782818, -78.96387509759772 36.08065616037003)" }, "geometry": { "type": "LineString", "coordinates": [ [ -78.964334539991015, 36.080657457828181 ], [ -78.963875097597722, 36.080656160370033 ] ] } },
{ "type": "Feature", "properties": { "FEEDER_NAME": "WILLOWHAVEN SOUTH", "SUBSTATION_NAME": "Bivins", "wmType": "SECONDARY OVERHEAD", "WKT": "LINESTRING (-78.96387509759772 36.08065616037003, -78.96399515189962 36.08064479235607)" }, "geometry": { "type": "LineString", "coordinates": [ [ -78.963875097597722, 36.080656160370033 ], [ -78.963995151899624, 36.080644792356068 ] ] } },
{ "type": "Feature", "properties": { "FEEDER_NAME": "WILLOWHAVEN SOUTH", "SUBSTATION_NAME": "Bivins", "wmType": "SECONDARY OVERHEAD", "WKT": "LINESTRING (-78.96436139660568 36.080839014603946, -78.9638658158729 36.080955808959125)" }, "geometry": { "type": "LineString", "coordinates": [ [ -78.964361396605682, 36.080839014603946 ], [ -78.963865815872893, 36.080955808959125 ] ] } },
{ "type": "Feature", "properties": { "FEEDER_NAME": "WILLOWHAVEN SOUTH", "SUBSTATION_NAME": "Bivins", "wmType": "SECONDARY OVERHEAD", "WKT": "LINESTRING (-78.9638658158729 36.080955808959125, -78.96384608228598 36.08089869681588)" }, "geometry": { "type": "LineString", "coordinates": [ [ -78.963865815872893, 36.080955808959125 ], [ -78.963846082285983, 36.080898696815879 ] ] } },
{ "type": "Feature", "properties": { "FEEDER_NAME": "WILLOWHAVEN SOUTH", "SUBSTATION_NAME": "Bivins", "wmType": "SECONDARY OVERHEAD", "WKT": "LINESTRING (-78.9638658158729 36.080955808959125, -78.96394130605805 36.08095197212207)" }, "geometry": { "type": "LineString", "coordinates": [ [ -78.963865815872893, 36.080955808959125 ], [ -78.963941306058047, 36.080951972122072 ] ] } },
{ "type": "Feature", "properties": { "FEEDER_NAME": "WILLOWHAVEN SOUTH", "SUBSTATION_NAME": "Bivins", "wmType": "SECONDARY OVERHEAD", "WKT": "LINESTRING (-78.96424758745513 36.08305701139083, -78.96395592655317 36.08309010948571)" }, "geometry": { "type": "LineString", "coordinates": [ [ -78.964247587455134, 36.083057011390828 ], [ -78.963955926553169, 36.08309010948571 ] ] } },
{ "type": "Feature", "properties": { "FEEDER_NAME": "WILLOWHAVEN SOUTH", "SUBSTATION_NAME": "Bivins", "wmType": "SECONDARY OVERHEAD", "WKT": "LINESTRING (-78.96395592655317 36.08309010948571, -78.96394883633556 36.08297830209103)" }, "geometry": { "type": "LineString", "coordinates": [ [ -78.963955926553169, 36.08309010948571 ], [ -78.963948836335561, 36.082978302091028 ] ] } },
{ "type": "Feature", "properties": { "FEEDER_NAME": "WILLOWHAVEN SOUTH", "SUBSTATION_NAME": "Bivins", "wmType": "SECONDARY OVERHEAD", "WKT": "LINESTRING (-78.96401801291886 36.08357414751469, -78.96427801390703 36.083662594038266)" }, "geometry": { "type": "LineString", "coordinates": [ [ -78.964018012918856, 36.083574147514689 ], [ -78.964278013907034, 36.083662594038266 ] ] } },
{ "type": "Feature", "properties": { "FEEDER_NAME": "WILLOWHAVEN SOUTH", "SUBSTATION_NAME": "Bivins", "wmType": "SECONDARY OVERHEAD", "WKT": "LINESTRING (-78.96401801291886 36.08357414751469, -78.96418734843917 36.08405002999298)" }, "geometry": { "type": "LineString", "coordinates": [ [ -78.964018012918856, 36.083574147514689 ], [ -78.964187348439168, 36.08405002999298 ] ] } },
{ "type": "Feature", "properties": { "FEEDER_NAME": "WILLOWHAVEN SOUTH", "SUBSTATION_NAME": "Bivins", "wmType": "SECONDARY OVERHEAD", "WKT": "LINESTRING (-78.96492425449293 36.086191882349375, -78.96511948627177 36.08624923543219)" }, "geometry": { "type": "LineString", "coordinates": [ [ -78.964924254492928, 36.086191882349375 ], [ -78.965119486271774, 36.086249235432192 ] ] } },
{ "type": "Feature", "properties": { "FEEDER_NAME": "WILLOWHAVEN SOUTH", "SUBSTATION_NAME": "Bivins", "wmType": "SECONDARY OVERHEAD", "WKT": "LINESTRING (-78.96068335874838 36.0860497764514, -78.96082127414174 36.08617835289016)" }, "geometry": { "type": "LineString", "coordinates": [ [ -78.960683358748383, 36.086049776451397 ], [ -78.960821274141736, 36.086178352890158 ] ] } },
{ "type": "Feature", "properties": { "FEEDER_NAME": "WILLOWHAVEN SOUTH", "SUBSTATION_NAME": "Bivins", "wmType": "SECONDARY OVERHEAD", "WKT": "LINESTRING (-78.96082127414174 36.08617835289016, -78.96095785570026 36.08619852486644)" }, "geometry": { "type": "LineString", "coordinates": [ [ -78.960821274141736, 36.086178352890158 ], [ -78.960957855700258, 36.08619852486644 ] ] } },
{ "type": "Feature", "properties": { "FEEDER_NAME": "WILLOWHAVEN SOUTH", "SUBSTATION_NAME": "Bivins", "wmType": "SECONDARY OVERHEAD", "WKT": "LINESTRING (-78.96031467091984 36.08626590005118, -78.96030008452267 36.08629071727434, -78.96039781506417 36.08667370660942, -78.96040541502629 36.08670815716768)" }, "geometry": { "type": "LineString", "coordinates": [ [ -78.960314670919843, 36.086265900051181 ], [ -78.960300084522672, 36.086290717274338 ], [ -78.960397815064169, 36.086673706609417 ], [ -78.960405415026287, 36.086708157167678 ] ] } },
{ "type": "Feature", "properties": { "FEEDER_NAME": "WILLOWHAVEN SOUTH", "SUBSTATION_NAME": "Bivins", "wmType": "SECONDARY OVERHEAD", "WKT": "LINESTRING (-78.96040541502629 36.08670815716768, -78.96058537305389 36.08690219007878)" }, "geometry": { "type": "LineString", "coordinates": [ [ -78.960405415026287, 36.086708157167678 ], [ -78.960585373053888, 36.086902190078781 ] ] } },
{ "type": "Feature", "properties": { "FEEDER_NAME": "WILLOWHAVEN SOUTH", "SUBSTATION_NAME": "Bivins", "wmType": "SECONDARY OVERHEAD", "WKT": "LINESTRING (-78.96040541502629 36.08670815716768, -78.96006570119397 36.086787279230286)" }, "geometry": { "type": "LineString", "coordinates": [ [ -78.960405415026287, 36.086708157167678 ], [ -78.960065701193969, 36.086787279230286 ] ] } },
{ "type": "Feature", "properties": { "FEEDER_NAME": "WILLOWHAVEN SOUTH", "SUBSTATION_NAME": "Bivins", "wmType": "SECONDARY OVERHEAD", "WKT": "LINESTRING (-78.95209589230734 36.08928658987348, -78.95238124155397 36.0893284277723)" }, "geometry": { "type": "LineString", "coordinates": [ [ -78.952095892307341, 36.089286589873481 ], [ -78.952381241553965, 36.089328427772301 ] ] } },
{ "type": "Feature", "properties": { "FEEDER_NAME": "WILLOWHAVEN SOUTH", "SUBSTATION_NAME": "Bivins", "wmType": "SECONDARY OVERHEAD", "WKT": "LINESTRING (-78.9521975499881 36.088960974997875, -78.95262590872694 36.08902756389895)" }, "geometry": { "type": "LineString", "coordinates": [ [ -78.952197549988099, 36.088960974997875 ], [ -78.952625908726944, 36.089027563898952 ] ] } },
{ "type": "Feature", "properties": { "FEEDER_NAME": "WILLOWHAVEN SOUTH", "SUBSTATION_NAME": "Bivins", "wmType": "SECONDARY OVERHEAD", "WKT": "LINESTRING (-78.95262590872694 36.08902756389895, -78.95267889569489 36.08885314686026)" }, "geometry": { "type": "LineString", "coordinates": [ [ -78.952625908726944, 36.089027563898952 ], [ -78.952678895694888, 36.088853146860259 ] ] } },
{ "type": "Feature", "properties": { "FEEDER_NAME": "WILLOWHAVEN SOUTH", "SUBSTATION_NAME": "Bivins", "wmType": "SECONDARY OVERHEAD", "WKT": "LINESTRING (-78.95412140520303 36.08719155570323, -78.95378363665269 36.08727383790323)" }, "geometry": { "type": "LineString", "coordinates": [ [ -78.954121405203026, 36.087191555703228 ], [ -78.953783636652688, 36.087273837903233 ] ] } },
{ "type": "Feature", "properties": { "FEEDER_NAME": "WILLOWHAVEN SOUTH", "SUBSTATION_NAME": "Bivins", "wmType": "SECONDARY OVERHEAD", "WKT": "LINESTRING (-78.95486172926925 36.087005805348504, -78.9547658549332 36.08724104941321)" }, "geometry": { "type": "LineString", "coordinates": [ [ -78.954861729269254, 36.087005805348504 ], [ -78.9547658549332, 36.087241049413208 ] ] } },
{ "type": "Feature", "properties": { "FEEDER_NAME": "WILLOWHAVEN SOUTH", "SUBSTATION_NAME": "Bivins", "wmType": "SECONDARY OVERHEAD", "WKT": "LINESTRING (-78.95644992684024 36.089262779367346, -78.95661384207891 36.089173644695705)" }, "geometry": { "type": "LineString", "coordinates": [ [ -78.956449926840236, 36.089262779367346 ], [ -78.956613842078909, 36.089173644695705 ] ] } },
{ "type": "Feature", "properties": { "FEEDER_NAME": "WILLOWHAVEN SOUTH", "SUBSTATION_NAME": "Bivins", "wmType": "SECONDARY OVERHEAD", "WKT": "LINESTRING (-78.95610993631509 36.09048949983413, -78.95589333716937 36.090468067066986)" }, "geometry": { "type": "LineString", "coordinates": [ [ -78.956109936315087, 36.090489499834128 ], [ -78.955893337169371, 36.090468067066986 ] ] } },
{ "type": "Feature", "properties": { "FEEDER_NAME": "WILLOWHAVEN SOUTH", "SUBSTATION_NAME": "Bivins", "wmType": "SECONDARY OVERHEAD", "WKT": "LINESTRING (-78.95589333716937 36.090468067066986, -78.95559169193061 36.090199989921075)" }, "geometry": { "type": "LineString", "coordinates": [ [ -78.955893337169371, 36.090468067066986 ], [ -78.955591691930607, 36.090199989921075 ] ] } },
{ "type": "Feature", "properties": { "FEEDER_NAME": "WILLOWHAVEN SOUTH", "SUBSTATION_NAME": "Bivins", "wmType": "SECONDARY OVERHEAD", "WKT": "LINESTRING (-78.95614485557586 36.09110591351731, -78.95580029241104 36.09128166163884)" }, "geometry": { "type": "LineString", "coordinates": [ [ -78.956144855575857, 36.09110591351731 ], [ -78.955800292411041, 36.091281661638838 ] ] } },
{ "type": "Feature", "properties": { "FEEDER_NAME": "WILLOWHAVEN SOUTH", "SUBSTATION_NAME": "Bivins", "wmType": "SECONDARY OVERHEAD", "WKT": "LINESTRING (-78.95614485557586 36.09110591351731, -78.95674048113827 36.09110033517911)" }, "geometry": { "type": "LineString", "coordinates": [ [ -78.956144855575857, 36.09110591351731 ], [ -78.956740481138269, 36.091100335179107 ] ] } },
{ "type": "Feature", "properties": { "FEEDER_NAME": "WILLOWHAVEN SOUTH", "SUBSTATION_NAME": "Bivins", "wmType": "SECONDARY OVERHEAD", "WKT": "LINESTRING (-78.95381571579944 36.08899359884892, -78.95421187339588 36.089147744337865)" }, "geometry": { "type": "LineString", "coordinates": [ [ -78.953815715799436, 36.088993598848923 ], [ -78.954211873395877, 36.089147744337865 ] ] } },
{ "type": "Feature", "properties": { "FEEDER_NAME": "WILLOWHAVEN SOUTH", "SUBSTATION_NAME": "Bivins", "wmType": "SECONDARY OVERHEAD", "WKT": "LINESTRING (-78.95416473865158 36.08972483958721, -78.95394654731817 36.08971940156085)" }, "geometry": { "type": "LineString", "coordinates": [ [ -78.954164738651585, 36.089724839587213 ], [ -78.953946547318168, 36.089719401560849 ] ] } },
{ "type": "Feature", "properties": { "FEEDER_NAME": "WILLOWHAVEN SOUTH", "SUBSTATION_NAME": "Bivins", "wmType": "SECONDARY OVERHEAD", "WKT": "LINESTRING (-78.95416473865158 36.08972483958721, -78.95456556486702 36.08971221588434)" }, "geometry": { "type": "LineString", "coordinates": [ [ -78.954164738651585, 36.089724839587213 ], [ -78.954565564867025, 36.08971221588434 ] ] } },
{ "type": "Feature", "properties": { "FEEDER_NAME": "WILLOWHAVEN SOUTH", "SUBSTATION_NAME": "Bivins", "wmType": "SECONDARY OVERHEAD", "WKT": "LINESTRING (-78.95448436863465 36.09071467496846, -78.95457630970087 36.09058325990235)" }, "geometry": { "type": "LineString", "coordinates": [ [ -78.954484368634652, 36.09071467496846 ], [ -78.954576309700869, 36.090583259902353 ] ] } },
{ "type": "Feature", "properties": { "FEEDER_NAME": "WILLOWHAVEN SOUTH", "SUBSTATION_NAME": "Bivins", "wmType": "SECONDARY OVERHEAD", "WKT": "LINESTRING (-78.95512427911495 36.091815922725914, -78.95499790678392 36.091381413701384)" }, "geometry": { "type": "LineString", "coordinates": [ [ -78.955124279114955, 36.091815922725914 ], [ -78.954997906783916, 36.091381413701384 ] ] } },
{ "type": "Feature", "properties": { "FEEDER_NAME": "WILLOWHAVEN SOUTH", "SUBSTATION_NAME": "Bivins", "wmType": "SECONDARY OVERHEAD", "WKT": "LINESTRING (-78.95649187933888 36.09181576435995, -78.95653636585271 36.09144457369662)" }, "geometry": { "type": "LineString", "coordinates": [ [ -78.956491879338884, 36.09181576435995 ], [ -78.956536365852713, 36.09144457369662 ] ] } },
{ "type": "Feature", "properties": { "FEEDER_NAME": "WILLOWHAVEN SOUTH", "SUBSTATION_NAME": "Bivins", "wmType": "SECONDARY OVERHEAD", "WKT": "LINESTRING (-78.95653636585271 36.09144457369662, -78.95645369958162 36.0914308274465)" }, "geometry": { "type": "LineString", "coordinates": [ [ -78.956536365852713, 36.09144457369662 ], [ -78.956453699581616, 36.091430827446501 ] ] } },
{ "type": "Feature", "properties": { "FEEDER_NAME": "WILLOWHAVEN SOUTH", "SUBSTATION_NAME": "Bivins", "wmType": "SECONDARY OVERHEAD", "WKT": "LINESTRING (-78.95653636585271 36.09144457369662, -78.95688894157982 36.09148722160252)" }, "geometry": { "type": "LineString", "coordinates": [ [ -78.956536365852713, 36.09144457369662 ], [ -78.95688894157982, 36.09148722160252 ] ] } },
{ "type": "Feature", "properties": { "FEEDER_NAME": "WILLOWHAVEN SOUTH", "SUBSTATION_NAME": "Bivins", "wmType": "SECONDARY OVERHEAD", "WKT": "LINESTRING (-78.95794843530668 36.09278979189474, -78.95800973172257 36.092505998760906)" }, "geometry": { "type": "LineString", "coordinates": [ [ -78.957948435306676, 36.092789791894738 ], [ -78.958009731722569, 36.092505998760906 ] ] } },
{ "type": "Feature", "properties": { "FEEDER_NAME": "WILLOWHAVEN SOUTH", "SUBSTATION_NAME": "Bivins", "wmType": "SECONDARY OVERHEAD", "WKT": "LINESTRING (-78.95794843530668 36.09278979189474, -78.95806946154332 36.09274161902906)" }, "geometry": { "type": "LineString", "coordinates": [ [ -78.957948435306676, 36.092789791894738 ], [ -78.958069461543317, 36.092741619029063 ] ] } },
{ "type": "Feature", "properties": { "FEEDER_NAME": "WILLOWHAVEN SOUTH", "SUBSTATION_NAME": "Bivins", "wmType": "SECONDARY OVERHEAD", "WKT": "LINESTRING (-78.95794843530668 36.09278979189474, -78.95784479088339 36.09256734155368)" }, "geometry": { "type": "LineString", "coordinates": [ [ -78.957948435306676, 36.092789791894738 ], [ -78.957844790883385, 36.092567341553682 ] ] } },
{ "type": "Feature", "properties": { "FEEDER_NAME": "WILLOWHAVEN SOUTH", "SUBSTATION_NAME": "Bivins", "wmType": "SECONDARY OVERHEAD", "WKT": "LINESTRING (-78.95795337500735 36.09208867831362, -78.95815509338374 36.091797053690804)" }, "geometry": { "type": "LineString", "coordinates": [ [ -78.957953375007349, 36.092088678313623 ], [ -78.958155093383738, 36.091797053690804 ] ] } },
{ "type": "Feature", "properties": { "FEEDER_NAME": "WILLOWHAVEN SOUTH", "SUBSTATION_NAME": "Bivins", "wmType": "SECONDARY OVERHEAD", "WKT": "LINESTRING (-78.95815509338374 36.091797053690804, -78.95837654393408 36.091658819844795)" }, "geometry": { "type": "LineString", "coordinates": [ [ -78.958155093383738, 36.091797053690804 ], [ -78.958376543934079, 36.091658819844795 ] ] } },
{ "type": "Feature", "properties": { "FEEDER_NAME": "WILLOWHAVEN SOUTH", "SUBSTATION_NAME": "Bivins", "wmType": "SECONDARY OVERHEAD", "WKT": "LINESTRING (-78.96071065823928 36.09488284085179, -78.96059642602256 36.09509734173789)" }, "geometry": { "type": "LineString", "coordinates": [ [ -78.960710658239279, 36.094882840851788 ], [ -78.960596426022562, 36.09509734173789 ] ] } },
{ "type": "Feature", "properties": { "FEEDER_NAME": "WILLOWHAVEN SOUTH", "SUBSTATION_NAME": "Bivins", "wmType": "SECONDARY OVERHEAD", "WKT": "LINESTRING (-78.96442148366096 36.09891876106923, -78.96470380988099 36.098883759571756)" }, "geometry": { "type": "LineString", "coordinates": [ [ -78.964421483660956, 36.098918761069228 ], [ -78.964703809880987, 36.098883759571756 ] ] } },
{ "type": "Feature", "properties": { "FEEDER_NAME": "WILLOWHAVEN SOUTH", "SUBSTATION_NAME": "Bivins", "wmType": "SECONDARY OVERHEAD", "WKT": "LINESTRING (-78.96470380988099 36.098883759571756, -78.96486745343807 36.098901698006664)" }, "geometry": { "type": "LineString", "coordinates": [ [ -78.964703809880987, 36.098883759571756 ], [ -78.964867453438075, 36.098901698006664 ] ] } },
{ "type": "Feature", "properties": { "FEEDER_NAME": "WILLOWHAVEN SOUTH", "SUBSTATION_NAME": "Bivins", "wmType": "SECONDARY OVERHEAD", "WKT": "LINESTRING (-78.96508789295449 36.09962870104698, -78.96485935098474 36.099640540018925)" }, "geometry": { "type": "LineString", "coordinates": [ [ -78.965087892954486, 36.099628701046981 ], [ -78.964859350984739, 36.099640540018925 ] ] } },
{ "type": "Feature", "properties": { "FEEDER_NAME": "WILLOWHAVEN SOUTH", "SUBSTATION_NAME": "Bivins", "wmType": "SECONDARY OVERHEAD", "WKT": "LINESTRING (-78.96485935098474 36.099640540018925, -78.96444901245121 36.09947118031154)" }, "geometry": { "type": "LineString", "coordinates": [ [ -78.964859350984739, 36.099640540018925 ], [ -78.964449012451212, 36.099471180311539 ] ] } },
{ "type": "Feature", "properties": { "FEEDER_NAME": "WILLOWHAVEN SOUTH", "SUBSTATION_NAME": "Bivins", "wmType": "SECONDARY OVERHEAD", "WKT": "LINESTRING (-78.96485935098474 36.099640540018925, -78.96462849191109 36.099628240115)" }, "geometry": { "type": "LineString", "coordinates": [ [ -78.964859350984739, 36.099640540018925 ], [ -78.964628491911085, 36.099628240115003 ] ] } },
{ "type": "Feature", "properties": { "FEEDER_NAME": "WILLOWHAVEN SOUTH", "SUBSTATION_NAME": "Bivins", "wmType": "SECONDARY OVERHEAD", "WKT": "LINESTRING (-78.9653138675163 36.09996210692808, -78.96519051083727 36.10006336618561)" }, "geometry": { "type": "LineString", "coordinates": [ [ -78.965313867516301, 36.099962106928082 ], [ -78.965190510837274, 36.100063366185609 ] ] } },
{ "type": "Feature", "properties": { "FEEDER_NAME": "WILLOWHAVEN SOUTH", "SUBSTATION_NAME": "Bivins", "wmType": "SECONDARY OVERHEAD", "WKT": "LINESTRING (-78.96519051083727 36.10006336618561, -78.96470875213758 36.10019826917639)" }, "geometry": { "type": "LineString", "coordinates": [ [ -78.965190510837274, 36.100063366185609 ], [ -78.964708752137582, 36.100198269176389 ] ] } },
{ "type": "Feature", "properties": { "FEEDER_NAME": "WILLOWHAVEN SOUTH", "SUBSTATION_NAME": "Bivins", "wmType": "SECONDARY OVERHEAD", "WKT": "LINESTRING (-78.94881293904571 36.07757259357689, -78.94880046175429 36.07756331636004)" }, "geometry": { "type": "LineString", "coordinates": [ [ -78.948812939045709, 36.077572593576889 ], [ -78.948800461754288, 36.077563316360042 ] ] } },
{ "type": "Feature", "properties": { "FEEDER_NAME": "WILLOWHAVEN SOUTH", "SUBSTATION_NAME": "Bivins", "wmType": "SECONDARY OVERHEAD", "WKT": "LINESTRING (-78.95822334995869 36.09293419498547, -78.95822313185755 36.0929479288716)" }, "geometry": { "type": "LineString", "coordinates": [ [ -78.958223349958686, 36.092934194985467 ], [ -78.958223131857551, 36.092947928871602 ] ] } },
{ "type": "Feature", "properties": { "FEEDER_NAME": "WILLOWHAVEN SOUTH", "SUBSTATION_NAME": "Bivins", "wmType": "SECONDARY OVERHEAD", "WKT": "LINESTRING (-78.94899504230528 36.07861422757338, -78.94899482267012 36.078627961525854)" }, "geometry": { "type": "LineString", "coordinates": [ [ -78.948995042305285, 36.078614227573382 ], [ -78.948994822670116, 36.078627961525854 ] ] } },
{ "type": "Feature", "properties": { "FEEDER_NAME": "WILLOWHAVEN SOUTH", "SUBSTATION_NAME": "Bivins", "wmType": "SECONDARY OVERHEAD", "WKT": "LINESTRING (-78.95983043736402 36.09391736066125, -78.95975278174046 36.09418564787471)" }, "geometry": { "type": "LineString", "coordinates": [ [ -78.959830437364019, 36.093917360661251 ], [ -78.959752781740463, 36.09418564787471 ] ] } },
{ "type": "Feature", "properties": { "FEEDER_NAME": "WILLOWHAVEN SOUTH", "SUBSTATION_NAME": "Bivins", "wmType": "SECONDARY OVERHEAD", "WKT": "LINESTRING (-78.96349893821386 36.097905973655806, -78.96330718018758 36.09759131108878)" }, "geometry": { "type": "LineString", "coordinates": [ [ -78.96349893821386, 36.097905973655806 ], [ -78.963307180187584, 36.097591311088777 ] ] } },
{ "type": "Feature", "properties": { "FEEDER_NAME": "WILLOWHAVEN SOUTH", "SUBSTATION_NAME": "Bivins", "wmType": "SECONDARY OVERHEAD", "WKT": "LINESTRING (-78.95613871589855 36.076097940626816, -78.9561216744005 36.076075710735886, -78.95565228228989 36.07605590600296)" }, "geometry": { "type": "LineString", "coordinates": [ [ -78.956138715898547, 36.076097940626816 ], [ -78.956121674400507, 36.076075710735886 ], [ -78.95565228228989, 36.076055906002964 ] ] } },
{ "type": "Feature", "properties": { "FEEDER_NAME": "WILLOWHAVEN SOUTH", "SUBSTATION_NAME": "Bivins", "wmType": "SECONDARY OVERHEAD", "WKT": "LINESTRING (-78.95835881483863 36.090725009242014, -78.95817122392319 36.09075815857276)" }, "geometry": { "type": "LineString", "coordinates": [ [ -78.958358814838633, 36.090725009242014 ], [ -78.958171223923188, 36.090758158572761 ] ] } },
{ "type": "Feature", "properties": { "FEEDER_NAME": "WILLOWHAVEN SOUTH", "SUBSTATION_NAME": "Bivins", "wmType": "SECONDARY OVERHEAD", "WKT": "LINESTRING (-78.96535828148417 36.09992348897932, -78.96534086455857 36.099938010150616, -78.9653138675163 36.09996210692808)" }, "geometry": { "type": "LineString", "coordinates": [ [ -78.965358281484171, 36.099923488979321 ], [ -78.96534086455857, 36.099938010150616 ], [ -78.965313867516301, 36.099962106928082 ] ] } },
{ "type": "Feature", "properties": { "FEEDER_NAME": "WILLOWHAVEN SOUTH", "SUBSTATION_NAME": "Bivins", "wmType": "SECONDARY OVERHEAD", "WKT": "LINESTRING (-78.96629066862567 36.086059551769836, -78.96633855285747 36.086002933724544)" }, "geometry": { "type": "LineString", "coordinates": [ [ -78.966290668625675, 36.086059551769836 ], [ -78.966338552857465, 36.086002933724544 ] ] } }
]
}
