{
"type": "FeatureCollection",
"name": "Carrboro_Right_DC_Carrboro_overhead",
"crs": { "type": "name", "properties": { "name": "urn:ogc:def:crs:OGC:1.3:CRS84" } },
"features": [
{ "type": "Feature", "properties": { "FEEDER_NAME": "Right DC/Carrboro", "SUBSTATION_NAME": "Carrboro", "wmType": "PRIMARY OVERHEAD", "WKT": "LINESTRING (-79.07556343382602 35.899708878168525, -79.07612413410972 35.900007478535535)" }, "geometry": { "type": "LineString", "coordinates": [ [ -79.075563433826019, 35.899708878168525 ], [ -79.076124134109719, 35.900007478535535 ] ] } },
{ "type": "Feature", "properties": { "FEEDER_NAME": "Right DC/Carrboro", "SUBSTATION_NAME": "Carrboro", "wmType": "PRIMARY OVERHEAD", "WKT": "LINESTRING (-79.07844746617793 35.90090425222768, -79.0789936837449 35.90090868394562)" }, "geometry": { "type": "LineString", "coordinates": [ [ -79.078447466177934, 35.900904252227683 ], [ -79.078993683744898, 35.900908683945623 ] ] } },
{ "type": "Feature", "properties": { "FEEDER_NAME": "Right DC/Carrboro", "SUBSTATION_NAME": "Carrboro", "wmType": "PRIMARY OVERHEAD", "WKT": "LINESTRING (-79.08115947084642 35.90096714800908, -79.08177068493652 35.90098271465977)" }, "geometry": { "type": "LineString", "coordinates": [ [ -79.081159470846416, 35.90096714800908 ], [ -79.081770684936515, 35.900982714659769 ] ] } },
{ "type": "Feature", "properties": { "FEEDER_NAME": "Right DC/Carrboro", "SUBSTATION_NAME": "Carrboro", "wmType": "PRIMARY OVERHEAD", "WKT": "LINESTRING (-79.07945189692819 35.90093548238896, -79.07997460449141 35.90094678576459)" }, "geometry": { "type": "LineString", "coordinates": [ [ -79.079451896928191, 35.900935482388959 ], [ -79.079974604491412, 35.900946785764589 ] ] } },
{ "type": "Feature", "properties": { "FEEDER_NAME": "Right DC/Carrboro", "SUBSTATION_NAME": "Carrboro", "wmType": "PRIMARY OVERHEAD", "WKT": "LINESTRING (-79.07983291769311 35.89123382572833, -79.07935297589302 35.89104863318115)" }, "geometry": { "type": "LineString", "coordinates": [ [ -79.079832917693111, 35.891233825728328 ], [ -79.079352975893016, 35.89104863318115 ] ] } },
{ "type": "Feature", "properties": { "FEEDER_NAME": "Right DC/Carrboro", "SUBSTATION_NAME": "Carrboro", "wmType": "PRIMARY OVERHEAD", "WKT": "LINESTRING (-79.07935297589302 35.89104863318115, -79.07856340739372 35.89111554456175)" }, "geometry": { "type": "LineString", "coordinates": [ [ -79.079352975893016, 35.89104863318115 ], [ -79.078563407393716, 35.89111554456175 ] ] } },
{ "type": "Feature", "properties": { "FEEDER_NAME": "Right DC/Carrboro", "SUBSTATION_NAME": "Carrboro", "wmType": "PRIMARY OVERHEAD", "WKT": "LINESTRING (-79.07856340739372 35.89111554456175, -79.07858500033942 35.89072666705017)" }, "geometry": { "type": "LineString", "coordinates": [ [ -79.078563407393716, 35.89111554456175 ], [ -79.078585000339416, 35.890726667050167 ] ] } },
{ "type": "Feature", "properties": { "FEEDER_NAME": "Right DC/Carrboro", "SUBSTATION_NAME": "Carrboro", "wmType": "PRIMARY OVERHEAD", "WKT": "LINESTRING (-79.07858500033942 35.89072666705017, -79.07858050572432 35.89018260438692)" }, "geometry": { "type": "LineString", "coordinates": [ [ -79.078585000339416, 35.890726667050167 ], [ -79.078580505724318, 35.890182604386922 ] ] } },
{ "type": "Feature", "properties": { "FEEDER_NAME": "Right DC/Carrboro", "SUBSTATION_NAME": "Carrboro", "wmType": "PRIMARY OVERHEAD", "WKT": "LINESTRING (-79.07983291769311 35.89123382572833, -79.07937923298405 35.89184365010367)" }, "geometry": { "type": "LineString", "coordinates": [ [ -79.079832917693111, 35.891233825728328 ], [ -79.079379232984053, 35.891843650103667 ] ] } },
{ "type": "Feature", "properties": { "FEEDER_NAME": "Right DC/Carrboro", "SUBSTATION_NAME": "Carrboro", "wmType": "PRIMARY OVERHEAD", "WKT": "LINESTRING (-79.07937923298405 35.89184365010367, -79.07912304720983 35.89210442010787)" }, "geometry": { "type": "LineString", "coordinates": [ [ -79.079379232984053, 35.891843650103667 ], [ -79.079123047209833, 35.89210442010787 ] ] } },
{ "type": "Feature", "properties": { "FEEDER_NAME": "Right DC/Carrboro", "SUBSTATION_NAME": "Carrboro", "wmType": "PRIMARY OVERHEAD", "WKT": "LINESTRING (-79.08265656063189 35.88330013570506, -79.08264945365538 35.88323419784151)" }, "geometry": { "type": "LineString", "coordinates": [ [ -79.082656560631889, 35.883300135705063 ], [ -79.082649453655378, 35.88323419784151 ] ] } },
{ "type": "Feature", "properties": { "FEEDER_NAME": "Right DC/Carrboro", "SUBSTATION_NAME": "Carrboro", "wmType": "PRIMARY OVERHEAD", "WKT": "LINESTRING (-79.08265656063189 35.88330013570506, -79.08291571856932 35.883093409786156)" }, "geometry": { "type": "LineString", "coordinates": [ [ -79.082656560631889, 35.883300135705063 ], [ -79.082915718569325, 35.883093409786156 ] ] } },
{ "type": "Feature", "properties": { "FEEDER_NAME": "Right DC/Carrboro", "SUBSTATION_NAME": "Carrboro", "wmType": "PRIMARY OVERHEAD", "WKT": "LINESTRING (-79.0818582808703 35.884005106803464, -79.08178863651742 35.883831678969486)" }, "geometry": { "type": "LineString", "coordinates": [ [ -79.081858280870307, 35.884005106803464 ], [ -79.081788636517416, 35.883831678969486 ] ] } },
{ "type": "Feature", "properties": { "FEEDER_NAME": "Right DC/Carrboro", "SUBSTATION_NAME": "Carrboro", "wmType": "PRIMARY OVERHEAD", "WKT": "LINESTRING (-79.08178863651742 35.883831678969486, -79.0820211386228 35.88341652108278)" }, "geometry": { "type": "LineString", "coordinates": [ [ -79.081788636517416, 35.883831678969486 ], [ -79.082021138622807, 35.883416521082779 ] ] } },
{ "type": "Feature", "properties": { "FEEDER_NAME": "Right DC/Carrboro", "SUBSTATION_NAME": "Carrboro", "wmType": "PRIMARY OVERHEAD", "WKT": "LINESTRING (-79.0820211386228 35.88341652108278, -79.0823355504728 35.88339362415267)" }, "geometry": { "type": "LineString", "coordinates": [ [ -79.082021138622807, 35.883416521082779 ], [ -79.082335550472806, 35.883393624152667 ] ] } },
{ "type": "Feature", "properties": { "FEEDER_NAME": "Right DC/Carrboro", "SUBSTATION_NAME": "Carrboro", "wmType": "PRIMARY OVERHEAD", "WKT": "LINESTRING (-79.07501434725947 35.898640031210206, -79.07494353064395 35.89882104270618)" }, "geometry": { "type": "LineString", "coordinates": [ [ -79.075014347259469, 35.898640031210206 ], [ -79.074943530643949, 35.898821042706182 ] ] } },
{ "type": "Feature", "properties": { "FEEDER_NAME": "Right DC/Carrboro", "SUBSTATION_NAME": "Carrboro", "wmType": "PRIMARY OVERHEAD", "WKT": "LINESTRING (-79.07494353064395 35.89882104270618, -79.07473082118862 35.899514171609404)" }, "geometry": { "type": "LineString", "coordinates": [ [ -79.074943530643949, 35.898821042706182 ], [ -79.074730821188624, 35.899514171609404 ] ] } },
{ "type": "Feature", "properties": { "FEEDER_NAME": "Right DC/Carrboro", "SUBSTATION_NAME": "Carrboro", "wmType": "PRIMARY OVERHEAD", "WKT": "LINESTRING (-79.07473082118862 35.899514171609404, -79.07556343382602 35.899708878168525)" }, "geometry": { "type": "LineString", "coordinates": [ [ -79.074730821188624, 35.899514171609404 ], [ -79.075563433826019, 35.899708878168525 ] ] } },
{ "type": "Feature", "properties": { "FEEDER_NAME": "Right DC/Carrboro", "SUBSTATION_NAME": "Carrboro", "wmType": "PRIMARY OVERHEAD", "WKT": "LINESTRING (-79.07518716995803 35.89827407807128, -79.07501434725947 35.898640031210206)" }, "geometry": { "type": "LineString", "coordinates": [ [ -79.075187169958028, 35.898274078071282 ], [ -79.075014347259469, 35.898640031210206 ] ] } },
{ "type": "Feature", "properties": { "FEEDER_NAME": "Right DC/Carrboro", "SUBSTATION_NAME": "Carrboro", "wmType": "PRIMARY OVERHEAD", "WKT": "LINESTRING (-79.07912304720983 35.89210442010787, -79.07883897609653 35.89199472633966)" }, "geometry": { "type": "LineString", "coordinates": [ [ -79.079123047209833, 35.89210442010787 ], [ -79.078838976096534, 35.891994726339661 ] ] } },
{ "type": "Feature", "properties": { "FEEDER_NAME": "Right DC/Carrboro", "SUBSTATION_NAME": "Carrboro", "wmType": "PRIMARY OVERHEAD", "WKT": "LINESTRING (-79.08848007785942 35.87905484323327, -79.08839650306783 35.87896691041608)" }, "geometry": { "type": "LineString", "coordinates": [ [ -79.088480077859415, 35.87905484323327 ], [ -79.088396503067827, 35.878966910416082 ] ] } },
{ "type": "Feature", "properties": { "FEEDER_NAME": "Right DC/Carrboro", "SUBSTATION_NAME": "Carrboro", "wmType": "PRIMARY OVERHEAD", "WKT": "LINESTRING (-79.0818582808703 35.884005106803464, -79.08194012966355 35.88371013096035)" }, "geometry": { "type": "LineString", "coordinates": [ [ -79.081858280870307, 35.884005106803464 ], [ -79.08194012966355, 35.883710130960353 ] ] } },
{ "type": "Feature", "properties": { "FEEDER_NAME": "Right DC/Carrboro", "SUBSTATION_NAME": "Carrboro", "wmType": "PRIMARY OVERHEAD", "WKT": "LINESTRING (-79.08874772195982 35.90110591483796, -79.088739256612 35.900938844079015)" }, "geometry": { "type": "LineString", "coordinates": [ [ -79.08874772195982, 35.901105914837963 ], [ -79.088739256612001, 35.900938844079015 ] ] } },
{ "type": "Feature", "properties": { "FEEDER_NAME": "Right DC/Carrboro", "SUBSTATION_NAME": "Carrboro", "wmType": "PRIMARY OVERHEAD", "WKT": "LINESTRING (-79.08707206592452 35.90048528398966, -79.08751327112539 35.90102065876032)" }, "geometry": { "type": "LineString", "coordinates": [ [ -79.087072065924517, 35.90048528398966 ], [ -79.087513271125388, 35.901020658760316 ] ] } },
{ "type": "Feature", "properties": { "FEEDER_NAME": "Right DC/Carrboro", "SUBSTATION_NAME": "Carrboro", "wmType": "PRIMARY OVERHEAD", "WKT": "LINESTRING (-79.08029026866654 35.89116242400236, -79.07996937602725 35.89157117209502)" }, "geometry": { "type": "LineString", "coordinates": [ [ -79.080290268666545, 35.89116242400236 ], [ -79.07996937602725, 35.89157117209502 ] ] } },
{ "type": "Feature", "properties": { "FEEDER_NAME": "Right DC/Carrboro", "SUBSTATION_NAME": "Carrboro", "wmType": "PRIMARY OVERHEAD", "WKT": "LINESTRING (-79.08203295911116 35.88343259433926, -79.08246325773537 35.8834805451202)" }, "geometry": { "type": "LineString", "coordinates": [ [ -79.08203295911116, 35.883432594339261 ], [ -79.08246325773537, 35.8834805451202 ] ] } },
{ "type": "Feature", "properties": { "FEEDER_NAME": "Right DC/Carrboro", "SUBSTATION_NAME": "Carrboro", "wmType": "PRIMARY OVERHEAD", "WKT": "LINESTRING (-79.08194012966355 35.88371013096035, -79.08203295911116 35.88343259433926)" }, "geometry": { "type": "LineString", "coordinates": [ [ -79.08194012966355, 35.883710130960353 ], [ -79.08203295911116, 35.883432594339261 ] ] } },
{ "type": "Feature", "properties": { "FEEDER_NAME": "Right DC/Carrboro", "SUBSTATION_NAME": "Carrboro", "wmType": "PRIMARY OVERHEAD", "WKT": "LINESTRING (-79.07519419940137 35.89769189791311, -79.07518716995803 35.89827407807128)" }, "geometry": { "type": "LineString", "coordinates": [ [ -79.075194199401366, 35.897691897913113 ], [ -79.075187169958028, 35.898274078071282 ] ] } },
{ "type": "Feature", "properties": { "FEEDER_NAME": "Right DC/Carrboro", "SUBSTATION_NAME": "Carrboro", "wmType": "PRIMARY OVERHEAD", "WKT": "LINESTRING (-79.0755712857273 35.89675972674367, -79.07519419940137 35.89769189791311)" }, "geometry": { "type": "LineString", "coordinates": [ [ -79.075571285727307, 35.896759726743667 ], [ -79.075194199401366, 35.897691897913113 ] ] } },
{ "type": "Feature", "properties": { "FEEDER_NAME": "Right DC/Carrboro", "SUBSTATION_NAME": "Carrboro", "wmType": "PRIMARY OVERHEAD", "WKT": "LINESTRING (-79.0802380855536 35.89117057101961, -79.07983291769311 35.89123382572833)" }, "geometry": { "type": "LineString", "coordinates": [ [ -79.080238085553603, 35.891170571019607 ], [ -79.079832917693111, 35.891233825728328 ] ] } },
{ "type": "Feature", "properties": { "FEEDER_NAME": "Right DC/Carrboro", "SUBSTATION_NAME": "Carrboro", "wmType": "PRIMARY OVERHEAD", "WKT": "LINESTRING (-79.0823355504728 35.88339362415267, -79.08259369377916 35.88334925561822)" }, "geometry": { "type": "LineString", "coordinates": [ [ -79.082335550472806, 35.883393624152667 ], [ -79.08259369377916, 35.883349255618221 ] ] } },
{ "type": "Feature", "properties": { "FEEDER_NAME": "Right DC/Carrboro", "SUBSTATION_NAME": "Carrboro", "wmType": "PRIMARY OVERHEAD", "WKT": "LINESTRING (-79.08259369377916 35.88334925561822, -79.08265687185843 35.88329906113047)" }, "geometry": { "type": "LineString", "coordinates": [ [ -79.08259369377916, 35.883349255618221 ], [ -79.082656871858433, 35.883299061130472 ] ] } },
{ "type": "Feature", "properties": { "FEEDER_NAME": "Right DC/Carrboro", "SUBSTATION_NAME": "Carrboro", "wmType": "PRIMARY OVERHEAD", "WKT": "LINESTRING (-79.08291571856932 35.883093409786156, -79.08374653312208 35.882509747435826)" }, "geometry": { "type": "LineString", "coordinates": [ [ -79.082915718569325, 35.883093409786156 ], [ -79.083746533122081, 35.882509747435826 ] ] } },
{ "type": "Feature", "properties": { "FEEDER_NAME": "Right DC/Carrboro", "SUBSTATION_NAME": "Carrboro", "wmType": "PRIMARY OVERHEAD", "WKT": "LINESTRING (-79.08374653312208 35.882509747435826, -79.0845993777894 35.88185969228226)" }, "geometry": { "type": "LineString", "coordinates": [ [ -79.083746533122081, 35.882509747435826 ], [ -79.084599377789402, 35.881859692282262 ] ] } },
{ "type": "Feature", "properties": { "FEEDER_NAME": "Right DC/Carrboro", "SUBSTATION_NAME": "Carrboro", "wmType": "PRIMARY OVERHEAD", "WKT": "LINESTRING (-79.0845993777894 35.88185969228226, -79.08524802107353 35.881314195447125)" }, "geometry": { "type": "LineString", "coordinates": [ [ -79.084599377789402, 35.881859692282262 ], [ -79.085248021073525, 35.881314195447125 ] ] } },
{ "type": "Feature", "properties": { "FEEDER_NAME": "Right DC/Carrboro", "SUBSTATION_NAME": "Carrboro", "wmType": "PRIMARY OVERHEAD", "WKT": "LINESTRING (-79.08524802107353 35.881314195447125, -79.08595022348327 35.88076360185967)" }, "geometry": { "type": "LineString", "coordinates": [ [ -79.085248021073525, 35.881314195447125 ], [ -79.085950223483266, 35.88076360185967 ] ] } },
{ "type": "Feature", "properties": { "FEEDER_NAME": "Right DC/Carrboro", "SUBSTATION_NAME": "Carrboro", "wmType": "PRIMARY OVERHEAD", "WKT": "LINESTRING (-79.08595022348327 35.88076360185967, -79.08691488183587 35.88000185969305)" }, "geometry": { "type": "LineString", "coordinates": [ [ -79.085950223483266, 35.88076360185967 ], [ -79.086914881835867, 35.880001859693053 ] ] } },
{ "type": "Feature", "properties": { "FEEDER_NAME": "Right DC/Carrboro", "SUBSTATION_NAME": "Carrboro", "wmType": "PRIMARY OVERHEAD", "WKT": "LINESTRING (-79.08691488183587 35.88000185969305, -79.0879852316538 35.87935027850744)" }, "geometry": { "type": "LineString", "coordinates": [ [ -79.086914881835867, 35.880001859693053 ], [ -79.087985231653803, 35.879350278507438 ] ] } },
{ "type": "Feature", "properties": { "FEEDER_NAME": "Right DC/Carrboro", "SUBSTATION_NAME": "Carrboro", "wmType": "PRIMARY OVERHEAD", "WKT": "LINESTRING (-79.0879852316538 35.87935027850744, -79.08848007785942 35.87905484323327)" }, "geometry": { "type": "LineString", "coordinates": [ [ -79.087985231653803, 35.879350278507438 ], [ -79.088480077859415, 35.87905484323327 ] ] } },
{ "type": "Feature", "properties": { "FEEDER_NAME": "Right DC/Carrboro", "SUBSTATION_NAME": "Carrboro", "wmType": "PRIMARY OVERHEAD", "WKT": "LINESTRING (-79.08848007785942 35.87905484323327, -79.08941340154462 35.87850727544639)" }, "geometry": { "type": "LineString", "coordinates": [ [ -79.088480077859415, 35.87905484323327 ], [ -79.089413401544618, 35.878507275446388 ] ] } },
{ "type": "Feature", "properties": { "FEEDER_NAME": "Right DC/Carrboro", "SUBSTATION_NAME": "Carrboro", "wmType": "PRIMARY OVERHEAD", "WKT": "LINESTRING (-79.08941340154462 35.87850727544639, -79.0902606108988 35.87799877571299)" }, "geometry": { "type": "LineString", "coordinates": [ [ -79.089413401544618, 35.878507275446388 ], [ -79.090260610898795, 35.877998775712989 ] ] } },
{ "type": "Feature", "properties": { "FEEDER_NAME": "Right DC/Carrboro", "SUBSTATION_NAME": "Carrboro", "wmType": "PRIMARY OVERHEAD", "WKT": "LINESTRING (-79.0902606108988 35.87799877571299, -79.0910119781913 35.87754959751809)" }, "geometry": { "type": "LineString", "coordinates": [ [ -79.090260610898795, 35.877998775712989 ], [ -79.091011978191304, 35.87754959751809 ] ] } },
{ "type": "Feature", "properties": { "FEEDER_NAME": "Right DC/Carrboro", "SUBSTATION_NAME": "Carrboro", "wmType": "PRIMARY OVERHEAD", "WKT": "LINESTRING (-79.0910119781913 35.87754959751809, -79.09155802336664 35.87720636513623)" }, "geometry": { "type": "LineString", "coordinates": [ [ -79.091011978191304, 35.87754959751809 ], [ -79.091558023366645, 35.877206365136232 ] ] } },
{ "type": "Feature", "properties": { "FEEDER_NAME": "Right DC/Carrboro", "SUBSTATION_NAME": "Carrboro", "wmType": "PRIMARY OVERHEAD", "WKT": "LINESTRING (-79.09187706389872 35.87731279933789, -79.09253040879209 35.87755705361877)" }, "geometry": { "type": "LineString", "coordinates": [ [ -79.091877063898721, 35.877312799337894 ], [ -79.092530408792086, 35.877557053618773 ] ] } },
{ "type": "Feature", "properties": { "FEEDER_NAME": "Right DC/Carrboro", "SUBSTATION_NAME": "Carrboro", "wmType": "PRIMARY OVERHEAD", "WKT": "LINESTRING (-79.09155802336664 35.87720636513623, -79.09269569272006 35.87668922239905)" }, "geometry": { "type": "LineString", "coordinates": [ [ -79.091558023366645, 35.877206365136232 ], [ -79.092695692720056, 35.876689222399051 ] ] } },
{ "type": "Feature", "properties": { "FEEDER_NAME": "Right DC/Carrboro", "SUBSTATION_NAME": "Carrboro", "wmType": "PRIMARY OVERHEAD", "WKT": "LINESTRING (-79.09269569272006 35.87668922239905, -79.09360645034596 35.87658295142993)" }, "geometry": { "type": "LineString", "coordinates": [ [ -79.092695692720056, 35.876689222399051 ], [ -79.093606450345959, 35.876582951429931 ] ] } },
{ "type": "Feature", "properties": { "FEEDER_NAME": "Right DC/Carrboro", "SUBSTATION_NAME": "Carrboro", "wmType": "PRIMARY OVERHEAD", "WKT": "LINESTRING (-79.09360645034596 35.87658295142993, -79.09490074411153 35.87643069003735)" }, "geometry": { "type": "LineString", "coordinates": [ [ -79.093606450345959, 35.876582951429931 ], [ -79.094900744111527, 35.876430690037353 ] ] } },
{ "type": "Feature", "properties": { "FEEDER_NAME": "Right DC/Carrboro", "SUBSTATION_NAME": "Carrboro", "wmType": "PRIMARY OVERHEAD", "WKT": "LINESTRING (-79.09490074411153 35.87643069003735, -79.0953747594769 35.87639705100205)" }, "geometry": { "type": "LineString", "coordinates": [ [ -79.094900744111527, 35.876430690037353 ], [ -79.095374759476897, 35.876397051002051 ] ] } },
{ "type": "Feature", "properties": { "FEEDER_NAME": "Right DC/Carrboro", "SUBSTATION_NAME": "Carrboro", "wmType": "PRIMARY OVERHEAD", "WKT": "LINESTRING (-79.09528507423826 35.87708537983662, -79.095616934096 35.87837878116622)" }, "geometry": { "type": "LineString", "coordinates": [ [ -79.095285074238262, 35.877085379836622 ], [ -79.095616934096, 35.878378781166219 ] ] } },
{ "type": "Feature", "properties": { "FEEDER_NAME": "Right DC/Carrboro", "SUBSTATION_NAME": "Carrboro", "wmType": "PRIMARY OVERHEAD", "WKT": "LINESTRING (-79.0953747594769 35.87639705100205, -79.09611314133406 35.87630482487389)" }, "geometry": { "type": "LineString", "coordinates": [ [ -79.095374759476897, 35.876397051002051 ], [ -79.096113141334058, 35.876304824873891 ] ] } },
{ "type": "Feature", "properties": { "FEEDER_NAME": "Right DC/Carrboro", "SUBSTATION_NAME": "Carrboro", "wmType": "PRIMARY OVERHEAD", "WKT": "LINESTRING (-79.09611314133406 35.87630482487389, -79.09660424632153 35.87622369627119)" }, "geometry": { "type": "LineString", "coordinates": [ [ -79.096113141334058, 35.876304824873891 ], [ -79.096604246321533, 35.87622369627119 ] ] } },
{ "type": "Feature", "properties": { "FEEDER_NAME": "Right DC/Carrboro", "SUBSTATION_NAME": "Carrboro", "wmType": "PRIMARY OVERHEAD", "WKT": "LINESTRING (-79.09660424632153 35.87622369627119, -79.09753039660917 35.87603271431961)" }, "geometry": { "type": "LineString", "coordinates": [ [ -79.096604246321533, 35.87622369627119 ], [ -79.097530396609173, 35.876032714319606 ] ] } },
{ "type": "Feature", "properties": { "FEEDER_NAME": "Right DC/Carrboro", "SUBSTATION_NAME": "Carrboro", "wmType": "PRIMARY OVERHEAD", "WKT": "LINESTRING (-79.09658841246521 35.876252705892355, -79.096492694129 35.876428067435825)" }, "geometry": { "type": "LineString", "coordinates": [ [ -79.096588412465209, 35.876252705892355 ], [ -79.096492694128997, 35.876428067435825 ] ] } },
{ "type": "Feature", "properties": { "FEEDER_NAME": "Right DC/Carrboro", "SUBSTATION_NAME": "Carrboro", "wmType": "PRIMARY OVERHEAD", "WKT": "LINESTRING (-79.096492694129 35.876428067435825, -79.09621744116453 35.877011325124386)" }, "geometry": { "type": "LineString", "coordinates": [ [ -79.096492694128997, 35.876428067435825 ], [ -79.096217441164526, 35.877011325124386 ] ] } },
{ "type": "Feature", "properties": { "FEEDER_NAME": "Right DC/Carrboro", "SUBSTATION_NAME": "Carrboro", "wmType": "PRIMARY OVERHEAD", "WKT": "LINESTRING (-79.08668374908585 35.88081736795479, -79.08792166804274 35.8813972138867)" }, "geometry": { "type": "LineString", "coordinates": [ [ -79.08668374908585, 35.880817367954791 ], [ -79.087921668042739, 35.8813972138867 ] ] } },
{ "type": "Feature", "properties": { "FEEDER_NAME": "Right DC/Carrboro", "SUBSTATION_NAME": "Carrboro", "wmType": "PRIMARY OVERHEAD", "WKT": "LINESTRING (-79.08792166804274 35.8813972138867, -79.0884781209127 35.881861034304855)" }, "geometry": { "type": "LineString", "coordinates": [ [ -79.087921668042739, 35.8813972138867 ], [ -79.088478120912697, 35.881861034304855 ] ] } },
{ "type": "Feature", "properties": { "FEEDER_NAME": "Right DC/Carrboro", "SUBSTATION_NAME": "Carrboro", "wmType": "PRIMARY OVERHEAD", "WKT": "LINESTRING (-79.08185831400557 35.8840279703527, -79.0818582808703 35.884005106803464)" }, "geometry": { "type": "LineString", "coordinates": [ [ -79.081858314005572, 35.884027970352697 ], [ -79.081858280870307, 35.884005106803464 ] ] } },
{ "type": "Feature", "properties": { "FEEDER_NAME": "Right DC/Carrboro", "SUBSTATION_NAME": "Carrboro", "wmType": "PRIMARY OVERHEAD", "WKT": "LINESTRING (-79.08246325773537 35.8834805451202, -79.08267769936872 35.88349625584258)" }, "geometry": { "type": "LineString", "coordinates": [ [ -79.08246325773537, 35.8834805451202 ], [ -79.082677699368716, 35.88349625584258 ] ] } },
{ "type": "Feature", "properties": { "FEEDER_NAME": "Right DC/Carrboro", "SUBSTATION_NAME": "Carrboro", "wmType": "PRIMARY OVERHEAD", "WKT": "LINESTRING (-79.08267421294644 35.88346390471778, -79.08265656063189 35.88330013570506)" }, "geometry": { "type": "LineString", "coordinates": [ [ -79.082674212946444, 35.883463904717779 ], [ -79.082656560631889, 35.883300135705063 ] ] } },
{ "type": "Feature", "properties": { "FEEDER_NAME": "Right DC/Carrboro", "SUBSTATION_NAME": "Carrboro", "wmType": "PRIMARY OVERHEAD", "WKT": "LINESTRING (-79.08267769936872 35.88349625584258, -79.0825985971124 35.88413051468664)" }, "geometry": { "type": "LineString", "coordinates": [ [ -79.082677699368716, 35.88349625584258 ], [ -79.082598597112394, 35.884130514686639 ] ] } },
{ "type": "Feature", "properties": { "FEEDER_NAME": "Right DC/Carrboro", "SUBSTATION_NAME": "Carrboro", "wmType": "PRIMARY OVERHEAD", "WKT": "LINESTRING (-79.0825985971124 35.88413051468664, -79.08260702816693 35.88476342972054)" }, "geometry": { "type": "LineString", "coordinates": [ [ -79.082598597112394, 35.884130514686639 ], [ -79.082607028166933, 35.884763429720543 ] ] } },
{ "type": "Feature", "properties": { "FEEDER_NAME": "Right DC/Carrboro", "SUBSTATION_NAME": "Carrboro", "wmType": "PRIMARY OVERHEAD", "WKT": "LINESTRING (-79.08260702816693 35.88476342972054, -79.08261489014549 35.88542674892456)" }, "geometry": { "type": "LineString", "coordinates": [ [ -79.082607028166933, 35.884763429720543 ], [ -79.082614890145493, 35.885426748924559 ] ] } },
{ "type": "Feature", "properties": { "FEEDER_NAME": "Right DC/Carrboro", "SUBSTATION_NAME": "Carrboro", "wmType": "PRIMARY OVERHEAD", "WKT": "LINESTRING (-79.08261489014549 35.88542674892456, -79.08262381095632 35.885988137996975)" }, "geometry": { "type": "LineString", "coordinates": [ [ -79.082614890145493, 35.885426748924559 ], [ -79.082623810956321, 35.885988137996975 ] ] } },
{ "type": "Feature", "properties": { "FEEDER_NAME": "Right DC/Carrboro", "SUBSTATION_NAME": "Carrboro", "wmType": "PRIMARY OVERHEAD", "WKT": "LINESTRING (-79.08262381095632 35.885988137996975, -79.08262935492226 35.886377409521394)" }, "geometry": { "type": "LineString", "coordinates": [ [ -79.082623810956321, 35.885988137996975 ], [ -79.082629354922261, 35.886377409521394 ] ] } },
{ "type": "Feature", "properties": { "FEEDER_NAME": "Right DC/Carrboro", "SUBSTATION_NAME": "Carrboro", "wmType": "PRIMARY OVERHEAD", "WKT": "LINESTRING (-79.08262935492226 35.886377409521394, -79.08225311631341 35.88706058782909)" }, "geometry": { "type": "LineString", "coordinates": [ [ -79.082629354922261, 35.886377409521394 ], [ -79.08225311631341, 35.88706058782909 ] ] } },
{ "type": "Feature", "properties": { "FEEDER_NAME": "Right DC/Carrboro", "SUBSTATION_NAME": "Carrboro", "wmType": "PRIMARY OVERHEAD", "WKT": "LINESTRING (-79.08225311631341 35.88706058782909, -79.08191289291649 35.88769154483946)" }, "geometry": { "type": "LineString", "coordinates": [ [ -79.08225311631341, 35.88706058782909 ], [ -79.081912892916492, 35.887691544839463 ] ] } },
{ "type": "Feature", "properties": { "FEEDER_NAME": "Right DC/Carrboro", "SUBSTATION_NAME": "Carrboro", "wmType": "PRIMARY OVERHEAD", "WKT": "LINESTRING (-79.08191289291649 35.88769154483946, -79.0815672708626 35.88833197713393)" }, "geometry": { "type": "LineString", "coordinates": [ [ -79.081912892916492, 35.887691544839463 ], [ -79.081567270862607, 35.88833197713393 ] ] } },
{ "type": "Feature", "properties": { "FEEDER_NAME": "Right DC/Carrboro", "SUBSTATION_NAME": "Carrboro", "wmType": "PRIMARY OVERHEAD", "WKT": "LINESTRING (-79.0815672708626 35.88833197713393, -79.08128089424785 35.888849191305475)" }, "geometry": { "type": "LineString", "coordinates": [ [ -79.081567270862607, 35.88833197713393 ], [ -79.081280894247854, 35.888849191305475 ] ] } },
{ "type": "Feature", "properties": { "FEEDER_NAME": "Right DC/Carrboro", "SUBSTATION_NAME": "Carrboro", "wmType": "PRIMARY OVERHEAD", "WKT": "LINESTRING (-79.08128089424785 35.888849191305475, -79.08087198018549 35.88959786935622)" }, "geometry": { "type": "LineString", "coordinates": [ [ -79.081280894247854, 35.888849191305475 ], [ -79.080871980185492, 35.889597869356223 ] ] } },
{ "type": "Feature", "properties": { "FEEDER_NAME": "Right DC/Carrboro", "SUBSTATION_NAME": "Carrboro", "wmType": "PRIMARY OVERHEAD", "WKT": "LINESTRING (-79.08078851119525 35.88958512155536, -79.08028773880085 35.889508645239744)" }, "geometry": { "type": "LineString", "coordinates": [ [ -79.080788511195252, 35.889585121555363 ], [ -79.080287738800848, 35.889508645239744 ] ] } },
{ "type": "Feature", "properties": { "FEEDER_NAME": "Right DC/Carrboro", "SUBSTATION_NAME": "Carrboro", "wmType": "PRIMARY OVERHEAD", "WKT": "LINESTRING (-79.08028773880085 35.889508645239744, -79.07983334348776 35.88969998416366)" }, "geometry": { "type": "LineString", "coordinates": [ [ -79.080287738800848, 35.889508645239744 ], [ -79.079833343487763, 35.889699984163663 ] ] } },
{ "type": "Feature", "properties": { "FEEDER_NAME": "Right DC/Carrboro", "SUBSTATION_NAME": "Carrboro", "wmType": "PRIMARY OVERHEAD", "WKT": "LINESTRING (-79.07983334348776 35.88969998416366, -79.07869933855164 35.889503142173176)" }, "geometry": { "type": "LineString", "coordinates": [ [ -79.079833343487763, 35.889699984163663 ], [ -79.078699338551644, 35.889503142173176 ] ] } },
{ "type": "Feature", "properties": { "FEEDER_NAME": "Right DC/Carrboro", "SUBSTATION_NAME": "Carrboro", "wmType": "PRIMARY OVERHEAD", "WKT": "LINESTRING (-79.07869933855164 35.889503142173176, -79.07797225810994 35.88945198923884)" }, "geometry": { "type": "LineString", "coordinates": [ [ -79.078699338551644, 35.889503142173176 ], [ -79.077972258109938, 35.889451989238843 ] ] } },
{ "type": "Feature", "properties": { "FEEDER_NAME": "Right DC/Carrboro", "SUBSTATION_NAME": "Carrboro", "wmType": "PRIMARY OVERHEAD", "WKT": "LINESTRING (-79.07797225810994 35.88945198923884, -79.07702335350098 35.88941665862234)" }, "geometry": { "type": "LineString", "coordinates": [ [ -79.077972258109938, 35.889451989238843 ], [ -79.077023353500977, 35.889416658622338 ] ] } },
{ "type": "Feature", "properties": { "FEEDER_NAME": "Right DC/Carrboro", "SUBSTATION_NAME": "Carrboro", "wmType": "PRIMARY OVERHEAD", "WKT": "LINESTRING (-79.08087198018549 35.88959786935622, -79.08067176338828 35.88996363353105)" }, "geometry": { "type": "LineString", "coordinates": [ [ -79.080871980185492, 35.889597869356223 ], [ -79.080671763388281, 35.889963633531053 ] ] } },
{ "type": "Feature", "properties": { "FEEDER_NAME": "Right DC/Carrboro", "SUBSTATION_NAME": "Carrboro", "wmType": "PRIMARY OVERHEAD", "WKT": "LINESTRING (-79.08067176338828 35.88996363353105, -79.08058197624709 35.8906816048531)" }, "geometry": { "type": "LineString", "coordinates": [ [ -79.080671763388281, 35.889963633531053 ], [ -79.080581976247089, 35.8906816048531 ] ] } },
{ "type": "Feature", "properties": { "FEEDER_NAME": "Right DC/Carrboro", "SUBSTATION_NAME": "Carrboro", "wmType": "PRIMARY OVERHEAD", "WKT": "LINESTRING (-79.08058197624709 35.8906816048531, -79.08040037943773 35.89096728561866)" }, "geometry": { "type": "LineString", "coordinates": [ [ -79.080581976247089, 35.8906816048531 ], [ -79.080400379437734, 35.890967285618657 ] ] } },
{ "type": "Feature", "properties": { "FEEDER_NAME": "Right DC/Carrboro", "SUBSTATION_NAME": "Carrboro", "wmType": "PRIMARY OVERHEAD", "WKT": "LINESTRING (-79.08040037943773 35.89096728561866, -79.08029026866654 35.89116242400236)" }, "geometry": { "type": "LineString", "coordinates": [ [ -79.080400379437734, 35.890967285618657 ], [ -79.080290268666545, 35.89116242400236 ] ] } },
{ "type": "Feature", "properties": { "FEEDER_NAME": "Right DC/Carrboro", "SUBSTATION_NAME": "Carrboro", "wmType": "PRIMARY OVERHEAD", "WKT": "LINESTRING (-79.07996937602725 35.89157117209502, -79.07971132633067 35.891904608118374)" }, "geometry": { "type": "LineString", "coordinates": [ [ -79.07996937602725, 35.89157117209502 ], [ -79.079711326330667, 35.891904608118374 ] ] } },
{ "type": "Feature", "properties": { "FEEDER_NAME": "Right DC/Carrboro", "SUBSTATION_NAME": "Carrboro", "wmType": "PRIMARY OVERHEAD", "WKT": "LINESTRING (-79.07971132633067 35.891904608118374, -79.07907810907118 35.89248645459784)" }, "geometry": { "type": "LineString", "coordinates": [ [ -79.079711326330667, 35.891904608118374 ], [ -79.079078109071176, 35.892486454597837 ] ] } },
{ "type": "Feature", "properties": { "FEEDER_NAME": "Right DC/Carrboro", "SUBSTATION_NAME": "Carrboro", "wmType": "PRIMARY OVERHEAD", "WKT": "LINESTRING (-79.07907810907118 35.89248645459784, -79.0782303667358 35.892834247478696)" }, "geometry": { "type": "LineString", "coordinates": [ [ -79.079078109071176, 35.892486454597837 ], [ -79.078230366735795, 35.892834247478696 ] ] } },
{ "type": "Feature", "properties": { "FEEDER_NAME": "Right DC/Carrboro", "SUBSTATION_NAME": "Carrboro", "wmType": "PRIMARY OVERHEAD", "WKT": "LINESTRING (-79.0782303667358 35.892834247478696, -79.0785181211714 35.89309021814933)" }, "geometry": { "type": "LineString", "coordinates": [ [ -79.078230366735795, 35.892834247478696 ], [ -79.078518121171399, 35.893090218149332 ] ] } },
{ "type": "Feature", "properties": { "FEEDER_NAME": "Right DC/Carrboro", "SUBSTATION_NAME": "Carrboro", "wmType": "PRIMARY OVERHEAD", "WKT": "LINESTRING (-79.0782303667358 35.892834247478696, -79.07770524084518 35.893295175224516)" }, "geometry": { "type": "LineString", "coordinates": [ [ -79.078230366735795, 35.892834247478696 ], [ -79.077705240845177, 35.893295175224516 ] ] } },
{ "type": "Feature", "properties": { "FEEDER_NAME": "Right DC/Carrboro", "SUBSTATION_NAME": "Carrboro", "wmType": "PRIMARY OVERHEAD", "WKT": "LINESTRING (-79.07770524084518 35.893295175224516, -79.07731731422112 35.893626473203454)" }, "geometry": { "type": "LineString", "coordinates": [ [ -79.077705240845177, 35.893295175224516 ], [ -79.077317314221119, 35.893626473203454 ] ] } },
{ "type": "Feature", "properties": { "FEEDER_NAME": "Right DC/Carrboro", "SUBSTATION_NAME": "Carrboro", "wmType": "PRIMARY OVERHEAD", "WKT": "LINESTRING (-79.07731731422112 35.893626473203454, -79.07691572398545 35.89404337036548)" }, "geometry": { "type": "LineString", "coordinates": [ [ -79.077317314221119, 35.893626473203454 ], [ -79.076915723985451, 35.89404337036548 ] ] } },
{ "type": "Feature", "properties": { "FEEDER_NAME": "Right DC/Carrboro", "SUBSTATION_NAME": "Carrboro", "wmType": "PRIMARY OVERHEAD", "WKT": "LINESTRING (-79.07691572398545 35.89404337036548, -79.07684911005212 35.894136615733274)" }, "geometry": { "type": "LineString", "coordinates": [ [ -79.076915723985451, 35.89404337036548 ], [ -79.076849110052123, 35.894136615733274 ] ] } },
{ "type": "Feature", "properties": { "FEEDER_NAME": "Right DC/Carrboro", "SUBSTATION_NAME": "Carrboro", "wmType": "PRIMARY OVERHEAD", "WKT": "LINESTRING (-79.07684911005212 35.894136615733274, -79.07651984439349 35.89469667838441)" }, "geometry": { "type": "LineString", "coordinates": [ [ -79.076849110052123, 35.894136615733274 ], [ -79.076519844393488, 35.894696678384413 ] ] } },
{ "type": "Feature", "properties": { "FEEDER_NAME": "Right DC/Carrboro", "SUBSTATION_NAME": "Carrboro", "wmType": "PRIMARY OVERHEAD", "WKT": "LINESTRING (-79.07651984439349 35.89469667838441, -79.07623784365919 35.89525490969097)" }, "geometry": { "type": "LineString", "coordinates": [ [ -79.076519844393488, 35.894696678384413 ], [ -79.076237843659186, 35.895254909690969 ] ] } },
{ "type": "Feature", "properties": { "FEEDER_NAME": "Right DC/Carrboro", "SUBSTATION_NAME": "Carrboro", "wmType": "PRIMARY OVERHEAD", "WKT": "LINESTRING (-79.07623784365919 35.89525490969097, -79.07608707620511 35.89552158904443)" }, "geometry": { "type": "LineString", "coordinates": [ [ -79.076237843659186, 35.895254909690969 ], [ -79.076087076205113, 35.895521589044428 ] ] } },
{ "type": "Feature", "properties": { "FEEDER_NAME": "Right DC/Carrboro", "SUBSTATION_NAME": "Carrboro", "wmType": "PRIMARY OVERHEAD", "WKT": "LINESTRING (-79.07608707620511 35.89552158904443, -79.07596463138621 35.89580420820679)" }, "geometry": { "type": "LineString", "coordinates": [ [ -79.076087076205113, 35.895521589044428 ], [ -79.075964631386213, 35.895804208206791 ] ] } },
{ "type": "Feature", "properties": { "FEEDER_NAME": "Right DC/Carrboro", "SUBSTATION_NAME": "Carrboro", "wmType": "PRIMARY OVERHEAD", "WKT": "LINESTRING (-79.07596463138621 35.89580420820679, -79.0757855466443 35.89624446235691)" }, "geometry": { "type": "LineString", "coordinates": [ [ -79.075964631386213, 35.895804208206791 ], [ -79.075785546644298, 35.896244462356911 ] ] } },
{ "type": "Feature", "properties": { "FEEDER_NAME": "Right DC/Carrboro", "SUBSTATION_NAME": "Carrboro", "wmType": "PRIMARY OVERHEAD", "WKT": "LINESTRING (-79.0757855466443 35.89624446235691, -79.07559504459685 35.896700993649084)" }, "geometry": { "type": "LineString", "coordinates": [ [ -79.075785546644298, 35.896244462356911 ], [ -79.075595044596852, 35.896700993649084 ] ] } },
{ "type": "Feature", "properties": { "FEEDER_NAME": "Right DC/Carrboro", "SUBSTATION_NAME": "Carrboro", "wmType": "PRIMARY OVERHEAD", "WKT": "LINESTRING (-79.07612413410972 35.900007478535535, -79.07678560326872 35.90030212378346)" }, "geometry": { "type": "LineString", "coordinates": [ [ -79.076124134109719, 35.900007478535535 ], [ -79.076785603268718, 35.900302123783462 ] ] } },
{ "type": "Feature", "properties": { "FEEDER_NAME": "Right DC/Carrboro", "SUBSTATION_NAME": "Carrboro", "wmType": "PRIMARY OVERHEAD", "WKT": "LINESTRING (-79.07678560326872 35.90030212378346, -79.07729236094356 35.900599213227835)" }, "geometry": { "type": "LineString", "coordinates": [ [ -79.076785603268718, 35.900302123783462 ], [ -79.077292360943559, 35.900599213227835 ] ] } },
{ "type": "Feature", "properties": { "FEEDER_NAME": "Right DC/Carrboro", "SUBSTATION_NAME": "Carrboro", "wmType": "PRIMARY OVERHEAD", "WKT": "LINESTRING (-79.07736274173736 35.90063207080341, -79.07791953723743 35.90089201099006)" }, "geometry": { "type": "LineString", "coordinates": [ [ -79.07736274173736, 35.900632070803411 ], [ -79.077919537237435, 35.900892010990063 ] ] } },
{ "type": "Feature", "properties": { "FEEDER_NAME": "Right DC/Carrboro", "SUBSTATION_NAME": "Carrboro", "wmType": "PRIMARY OVERHEAD", "WKT": "LINESTRING (-79.07791953723743 35.90089201099006, -79.07844746617793 35.90090425222768)" }, "geometry": { "type": "LineString", "coordinates": [ [ -79.077919537237435, 35.900892010990063 ], [ -79.078447466177934, 35.900904252227683 ] ] } },
{ "type": "Feature", "properties": { "FEEDER_NAME": "Right DC/Carrboro", "SUBSTATION_NAME": "Carrboro", "wmType": "PRIMARY OVERHEAD", "WKT": "LINESTRING (-79.0789936837449 35.90090868394562, -79.07945189692819 35.90093548238896)" }, "geometry": { "type": "LineString", "coordinates": [ [ -79.078993683744898, 35.900908683945623 ], [ -79.079451896928191, 35.900935482388959 ] ] } },
{ "type": "Feature", "properties": { "FEEDER_NAME": "Right DC/Carrboro", "SUBSTATION_NAME": "Carrboro", "wmType": "PRIMARY OVERHEAD", "WKT": "LINESTRING (-79.07997460449141 35.90094678576459, -79.08058258651462 35.90095651912075)" }, "geometry": { "type": "LineString", "coordinates": [ [ -79.079974604491412, 35.900946785764589 ], [ -79.080582586514623, 35.900956519120747 ] ] } },
{ "type": "Feature", "properties": { "FEEDER_NAME": "Right DC/Carrboro", "SUBSTATION_NAME": "Carrboro", "wmType": "PRIMARY OVERHEAD", "WKT": "LINESTRING (-79.08058258651462 35.90095651912075, -79.08115947084642 35.90096714800908)" }, "geometry": { "type": "LineString", "coordinates": [ [ -79.080582586514623, 35.900956519120747 ], [ -79.081159470846416, 35.90096714800908 ] ] } },
{ "type": "Feature", "properties": { "FEEDER_NAME": "Right DC/Carrboro", "SUBSTATION_NAME": "Carrboro", "wmType": "PRIMARY OVERHEAD", "WKT": "LINESTRING (-79.08177068493652 35.90098271465977, -79.08164384404746 35.90033402770046)" }, "geometry": { "type": "LineString", "coordinates": [ [ -79.081770684936515, 35.900982714659769 ], [ -79.081643844047463, 35.90033402770046 ] ] } },
{ "type": "Feature", "properties": { "FEEDER_NAME": "Right DC/Carrboro", "SUBSTATION_NAME": "Carrboro", "wmType": "PRIMARY OVERHEAD", "WKT": "LINESTRING (-79.08164313416012 35.9002586032597, -79.08163811985067 35.899725432509356)" }, "geometry": { "type": "LineString", "coordinates": [ [ -79.081643134160117, 35.900258603259701 ], [ -79.081638119850666, 35.899725432509356 ] ] } },
{ "type": "Feature", "properties": { "FEEDER_NAME": "Right DC/Carrboro", "SUBSTATION_NAME": "Carrboro", "wmType": "PRIMARY OVERHEAD", "WKT": "LINESTRING (-79.08163811985067 35.899725432509356, -79.08163272562325 35.89921306316571)" }, "geometry": { "type": "LineString", "coordinates": [ [ -79.081638119850666, 35.899725432509356 ], [ -79.081632725623251, 35.89921306316571 ] ] } },
{ "type": "Feature", "properties": { "FEEDER_NAME": "Right DC/Carrboro", "SUBSTATION_NAME": "Carrboro", "wmType": "PRIMARY OVERHEAD", "WKT": "LINESTRING (-79.08163272562325 35.89921306316571, -79.0823212592054 35.89936135759731)" }, "geometry": { "type": "LineString", "coordinates": [ [ -79.081632725623251, 35.89921306316571 ], [ -79.082321259205401, 35.899361357597307 ] ] } },
{ "type": "Feature", "properties": { "FEEDER_NAME": "Right DC/Carrboro", "SUBSTATION_NAME": "Carrboro", "wmType": "PRIMARY OVERHEAD", "WKT": "LINESTRING (-79.0823212592054 35.89936135759731, -79.08286924632318 35.8994873903738)" }, "geometry": { "type": "LineString", "coordinates": [ [ -79.082321259205401, 35.899361357597307 ], [ -79.082869246323185, 35.8994873903738 ] ] } },
{ "type": "Feature", "properties": { "FEEDER_NAME": "Right DC/Carrboro", "SUBSTATION_NAME": "Carrboro", "wmType": "PRIMARY OVERHEAD", "WKT": "LINESTRING (-79.08286924632318 35.8994873903738, -79.08312095579741 35.89954513801249)" }, "geometry": { "type": "LineString", "coordinates": [ [ -79.082869246323185, 35.8994873903738 ], [ -79.083120955797412, 35.899545138012492 ] ] } },
{ "type": "Feature", "properties": { "FEEDER_NAME": "Right DC/Carrboro", "SUBSTATION_NAME": "Carrboro", "wmType": "PRIMARY OVERHEAD", "WKT": "LINESTRING (-79.08312095579741 35.89954513801249, -79.08397288984416 35.8997464581196)" }, "geometry": { "type": "LineString", "coordinates": [ [ -79.083120955797412, 35.899545138012492 ], [ -79.083972889844162, 35.899746458119601 ] ] } },
{ "type": "Feature", "properties": { "FEEDER_NAME": "Right DC/Carrboro", "SUBSTATION_NAME": "Carrboro", "wmType": "PRIMARY OVERHEAD", "WKT": "LINESTRING (-79.08397288984416 35.8997464581196, -79.0845924892119 35.8998978155252)" }, "geometry": { "type": "LineString", "coordinates": [ [ -79.083972889844162, 35.899746458119601 ], [ -79.0845924892119, 35.8998978155252 ] ] } },
{ "type": "Feature", "properties": { "FEEDER_NAME": "Right DC/Carrboro", "SUBSTATION_NAME": "Carrboro", "wmType": "PRIMARY OVERHEAD", "WKT": "LINESTRING (-79.0845924892119 35.8998978155252, -79.08531528156315 35.90006470919184)" }, "geometry": { "type": "LineString", "coordinates": [ [ -79.0845924892119, 35.8998978155252 ], [ -79.085315281563155, 35.900064709191838 ] ] } },
{ "type": "Feature", "properties": { "FEEDER_NAME": "Right DC/Carrboro", "SUBSTATION_NAME": "Carrboro", "wmType": "PRIMARY OVERHEAD", "WKT": "LINESTRING (-79.08531528156315 35.90006470919184, -79.08572230254117 35.900147275592346)" }, "geometry": { "type": "LineString", "coordinates": [ [ -79.085315281563155, 35.900064709191838 ], [ -79.085722302541171, 35.900147275592346 ] ] } },
{ "type": "Feature", "properties": { "FEEDER_NAME": "Right DC/Carrboro", "SUBSTATION_NAME": "Carrboro", "wmType": "PRIMARY OVERHEAD", "WKT": "LINESTRING (-79.08572230254117 35.900147275592346, -79.08624485441567 35.90023767790065)" }, "geometry": { "type": "LineString", "coordinates": [ [ -79.085722302541171, 35.900147275592346 ], [ -79.086244854415668, 35.900237677900648 ] ] } },
{ "type": "Feature", "properties": { "FEEDER_NAME": "Right DC/Carrboro", "SUBSTATION_NAME": "Carrboro", "wmType": "PRIMARY OVERHEAD", "WKT": "LINESTRING (-79.08624485441567 35.90023767790065, -79.08653149893208 35.90045260684751)" }, "geometry": { "type": "LineString", "coordinates": [ [ -79.086244854415668, 35.900237677900648 ], [ -79.086531498932075, 35.900452606847509 ] ] } },
{ "type": "Feature", "properties": { "FEEDER_NAME": "Right DC/Carrboro", "SUBSTATION_NAME": "Carrboro", "wmType": "PRIMARY OVERHEAD", "WKT": "LINESTRING (-79.08653149893208 35.90045260684751, -79.08707206592452 35.90048528398966)" }, "geometry": { "type": "LineString", "coordinates": [ [ -79.086531498932075, 35.900452606847509 ], [ -79.087072065924517, 35.90048528398966 ] ] } },
{ "type": "Feature", "properties": { "FEEDER_NAME": "Right DC/Carrboro", "SUBSTATION_NAME": "Carrboro", "wmType": "PRIMARY OVERHEAD", "WKT": "LINESTRING (-79.08751327112539 35.90102065876032, -79.08874772195982 35.90110591483796)" }, "geometry": { "type": "LineString", "coordinates": [ [ -79.087513271125388, 35.901020658760316 ], [ -79.08874772195982, 35.901105914837963 ] ] } },
{ "type": "Feature", "properties": { "FEEDER_NAME": "Right DC/Carrboro", "SUBSTATION_NAME": "Carrboro", "wmType": "PRIMARY OVERHEAD", "WKT": "LINESTRING (-79.08874772195982 35.90110591483796, -79.08927054020067 35.9014426552387)" }, "geometry": { "type": "LineString", "coordinates": [ [ -79.08874772195982, 35.901105914837963 ], [ -79.089270540200673, 35.901442655238696 ] ] } },
{ "type": "Feature", "properties": { "FEEDER_NAME": "Right DC/Carrboro", "SUBSTATION_NAME": "Carrboro", "wmType": "PRIMARY OVERHEAD", "WKT": "LINESTRING (-79.08927054020067 35.9014426552387, -79.0900421759863 35.902042436360816)" }, "geometry": { "type": "LineString", "coordinates": [ [ -79.089270540200673, 35.901442655238696 ], [ -79.090042175986298, 35.902042436360816 ] ] } },
{ "type": "Feature", "properties": { "FEEDER_NAME": "Right DC/Carrboro", "SUBSTATION_NAME": "Carrboro", "wmType": "PRIMARY OVERHEAD", "WKT": "LINESTRING (-79.0900421759863 35.902042436360816, -79.09081275229414 35.902631649065796)" }, "geometry": { "type": "LineString", "coordinates": [ [ -79.090042175986298, 35.902042436360816 ], [ -79.090812752294141, 35.902631649065796 ] ] } },
{ "type": "Feature", "properties": { "FEEDER_NAME": "Right DC/Carrboro", "SUBSTATION_NAME": "Carrboro", "wmType": "PRIMARY OVERHEAD", "WKT": "LINESTRING (-79.09081275229414 35.902631649065796, -79.09138289706266 35.90307232141021)" }, "geometry": { "type": "LineString", "coordinates": [ [ -79.090812752294141, 35.902631649065796 ], [ -79.091382897062658, 35.903072321410207 ] ] } },
{ "type": "Feature", "properties": { "FEEDER_NAME": "Right DC/Carrboro", "SUBSTATION_NAME": "Carrboro", "wmType": "PRIMARY OVERHEAD", "WKT": "LINESTRING (-79.09138289706266 35.90307232141021, -79.09195163537026 35.90351377351583)" }, "geometry": { "type": "LineString", "coordinates": [ [ -79.091382897062658, 35.903072321410207 ], [ -79.091951635370265, 35.903513773515833 ] ] } },
{ "type": "Feature", "properties": { "FEEDER_NAME": "Right DC/Carrboro", "SUBSTATION_NAME": "Carrboro", "wmType": "PRIMARY OVERHEAD", "WKT": "LINESTRING (-79.09195163537026 35.90351377351583, -79.09224186221134 35.903735933505864)" }, "geometry": { "type": "LineString", "coordinates": [ [ -79.091951635370265, 35.903513773515833 ], [ -79.092241862211338, 35.903735933505864 ] ] } },
{ "type": "Feature", "properties": { "FEEDER_NAME": "Right DC/Carrboro", "SUBSTATION_NAME": "Carrboro", "wmType": "PRIMARY OVERHEAD", "WKT": "LINESTRING (-79.09224186221134 35.903735933505864, -79.0928871164547 35.90423049036896)" }, "geometry": { "type": "LineString", "coordinates": [ [ -79.092241862211338, 35.903735933505864 ], [ -79.092887116454705, 35.90423049036896 ] ] } },
{ "type": "Feature", "properties": { "FEEDER_NAME": "Right DC/Carrboro", "SUBSTATION_NAME": "Carrboro", "wmType": "PRIMARY OVERHEAD", "WKT": "LINESTRING (-79.0928871164547 35.90423049036896, -79.0932296230121 35.90451453951628)" }, "geometry": { "type": "LineString", "coordinates": [ [ -79.092887116454705, 35.90423049036896 ], [ -79.093229623012107, 35.904514539516278 ] ] } },
{ "type": "Feature", "properties": { "FEEDER_NAME": "Right DC/Carrboro", "SUBSTATION_NAME": "Carrboro", "wmType": "PRIMARY OVERHEAD", "WKT": "LINESTRING (-79.0932296230121 35.90451453951628, -79.09271346322373 35.90480531883998)" }, "geometry": { "type": "LineString", "coordinates": [ [ -79.093229623012107, 35.904514539516278 ], [ -79.092713463223731, 35.904805318839983 ] ] } },
{ "type": "Feature", "properties": { "FEEDER_NAME": "Right DC/Carrboro", "SUBSTATION_NAME": "Carrboro", "wmType": "PRIMARY OVERHEAD", "WKT": "LINESTRING (-79.09271346322373 35.90480531883998, -79.09181070585682 35.90529931261084)" }, "geometry": { "type": "LineString", "coordinates": [ [ -79.092713463223731, 35.904805318839983 ], [ -79.091810705856815, 35.905299312610843 ] ] } },
{ "type": "Feature", "properties": { "FEEDER_NAME": "Right DC/Carrboro", "SUBSTATION_NAME": "Carrboro", "wmType": "PRIMARY OVERHEAD", "WKT": "LINESTRING (-79.09181070585682 35.90529931261084, -79.09192887356542 35.90586760256576)" }, "geometry": { "type": "LineString", "coordinates": [ [ -79.091810705856815, 35.905299312610843 ], [ -79.091928873565422, 35.905867602565763 ] ] } },
{ "type": "Feature", "properties": { "FEEDER_NAME": "Right DC/Carrboro", "SUBSTATION_NAME": "Carrboro", "wmType": "PRIMARY OVERHEAD", "WKT": "LINESTRING (-79.09194988817035 35.9058664772257, -79.09275668321156 35.90586932128189)" }, "geometry": { "type": "LineString", "coordinates": [ [ -79.091949888170348, 35.9058664772257 ], [ -79.092756683211562, 35.905869321281891 ] ] } },
{ "type": "Feature", "properties": { "FEEDER_NAME": "Right DC/Carrboro", "SUBSTATION_NAME": "Carrboro", "wmType": "PRIMARY OVERHEAD", "WKT": "LINESTRING (-79.09275668321156 35.90586932128189, -79.09367169079768 35.90589130991658)" }, "geometry": { "type": "LineString", "coordinates": [ [ -79.092756683211562, 35.905869321281891 ], [ -79.093671690797677, 35.905891309916584 ] ] } },
{ "type": "Feature", "properties": { "FEEDER_NAME": "Right DC/Carrboro", "SUBSTATION_NAME": "Carrboro", "wmType": "PRIMARY OVERHEAD", "WKT": "LINESTRING (-79.09367169079768 35.90589130991658, -79.09452668760443 35.905927321934364)" }, "geometry": { "type": "LineString", "coordinates": [ [ -79.093671690797677, 35.905891309916584 ], [ -79.094526687604429, 35.905927321934364 ] ] } },
{ "type": "Feature", "properties": { "FEEDER_NAME": "Right DC/Carrboro", "SUBSTATION_NAME": "Carrboro", "wmType": "PRIMARY OVERHEAD", "WKT": "LINESTRING (-79.09192887356542 35.90586760256576, -79.09214255464717 35.90665833961814)" }, "geometry": { "type": "LineString", "coordinates": [ [ -79.091928873565422, 35.905867602565763 ], [ -79.092142554647168, 35.90665833961814 ] ] } },
{ "type": "Feature", "properties": { "FEEDER_NAME": "Right DC/Carrboro", "SUBSTATION_NAME": "Carrboro", "wmType": "PRIMARY OVERHEAD", "WKT": "LINESTRING (-79.09214255464717 35.90665833961814, -79.09234143552348 35.90739100994373)" }, "geometry": { "type": "LineString", "coordinates": [ [ -79.092142554647168, 35.90665833961814 ], [ -79.09234143552348, 35.90739100994373 ] ] } },
{ "type": "Feature", "properties": { "FEEDER_NAME": "Right DC/Carrboro", "SUBSTATION_NAME": "Carrboro", "wmType": "PRIMARY OVERHEAD", "WKT": "LINESTRING (-79.09234143552348 35.90739100994373, -79.0926326200043 35.90817903358837)" }, "geometry": { "type": "LineString", "coordinates": [ [ -79.09234143552348, 35.90739100994373 ], [ -79.092632620004295, 35.908179033588368 ] ] } },
{ "type": "Feature", "properties": { "FEEDER_NAME": "Right DC/Carrboro", "SUBSTATION_NAME": "Carrboro", "wmType": "PRIMARY OVERHEAD", "WKT": "LINESTRING (-79.0926326200043 35.90817903358837, -79.09289543977219 35.90895784045196)" }, "geometry": { "type": "LineString", "coordinates": [ [ -79.092632620004295, 35.908179033588368 ], [ -79.092895439772192, 35.908957840451961 ] ] } },
{ "type": "Feature", "properties": { "FEEDER_NAME": "Right DC/Carrboro", "SUBSTATION_NAME": "Carrboro", "wmType": "PRIMARY OVERHEAD", "WKT": "LINESTRING (-79.09287907274285 35.908961557268455, -79.09277140258287 35.90899261337138)" }, "geometry": { "type": "LineString", "coordinates": [ [ -79.092879072742846, 35.908961557268455 ], [ -79.092771402582869, 35.908992613371382 ] ] } },
{ "type": "Feature", "properties": { "FEEDER_NAME": "Right DC/Carrboro", "SUBSTATION_NAME": "Carrboro", "wmType": "PRIMARY OVERHEAD", "WKT": "LINESTRING (-79.09289543977219 35.90895784045196, -79.09317306871088 35.90973500386506)" }, "geometry": { "type": "LineString", "coordinates": [ [ -79.092895439772192, 35.908957840451961 ], [ -79.093173068710882, 35.909735003865059 ] ] } },
{ "type": "Feature", "properties": { "FEEDER_NAME": "Right DC/Carrboro", "SUBSTATION_NAME": "Carrboro", "wmType": "PRIMARY OVERHEAD", "WKT": "LINESTRING (-79.09317306871088 35.90973500386506, -79.09301859049255 35.9096405849198)" }, "geometry": { "type": "LineString", "coordinates": [ [ -79.093173068710882, 35.909735003865059 ], [ -79.093018590492548, 35.909640584919799 ] ] } },
{ "type": "Feature", "properties": { "FEEDER_NAME": "Right DC/Carrboro", "SUBSTATION_NAME": "Carrboro", "wmType": "PRIMARY OVERHEAD", "WKT": "LINESTRING (-79.09317306871088 35.90973500386506, -79.09336215292208 35.910341421957135)" }, "geometry": { "type": "LineString", "coordinates": [ [ -79.093173068710882, 35.909735003865059 ], [ -79.093362152922083, 35.910341421957135 ] ] } },
{ "type": "Feature", "properties": { "FEEDER_NAME": "Right DC/Carrboro", "SUBSTATION_NAME": "Carrboro", "wmType": "PRIMARY OVERHEAD", "WKT": "LINESTRING (-79.09336215292208 35.910341421957135, -79.09356718994663 35.91079995332941)" }, "geometry": { "type": "LineString", "coordinates": [ [ -79.093362152922083, 35.910341421957135 ], [ -79.093567189946626, 35.910799953329409 ] ] } },
{ "type": "Feature", "properties": { "FEEDER_NAME": "Right DC/Carrboro", "SUBSTATION_NAME": "Carrboro", "wmType": "PRIMARY OVERHEAD", "WKT": "LINESTRING (-79.09356718994663 35.91079995332941, -79.09376314217728 35.9112499460109)" }, "geometry": { "type": "LineString", "coordinates": [ [ -79.093567189946626, 35.910799953329409 ], [ -79.093763142177281, 35.911249946010898 ] ] } },
{ "type": "Feature", "properties": { "FEEDER_NAME": "Right DC/Carrboro", "SUBSTATION_NAME": "Carrboro", "wmType": "PRIMARY OVERHEAD", "WKT": "LINESTRING (-79.09376314217728 35.9112499460109, -79.09390854609299 35.91159214626841)" }, "geometry": { "type": "LineString", "coordinates": [ [ -79.093763142177281, 35.911249946010898 ], [ -79.09390854609299, 35.911592146268411 ] ] } },
{ "type": "Feature", "properties": { "FEEDER_NAME": "Right DC/Carrboro", "SUBSTATION_NAME": "Carrboro", "wmType": "PRIMARY OVERHEAD", "WKT": "LINESTRING (-79.09390854609299 35.91159214626841, -79.09363887838798 35.911609891044755)" }, "geometry": { "type": "LineString", "coordinates": [ [ -79.09390854609299, 35.911592146268411 ], [ -79.093638878387978, 35.911609891044755 ] ] } },
{ "type": "Feature", "properties": { "FEEDER_NAME": "Right DC/Carrboro", "SUBSTATION_NAME": "Carrboro", "wmType": "PRIMARY OVERHEAD", "WKT": "LINESTRING (-79.09390854609299 35.91159214626841, -79.09402716513198 35.911955587219374)" }, "geometry": { "type": "LineString", "coordinates": [ [ -79.09390854609299, 35.911592146268411 ], [ -79.094027165131976, 35.911955587219374 ] ] } },
{ "type": "Feature", "properties": { "FEEDER_NAME": "Right DC/Carrboro", "SUBSTATION_NAME": "Carrboro", "wmType": "PRIMARY OVERHEAD", "WKT": "LINESTRING (-79.09402716513198 35.911955587219374, -79.09442051111824 35.912830384139085)" }, "geometry": { "type": "LineString", "coordinates": [ [ -79.094027165131976, 35.911955587219374 ], [ -79.094420511118244, 35.912830384139085 ] ] } },
{ "type": "Feature", "properties": { "FEEDER_NAME": "Right DC/Carrboro", "SUBSTATION_NAME": "Carrboro", "wmType": "PRIMARY OVERHEAD", "WKT": "LINESTRING (-79.09442051111824 35.912830384139085, -79.09479932375716 35.91329183746828)" }, "geometry": { "type": "LineString", "coordinates": [ [ -79.094420511118244, 35.912830384139085 ], [ -79.094799323757158, 35.913291837468279 ] ] } },
{ "type": "Feature", "properties": { "FEEDER_NAME": "Right DC/Carrboro", "SUBSTATION_NAME": "Carrboro", "wmType": "PRIMARY OVERHEAD", "WKT": "LINESTRING (-79.09479932375716 35.91329183746828, -79.09512793996298 35.91376898069654)" }, "geometry": { "type": "LineString", "coordinates": [ [ -79.094799323757158, 35.913291837468279 ], [ -79.095127939962978, 35.913768980696538 ] ] } },
{ "type": "Feature", "properties": { "FEEDER_NAME": "Right DC/Carrboro", "SUBSTATION_NAME": "Carrboro", "wmType": "PRIMARY OVERHEAD", "WKT": "LINESTRING (-79.09512793996298 35.91376898069654, -79.09549269629746 35.91425363227085)" }, "geometry": { "type": "LineString", "coordinates": [ [ -79.095127939962978, 35.913768980696538 ], [ -79.095492696297455, 35.914253632270849 ] ] } },
{ "type": "Feature", "properties": { "FEEDER_NAME": "Right DC/Carrboro", "SUBSTATION_NAME": "Carrboro", "wmType": "PRIMARY OVERHEAD", "WKT": "LINESTRING (-79.09551876617621 35.914285990233275, -79.0959096349046 35.91477114548972)" }, "geometry": { "type": "LineString", "coordinates": [ [ -79.095518766176212, 35.914285990233275 ], [ -79.095909634904601, 35.914771145489723 ] ] } },
{ "type": "Feature", "properties": { "FEEDER_NAME": "Right DC/Carrboro", "SUBSTATION_NAME": "Carrboro", "wmType": "PRIMARY OVERHEAD", "WKT": "LINESTRING (-79.0959096349046 35.91477114548972, -79.09626674306968 35.91525566359136)" }, "geometry": { "type": "LineString", "coordinates": [ [ -79.095909634904601, 35.914771145489723 ], [ -79.096266743069677, 35.91525566359136 ] ] } },
{ "type": "Feature", "properties": { "FEEDER_NAME": "Right DC/Carrboro", "SUBSTATION_NAME": "Carrboro", "wmType": "PRIMARY OVERHEAD", "WKT": "LINESTRING (-79.09626674306968 35.91525566359136, -79.09646160972586 35.915524677977075)" }, "geometry": { "type": "LineString", "coordinates": [ [ -79.096266743069677, 35.91525566359136 ], [ -79.096461609725864, 35.915524677977075 ] ] } },
{ "type": "Feature", "properties": { "FEEDER_NAME": "Right DC/Carrboro", "SUBSTATION_NAME": "Carrboro", "wmType": "PRIMARY OVERHEAD", "WKT": "LINESTRING (-79.09646160972586 35.915524677977075, -79.096844603199 35.91604194961333)" }, "geometry": { "type": "LineString", "coordinates": [ [ -79.096461609725864, 35.915524677977075 ], [ -79.096844603199003, 35.91604194961333 ] ] } },
{ "type": "Feature", "properties": { "FEEDER_NAME": "Right DC/Carrboro", "SUBSTATION_NAME": "Carrboro", "wmType": "PRIMARY OVERHEAD", "WKT": "LINESTRING (-79.096844603199 35.91604194961333, -79.09722959228144 35.916530390248816)" }, "geometry": { "type": "LineString", "coordinates": [ [ -79.096844603199003, 35.91604194961333 ], [ -79.097229592281437, 35.916530390248816 ] ] } },
{ "type": "Feature", "properties": { "FEEDER_NAME": "Right DC/Carrboro", "SUBSTATION_NAME": "Carrboro", "wmType": "PRIMARY OVERHEAD", "WKT": "LINESTRING (-79.09722959228144 35.916530390248816, -79.09758196003737 35.91706761515072)" }, "geometry": { "type": "LineString", "coordinates": [ [ -79.097229592281437, 35.916530390248816 ], [ -79.097581960037374, 35.917067615150721 ] ] } },
{ "type": "Feature", "properties": { "FEEDER_NAME": "Right DC/Carrboro", "SUBSTATION_NAME": "Carrboro", "wmType": "PRIMARY OVERHEAD", "WKT": "LINESTRING (-79.09758196003737 35.91706761515072, -79.0978572718295 35.91752646144528)" }, "geometry": { "type": "LineString", "coordinates": [ [ -79.097581960037374, 35.917067615150721 ], [ -79.097857271829497, 35.917526461445277 ] ] } },
{ "type": "Feature", "properties": { "FEEDER_NAME": "Right DC/Carrboro", "SUBSTATION_NAME": "Carrboro", "wmType": "PRIMARY OVERHEAD", "WKT": "LINESTRING (-79.0978572718295 35.91752646144528, -79.09819675030936 35.91801407631748)" }, "geometry": { "type": "LineString", "coordinates": [ [ -79.097857271829497, 35.917526461445277 ], [ -79.098196750309356, 35.918014076317483 ] ] } },
{ "type": "Feature", "properties": { "FEEDER_NAME": "Right DC/Carrboro", "SUBSTATION_NAME": "Carrboro", "wmType": "PRIMARY OVERHEAD", "WKT": "LINESTRING (-79.09819675030936 35.91801407631748, -79.09850691935839 35.91850465837055)" }, "geometry": { "type": "LineString", "coordinates": [ [ -79.098196750309356, 35.918014076317483 ], [ -79.098506919358385, 35.918504658370551 ] ] } },
{ "type": "Feature", "properties": { "FEEDER_NAME": "Right DC/Carrboro", "SUBSTATION_NAME": "Carrboro", "wmType": "PRIMARY OVERHEAD", "WKT": "LINESTRING (-79.09850691935839 35.91850465837055, -79.09873130309064 35.91881674337054)" }, "geometry": { "type": "LineString", "coordinates": [ [ -79.098506919358385, 35.918504658370551 ], [ -79.098731303090645, 35.918816743370542 ] ] } },
{ "type": "Feature", "properties": { "FEEDER_NAME": "Right DC/Carrboro", "SUBSTATION_NAME": "Carrboro", "wmType": "PRIMARY OVERHEAD", "WKT": "LINESTRING (-79.09212571412282 35.906661293289844, -79.09198805463993 35.90668543583188)" }, "geometry": { "type": "LineString", "coordinates": [ [ -79.092125714122815, 35.906661293289844 ], [ -79.091988054639927, 35.906685435831882 ] ] } },
{ "type": "Feature", "properties": { "FEEDER_NAME": "Right DC/Carrboro", "SUBSTATION_NAME": "Carrboro", "wmType": "PRIMARY OVERHEAD", "WKT": "LINESTRING (-79.07682838946083 35.894120112309395, -79.0765263400329 35.89387954376806)" }, "geometry": { "type": "LineString", "coordinates": [ [ -79.076828389460829, 35.894120112309395 ], [ -79.076526340032899, 35.893879543768058 ] ] } },
{ "type": "Feature", "properties": { "FEEDER_NAME": "Right DC/Carrboro", "SUBSTATION_NAME": "Carrboro", "wmType": "PRIMARY OVERHEAD", "WKT": "LINESTRING (-79.0765263400329 35.89387954376806, -79.07550903360615 35.89364543007332)" }, "geometry": { "type": "LineString", "coordinates": [ [ -79.076526340032899, 35.893879543768058 ], [ -79.075509033606153, 35.89364543007332 ] ] } },
{ "type": "Feature", "properties": { "FEEDER_NAME": "Right DC/Carrboro", "SUBSTATION_NAME": "Carrboro", "wmType": "PRIMARY OVERHEAD", "WKT": "LINESTRING (-79.0765263400329 35.89387954376806, -79.07623150895519 35.893608470572666)" }, "geometry": { "type": "LineString", "coordinates": [ [ -79.076526340032899, 35.893879543768058 ], [ -79.076231508955189, 35.893608470572666 ] ] } },
{ "type": "Feature", "properties": { "FEEDER_NAME": "Right DC/Carrboro", "SUBSTATION_NAME": "Carrboro", "wmType": "PRIMARY OVERHEAD", "WKT": "LINESTRING (-79.07623150895519 35.893608470572666, -79.07574432147612 35.89317869663659)" }, "geometry": { "type": "LineString", "coordinates": [ [ -79.076231508955189, 35.893608470572666 ], [ -79.075744321476122, 35.893178696636589 ] ] } },
{ "type": "Feature", "properties": { "FEEDER_NAME": "Right DC/Carrboro", "SUBSTATION_NAME": "Carrboro", "wmType": "PRIMARY OVERHEAD", "WKT": "LINESTRING (-79.07823245436373 35.892811033835365, -79.07824578888581 35.8926627924428)" }, "geometry": { "type": "LineString", "coordinates": [ [ -79.078232454363729, 35.892811033835365 ], [ -79.078245788885809, 35.892662792442799 ] ] } },
{ "type": "Feature", "properties": { "FEEDER_NAME": "Right DC/Carrboro", "SUBSTATION_NAME": "Carrboro", "wmType": "PRIMARY OVERHEAD", "WKT": "LINESTRING (-79.08159376611138 35.88832665250106, -79.08237817050761 35.88816900893272)" }, "geometry": { "type": "LineString", "coordinates": [ [ -79.081593766111382, 35.888326652501057 ], [ -79.08237817050761, 35.888169008932721 ] ] } },
{ "type": "Feature", "properties": { "FEEDER_NAME": "Right DC/Carrboro", "SUBSTATION_NAME": "Carrboro", "wmType": "PRIMARY OVERHEAD", "WKT": "LINESTRING (-79.07574432147612 35.89317869663659, -79.07572665053291 35.893163107757516)" }, "geometry": { "type": "LineString", "coordinates": [ [ -79.075744321476122, 35.893178696636589 ], [ -79.075726650532914, 35.893163107757516 ] ] } },
{ "type": "Feature", "properties": { "FEEDER_NAME": "Right DC/Carrboro", "SUBSTATION_NAME": "Carrboro", "wmType": "PRIMARY OVERHEAD", "WKT": "LINESTRING (-79.07729236094356 35.900599213227835, -79.07736274173736 35.90063207080341)" }, "geometry": { "type": "LineString", "coordinates": [ [ -79.077292360943559, 35.900599213227835 ], [ -79.07736274173736, 35.900632070803411 ] ] } },
{ "type": "Feature", "properties": { "FEEDER_NAME": "Right DC/Carrboro", "SUBSTATION_NAME": "Carrboro", "wmType": "PRIMARY OVERHEAD", "WKT": "LINESTRING (-79.07559504459685 35.896700993649084, -79.0755712857273 35.89675972674367)" }, "geometry": { "type": "LineString", "coordinates": [ [ -79.075595044596852, 35.896700993649084 ], [ -79.075571285727307, 35.896759726743667 ] ] } },
{ "type": "Feature", "properties": { "FEEDER_NAME": "Right DC/Carrboro", "SUBSTATION_NAME": "Carrboro", "wmType": "PRIMARY OVERHEAD", "WKT": "LINESTRING (-79.08164384404746 35.90033402770046, -79.08164313416012 35.9002586032597)" }, "geometry": { "type": "LineString", "coordinates": [ [ -79.081643844047463, 35.90033402770046 ], [ -79.081643134160117, 35.900258603259701 ] ] } },
{ "type": "Feature", "properties": { "FEEDER_NAME": "Right DC/Carrboro", "SUBSTATION_NAME": "Carrboro", "wmType": "PRIMARY OVERHEAD", "WKT": "LINESTRING (-79.08267769936872 35.88349625584258, -79.08267421294644 35.88346390471778)" }, "geometry": { "type": "LineString", "coordinates": [ [ -79.082677699368716, 35.88349625584258 ], [ -79.082674212946444, 35.883463904717779 ] ] } },
{ "type": "Feature", "properties": { "FEEDER_NAME": "Right DC/Carrboro", "SUBSTATION_NAME": "Carrboro", "wmType": "PRIMARY OVERHEAD", "WKT": "LINESTRING (-79.09660424632153 35.87622369627119, -79.09658841246521 35.876252705892355)" }, "geometry": { "type": "LineString", "coordinates": [ [ -79.096604246321533, 35.87622369627119 ], [ -79.096588412465209, 35.876252705892355 ] ] } },
{ "type": "Feature", "properties": { "FEEDER_NAME": "Right DC/Carrboro", "SUBSTATION_NAME": "Carrboro", "wmType": "PRIMARY OVERHEAD", "WKT": "LINESTRING (-79.08839650306783 35.87896691041608, -79.08833163302808 35.87890362392725)" }, "geometry": { "type": "LineString", "coordinates": [ [ -79.088396503067827, 35.878966910416082 ], [ -79.088331633028076, 35.878903623927251 ] ] } },
{ "type": "Feature", "properties": { "FEEDER_NAME": "Right DC/Carrboro", "SUBSTATION_NAME": "Carrboro", "wmType": "PRIMARY OVERHEAD", "WKT": "LINESTRING (-79.08833163302808 35.87890362392725, -79.08799975106045 35.87857984166188)" }, "geometry": { "type": "LineString", "coordinates": [ [ -79.088331633028076, 35.878903623927251 ], [ -79.087999751060451, 35.878579841661882 ] ] } },
{ "type": "Feature", "properties": { "FEEDER_NAME": "Right DC/Carrboro", "SUBSTATION_NAME": "Carrboro", "wmType": "PRIMARY OVERHEAD", "WKT": "LINESTRING (-79.09155802336664 35.87720636513623, -79.09165172298309 35.877237624436546)" }, "geometry": { "type": "LineString", "coordinates": [ [ -79.091558023366645, 35.877206365136232 ], [ -79.091651722983087, 35.877237624436546 ] ] } },
{ "type": "Feature", "properties": { "FEEDER_NAME": "Right DC/Carrboro", "SUBSTATION_NAME": "Carrboro", "wmType": "PRIMARY OVERHEAD", "WKT": "LINESTRING (-79.09165172298309 35.877237624436546, -79.09187706389872 35.87731279933789)" }, "geometry": { "type": "LineString", "coordinates": [ [ -79.091651722983087, 35.877237624436546 ], [ -79.091877063898721, 35.877312799337894 ] ] } },
{ "type": "Feature", "properties": { "FEEDER_NAME": "Right DC/Carrboro", "SUBSTATION_NAME": "Carrboro", "wmType": "PRIMARY OVERHEAD", "WKT": "LINESTRING (-79.09165172298309 35.877237624436546, -79.09156317772123 35.87728867465729)" }, "geometry": { "type": "LineString", "coordinates": [ [ -79.091651722983087, 35.877237624436546 ], [ -79.091563177721227, 35.877288674657287 ] ] } },
{ "type": "Feature", "properties": { "FEEDER_NAME": "Right DC/Carrboro", "SUBSTATION_NAME": "Carrboro", "wmType": "PRIMARY OVERHEAD", "WKT": "LINESTRING (-79.09156317772123 35.87728867465729, -79.09161605286788 35.87813311994054)" }, "geometry": { "type": "LineString", "coordinates": [ [ -79.091563177721227, 35.877288674657287 ], [ -79.091616052867877, 35.878133119940543 ] ] } },
{ "type": "Feature", "properties": { "FEEDER_NAME": "Right DC/Carrboro", "SUBSTATION_NAME": "Carrboro", "wmType": "PRIMARY OVERHEAD", "WKT": "LINESTRING (-79.0953747594769 35.87639705100205, -79.09536408078046 35.87647900773634)" }, "geometry": { "type": "LineString", "coordinates": [ [ -79.095374759476897, 35.876397051002051 ], [ -79.095364080780456, 35.876479007736343 ] ] } },
{ "type": "Feature", "properties": { "FEEDER_NAME": "Right DC/Carrboro", "SUBSTATION_NAME": "Carrboro", "wmType": "PRIMARY OVERHEAD", "WKT": "LINESTRING (-79.09536408078046 35.87647900773634, -79.09528507423826 35.87708537983662)" }, "geometry": { "type": "LineString", "coordinates": [ [ -79.095364080780456, 35.876479007736343 ], [ -79.095285074238262, 35.877085379836622 ] ] } },
{ "type": "Feature", "properties": { "FEEDER_NAME": "Right DC/Carrboro", "SUBSTATION_NAME": "Carrboro", "wmType": "PRIMARY OVERHEAD", "WKT": "LINESTRING (-79.09360645034596 35.87658295142993, -79.09365398769603 35.876655722189575)" }, "geometry": { "type": "LineString", "coordinates": [ [ -79.093606450345959, 35.876582951429931 ], [ -79.09365398769603, 35.876655722189575 ] ] } },
{ "type": "Feature", "properties": { "FEEDER_NAME": "Right DC/Carrboro", "SUBSTATION_NAME": "Carrboro", "wmType": "PRIMARY OVERHEAD", "WKT": "LINESTRING (-79.09365398769603 35.876655722189575, -79.0938860343027 35.87701094453478)" }, "geometry": { "type": "LineString", "coordinates": [ [ -79.09365398769603, 35.876655722189575 ], [ -79.093886034302699, 35.877010944534781 ] ] } },
{ "type": "Feature", "properties": { "FEEDER_NAME": "Right DC/Carrboro", "SUBSTATION_NAME": "Carrboro", "wmType": "PRIMARY OVERHEAD", "WKT": "LINESTRING (-79.08941340154462 35.87850727544639, -79.08947116700911 35.878574967694185)" }, "geometry": { "type": "LineString", "coordinates": [ [ -79.089413401544618, 35.878507275446388 ], [ -79.089471167009108, 35.878574967694185 ] ] } },
{ "type": "Feature", "properties": { "FEEDER_NAME": "Right DC/Carrboro", "SUBSTATION_NAME": "Carrboro", "wmType": "PRIMARY OVERHEAD", "WKT": "LINESTRING (-79.08947116700911 35.878574967694185, -79.08994439790622 35.87912951321152)" }, "geometry": { "type": "LineString", "coordinates": [ [ -79.089471167009108, 35.878574967694185 ], [ -79.089944397906223, 35.879129513211517 ] ] } },
{ "type": "Feature", "properties": { "FEEDER_NAME": "Right DC/Carrboro", "SUBSTATION_NAME": "Carrboro", "wmType": "PRIMARY OVERHEAD", "WKT": "LINESTRING (-79.08595022348327 35.88076360185967, -79.08605108512052 35.88077099541995)" }, "geometry": { "type": "LineString", "coordinates": [ [ -79.085950223483266, 35.88076360185967 ], [ -79.086051085120516, 35.880770995419951 ] ] } },
{ "type": "Feature", "properties": { "FEEDER_NAME": "Right DC/Carrboro", "SUBSTATION_NAME": "Carrboro", "wmType": "PRIMARY OVERHEAD", "WKT": "LINESTRING (-79.08605108512052 35.88077099541995, -79.08668374908585 35.88081736795479)" }, "geometry": { "type": "LineString", "coordinates": [ [ -79.086051085120516, 35.880770995419951 ], [ -79.08668374908585, 35.880817367954791 ] ] } },
{ "type": "Feature", "properties": { "FEEDER_NAME": "Right DC/Carrboro", "SUBSTATION_NAME": "Carrboro", "wmType": "PRIMARY OVERHEAD", "WKT": "LINESTRING (-79.08087198018549 35.88959786935622, -79.08083121223777 35.88959164308799)" }, "geometry": { "type": "LineString", "coordinates": [ [ -79.080871980185492, 35.889597869356223 ], [ -79.080831212237769, 35.889591643087989 ] ] } },
{ "type": "Feature", "properties": { "FEEDER_NAME": "Right DC/Carrboro", "SUBSTATION_NAME": "Carrboro", "wmType": "PRIMARY OVERHEAD", "WKT": "LINESTRING (-79.09192887356542 35.90586760256576, -79.09194988817035 35.9058664772257)" }, "geometry": { "type": "LineString", "coordinates": [ [ -79.091928873565422, 35.905867602565763 ], [ -79.091949888170348, 35.9058664772257 ] ] } },
{ "type": "Feature", "properties": { "FEEDER_NAME": "Right DC/Carrboro", "SUBSTATION_NAME": "Carrboro", "wmType": "PRIMARY OVERHEAD", "WKT": "LINESTRING (-79.0782303667358 35.892834247478696, -79.07823245436373 35.892811033835365)" }, "geometry": { "type": "LineString", "coordinates": [ [ -79.078230366735795, 35.892834247478696 ], [ -79.078232454363729, 35.892811033835365 ] ] } },
{ "type": "Feature", "properties": { "FEEDER_NAME": "Right DC/Carrboro", "SUBSTATION_NAME": "Carrboro", "wmType": "PRIMARY OVERHEAD", "WKT": "LINESTRING (-79.07937923298405 35.89184365010367, -79.07936242087607 35.89184241633376)" }, "geometry": { "type": "LineString", "coordinates": [ [ -79.079379232984053, 35.891843650103667 ], [ -79.079362420876066, 35.891842416333759 ] ] } },
{ "type": "Feature", "properties": { "FEEDER_NAME": "Right DC/Carrboro", "SUBSTATION_NAME": "Carrboro", "wmType": "PRIMARY OVERHEAD", "WKT": "LINESTRING (-79.08029026866654 35.89116242400236, -79.0802380855536 35.89117057101961)" }, "geometry": { "type": "LineString", "coordinates": [ [ -79.080290268666545, 35.89116242400236 ], [ -79.080238085553603, 35.891170571019607 ] ] } },
{ "type": "Feature", "properties": { "FEEDER_NAME": "Right DC/Carrboro", "SUBSTATION_NAME": "Carrboro", "wmType": "PRIMARY OVERHEAD", "WKT": "LINESTRING (-79.07684911005212 35.894136615733274, -79.07682838946083 35.894120112309395)" }, "geometry": { "type": "LineString", "coordinates": [ [ -79.076849110052123, 35.894136615733274 ], [ -79.076828389460829, 35.894120112309395 ] ] } },
{ "type": "Feature", "properties": { "FEEDER_NAME": "Right DC/Carrboro", "SUBSTATION_NAME": "Carrboro", "wmType": "PRIMARY OVERHEAD", "WKT": "LINESTRING (-79.09289543977219 35.90895784045196, -79.09287907274285 35.908961557268455)" }, "geometry": { "type": "LineString", "coordinates": [ [ -79.092895439772192, 35.908957840451961 ], [ -79.092879072742846, 35.908961557268455 ] ] } },
{ "type": "Feature", "properties": { "FEEDER_NAME": "Right DC/Carrboro", "SUBSTATION_NAME": "Carrboro", "wmType": "PRIMARY OVERHEAD", "WKT": "LINESTRING (-79.09214255464717 35.90665833961814, -79.09212571412282 35.906661293289844)" }, "geometry": { "type": "LineString", "coordinates": [ [ -79.092142554647168, 35.90665833961814 ], [ -79.092125714122815, 35.906661293289844 ] ] } },
{ "type": "Feature", "properties": { "FEEDER_NAME": "Right DC/Carrboro", "SUBSTATION_NAME": "Carrboro", "wmType": "PRIMARY OVERHEAD", "WKT": "LINESTRING (-79.0815672708626 35.88833197713393, -79.08159376611138 35.88832665250106)" }, "geometry": { "type": "LineString", "coordinates": [ [ -79.081567270862607, 35.88833197713393 ], [ -79.081593766111382, 35.888326652501057 ] ] } },
{ "type": "Feature", "properties": { "FEEDER_NAME": "Right DC/Carrboro", "SUBSTATION_NAME": "Carrboro", "wmType": "PRIMARY OVERHEAD", "WKT": "LINESTRING (-79.08083121223777 35.88959164308799, -79.08078851119525 35.88958512155536)" }, "geometry": { "type": "LineString", "coordinates": [ [ -79.080831212237769, 35.889591643087989 ], [ -79.080788511195252, 35.889585121555363 ] ] } },
{ "type": "Feature", "properties": { "FEEDER_NAME": "Right DC/Carrboro", "SUBSTATION_NAME": "Carrboro", "wmType": "PRIMARY OVERHEAD", "WKT": "LINESTRING (-79.09549269629746 35.91425363227085, -79.09551876617621 35.914285990233275)" }, "geometry": { "type": "LineString", "coordinates": [ [ -79.095492696297455, 35.914253632270849 ], [ -79.095518766176212, 35.914285990233275 ] ] } }
]
}
