{
"type": "FeatureCollection",
"name": "Carrboro_Left_DC_Plantation_overhead",
"crs": { "type": "name", "properties": { "name": "urn:ogc:def:crs:OGC:1.3:CRS84" } },
"features": [
{ "type": "Feature", "properties": { "FEEDER_NAME": "Left DC/Plantation", "SUBSTATION_NAME": "Carrboro", "wmType": "SECONDARY OVERHEAD", "WKT": "LINESTRING (-79.07959365860599 35.89393229601855, -79.07956665850662 35.89412429681142)" }, "geometry": { "type": "LineString", "coordinates": [ [ -79.079593658605987, 35.893932296018548 ], [ -79.079566658506621, 35.89412429681142 ] ] } },
{ "type": "Feature", "properties": { "FEEDER_NAME": "Left DC/Plantation", "SUBSTATION_NAME": "Carrboro", "wmType": "SECONDARY OVERHEAD", "WKT": "LINESTRING (-79.07956665850662 35.89412429681142, -79.07946265796208 35.89430129681544)" }, "geometry": { "type": "LineString", "coordinates": [ [ -79.079566658506621, 35.89412429681142 ], [ -79.079462657962083, 35.894301296815442 ] ] } },
{ "type": "Feature", "properties": { "FEEDER_NAME": "Left DC/Plantation", "SUBSTATION_NAME": "Carrboro", "wmType": "SECONDARY OVERHEAD", "WKT": "LINESTRING (-79.08016788695818 35.89535769486715, -79.08062601373378 35.89542340746606)" }, "geometry": { "type": "LineString", "coordinates": [ [ -79.080167886958179, 35.895357694867151 ], [ -79.080626013733777, 35.895423407466062 ] ] } },
{ "type": "Feature", "properties": { "FEEDER_NAME": "Left DC/Plantation", "SUBSTATION_NAME": "Carrboro", "wmType": "SECONDARY OVERHEAD", "WKT": "LINESTRING (-79.08186166301678 35.89549529944061, -79.08202666293505 35.89533429884869)" }, "geometry": { "type": "LineString", "coordinates": [ [ -79.081861663016781, 35.895495299440611 ], [ -79.08202666293505, 35.895334298848688 ] ] } },
{ "type": "Feature", "properties": { "FEEDER_NAME": "Left DC/Plantation", "SUBSTATION_NAME": "Carrboro", "wmType": "SECONDARY OVERHEAD", "WKT": "LINESTRING (-79.08202666293505 35.89533429884869, -79.08207207264515 35.89519524336185)" }, "geometry": { "type": "LineString", "coordinates": [ [ -79.08202666293505, 35.895334298848688 ], [ -79.082072072645147, 35.895195243361847 ] ] } },
{ "type": "Feature", "properties": { "FEEDER_NAME": "Left DC/Plantation", "SUBSTATION_NAME": "Carrboro", "wmType": "SECONDARY OVERHEAD", "WKT": "LINESTRING (-79.08207666351635 35.89549229964646, -79.0823196641057 35.89548229905319)" }, "geometry": { "type": "LineString", "coordinates": [ [ -79.082076663516347, 35.895492299646463 ], [ -79.082319664105697, 35.895482299053192 ] ] } },
{ "type": "Feature", "properties": { "FEEDER_NAME": "Left DC/Plantation", "SUBSTATION_NAME": "Carrboro", "wmType": "SECONDARY OVERHEAD", "WKT": "LINESTRING (-79.08186166301678 35.89549529944061, -79.08207666351635 35.89549229964646)" }, "geometry": { "type": "LineString", "coordinates": [ [ -79.081861663016781, 35.895495299440611 ], [ -79.082076663516347, 35.895492299646463 ] ] } },
{ "type": "Feature", "properties": { "FEEDER_NAME": "Left DC/Plantation", "SUBSTATION_NAME": "Carrboro", "wmType": "SECONDARY OVERHEAD", "WKT": "LINESTRING (-79.08522169051476 35.888129528670525, -79.08551167185513 35.88789128428092)" }, "geometry": { "type": "LineString", "coordinates": [ [ -79.085221690514757, 35.888129528670525 ], [ -79.08551167185513, 35.887891284280919 ] ] } },
{ "type": "Feature", "properties": { "FEEDER_NAME": "Left DC/Plantation", "SUBSTATION_NAME": "Carrboro", "wmType": "SECONDARY OVERHEAD", "WKT": "LINESTRING (-79.08551167185513 35.88789128428092, -79.08547167144447 35.887677284439654)" }, "geometry": { "type": "LineString", "coordinates": [ [ -79.08551167185513, 35.887891284280919 ], [ -79.085471671444466, 35.887677284439654 ] ] } },
{ "type": "Feature", "properties": { "FEEDER_NAME": "Left DC/Plantation", "SUBSTATION_NAME": "Carrboro", "wmType": "SECONDARY OVERHEAD", "WKT": "LINESTRING (-79.07688448332014 35.89415563087966, -79.07691489284035 35.89420582900295, -79.07665329841554 35.894643004631604, -79.07661061581206 35.89471093779617, -79.07654922546541 35.89470311962804)" }, "geometry": { "type": "LineString", "coordinates": [ [ -79.076884483320143, 35.894155630879659 ], [ -79.07691489284035, 35.894205829002949 ], [ -79.076653298415536, 35.894643004631604 ], [ -79.076610615812058, 35.89471093779617 ], [ -79.076549225465413, 35.894703119628041 ] ] } },
{ "type": "Feature", "properties": { "FEEDER_NAME": "Left DC/Plantation", "SUBSTATION_NAME": "Carrboro", "wmType": "SECONDARY OVERHEAD", "WKT": "LINESTRING (-79.08440188082012 35.89925700951529, -79.08428755690085 35.89904152573064)" }, "geometry": { "type": "LineString", "coordinates": [ [ -79.084401880820124, 35.899257009515289 ], [ -79.084287556900847, 35.899041525730638 ] ] } },
{ "type": "Feature", "properties": { "FEEDER_NAME": "Left DC/Plantation", "SUBSTATION_NAME": "Carrboro", "wmType": "SECONDARY OVERHEAD", "WKT": "LINESTRING (-79.0823196641057 35.89548229905319, -79.08239066405542 35.89565429997878)" }, "geometry": { "type": "LineString", "coordinates": [ [ -79.082319664105697, 35.895482299053192 ], [ -79.082390664055424, 35.89565429997878 ] ] } },
{ "type": "Feature", "properties": { "FEEDER_NAME": "Left DC/Plantation", "SUBSTATION_NAME": "Carrboro", "wmType": "SECONDARY OVERHEAD", "WKT": "LINESTRING (-79.08239066405542 35.89565429997878, -79.08228466378654 35.895720299478654)" }, "geometry": { "type": "LineString", "coordinates": [ [ -79.082390664055424, 35.89565429997878 ], [ -79.082284663786538, 35.895720299478654 ] ] } },
{ "type": "Feature", "properties": { "FEEDER_NAME": "Left DC/Plantation", "SUBSTATION_NAME": "Carrboro", "wmType": "SECONDARY OVERHEAD", "WKT": "LINESTRING (-79.08259966500908 35.89340629513422, -79.08295950854945 35.8937472052534)" }, "geometry": { "type": "LineString", "coordinates": [ [ -79.082599665009084, 35.89340629513422 ], [ -79.08295950854945, 35.893747205253398 ] ] } },
{ "type": "Feature", "properties": { "FEEDER_NAME": "Left DC/Plantation", "SUBSTATION_NAME": "Carrboro", "wmType": "SECONDARY OVERHEAD", "WKT": "LINESTRING (-79.08239066405542 35.89565429997878, -79.08232973103371 35.89565736229645)" }, "geometry": { "type": "LineString", "coordinates": [ [ -79.082390664055424, 35.89565429997878 ], [ -79.08232973103371, 35.895657362296447 ] ] } },
{ "type": "Feature", "properties": { "FEEDER_NAME": "Left DC/Plantation", "SUBSTATION_NAME": "Carrboro", "wmType": "SECONDARY OVERHEAD", "WKT": "LINESTRING (-79.07711668847695 35.89431866798405, -79.07710213894094 35.894320959292315, -79.07688448332014 35.89415563087966)" }, "geometry": { "type": "LineString", "coordinates": [ [ -79.077116688476949, 35.894318667984052 ], [ -79.077102138940944, 35.894320959292315 ], [ -79.076884483320143, 35.894155630879659 ] ] } },
{ "type": "Feature", "properties": { "FEEDER_NAME": "Left DC/Plantation", "SUBSTATION_NAME": "Carrboro", "wmType": "SECONDARY OVERHEAD", "WKT": "LINESTRING (-79.07654922546541 35.89470311962804, -79.07646520508878 35.894753986264114)" }, "geometry": { "type": "LineString", "coordinates": [ [ -79.076549225465413, 35.894703119628041 ], [ -79.07646520508878, 35.894753986264114 ] ] } },
{ "type": "Feature", "properties": { "FEEDER_NAME": "Left DC/Plantation", "SUBSTATION_NAME": "Carrboro", "wmType": "SECONDARY OVERHEAD", "WKT": "LINESTRING (-79.07688448332014 35.89415563087966, -79.07676531677699 35.89414822776505)" }, "geometry": { "type": "LineString", "coordinates": [ [ -79.076884483320143, 35.894155630879659 ], [ -79.076765316776985, 35.894148227765051 ] ] } },
{ "type": "Feature", "properties": { "FEEDER_NAME": "Left DC/Plantation", "SUBSTATION_NAME": "Carrboro", "wmType": "SECONDARY OVERHEAD", "WKT": "LINESTRING (-79.07688448332014 35.89415563087966, -79.076540341077 35.89388062737065)" }, "geometry": { "type": "LineString", "coordinates": [ [ -79.076884483320143, 35.894155630879659 ], [ -79.076540341077006, 35.893880627370649 ] ] } },
{ "type": "Feature", "properties": { "FEEDER_NAME": "Left DC/Plantation", "SUBSTATION_NAME": "Carrboro", "wmType": "SECONDARY OVERHEAD", "WKT": "LINESTRING (-79.08876032051222 35.901048215774495, -79.08875010677758 35.90104117589186, -79.08873381979232 35.90095109768477)" }, "geometry": { "type": "LineString", "coordinates": [ [ -79.088760320512222, 35.901048215774495 ], [ -79.088750106777582, 35.901041175891862 ], [ -79.088733819792324, 35.900951097684768 ] ] } },
{ "type": "Feature", "properties": { "FEEDER_NAME": "Left DC/Plantation", "SUBSTATION_NAME": "Carrboro", "wmType": "SECONDARY OVERHEAD", "WKT": "LINESTRING (-79.0799766589369 35.89449229696606, -79.07980664570674 35.89444615496439)" }, "geometry": { "type": "LineString", "coordinates": [ [ -79.0799766589369, 35.894492296966057 ], [ -79.079806645706739, 35.894446154964392 ] ] } },
{ "type": "Feature", "properties": { "FEEDER_NAME": "Left DC/Plantation", "SUBSTATION_NAME": "Carrboro", "wmType": "SECONDARY OVERHEAD", "WKT": "LINESTRING (-79.0807253057641 35.88636429674968, -79.08066274541143 35.88644884683772)" }, "geometry": { "type": "LineString", "coordinates": [ [ -79.080725305764105, 35.886364296749683 ], [ -79.080662745411431, 35.886448846837723 ] ] } },
{ "type": "Feature", "properties": { "FEEDER_NAME": "Left DC/Plantation", "SUBSTATION_NAME": "Carrboro", "wmType": "SECONDARY OVERHEAD", "WKT": "LINESTRING (-79.08227578902873 35.893518364570674, -79.08215266383722 35.89338329542671)" }, "geometry": { "type": "LineString", "coordinates": [ [ -79.082275789028728, 35.893518364570674 ], [ -79.082152663837221, 35.893383295426709 ] ] } },
{ "type": "Feature", "properties": { "FEEDER_NAME": "Left DC/Plantation", "SUBSTATION_NAME": "Carrboro", "wmType": "SECONDARY OVERHEAD", "WKT": "LINESTRING (-79.08215266383722 35.89338329542671, -79.08208223402826 35.89348975492446, -79.08207470639657 35.89351824854858, -79.08190791663601 35.893817671663186)" }, "geometry": { "type": "LineString", "coordinates": [ [ -79.082152663837221, 35.893383295426709 ], [ -79.082082234028263, 35.89348975492446 ], [ -79.082074706396568, 35.893518248548581 ], [ -79.081907916636013, 35.893817671663186 ] ] } },
{ "type": "Feature", "properties": { "FEEDER_NAME": "Left DC/Plantation", "SUBSTATION_NAME": "Carrboro", "wmType": "PRIMARY OVERHEAD", "WKT": "LINESTRING (-79.07487486720319 35.899445405542274, -79.07561151547466 35.89959911251679)" }, "geometry": { "type": "LineString", "coordinates": [ [ -79.074874867203192, 35.899445405542274 ], [ -79.075611515474662, 35.899599112516789 ] ] } },
{ "type": "Feature", "properties": { "FEEDER_NAME": "Left DC/Plantation", "SUBSTATION_NAME": "Carrboro", "wmType": "PRIMARY OVERHEAD", "WKT": "LINESTRING (-79.07899015049485 35.90082771109182, -79.07943831822895 35.9008436093846)" }, "geometry": { "type": "LineString", "coordinates": [ [ -79.078990150494846, 35.900827711091821 ], [ -79.079438318228952, 35.900843609384602 ] ] } },
{ "type": "Feature", "properties": { "FEEDER_NAME": "Left DC/Plantation", "SUBSTATION_NAME": "Carrboro", "wmType": "PRIMARY OVERHEAD", "WKT": "LINESTRING (-79.07844648457984 35.90082658641239, -79.07899015049485 35.90082771109182)" }, "geometry": { "type": "LineString", "coordinates": [ [ -79.078446484579842, 35.900826586412393 ], [ -79.078990150494846, 35.900827711091821 ] ] } },
{ "type": "Feature", "properties": { "FEEDER_NAME": "Left DC/Plantation", "SUBSTATION_NAME": "Carrboro", "wmType": "PRIMARY OVERHEAD", "WKT": "LINESTRING (-79.08058520181469 35.90087196586992, -79.08115578266438 35.900878572804395)" }, "geometry": { "type": "LineString", "coordinates": [ [ -79.080585201814685, 35.900871965869918 ], [ -79.081155782664382, 35.900878572804395 ] ] } },
{ "type": "Feature", "properties": { "FEEDER_NAME": "Left DC/Plantation", "SUBSTATION_NAME": "Carrboro", "wmType": "PRIMARY OVERHEAD", "WKT": "LINESTRING (-79.0753007389465 35.89826784759856, -79.07511849371174 35.89867847095887)" }, "geometry": { "type": "LineString", "coordinates": [ [ -79.075300738946495, 35.898267847598561 ], [ -79.075118493711742, 35.89867847095887 ] ] } },
{ "type": "Feature", "properties": { "FEEDER_NAME": "Left DC/Plantation", "SUBSTATION_NAME": "Carrboro", "wmType": "PRIMARY OVERHEAD", "WKT": "LINESTRING (-79.07511849371174 35.89867847095887, -79.07503348750538 35.898867192004744)" }, "geometry": { "type": "LineString", "coordinates": [ [ -79.075118493711742, 35.89867847095887 ], [ -79.07503348750538, 35.898867192004744 ] ] } },
{ "type": "Feature", "properties": { "FEEDER_NAME": "Left DC/Plantation", "SUBSTATION_NAME": "Carrboro", "wmType": "PRIMARY OVERHEAD", "WKT": "LINESTRING (-79.07503348750538 35.898867192004744, -79.07487486720319 35.899445405542274)" }, "geometry": { "type": "LineString", "coordinates": [ [ -79.07503348750538, 35.898867192004744 ], [ -79.074874867203192, 35.899445405542274 ] ] } },
{ "type": "Feature", "properties": { "FEEDER_NAME": "Left DC/Plantation", "SUBSTATION_NAME": "Carrboro", "wmType": "PRIMARY OVERHEAD", "WKT": "LINESTRING (-79.07561151547466 35.89959911251679, -79.07617949132815 35.89992509072106)" }, "geometry": { "type": "LineString", "coordinates": [ [ -79.075611515474662, 35.899599112516789 ], [ -79.076179491328148, 35.899925090721062 ] ] } },
{ "type": "Feature", "properties": { "FEEDER_NAME": "Left DC/Plantation", "SUBSTATION_NAME": "Carrboro", "wmType": "PRIMARY OVERHEAD", "WKT": "LINESTRING (-79.08709733408796 35.90043375720195, -79.08753853806707 35.90096913189208)" }, "geometry": { "type": "LineString", "coordinates": [ [ -79.087097334087957, 35.900433757201952 ], [ -79.087538538067065, 35.900969131892083 ] ] } },
{ "type": "Feature", "properties": { "FEEDER_NAME": "Left DC/Plantation", "SUBSTATION_NAME": "Carrboro", "wmType": "PRIMARY OVERHEAD", "WKT": "LINESTRING (-79.08036698618533 35.89119106035887, -79.08005066996563 35.891602479830645)" }, "geometry": { "type": "LineString", "coordinates": [ [ -79.080366986185325, 35.891191060358871 ], [ -79.08005066996563, 35.891602479830645 ] ] } },
{ "type": "Feature", "properties": { "FEEDER_NAME": "Left DC/Plantation", "SUBSTATION_NAME": "Carrboro", "wmType": "PRIMARY OVERHEAD", "WKT": "LINESTRING (-79.08204615555456 35.883449046121335, -79.08246200255252 35.883494318914)" }, "geometry": { "type": "LineString", "coordinates": [ [ -79.082046155554565, 35.883449046121335 ], [ -79.082462002552518, 35.883494318914003 ] ] } },
{ "type": "Feature", "properties": { "FEEDER_NAME": "Left DC/Plantation", "SUBSTATION_NAME": "Carrboro", "wmType": "PRIMARY OVERHEAD", "WKT": "LINESTRING (-79.08195349747315 35.88371315669665, -79.08204615555456 35.883449046121335)" }, "geometry": { "type": "LineString", "coordinates": [ [ -79.081953497473151, 35.883713156696651 ], [ -79.082046155554565, 35.883449046121335 ] ] } },
{ "type": "Feature", "properties": { "FEEDER_NAME": "Left DC/Plantation", "SUBSTATION_NAME": "Carrboro", "wmType": "PRIMARY OVERHEAD", "WKT": "LINESTRING (-79.08187603811044 35.8839962791573, -79.08195349747315 35.88371315669665)" }, "geometry": { "type": "LineString", "coordinates": [ [ -79.081876038110437, 35.883996279157302 ], [ -79.081953497473151, 35.883713156696651 ] ] } },
{ "type": "Feature", "properties": { "FEEDER_NAME": "Left DC/Plantation", "SUBSTATION_NAME": "Carrboro", "wmType": "PRIMARY OVERHEAD", "WKT": "LINESTRING (-79.07530400541326 35.89771031239203, -79.0753007389465 35.89826784759856)" }, "geometry": { "type": "LineString", "coordinates": [ [ -79.075304005413258, 35.897710312392029 ], [ -79.075300738946495, 35.898267847598561 ] ] } },
{ "type": "Feature", "properties": { "FEEDER_NAME": "Left DC/Plantation", "SUBSTATION_NAME": "Carrboro", "wmType": "PRIMARY OVERHEAD", "WKT": "LINESTRING (-79.08246200255252 35.883494318914, -79.08276465303392 35.88348924686151)" }, "geometry": { "type": "LineString", "coordinates": [ [ -79.082462002552518, 35.883494318914003 ], [ -79.082764653033919, 35.883489246861508 ] ] } },
{ "type": "Feature", "properties": { "FEEDER_NAME": "Left DC/Plantation", "SUBSTATION_NAME": "Carrboro", "wmType": "PRIMARY OVERHEAD", "WKT": "LINESTRING (-79.08276465303392 35.88348924686151, -79.08268298845321 35.884129859043504)" }, "geometry": { "type": "LineString", "coordinates": [ [ -79.082764653033919, 35.883489246861508 ], [ -79.082682988453215, 35.884129859043504 ] ] } },
{ "type": "Feature", "properties": { "FEEDER_NAME": "Left DC/Plantation", "SUBSTATION_NAME": "Carrboro", "wmType": "PRIMARY OVERHEAD", "WKT": "LINESTRING (-79.08268298845321 35.884129859043504, -79.08269142016148 35.884762766861215)" }, "geometry": { "type": "LineString", "coordinates": [ [ -79.082682988453215, 35.884129859043504 ], [ -79.082691420161481, 35.884762766861215 ] ] } },
{ "type": "Feature", "properties": { "FEEDER_NAME": "Left DC/Plantation", "SUBSTATION_NAME": "Carrboro", "wmType": "PRIMARY OVERHEAD", "WKT": "LINESTRING (-79.08269142016148 35.884762766861215, -79.08269928283379 35.88542608696129)" }, "geometry": { "type": "LineString", "coordinates": [ [ -79.082691420161481, 35.884762766861215 ], [ -79.082699282833786, 35.885426086961289 ] ] } },
{ "type": "Feature", "properties": { "FEEDER_NAME": "Left DC/Plantation", "SUBSTATION_NAME": "Carrboro", "wmType": "PRIMARY OVERHEAD", "WKT": "LINESTRING (-79.08269928283379 35.88542608696129, -79.08270819957004 35.88598725070308)" }, "geometry": { "type": "LineString", "coordinates": [ [ -79.082699282833786, 35.885426086961289 ], [ -79.082708199570035, 35.885987250703081 ] ] } },
{ "type": "Feature", "properties": { "FEEDER_NAME": "Left DC/Plantation", "SUBSTATION_NAME": "Carrboro", "wmType": "PRIMARY OVERHEAD", "WKT": "LINESTRING (-79.08270819957004 35.88598725070308, -79.08271331362393 35.8863932661671)" }, "geometry": { "type": "LineString", "coordinates": [ [ -79.082708199570035, 35.885987250703081 ], [ -79.082713313623927, 35.886393266167097 ] ] } },
{ "type": "Feature", "properties": { "FEEDER_NAME": "Left DC/Plantation", "SUBSTATION_NAME": "Carrboro", "wmType": "PRIMARY OVERHEAD", "WKT": "LINESTRING (-79.08258448116618 35.886391389496424, -79.0807253057641 35.88636429674968)" }, "geometry": { "type": "LineString", "coordinates": [ [ -79.08258448116618, 35.886391389496424 ], [ -79.080725305764105, 35.886364296749683 ] ] } },
{ "type": "Feature", "properties": { "FEEDER_NAME": "Left DC/Plantation", "SUBSTATION_NAME": "Carrboro", "wmType": "PRIMARY OVERHEAD", "WKT": "LINESTRING (-79.08271331362393 35.8863932661671, -79.08233012692193 35.88708868831652)" }, "geometry": { "type": "LineString", "coordinates": [ [ -79.082713313623927, 35.886393266167097 ], [ -79.082330126921931, 35.887088688316517 ] ] } },
{ "type": "Feature", "properties": { "FEEDER_NAME": "Left DC/Plantation", "SUBSTATION_NAME": "Carrboro", "wmType": "PRIMARY OVERHEAD", "WKT": "LINESTRING (-79.08233012692193 35.88708868831652, -79.0819901693397 35.88771916045191)" }, "geometry": { "type": "LineString", "coordinates": [ [ -79.082330126921931, 35.887088688316517 ], [ -79.081990169339704, 35.887719160451908 ] ] } },
{ "type": "Feature", "properties": { "FEEDER_NAME": "Left DC/Plantation", "SUBSTATION_NAME": "Carrboro", "wmType": "PRIMARY OVERHEAD", "WKT": "LINESTRING (-79.0819901693397 35.88771916045191, -79.08164454667272 35.888359592959674)" }, "geometry": { "type": "LineString", "coordinates": [ [ -79.081990169339704, 35.887719160451908 ], [ -79.08164454667272, 35.888359592959674 ] ] } },
{ "type": "Feature", "properties": { "FEEDER_NAME": "Left DC/Plantation", "SUBSTATION_NAME": "Carrboro", "wmType": "PRIMARY OVERHEAD", "WKT": "LINESTRING (-79.08164454667272 35.888359592959674, -79.08135784541705 35.88887740419149)" }, "geometry": { "type": "LineString", "coordinates": [ [ -79.08164454667272, 35.888359592959674 ], [ -79.081357845417045, 35.88887740419149 ] ] } },
{ "type": "Feature", "properties": { "FEEDER_NAME": "Left DC/Plantation", "SUBSTATION_NAME": "Carrboro", "wmType": "PRIMARY OVERHEAD", "WKT": "LINESTRING (-79.08135784541705 35.88887740419149, -79.08095787410892 35.88960982594333)" }, "geometry": { "type": "LineString", "coordinates": [ [ -79.081357845417045, 35.88887740419149 ], [ -79.080957874108918, 35.889609825943332 ] ] } },
{ "type": "Feature", "properties": { "FEEDER_NAME": "Left DC/Plantation", "SUBSTATION_NAME": "Carrboro", "wmType": "PRIMARY OVERHEAD", "WKT": "LINESTRING (-79.08099757038136 35.88961211956486, -79.08182406020508 35.889659874617216)" }, "geometry": { "type": "LineString", "coordinates": [ [ -79.080997570381356, 35.889612119564859 ], [ -79.081824060205079, 35.889659874617216 ] ] } },
{ "type": "Feature", "properties": { "FEEDER_NAME": "Left DC/Plantation", "SUBSTATION_NAME": "Carrboro", "wmType": "PRIMARY OVERHEAD", "WKT": "LINESTRING (-79.08095787410892 35.88960982594333, -79.08075510634397 35.8899784599138)" }, "geometry": { "type": "LineString", "coordinates": [ [ -79.080957874108918, 35.889609825943332 ], [ -79.080755106343972, 35.889978459913799 ] ] } },
{ "type": "Feature", "properties": { "FEEDER_NAME": "Left DC/Plantation", "SUBSTATION_NAME": "Carrboro", "wmType": "PRIMARY OVERHEAD", "WKT": "LINESTRING (-79.08075510634397 35.8899784599138, -79.08066434678204 35.890701339566604)" }, "geometry": { "type": "LineString", "coordinates": [ [ -79.080755106343972, 35.889978459913799 ], [ -79.080664346782044, 35.890701339566604 ] ] } },
{ "type": "Feature", "properties": { "FEEDER_NAME": "Left DC/Plantation", "SUBSTATION_NAME": "Carrboro", "wmType": "PRIMARY OVERHEAD", "WKT": "LINESTRING (-79.08066434678204 35.890701339566604, -79.08047535516269 35.89099882527286)" }, "geometry": { "type": "LineString", "coordinates": [ [ -79.080664346782044, 35.890701339566604 ], [ -79.08047535516269, 35.89099882527286 ] ] } },
{ "type": "Feature", "properties": { "FEEDER_NAME": "Left DC/Plantation", "SUBSTATION_NAME": "Carrboro", "wmType": "PRIMARY OVERHEAD", "WKT": "LINESTRING (-79.08047535516269 35.89099882527286, -79.08036698618533 35.89119106035887)" }, "geometry": { "type": "LineString", "coordinates": [ [ -79.08047535516269, 35.89099882527286 ], [ -79.080366986185325, 35.891191060358871 ] ] } },
{ "type": "Feature", "properties": { "FEEDER_NAME": "Left DC/Plantation", "SUBSTATION_NAME": "Carrboro", "wmType": "PRIMARY OVERHEAD", "WKT": "LINESTRING (-79.08005066996563 35.891602479830645, -79.07979665963411 35.891934291925374)" }, "geometry": { "type": "LineString", "coordinates": [ [ -79.08005066996563, 35.891602479830645 ], [ -79.079796659634113, 35.891934291925374 ] ] } },
{ "type": "Feature", "properties": { "FEEDER_NAME": "Left DC/Plantation", "SUBSTATION_NAME": "Carrboro", "wmType": "PRIMARY OVERHEAD", "WKT": "LINESTRING (-79.07979665963411 35.891934291925374, -79.07912906999923 35.892542463134674)" }, "geometry": { "type": "LineString", "coordinates": [ [ -79.079796659634113, 35.891934291925374 ], [ -79.079129069999226, 35.892542463134674 ] ] } },
{ "type": "Feature", "properties": { "FEEDER_NAME": "Left DC/Plantation", "SUBSTATION_NAME": "Carrboro", "wmType": "PRIMARY OVERHEAD", "WKT": "LINESTRING (-79.07912906999923 35.892542463134674, -79.07826836605786 35.892895573386724)" }, "geometry": { "type": "LineString", "coordinates": [ [ -79.079129069999226, 35.892542463134674 ], [ -79.078268366057856, 35.892895573386724 ] ] } },
{ "type": "Feature", "properties": { "FEEDER_NAME": "Left DC/Plantation", "SUBSTATION_NAME": "Carrboro", "wmType": "PRIMARY OVERHEAD", "WKT": "LINESTRING (-79.07826836605786 35.892895573386724, -79.0777699421802 35.893338652779065)" }, "geometry": { "type": "LineString", "coordinates": [ [ -79.078268366057856, 35.892895573386724 ], [ -79.077769942180197, 35.893338652779065 ] ] } },
{ "type": "Feature", "properties": { "FEEDER_NAME": "Left DC/Plantation", "SUBSTATION_NAME": "Carrboro", "wmType": "PRIMARY OVERHEAD", "WKT": "LINESTRING (-79.0777699421802 35.893338652779065, -79.07739072110158 35.8936609350561)" }, "geometry": { "type": "LineString", "coordinates": [ [ -79.077769942180197, 35.893338652779065 ], [ -79.07739072110158, 35.893660935056097 ] ] } },
{ "type": "Feature", "properties": { "FEEDER_NAME": "Left DC/Plantation", "SUBSTATION_NAME": "Carrboro", "wmType": "PRIMARY OVERHEAD", "WKT": "LINESTRING (-79.07739072110158 35.8936609350561, -79.07698219448116 35.89408569714132)" }, "geometry": { "type": "LineString", "coordinates": [ [ -79.07739072110158, 35.893660935056097 ], [ -79.076982194481161, 35.894085697141321 ] ] } },
{ "type": "Feature", "properties": { "FEEDER_NAME": "Left DC/Plantation", "SUBSTATION_NAME": "Carrboro", "wmType": "PRIMARY OVERHEAD", "WKT": "LINESTRING (-79.07698219448116 35.89408569714132, -79.0769223617975 35.894170739067356)" }, "geometry": { "type": "LineString", "coordinates": [ [ -79.076982194481161, 35.894085697141321 ], [ -79.0769223617975, 35.894170739067356 ] ] } },
{ "type": "Feature", "properties": { "FEEDER_NAME": "Left DC/Plantation", "SUBSTATION_NAME": "Carrboro", "wmType": "PRIMARY OVERHEAD", "WKT": "LINESTRING (-79.0769223617975 35.894170739067356, -79.07659581179652 35.89471362487776)" }, "geometry": { "type": "LineString", "coordinates": [ [ -79.0769223617975, 35.894170739067356 ], [ -79.076595811796523, 35.89471362487776 ] ] } },
{ "type": "Feature", "properties": { "FEEDER_NAME": "Left DC/Plantation", "SUBSTATION_NAME": "Carrboro", "wmType": "PRIMARY OVERHEAD", "WKT": "LINESTRING (-79.07659581179652 35.89471362487776, -79.07631630844044 35.895280221635836)" }, "geometry": { "type": "LineString", "coordinates": [ [ -79.076595811796523, 35.89471362487776 ], [ -79.07631630844044, 35.895280221635836 ] ] } },
{ "type": "Feature", "properties": { "FEEDER_NAME": "Left DC/Plantation", "SUBSTATION_NAME": "Carrboro", "wmType": "PRIMARY OVERHEAD", "WKT": "LINESTRING (-79.07631630844044 35.895280221635836, -79.07616377093666 35.89555027037621)" }, "geometry": { "type": "LineString", "coordinates": [ [ -79.07631630844044, 35.895280221635836 ], [ -79.07616377093666, 35.895550270376212 ] ] } },
{ "type": "Feature", "properties": { "FEEDER_NAME": "Left DC/Plantation", "SUBSTATION_NAME": "Carrboro", "wmType": "PRIMARY OVERHEAD", "WKT": "LINESTRING (-79.07616377093666 35.89555027037621, -79.0760369684462 35.89582095000142)" }, "geometry": { "type": "LineString", "coordinates": [ [ -79.07616377093666, 35.895550270376212 ], [ -79.076036968446203, 35.895820950001422 ] ] } },
{ "type": "Feature", "properties": { "FEEDER_NAME": "Left DC/Plantation", "SUBSTATION_NAME": "Carrboro", "wmType": "PRIMARY OVERHEAD", "WKT": "LINESTRING (-79.0760369684462 35.89582095000142, -79.07586511442989 35.89625916731068)" }, "geometry": { "type": "LineString", "coordinates": [ [ -79.076036968446203, 35.895820950001422 ], [ -79.075865114429888, 35.896259167310681 ] ] } },
{ "type": "Feature", "properties": { "FEEDER_NAME": "Left DC/Plantation", "SUBSTATION_NAME": "Carrboro", "wmType": "PRIMARY OVERHEAD", "WKT": "LINESTRING (-79.07586511442989 35.89625916731068, -79.07569543572042 35.89670973447437)" }, "geometry": { "type": "LineString", "coordinates": [ [ -79.075865114429888, 35.896259167310681 ], [ -79.075695435720419, 35.896709734474371 ] ] } },
{ "type": "Feature", "properties": { "FEEDER_NAME": "Left DC/Plantation", "SUBSTATION_NAME": "Carrboro", "wmType": "PRIMARY OVERHEAD", "WKT": "LINESTRING (-79.07569543572042 35.89670973447437, -79.07530400541326 35.89771031239203)" }, "geometry": { "type": "LineString", "coordinates": [ [ -79.075695435720419, 35.896709734474371 ], [ -79.075304005413258, 35.897710312392029 ] ] } },
{ "type": "Feature", "properties": { "FEEDER_NAME": "Left DC/Plantation", "SUBSTATION_NAME": "Carrboro", "wmType": "PRIMARY OVERHEAD", "WKT": "LINESTRING (-79.07617949132815 35.89992509072106, -79.07684369511115 35.900236047598845)" }, "geometry": { "type": "LineString", "coordinates": [ [ -79.076179491328148, 35.899925090721062 ], [ -79.076843695111151, 35.900236047598845 ] ] } },
{ "type": "Feature", "properties": { "FEEDER_NAME": "Left DC/Plantation", "SUBSTATION_NAME": "Carrboro", "wmType": "PRIMARY OVERHEAD", "WKT": "LINESTRING (-79.07684369511115 35.900236047598845, -79.07734799942585 35.90053835151924)" }, "geometry": { "type": "LineString", "coordinates": [ [ -79.076843695111151, 35.900236047598845 ], [ -79.077347999425854, 35.900538351519238 ] ] } },
{ "type": "Feature", "properties": { "FEEDER_NAME": "Left DC/Plantation", "SUBSTATION_NAME": "Carrboro", "wmType": "PRIMARY OVERHEAD", "WKT": "LINESTRING (-79.07734799942585 35.90053835151924, -79.07793751266595 35.90081226005867)" }, "geometry": { "type": "LineString", "coordinates": [ [ -79.077347999425854, 35.900538351519238 ], [ -79.077937512665955, 35.900812260058672 ] ] } },
{ "type": "Feature", "properties": { "FEEDER_NAME": "Left DC/Plantation", "SUBSTATION_NAME": "Carrboro", "wmType": "PRIMARY OVERHEAD", "WKT": "LINESTRING (-79.07793751266595 35.90081226005867, -79.07844648457984 35.90082658641239)" }, "geometry": { "type": "LineString", "coordinates": [ [ -79.077937512665955, 35.900812260058672 ], [ -79.078446484579842, 35.900826586412393 ] ] } },
{ "type": "Feature", "properties": { "FEEDER_NAME": "Left DC/Plantation", "SUBSTATION_NAME": "Carrboro", "wmType": "PRIMARY OVERHEAD", "WKT": "LINESTRING (-79.07943831822895 35.9008436093846, -79.07997152130054 35.90086375496284)" }, "geometry": { "type": "LineString", "coordinates": [ [ -79.079438318228952, 35.900843609384602 ], [ -79.079971521300536, 35.900863754962842 ] ] } },
{ "type": "Feature", "properties": { "FEEDER_NAME": "Left DC/Plantation", "SUBSTATION_NAME": "Carrboro", "wmType": "PRIMARY OVERHEAD", "WKT": "LINESTRING (-79.07997152130054 35.90086375496284, -79.08058520181469 35.90087196586992)" }, "geometry": { "type": "LineString", "coordinates": [ [ -79.079971521300536, 35.900863754962842 ], [ -79.080585201814685, 35.900871965869918 ] ] } },
{ "type": "Feature", "properties": { "FEEDER_NAME": "Left DC/Plantation", "SUBSTATION_NAME": "Carrboro", "wmType": "PRIMARY OVERHEAD", "WKT": "LINESTRING (-79.08115578266438 35.900878572804395, -79.08164079848162 35.900884985593834)" }, "geometry": { "type": "LineString", "coordinates": [ [ -79.081155782664382, 35.900878572804395 ], [ -79.081640798481615, 35.900884985593834 ] ] } },
{ "type": "Feature", "properties": { "FEEDER_NAME": "Left DC/Plantation", "SUBSTATION_NAME": "Carrboro", "wmType": "PRIMARY OVERHEAD", "WKT": "LINESTRING (-79.08164079848162 35.900884985593834, -79.08156088770481 35.900333236856326)" }, "geometry": { "type": "LineString", "coordinates": [ [ -79.081640798481615, 35.900884985593834 ], [ -79.081560887704811, 35.900333236856326 ] ] } },
{ "type": "Feature", "properties": { "FEEDER_NAME": "Left DC/Plantation", "SUBSTATION_NAME": "Carrboro", "wmType": "PRIMARY OVERHEAD", "WKT": "LINESTRING (-79.08156088770481 35.900333236856326, -79.08155445428429 35.89972486746222)" }, "geometry": { "type": "LineString", "coordinates": [ [ -79.081560887704811, 35.900333236856326 ], [ -79.081554454284287, 35.899724867462218 ] ] } },
{ "type": "Feature", "properties": { "FEEDER_NAME": "Left DC/Plantation", "SUBSTATION_NAME": "Carrboro", "wmType": "PRIMARY OVERHEAD", "WKT": "LINESTRING (-79.08155445428429 35.89972486746222, -79.08154066180398 35.89914030636081)" }, "geometry": { "type": "LineString", "coordinates": [ [ -79.081554454284287, 35.899724867462218 ], [ -79.081540661803984, 35.899140306360813 ] ] } },
{ "type": "Feature", "properties": { "FEEDER_NAME": "Left DC/Plantation", "SUBSTATION_NAME": "Carrboro", "wmType": "PRIMARY OVERHEAD", "WKT": "LINESTRING (-79.08154066180398 35.89914030636081, -79.08234286039679 35.89929496539372)" }, "geometry": { "type": "LineString", "coordinates": [ [ -79.081540661803984, 35.899140306360813 ], [ -79.082342860396793, 35.899294965393722 ] ] } },
{ "type": "Feature", "properties": { "FEEDER_NAME": "Left DC/Plantation", "SUBSTATION_NAME": "Carrboro", "wmType": "PRIMARY OVERHEAD", "WKT": "LINESTRING (-79.08234286039679 35.89929496539372, -79.08289227200274 35.89942131526941)" }, "geometry": { "type": "LineString", "coordinates": [ [ -79.082342860396793, 35.899294965393722 ], [ -79.082892272002738, 35.899421315269407 ] ] } },
{ "type": "Feature", "properties": { "FEEDER_NAME": "Left DC/Plantation", "SUBSTATION_NAME": "Carrboro", "wmType": "PRIMARY OVERHEAD", "WKT": "LINESTRING (-79.08289227200274 35.89942131526941, -79.08314386494484 35.89947903590205)" }, "geometry": { "type": "LineString", "coordinates": [ [ -79.082892272002738, 35.899421315269407 ], [ -79.083143864944844, 35.899479035902047 ] ] } },
{ "type": "Feature", "properties": { "FEEDER_NAME": "Left DC/Plantation", "SUBSTATION_NAME": "Carrboro", "wmType": "PRIMARY OVERHEAD", "WKT": "LINESTRING (-79.08314386494484 35.89947903590205, -79.08399716345266 35.89968067938464)" }, "geometry": { "type": "LineString", "coordinates": [ [ -79.083143864944844, 35.899479035902047 ], [ -79.083997163452665, 35.899680679384637 ] ] } },
{ "type": "Feature", "properties": { "FEEDER_NAME": "Left DC/Plantation", "SUBSTATION_NAME": "Carrboro", "wmType": "PRIMARY OVERHEAD", "WKT": "LINESTRING (-79.08399716345266 35.89968067938464, -79.08461676236129 35.89983203667058)" }, "geometry": { "type": "LineString", "coordinates": [ [ -79.083997163452665, 35.899680679384637 ], [ -79.084616762361293, 35.899832036670581 ] ] } },
{ "type": "Feature", "properties": { "FEEDER_NAME": "Left DC/Plantation", "SUBSTATION_NAME": "Carrboro", "wmType": "PRIMARY OVERHEAD", "WKT": "LINESTRING (-79.08461676236129 35.89983203667058, -79.08533832535078 35.8999986381323)" }, "geometry": { "type": "LineString", "coordinates": [ [ -79.084616762361293, 35.899832036670581 ], [ -79.085338325350776, 35.899998638132303 ] ] } },
{ "type": "Feature", "properties": { "FEEDER_NAME": "Left DC/Plantation", "SUBSTATION_NAME": "Carrboro", "wmType": "PRIMARY OVERHEAD", "WKT": "LINESTRING (-79.08533832535078 35.8999986381323, -79.0854478960377 35.89956956389136)" }, "geometry": { "type": "LineString", "coordinates": [ [ -79.085338325350776, 35.899998638132303 ], [ -79.085447896037707, 35.899569563891362 ] ] } },
{ "type": "Feature", "properties": { "FEEDER_NAME": "Left DC/Plantation", "SUBSTATION_NAME": "Carrboro", "wmType": "PRIMARY OVERHEAD", "WKT": "LINESTRING (-79.0854478960377 35.89956956389136, -79.08430220966797 35.89904836734082)" }, "geometry": { "type": "LineString", "coordinates": [ [ -79.085447896037707, 35.899569563891362 ], [ -79.084302209667968, 35.899048367340818 ] ] } },
{ "type": "Feature", "properties": { "FEEDER_NAME": "Left DC/Plantation", "SUBSTATION_NAME": "Carrboro", "wmType": "PRIMARY OVERHEAD", "WKT": "LINESTRING (-79.0854478960377 35.89956956389136, -79.08554745213983 35.89882110493843)" }, "geometry": { "type": "LineString", "coordinates": [ [ -79.085447896037707, 35.899569563891362 ], [ -79.085547452139835, 35.898821104938428 ] ] } },
{ "type": "Feature", "properties": { "FEEDER_NAME": "Left DC/Plantation", "SUBSTATION_NAME": "Carrboro", "wmType": "PRIMARY OVERHEAD", "WKT": "LINESTRING (-79.08533832535078 35.8999986381323, -79.08574271557003 35.90008063397697)" }, "geometry": { "type": "LineString", "coordinates": [ [ -79.085338325350776, 35.899998638132303 ], [ -79.085742715570035, 35.90008063397697 ] ] } },
{ "type": "Feature", "properties": { "FEEDER_NAME": "Left DC/Plantation", "SUBSTATION_NAME": "Carrboro", "wmType": "PRIMARY OVERHEAD", "WKT": "LINESTRING (-79.08574271557003 35.90008063397697, -79.08626240287649 35.900170499243856)" }, "geometry": { "type": "LineString", "coordinates": [ [ -79.085742715570035, 35.90008063397697 ], [ -79.086262402876486, 35.900170499243856 ] ] } },
{ "type": "Feature", "properties": { "FEEDER_NAME": "Left DC/Plantation", "SUBSTATION_NAME": "Carrboro", "wmType": "PRIMARY OVERHEAD", "WKT": "LINESTRING (-79.08626240287649 35.900170499243856, -79.08657892675079 35.900403639480956)" }, "geometry": { "type": "LineString", "coordinates": [ [ -79.086262402876486, 35.900170499243856 ], [ -79.086578926750789, 35.900403639480956 ] ] } },
{ "type": "Feature", "properties": { "FEEDER_NAME": "Left DC/Plantation", "SUBSTATION_NAME": "Carrboro", "wmType": "PRIMARY OVERHEAD", "WKT": "LINESTRING (-79.08657892675079 35.900403639480956, -79.08709733408796 35.90043375720195)" }, "geometry": { "type": "LineString", "coordinates": [ [ -79.086578926750789, 35.900403639480956 ], [ -79.087097334087957, 35.900433757201952 ] ] } },
{ "type": "Feature", "properties": { "FEEDER_NAME": "Left DC/Plantation", "SUBSTATION_NAME": "Carrboro", "wmType": "PRIMARY OVERHEAD", "WKT": "LINESTRING (-79.08753853806707 35.90096913189208, -79.08876032051222 35.901048215774495)" }, "geometry": { "type": "LineString", "coordinates": [ [ -79.087538538067065, 35.900969131892083 ], [ -79.088760320512222, 35.901048215774495 ] ] } },
{ "type": "Feature", "properties": { "FEEDER_NAME": "Left DC/Plantation", "SUBSTATION_NAME": "Carrboro", "wmType": "PRIMARY OVERHEAD", "WKT": "LINESTRING (-79.08876032051222 35.901048215774495, -79.08932060051548 35.90140002738741)" }, "geometry": { "type": "LineString", "coordinates": [ [ -79.088760320512222, 35.901048215774495 ], [ -79.089320600515478, 35.90140002738741 ] ] } },
{ "type": "Feature", "properties": { "FEEDER_NAME": "Left DC/Plantation", "SUBSTATION_NAME": "Carrboro", "wmType": "PRIMARY OVERHEAD", "WKT": "LINESTRING (-79.08932060051548 35.90140002738741, -79.09010048703608 35.90199277643104)" }, "geometry": { "type": "LineString", "coordinates": [ [ -79.089320600515478, 35.90140002738741 ], [ -79.090100487036082, 35.901992776431037 ] ] } },
{ "type": "Feature", "properties": { "FEEDER_NAME": "Left DC/Plantation", "SUBSTATION_NAME": "Carrboro", "wmType": "PRIMARY OVERHEAD", "WKT": "LINESTRING (-79.09010048703608 35.90199277643104, -79.09087056324158 35.90258160249079)" }, "geometry": { "type": "LineString", "coordinates": [ [ -79.090100487036082, 35.901992776431037 ], [ -79.09087056324158, 35.902581602490791 ] ] } },
{ "type": "Feature", "properties": { "FEEDER_NAME": "Left DC/Plantation", "SUBSTATION_NAME": "Carrboro", "wmType": "PRIMARY OVERHEAD", "WKT": "LINESTRING (-79.07616377093666 35.89555027037621, -79.0768226530755 35.89537829873159)" }, "geometry": { "type": "LineString", "coordinates": [ [ -79.07616377093666, 35.895550270376212 ], [ -79.076822653075496, 35.895378298731593 ] ] } },
{ "type": "Feature", "properties": { "FEEDER_NAME": "Left DC/Plantation", "SUBSTATION_NAME": "Carrboro", "wmType": "PRIMARY OVERHEAD", "WKT": "LINESTRING (-79.07688357757388 35.895379087754044, -79.07751765434669 35.89538729852093)" }, "geometry": { "type": "LineString", "coordinates": [ [ -79.076883577573881, 35.895379087754044 ], [ -79.077517654346693, 35.89538729852093 ] ] } },
{ "type": "Feature", "properties": { "FEEDER_NAME": "Left DC/Plantation", "SUBSTATION_NAME": "Carrboro", "wmType": "PRIMARY OVERHEAD", "WKT": "LINESTRING (-79.07751765434669 35.89538729852093, -79.07816934434375 35.89541099540134)" }, "geometry": { "type": "LineString", "coordinates": [ [ -79.077517654346693, 35.89538729852093 ], [ -79.078169344343749, 35.895410995401342 ] ] } },
{ "type": "Feature", "properties": { "FEEDER_NAME": "Left DC/Plantation", "SUBSTATION_NAME": "Carrboro", "wmType": "PRIMARY OVERHEAD", "WKT": "LINESTRING (-79.07816934434375 35.89541099540134, -79.07903445101587 35.895548155180606)" }, "geometry": { "type": "LineString", "coordinates": [ [ -79.078169344343749, 35.895410995401342 ], [ -79.079034451015872, 35.895548155180606 ] ] } },
{ "type": "Feature", "properties": { "FEEDER_NAME": "Left DC/Plantation", "SUBSTATION_NAME": "Carrboro", "wmType": "PRIMARY OVERHEAD", "WKT": "LINESTRING (-79.07903445101587 35.895548155180606, -79.07999523323421 35.89543569111141)" }, "geometry": { "type": "LineString", "coordinates": [ [ -79.079034451015872, 35.895548155180606 ], [ -79.079995233234214, 35.895435691111409 ] ] } },
{ "type": "Feature", "properties": { "FEEDER_NAME": "Left DC/Plantation", "SUBSTATION_NAME": "Carrboro", "wmType": "PRIMARY OVERHEAD", "WKT": "LINESTRING (-79.07999523323421 35.89543569111141, -79.08088138353261 35.89557883932401)" }, "geometry": { "type": "LineString", "coordinates": [ [ -79.079995233234214, 35.895435691111409 ], [ -79.080881383532613, 35.89557883932401 ] ] } },
{ "type": "Feature", "properties": { "FEEDER_NAME": "Left DC/Plantation", "SUBSTATION_NAME": "Carrboro", "wmType": "PRIMARY OVERHEAD", "WKT": "LINESTRING (-79.08088138353261 35.89557883932401, -79.08151884981159 35.895496092297705)" }, "geometry": { "type": "LineString", "coordinates": [ [ -79.080881383532613, 35.89557883932401 ], [ -79.081518849811587, 35.895496092297705 ] ] } },
{ "type": "Feature", "properties": { "FEEDER_NAME": "Left DC/Plantation", "SUBSTATION_NAME": "Carrboro", "wmType": "PRIMARY OVERHEAD", "WKT": "LINESTRING (-79.08151884981159 35.895496092297705, -79.08149438739613 35.895614831613635)" }, "geometry": { "type": "LineString", "coordinates": [ [ -79.081518849811587, 35.895496092297705 ], [ -79.081494387396134, 35.895614831613635 ] ] } },
{ "type": "Feature", "properties": { "FEEDER_NAME": "Left DC/Plantation", "SUBSTATION_NAME": "Carrboro", "wmType": "PRIMARY OVERHEAD", "WKT": "LINESTRING (-79.07693902907889 35.89418342708951, -79.07711668847695 35.89431866798405)" }, "geometry": { "type": "LineString", "coordinates": [ [ -79.076939029078886, 35.894183427089509 ], [ -79.077116688476949, 35.894318667984052 ] ] } },
{ "type": "Feature", "properties": { "FEEDER_NAME": "Left DC/Plantation", "SUBSTATION_NAME": "Carrboro", "wmType": "PRIMARY OVERHEAD", "WKT": "LINESTRING (-79.08061675012104 35.890640051342615, -79.08042355828313 35.890391285846135)" }, "geometry": { "type": "LineString", "coordinates": [ [ -79.080616750121038, 35.890640051342615 ], [ -79.08042355828313, 35.890391285846135 ] ] } },
{ "type": "Feature", "properties": { "FEEDER_NAME": "Left DC/Plantation", "SUBSTATION_NAME": "Carrboro", "wmType": "PRIMARY OVERHEAD", "WKT": "LINESTRING (-79.08237647400573 35.88711252823979, -79.08278583176738 35.88732309020024)" }, "geometry": { "type": "LineString", "coordinates": [ [ -79.082376474005727, 35.88711252823979 ], [ -79.082785831767382, 35.88732309020024 ] ] } },
{ "type": "Feature", "properties": { "FEEDER_NAME": "Left DC/Plantation", "SUBSTATION_NAME": "Carrboro", "wmType": "PRIMARY OVERHEAD", "WKT": "LINESTRING (-79.08278583176738 35.88732309020024, -79.08325685108267 35.88749339854048)" }, "geometry": { "type": "LineString", "coordinates": [ [ -79.082785831767382, 35.88732309020024 ], [ -79.083256851082666, 35.887493398540478 ] ] } },
{ "type": "Feature", "properties": { "FEEDER_NAME": "Left DC/Plantation", "SUBSTATION_NAME": "Carrboro", "wmType": "PRIMARY OVERHEAD", "WKT": "LINESTRING (-79.08325685108267 35.88749339854048, -79.08380271132543 35.88759178587206)" }, "geometry": { "type": "LineString", "coordinates": [ [ -79.083256851082666, 35.887493398540478 ], [ -79.083802711325433, 35.887591785872061 ] ] } },
{ "type": "Feature", "properties": { "FEEDER_NAME": "Left DC/Plantation", "SUBSTATION_NAME": "Carrboro", "wmType": "PRIMARY OVERHEAD", "WKT": "LINESTRING (-79.08380271132543 35.88759178587206, -79.08467985190549 35.88778260497429)" }, "geometry": { "type": "LineString", "coordinates": [ [ -79.083802711325433, 35.887591785872061 ], [ -79.084679851905491, 35.887782604974291 ] ] } },
{ "type": "Feature", "properties": { "FEEDER_NAME": "Left DC/Plantation", "SUBSTATION_NAME": "Carrboro", "wmType": "PRIMARY OVERHEAD", "WKT": "LINESTRING (-79.08467985190549 35.88778260497429, -79.08522169051476 35.888129528670525)" }, "geometry": { "type": "LineString", "coordinates": [ [ -79.084679851905491, 35.887782604974291 ], [ -79.085221690514757, 35.888129528670525 ] ] } },
{ "type": "Feature", "properties": { "FEEDER_NAME": "Left DC/Plantation", "SUBSTATION_NAME": "Carrboro", "wmType": "PRIMARY OVERHEAD", "WKT": "LINESTRING (-79.08522169051476 35.888129528670525, -79.08646436766975 35.88823359738435)" }, "geometry": { "type": "LineString", "coordinates": [ [ -79.085221690514757, 35.888129528670525 ], [ -79.086464367669748, 35.88823359738435 ] ] } },
{ "type": "Feature", "properties": { "FEEDER_NAME": "Left DC/Plantation", "SUBSTATION_NAME": "Carrboro", "wmType": "PRIMARY OVERHEAD", "WKT": "LINESTRING (-79.08646436766975 35.88823359738435, -79.08713639431322 35.888267130161836)" }, "geometry": { "type": "LineString", "coordinates": [ [ -79.086464367669748, 35.88823359738435 ], [ -79.08713639431322, 35.888267130161836 ] ] } },
{ "type": "Feature", "properties": { "FEEDER_NAME": "Left DC/Plantation", "SUBSTATION_NAME": "Carrboro", "wmType": "PRIMARY OVERHEAD", "WKT": "LINESTRING (-79.08713639431322 35.888267130161836, -79.08774816005032 35.88829976793885)" }, "geometry": { "type": "LineString", "coordinates": [ [ -79.08713639431322, 35.888267130161836 ], [ -79.087748160050324, 35.888299767938847 ] ] } },
{ "type": "Feature", "properties": { "FEEDER_NAME": "Left DC/Plantation", "SUBSTATION_NAME": "Carrboro", "wmType": "PRIMARY OVERHEAD", "WKT": "LINESTRING (-79.08774816005032 35.88829976793885, -79.08871003261393 35.88840832820252)" }, "geometry": { "type": "LineString", "coordinates": [ [ -79.087748160050324, 35.888299767938847 ], [ -79.088710032613932, 35.888408328202523 ] ] } },
{ "type": "Feature", "properties": { "FEEDER_NAME": "Left DC/Plantation", "SUBSTATION_NAME": "Carrboro", "wmType": "PRIMARY OVERHEAD", "WKT": "LINESTRING (-79.08871003261393 35.88840832820252, -79.08937002914378 35.88839831332244)" }, "geometry": { "type": "LineString", "coordinates": [ [ -79.088710032613932, 35.888408328202523 ], [ -79.08937002914378, 35.88839831332244 ] ] } },
{ "type": "Feature", "properties": { "FEEDER_NAME": "Left DC/Plantation", "SUBSTATION_NAME": "Carrboro", "wmType": "PRIMARY OVERHEAD", "WKT": "LINESTRING (-79.08937002914378 35.88839831332244, -79.08984835355358 35.88859166705332)" }, "geometry": { "type": "LineString", "coordinates": [ [ -79.08937002914378, 35.88839831332244 ], [ -79.089848353553577, 35.888591667053319 ] ] } },
{ "type": "Feature", "properties": { "FEEDER_NAME": "Left DC/Plantation", "SUBSTATION_NAME": "Carrboro", "wmType": "PRIMARY OVERHEAD", "WKT": "LINESTRING (-79.08984835355358 35.88859166705332, -79.08985558424344 35.8889005289927)" }, "geometry": { "type": "LineString", "coordinates": [ [ -79.089848353553577, 35.888591667053319 ], [ -79.089855584243438, 35.8889005289927 ] ] } },
{ "type": "Feature", "properties": { "FEEDER_NAME": "Left DC/Plantation", "SUBSTATION_NAME": "Carrboro", "wmType": "PRIMARY OVERHEAD", "WKT": "LINESTRING (-79.08985558424344 35.8889005289927, -79.09030034699757 35.889268792220996)" }, "geometry": { "type": "LineString", "coordinates": [ [ -79.089855584243438, 35.8889005289927 ], [ -79.090300346997566, 35.889268792220996 ] ] } },
{ "type": "Feature", "properties": { "FEEDER_NAME": "Left DC/Plantation", "SUBSTATION_NAME": "Carrboro", "wmType": "PRIMARY OVERHEAD", "WKT": "LINESTRING (-79.09030034699757 35.889268792220996, -79.0904154174402 35.88937244145664)" }, "geometry": { "type": "LineString", "coordinates": [ [ -79.090300346997566, 35.889268792220996 ], [ -79.090415417440198, 35.889372441456644 ] ] } },
{ "type": "Feature", "properties": { "FEEDER_NAME": "Left DC/Plantation", "SUBSTATION_NAME": "Carrboro", "wmType": "PRIMARY OVERHEAD", "WKT": "LINESTRING (-79.0904154174402 35.88937244145664, -79.09101632964006 35.88956166085918)" }, "geometry": { "type": "LineString", "coordinates": [ [ -79.090415417440198, 35.889372441456644 ], [ -79.091016329640055, 35.889561660859179 ] ] } },
{ "type": "Feature", "properties": { "FEEDER_NAME": "Left DC/Plantation", "SUBSTATION_NAME": "Carrboro", "wmType": "PRIMARY OVERHEAD", "WKT": "LINESTRING (-79.09101632964006 35.88956166085918, -79.09182917485225 35.88940797864122)" }, "geometry": { "type": "LineString", "coordinates": [ [ -79.091016329640055, 35.889561660859179 ], [ -79.091829174852251, 35.889407978641223 ] ] } },
{ "type": "Feature", "properties": { "FEEDER_NAME": "Left DC/Plantation", "SUBSTATION_NAME": "Carrboro", "wmType": "PRIMARY OVERHEAD", "WKT": "LINESTRING (-79.09182917485225 35.88940797864122, -79.09287405934059 35.88949633350215)" }, "geometry": { "type": "LineString", "coordinates": [ [ -79.091829174852251, 35.889407978641223 ], [ -79.092874059340588, 35.889496333502152 ] ] } },
{ "type": "Feature", "properties": { "FEEDER_NAME": "Left DC/Plantation", "SUBSTATION_NAME": "Carrboro", "wmType": "PRIMARY OVERHEAD", "WKT": "LINESTRING (-79.09287405934059 35.88949633350215, -79.09276797249845 35.89013313281727)" }, "geometry": { "type": "LineString", "coordinates": [ [ -79.092874059340588, 35.889496333502152 ], [ -79.09276797249845, 35.890133132817269 ] ] } },
{ "type": "Feature", "properties": { "FEEDER_NAME": "Left DC/Plantation", "SUBSTATION_NAME": "Carrboro", "wmType": "PRIMARY OVERHEAD", "WKT": "LINESTRING (-79.08270819957004 35.88598725070308, -79.08303830551675 35.886192692982114)" }, "geometry": { "type": "LineString", "coordinates": [ [ -79.082708199570035, 35.885987250703081 ], [ -79.083038305516752, 35.886192692982114 ] ] } },
{ "type": "Feature", "properties": { "FEEDER_NAME": "Left DC/Plantation", "SUBSTATION_NAME": "Carrboro", "wmType": "PRIMARY OVERHEAD", "WKT": "LINESTRING (-79.08272889768415 35.88542892854371, -79.08305706483357 35.8854604136732)" }, "geometry": { "type": "LineString", "coordinates": [ [ -79.082728897684149, 35.88542892854371 ], [ -79.083057064833568, 35.885460413673201 ] ] } },
{ "type": "Feature", "properties": { "FEEDER_NAME": "Left DC/Plantation", "SUBSTATION_NAME": "Carrboro", "wmType": "PRIMARY OVERHEAD", "WKT": "LINESTRING (-79.0768226530755 35.89537829873159, -79.07688357757388 35.895379087754044)" }, "geometry": { "type": "LineString", "coordinates": [ [ -79.076822653075496, 35.895378298731593 ], [ -79.076883577573881, 35.895379087754044 ] ] } },
{ "type": "Feature", "properties": { "FEEDER_NAME": "Left DC/Plantation", "SUBSTATION_NAME": "Carrboro", "wmType": "SECONDARY OVERHEAD", "WKT": "LINESTRING (-79.08190791663601 35.893817671663186, -79.08179371833094 35.89387614495255, -79.08171467088873 35.893958470253835, -79.08168401657603 35.89407653513642, -79.08153978429566 35.89416282824078)" }, "geometry": { "type": "LineString", "coordinates": [ [ -79.081907916636013, 35.893817671663186 ], [ -79.081793718330943, 35.89387614495255 ], [ -79.081714670888729, 35.893958470253835 ], [ -79.081684016576034, 35.894076535136421 ], [ -79.081539784295657, 35.894162828240781 ] ] } },
{ "type": "Feature", "properties": { "FEEDER_NAME": "Left DC/Plantation", "SUBSTATION_NAME": "Carrboro", "wmType": "SECONDARY OVERHEAD", "WKT": "LINESTRING (-79.08428755690085 35.89904152573064, -79.08422250537555 35.89882612769321)" }, "geometry": { "type": "LineString", "coordinates": [ [ -79.084287556900847, 35.899041525730638 ], [ -79.08422250537555, 35.898826127693212 ] ] } },
{ "type": "Feature", "properties": { "FEEDER_NAME": "Left DC/Plantation", "SUBSTATION_NAME": "Carrboro", "wmType": "SECONDARY OVERHEAD", "WKT": "LINESTRING (-79.08430220966797 35.89904836734082, -79.0843135364082 35.89904088768127)" }, "geometry": { "type": "LineString", "coordinates": [ [ -79.084302209667968, 35.899048367340818 ], [ -79.084313536408203, 35.899040887681267 ] ] } },
{ "type": "Feature", "properties": { "FEEDER_NAME": "Left DC/Plantation", "SUBSTATION_NAME": "Carrboro", "wmType": "SECONDARY OVERHEAD", "WKT": "LINESTRING (-79.08554745213983 35.89882110493843, -79.08559587385497 35.89869744773292)" }, "geometry": { "type": "LineString", "coordinates": [ [ -79.085547452139835, 35.898821104938428 ], [ -79.08559587385497, 35.898697447732921 ] ] } },
{ "type": "Feature", "properties": { "FEEDER_NAME": "Left DC/Plantation", "SUBSTATION_NAME": "Carrboro", "wmType": "SECONDARY OVERHEAD", "WKT": "LINESTRING (-79.08554745213983 35.89882110493843, -79.08550139240918 35.89875259554554)" }, "geometry": { "type": "LineString", "coordinates": [ [ -79.085547452139835, 35.898821104938428 ], [ -79.085501392409185, 35.898752595545538 ] ] } },
{ "type": "Feature", "properties": { "FEEDER_NAME": "Left DC/Plantation", "SUBSTATION_NAME": "Carrboro", "wmType": "SECONDARY OVERHEAD", "WKT": "LINESTRING (-79.08554745213983 35.89882110493843, -79.08533169504577 35.898946665657)" }, "geometry": { "type": "LineString", "coordinates": [ [ -79.085547452139835, 35.898821104938428 ], [ -79.085331695045767, 35.898946665657 ] ] } },
{ "type": "Feature", "properties": { "FEEDER_NAME": "Left DC/Plantation", "SUBSTATION_NAME": "Carrboro", "wmType": "SECONDARY OVERHEAD", "WKT": "LINESTRING (-79.08554745213983 35.89882110493843, -79.08576969870369 35.89886229455193)" }, "geometry": { "type": "LineString", "coordinates": [ [ -79.085547452139835, 35.898821104938428 ], [ -79.085769698703686, 35.898862294551932 ] ] } },
{ "type": "Feature", "properties": { "FEEDER_NAME": "Left DC/Plantation", "SUBSTATION_NAME": "Carrboro", "wmType": "SECONDARY OVERHEAD", "WKT": "LINESTRING (-79.08576969870369 35.89886229455193, -79.08588029850468 35.89910465565102)" }, "geometry": { "type": "LineString", "coordinates": [ [ -79.085769698703686, 35.898862294551932 ], [ -79.085880298504676, 35.899104655651023 ] ] } },
{ "type": "Feature", "properties": { "FEEDER_NAME": "Left DC/Plantation", "SUBSTATION_NAME": "Carrboro", "wmType": "SECONDARY OVERHEAD", "WKT": "LINESTRING (-79.0854478960377 35.89956956389136, -79.0850770896917 35.89947002134142)" }, "geometry": { "type": "LineString", "coordinates": [ [ -79.085447896037707, 35.899569563891362 ], [ -79.085077089691694, 35.899470021341422 ] ] } },
{ "type": "Feature", "properties": { "FEEDER_NAME": "Left DC/Plantation", "SUBSTATION_NAME": "Carrboro", "wmType": "SECONDARY OVERHEAD", "WKT": "LINESTRING (-79.0850770896917 35.89947002134142, -79.08479319072183 35.89935515276511)" }, "geometry": { "type": "LineString", "coordinates": [ [ -79.085077089691694, 35.899470021341422 ], [ -79.084793190721825, 35.899355152765111 ] ] } },
{ "type": "Feature", "properties": { "FEEDER_NAME": "Left DC/Plantation", "SUBSTATION_NAME": "Carrboro", "wmType": "SECONDARY OVERHEAD", "WKT": "LINESTRING (-79.08479319072183 35.89935515276511, -79.0849381649344 35.89919672839882)" }, "geometry": { "type": "LineString", "coordinates": [ [ -79.084793190721825, 35.899355152765111 ], [ -79.0849381649344, 35.89919672839882 ] ] } },
{ "type": "Feature", "properties": { "FEEDER_NAME": "Left DC/Plantation", "SUBSTATION_NAME": "Carrboro", "wmType": "SECONDARY OVERHEAD", "WKT": "LINESTRING (-79.08479319072183 35.89935515276511, -79.08440188082012 35.89925700951529)" }, "geometry": { "type": "LineString", "coordinates": [ [ -79.084793190721825, 35.899355152765111 ], [ -79.084401880820124, 35.899257009515289 ] ] } },
{ "type": "Feature", "properties": { "FEEDER_NAME": "Left DC/Plantation", "SUBSTATION_NAME": "Carrboro", "wmType": "SECONDARY OVERHEAD", "WKT": "LINESTRING (-79.0850770896917 35.89947002134142, -79.08499500064993 35.89914833371477)" }, "geometry": { "type": "LineString", "coordinates": [ [ -79.085077089691694, 35.899470021341422 ], [ -79.084995000649926, 35.89914833371477 ] ] } },
{ "type": "Feature", "properties": { "FEEDER_NAME": "Left DC/Plantation", "SUBSTATION_NAME": "Carrboro", "wmType": "SECONDARY OVERHEAD", "WKT": "LINESTRING (-79.0854478960377 35.89956956389136, -79.08572639728469 35.89938786160381)" }, "geometry": { "type": "LineString", "coordinates": [ [ -79.085447896037707, 35.899569563891362 ], [ -79.085726397284688, 35.899387861603813 ] ] } },
{ "type": "Feature", "properties": { "FEEDER_NAME": "Left DC/Plantation", "SUBSTATION_NAME": "Carrboro", "wmType": "SECONDARY OVERHEAD", "WKT": "LINESTRING (-79.08289227200274 35.89942131526941, -79.08313242586914 35.89951207207592)" }, "geometry": { "type": "LineString", "coordinates": [ [ -79.082892272002738, 35.899421315269407 ], [ -79.083132425869138, 35.899512072075922 ] ] } },
{ "type": "Feature", "properties": { "FEEDER_NAME": "Left DC/Plantation", "SUBSTATION_NAME": "Carrboro", "wmType": "SECONDARY OVERHEAD", "WKT": "LINESTRING (-79.07903445101587 35.895548155180606, -79.07908765669019 35.895340298937285)" }, "geometry": { "type": "LineString", "coordinates": [ [ -79.079034451015872, 35.895548155180606 ], [ -79.079087656690191, 35.895340298937285 ] ] } },
{ "type": "Feature", "properties": { "FEEDER_NAME": "Left DC/Plantation", "SUBSTATION_NAME": "Carrboro", "wmType": "SECONDARY OVERHEAD", "WKT": "LINESTRING (-79.0768226530755 35.89537829873159, -79.0764622611266 35.89542947786676)" }, "geometry": { "type": "LineString", "coordinates": [ [ -79.076822653075496, 35.895378298731593 ], [ -79.076462261126593, 35.895429477866763 ] ] } },
{ "type": "Feature", "properties": { "FEEDER_NAME": "Left DC/Plantation", "SUBSTATION_NAME": "Carrboro", "wmType": "SECONDARY OVERHEAD", "WKT": "LINESTRING (-79.0768226530755 35.89537829873159, -79.07642477981437 35.89552676328249)" }, "geometry": { "type": "LineString", "coordinates": [ [ -79.076822653075496, 35.895378298731593 ], [ -79.076424779814374, 35.89552676328249 ] ] } },
{ "type": "Feature", "properties": { "FEEDER_NAME": "Left DC/Plantation", "SUBSTATION_NAME": "Carrboro", "wmType": "SECONDARY OVERHEAD", "WKT": "LINESTRING (-79.07711668847695 35.89431866798405, -79.07742953733693 35.89432859963462)" }, "geometry": { "type": "LineString", "coordinates": [ [ -79.077116688476949, 35.894318667984052 ], [ -79.077429537336926, 35.894328599634619 ] ] } },
{ "type": "Feature", "properties": { "FEEDER_NAME": "Left DC/Plantation", "SUBSTATION_NAME": "Carrboro", "wmType": "SECONDARY OVERHEAD", "WKT": "LINESTRING (-79.07654922546541 35.89470311962804, -79.07660958107739 35.894722461669794, -79.07633029483677 35.895281961423414, -79.07627170582886 35.89526514450886)" }, "geometry": { "type": "LineString", "coordinates": [ [ -79.076549225465413, 35.894703119628041 ], [ -79.076609581077392, 35.894722461669794 ], [ -79.076330294836765, 35.895281961423414 ], [ -79.076271705828859, 35.895265144508862 ] ] } },
{ "type": "Feature", "properties": { "FEEDER_NAME": "Left DC/Plantation", "SUBSTATION_NAME": "Carrboro", "wmType": "SECONDARY OVERHEAD", "WKT": "LINESTRING (-79.08005066996563 35.891602479830645, -79.08002423300022 35.89170583767202)" }, "geometry": { "type": "LineString", "coordinates": [ [ -79.08005066996563, 35.891602479830645 ], [ -79.080024233000216, 35.891705837672021 ] ] } },
{ "type": "Feature", "properties": { "FEEDER_NAME": "Left DC/Plantation", "SUBSTATION_NAME": "Carrboro", "wmType": "SECONDARY OVERHEAD", "WKT": "LINESTRING (-79.08135784541705 35.88887740419149, -79.08112837848972 35.888706429776725)" }, "geometry": { "type": "LineString", "coordinates": [ [ -79.081357845417045, 35.88887740419149 ], [ -79.081128378489723, 35.888706429776725 ] ] } },
{ "type": "Feature", "properties": { "FEEDER_NAME": "Left DC/Plantation", "SUBSTATION_NAME": "Carrboro", "wmType": "SECONDARY OVERHEAD", "WKT": "LINESTRING (-79.08112837848972 35.888706429776725, -79.08114423218974 35.88860321381902)" }, "geometry": { "type": "LineString", "coordinates": [ [ -79.081128378489723, 35.888706429776725 ], [ -79.081144232189743, 35.888603213819017 ] ] } },
{ "type": "Feature", "properties": { "FEEDER_NAME": "Left DC/Plantation", "SUBSTATION_NAME": "Carrboro", "wmType": "SECONDARY OVERHEAD", "WKT": "LINESTRING (-79.08467985190549 35.88778260497429, -79.08471300447681 35.888233480475975)" }, "geometry": { "type": "LineString", "coordinates": [ [ -79.084679851905491, 35.887782604974291 ], [ -79.084713004476811, 35.888233480475975 ] ] } },
{ "type": "Feature", "properties": { "FEEDER_NAME": "Left DC/Plantation", "SUBSTATION_NAME": "Carrboro", "wmType": "SECONDARY OVERHEAD", "WKT": "LINESTRING (-79.08471300447681 35.888233480475975, -79.0845389204101 35.88819814279169)" }, "geometry": { "type": "LineString", "coordinates": [ [ -79.084713004476811, 35.888233480475975 ], [ -79.084538920410097, 35.888198142791687 ] ] } },
{ "type": "Feature", "properties": { "FEEDER_NAME": "Left DC/Plantation", "SUBSTATION_NAME": "Carrboro", "wmType": "SECONDARY OVERHEAD", "WKT": "LINESTRING (-79.08380271132543 35.88759178587206, -79.08389548108676 35.887233048291044)" }, "geometry": { "type": "LineString", "coordinates": [ [ -79.083802711325433, 35.887591785872061 ], [ -79.083895481086756, 35.887233048291044 ] ] } },
{ "type": "Feature", "properties": { "FEEDER_NAME": "Left DC/Plantation", "SUBSTATION_NAME": "Carrboro", "wmType": "SECONDARY OVERHEAD", "WKT": "LINESTRING (-79.08389548108676 35.887233048291044, -79.08402552086875 35.88707498968616)" }, "geometry": { "type": "LineString", "coordinates": [ [ -79.083895481086756, 35.887233048291044 ], [ -79.084025520868749, 35.887074989686162 ] ] } },
{ "type": "Feature", "properties": { "FEEDER_NAME": "Left DC/Plantation", "SUBSTATION_NAME": "Carrboro", "wmType": "SECONDARY OVERHEAD", "WKT": "LINESTRING (-79.08380271132543 35.88759178587206, -79.08398299853127 35.8876995721827)" }, "geometry": { "type": "LineString", "coordinates": [ [ -79.083802711325433, 35.887591785872061 ], [ -79.083982998531269, 35.887699572182697 ] ] } },
{ "type": "Feature", "properties": { "FEEDER_NAME": "Left DC/Plantation", "SUBSTATION_NAME": "Carrboro", "wmType": "SECONDARY OVERHEAD", "WKT": "LINESTRING (-79.08398299853127 35.8876995721827, -79.08397190596268 35.888019262891)" }, "geometry": { "type": "LineString", "coordinates": [ [ -79.083982998531269, 35.887699572182697 ], [ -79.083971905962684, 35.888019262891 ] ] } },
{ "type": "Feature", "properties": { "FEEDER_NAME": "Left DC/Plantation", "SUBSTATION_NAME": "Carrboro", "wmType": "SECONDARY OVERHEAD", "WKT": "LINESTRING (-79.08380271132543 35.88759178587206, -79.08355526658899 35.88767030652279)" }, "geometry": { "type": "LineString", "coordinates": [ [ -79.083802711325433, 35.887591785872061 ], [ -79.083555266588988, 35.887670306522793 ] ] } },
{ "type": "Feature", "properties": { "FEEDER_NAME": "Left DC/Plantation", "SUBSTATION_NAME": "Carrboro", "wmType": "SECONDARY OVERHEAD", "WKT": "LINESTRING (-79.08355526658899 35.88767030652279, -79.08348873337144 35.887775569250394)" }, "geometry": { "type": "LineString", "coordinates": [ [ -79.083555266588988, 35.887670306522793 ], [ -79.083488733371439, 35.887775569250394 ] ] } },
{ "type": "Feature", "properties": { "FEEDER_NAME": "Left DC/Plantation", "SUBSTATION_NAME": "Carrboro", "wmType": "SECONDARY OVERHEAD", "WKT": "LINESTRING (-79.08348873337144 35.887775569250394, -79.08348027818204 35.887887259109625)" }, "geometry": { "type": "LineString", "coordinates": [ [ -79.083488733371439, 35.887775569250394 ], [ -79.083480278182037, 35.887887259109625 ] ] } },
{ "type": "Feature", "properties": { "FEEDER_NAME": "Left DC/Plantation", "SUBSTATION_NAME": "Carrboro", "wmType": "SECONDARY OVERHEAD", "WKT": "LINESTRING (-79.08325685108267 35.88749339854048, -79.08317767648954 35.88761575767671)" }, "geometry": { "type": "LineString", "coordinates": [ [ -79.083256851082666, 35.887493398540478 ], [ -79.083177676489541, 35.887615757676713 ] ] } },
{ "type": "Feature", "properties": { "FEEDER_NAME": "Left DC/Plantation", "SUBSTATION_NAME": "Carrboro", "wmType": "SECONDARY OVERHEAD", "WKT": "LINESTRING (-79.08270819957004 35.88598725070308, -79.08272196173566 35.88601914147056, -79.08300549874217 35.88619348232507)" }, "geometry": { "type": "LineString", "coordinates": [ [ -79.082708199570035, 35.885987250703081 ], [ -79.082721961735658, 35.886019141470562 ], [ -79.083005498742168, 35.886193482325069 ] ] } },
{ "type": "Feature", "properties": { "FEEDER_NAME": "Left DC/Plantation", "SUBSTATION_NAME": "Carrboro", "wmType": "SECONDARY OVERHEAD", "WKT": "LINESTRING (-79.08270819957004 35.88598725070308, -79.08257000713006 35.88606831539205)" }, "geometry": { "type": "LineString", "coordinates": [ [ -79.082708199570035, 35.885987250703081 ], [ -79.082570007130059, 35.886068315392052 ] ] } },
{ "type": "Feature", "properties": { "FEEDER_NAME": "Left DC/Plantation", "SUBSTATION_NAME": "Carrboro", "wmType": "SECONDARY OVERHEAD", "WKT": "LINESTRING (-79.08270819957004 35.88598725070308, -79.08241331531211 35.88588740836477)" }, "geometry": { "type": "LineString", "coordinates": [ [ -79.082708199570035, 35.885987250703081 ], [ -79.08241331531211, 35.885887408364773 ] ] } },
{ "type": "Feature", "properties": { "FEEDER_NAME": "Left DC/Plantation", "SUBSTATION_NAME": "Carrboro", "wmType": "SECONDARY OVERHEAD", "WKT": "LINESTRING (-79.08241331531211 35.88588740836477, -79.08232401121654 35.88597181785341)" }, "geometry": { "type": "LineString", "coordinates": [ [ -79.08241331531211, 35.885887408364773 ], [ -79.082324011216542, 35.88597181785341 ] ] } },
{ "type": "Feature", "properties": { "FEEDER_NAME": "Left DC/Plantation", "SUBSTATION_NAME": "Carrboro", "wmType": "PRIMARY OVERHEAD", "WKT": "LINESTRING (-79.08269928283379 35.88542608696129, -79.08272889768415 35.88542892854371)" }, "geometry": { "type": "LineString", "coordinates": [ [ -79.082699282833786, 35.885426086961289 ], [ -79.082728897684149, 35.88542892854371 ] ] } },
{ "type": "Feature", "properties": { "FEEDER_NAME": "Left DC/Plantation", "SUBSTATION_NAME": "Carrboro", "wmType": "PRIMARY OVERHEAD", "WKT": "LINESTRING (-79.08095787410892 35.88960982594333, -79.08099757038136 35.88961211956486)" }, "geometry": { "type": "LineString", "coordinates": [ [ -79.080957874108918, 35.889609825943332 ], [ -79.080997570381356, 35.889612119564859 ] ] } },
{ "type": "Feature", "properties": { "FEEDER_NAME": "Left DC/Plantation", "SUBSTATION_NAME": "Carrboro", "wmType": "PRIMARY OVERHEAD", "WKT": "LINESTRING (-79.08271331362393 35.8863932661671, -79.08258448116618 35.886391389496424)" }, "geometry": { "type": "LineString", "coordinates": [ [ -79.082713313623927, 35.886393266167097 ], [ -79.08258448116618, 35.886391389496424 ] ] } },
{ "type": "Feature", "properties": { "FEEDER_NAME": "Left DC/Plantation", "SUBSTATION_NAME": "Carrboro", "wmType": "PRIMARY OVERHEAD", "WKT": "LINESTRING (-79.0769223617975 35.894170739067356, -79.07693902907889 35.89418342708951)" }, "geometry": { "type": "LineString", "coordinates": [ [ -79.0769223617975, 35.894170739067356 ], [ -79.076939029078886, 35.894183427089509 ] ] } },
{ "type": "Feature", "properties": { "FEEDER_NAME": "Left DC/Plantation", "SUBSTATION_NAME": "Carrboro", "wmType": "PRIMARY OVERHEAD", "WKT": "LINESTRING (-79.08066434678204 35.890701339566604, -79.08061675012104 35.890640051342615)" }, "geometry": { "type": "LineString", "coordinates": [ [ -79.080664346782044, 35.890701339566604 ], [ -79.080616750121038, 35.890640051342615 ] ] } },
{ "type": "Feature", "properties": { "FEEDER_NAME": "Left DC/Plantation", "SUBSTATION_NAME": "Carrboro", "wmType": "PRIMARY OVERHEAD", "WKT": "LINESTRING (-79.08233012692193 35.88708868831652, -79.08237647400573 35.88711252823979)" }, "geometry": { "type": "LineString", "coordinates": [ [ -79.082330126921931, 35.887088688316517 ], [ -79.082376474005727, 35.88711252823979 ] ] } },
{ "type": "Feature", "properties": { "FEEDER_NAME": "Left DC/Plantation", "SUBSTATION_NAME": "Carrboro", "wmType": "PRIMARY OVERHEAD", "WKT": "LINESTRING (-79.08186757932397 35.88402207586612, -79.08187603811044 35.8839962791573)" }, "geometry": { "type": "LineString", "coordinates": [ [ -79.081867579323969, 35.88402207586612 ], [ -79.081876038110437, 35.883996279157302 ] ] } }
]
}
