{
"type": "FeatureCollection",
"name": "E__Willardsville_FAIRINTOSH_overhead",
"crs": { "type": "name", "properties": { "name": "urn:ogc:def:crs:OGC:1.3:CRS84" } },
"features": [
{ "type": "Feature", "properties": { "FEEDER_NAME": "FAIRINTOSH", "SUBSTATION_NAME": "E. Willardsville", "wmType": "SECONDARY OVERHEAD", "WKT": "LINESTRING (-78.82024562867491 36.13198744010015, -78.82022597114363 36.13226820284243)" }, "geometry": { "type": "LineString", "coordinates": [ [ -78.820245628674911, 36.131987440100147 ], [ -78.820225971143628, 36.132268202842432 ] ] } },
{ "type": "Feature", "properties": { "FEEDER_NAME": "FAIRINTOSH", "SUBSTATION_NAME": "E. Willardsville", "wmType": "SECONDARY OVERHEAD", "WKT": "LINESTRING (-78.82028478066351 36.13186270422263, -78.82024562867491 36.13198744010015)" }, "geometry": { "type": "LineString", "coordinates": [ [ -78.820284780663513, 36.131862704222627 ], [ -78.820245628674911, 36.131987440100147 ] ] } },
{ "type": "Feature", "properties": { "FEEDER_NAME": "FAIRINTOSH", "SUBSTATION_NAME": "E. Willardsville", "wmType": "SECONDARY OVERHEAD", "WKT": "LINESTRING (-78.82041145870834 36.1316953823927, -78.82028478066351 36.13186270422263)" }, "geometry": { "type": "LineString", "coordinates": [ [ -78.820411458708335, 36.131695382392699 ], [ -78.820284780663513, 36.131862704222627 ] ] } },
{ "type": "Feature", "properties": { "FEEDER_NAME": "FAIRINTOSH", "SUBSTATION_NAME": "E. Willardsville", "wmType": "SECONDARY OVERHEAD", "WKT": "LINESTRING (-78.86623045445256 36.102009089071025, -78.86601487594828 36.10208543827429)" }, "geometry": { "type": "LineString", "coordinates": [ [ -78.866230454452563, 36.102009089071025 ], [ -78.866014875948281, 36.102085438274287 ] ] } },
{ "type": "Feature", "properties": { "FEEDER_NAME": "FAIRINTOSH", "SUBSTATION_NAME": "E. Willardsville", "wmType": "SECONDARY OVERHEAD", "WKT": "LINESTRING (-78.86623045445256 36.102009089071025, -78.86655200465592 36.101837205270066)" }, "geometry": { "type": "LineString", "coordinates": [ [ -78.866230454452563, 36.102009089071025 ], [ -78.866552004655915, 36.101837205270066 ] ] } },
{ "type": "Feature", "properties": { "FEEDER_NAME": "FAIRINTOSH", "SUBSTATION_NAME": "E. Willardsville", "wmType": "SECONDARY OVERHEAD", "WKT": "LINESTRING (-78.86116917499727 36.0984346807031, -78.86113317491075 36.09827168007765)" }, "geometry": { "type": "LineString", "coordinates": [ [ -78.861169174997272, 36.0984346807031 ], [ -78.861133174910748, 36.098271680077652 ] ] } },
{ "type": "Feature", "properties": { "FEEDER_NAME": "FAIRINTOSH", "SUBSTATION_NAME": "E. Willardsville", "wmType": "SECONDARY OVERHEAD", "WKT": "LINESTRING (-78.81316324518474 36.126418096712555, -78.81350672279981 36.12628467953825)" }, "geometry": { "type": "LineString", "coordinates": [ [ -78.813163245184739, 36.126418096712555 ], [ -78.813506722799815, 36.126284679538252 ] ] } },
{ "type": "Feature", "properties": { "FEEDER_NAME": "FAIRINTOSH", "SUBSTATION_NAME": "E. Willardsville", "wmType": "SECONDARY OVERHEAD", "WKT": "LINESTRING (-78.83083933341666 36.104742893049945, -78.83093182595806 36.105108147875455)" }, "geometry": { "type": "LineString", "coordinates": [ [ -78.830839333416662, 36.104742893049945 ], [ -78.830931825958061, 36.105108147875455 ] ] } },
{ "type": "Feature", "properties": { "FEEDER_NAME": "FAIRINTOSH", "SUBSTATION_NAME": "E. Willardsville", "wmType": "SECONDARY OVERHEAD", "WKT": "LINESTRING (-78.82181818441573 36.141445368815276, -78.82187608638982 36.14139076165182)" }, "geometry": { "type": "LineString", "coordinates": [ [ -78.821818184415733, 36.141445368815276 ], [ -78.821876086389821, 36.14139076165182 ] ] } },
{ "type": "Feature", "properties": { "FEEDER_NAME": "FAIRINTOSH", "SUBSTATION_NAME": "E. Willardsville", "wmType": "SECONDARY OVERHEAD", "WKT": "LINESTRING (-78.86001317273107 36.0982776800189, -78.85988276056281 36.09856186717288)" }, "geometry": { "type": "LineString", "coordinates": [ [ -78.860013172731072, 36.098277680018903 ], [ -78.859882760562812, 36.098561867172883 ] ] } },
{ "type": "Feature", "properties": { "FEEDER_NAME": "FAIRINTOSH", "SUBSTATION_NAME": "E. Willardsville", "wmType": "SECONDARY OVERHEAD", "WKT": "LINESTRING (-78.82177809478645 36.13239979878178, -78.82174708810717 36.13229874355976)" }, "geometry": { "type": "LineString", "coordinates": [ [ -78.821778094786453, 36.132399798781783 ], [ -78.821747088107173, 36.132298743559758 ] ] } },
{ "type": "Feature", "properties": { "FEEDER_NAME": "FAIRINTOSH", "SUBSTATION_NAME": "E. Willardsville", "wmType": "SECONDARY OVERHEAD", "WKT": "LINESTRING (-78.82177809478645 36.13239979878178, -78.82129743613783 36.132331331196525)" }, "geometry": { "type": "LineString", "coordinates": [ [ -78.821778094786453, 36.132399798781783 ], [ -78.821297436137826, 36.132331331196525 ] ] } },
{ "type": "Feature", "properties": { "FEEDER_NAME": "FAIRINTOSH", "SUBSTATION_NAME": "E. Willardsville", "wmType": "SECONDARY OVERHEAD", "WKT": "LINESTRING (-78.84411466960712 36.12429338994902, -78.8440484150467 36.12402256713056)" }, "geometry": { "type": "LineString", "coordinates": [ [ -78.844114669607123, 36.124293389949017 ], [ -78.8440484150467, 36.124022567130559 ] ] } },
{ "type": "Feature", "properties": { "FEEDER_NAME": "FAIRINTOSH", "SUBSTATION_NAME": "E. Willardsville", "wmType": "SECONDARY OVERHEAD", "WKT": "LINESTRING (-78.83108769342469 36.107294783408584, -78.83150726158595 36.10720960154049)" }, "geometry": { "type": "LineString", "coordinates": [ [ -78.831087693424692, 36.107294783408584 ], [ -78.831507261585955, 36.10720960154049 ] ] } },
{ "type": "Feature", "properties": { "FEEDER_NAME": "FAIRINTOSH", "SUBSTATION_NAME": "E. Willardsville", "wmType": "SECONDARY OVERHEAD", "WKT": "LINESTRING (-78.83072957484104 36.10375905182567, -78.83043064615121 36.10380425201449)" }, "geometry": { "type": "LineString", "coordinates": [ [ -78.830729574841044, 36.103759051825669 ], [ -78.830430646151214, 36.103804252014491 ] ] } },
{ "type": "Feature", "properties": { "FEEDER_NAME": "FAIRINTOSH", "SUBSTATION_NAME": "E. Willardsville", "wmType": "SECONDARY OVERHEAD", "WKT": "LINESTRING (-78.83058445024378 36.10251576399999, -78.83068048800119 36.10220700038131)" }, "geometry": { "type": "LineString", "coordinates": [ [ -78.830584450243776, 36.102515763999989 ], [ -78.830680488001192, 36.102207000381313 ] ] } },
{ "type": "Feature", "properties": { "FEEDER_NAME": "FAIRINTOSH", "SUBSTATION_NAME": "E. Willardsville", "wmType": "SECONDARY OVERHEAD", "WKT": "LINESTRING (-78.83068048800119 36.10220700038131, -78.83086319541036 36.10197277152475)" }, "geometry": { "type": "LineString", "coordinates": [ [ -78.830680488001192, 36.102207000381313 ], [ -78.830863195410359, 36.10197277152475 ] ] } },
{ "type": "Feature", "properties": { "FEEDER_NAME": "FAIRINTOSH", "SUBSTATION_NAME": "E. Willardsville", "wmType": "SECONDARY OVERHEAD", "WKT": "LINESTRING (-78.8368611920078 36.119356240364816, -78.8372528909385 36.11916755176002)" }, "geometry": { "type": "LineString", "coordinates": [ [ -78.836861192007802, 36.119356240364816 ], [ -78.837252890938501, 36.119167551760022 ] ] } },
{ "type": "Feature", "properties": { "FEEDER_NAME": "FAIRINTOSH", "SUBSTATION_NAME": "E. Willardsville", "wmType": "SECONDARY OVERHEAD", "WKT": "LINESTRING (-78.8368611920078 36.119356240364816, -78.83683761280794 36.119363638651905)" }, "geometry": { "type": "LineString", "coordinates": [ [ -78.836861192007802, 36.119356240364816 ], [ -78.83683761280794, 36.119363638651905 ] ] } },
{ "type": "Feature", "properties": { "FEEDER_NAME": "FAIRINTOSH", "SUBSTATION_NAME": "E. Willardsville", "wmType": "SECONDARY OVERHEAD", "WKT": "LINESTRING (-78.83821177190566 36.12537494515244, -78.83827740603309 36.125873601934124)" }, "geometry": { "type": "LineString", "coordinates": [ [ -78.838211771905662, 36.125374945152437 ], [ -78.838277406033086, 36.125873601934124 ] ] } },
{ "type": "Feature", "properties": { "FEEDER_NAME": "FAIRINTOSH", "SUBSTATION_NAME": "E. Willardsville", "wmType": "SECONDARY OVERHEAD", "WKT": "LINESTRING (-78.83821177190566 36.12537494515244, -78.83800862144294 36.125215490977496)" }, "geometry": { "type": "LineString", "coordinates": [ [ -78.838211771905662, 36.125374945152437 ], [ -78.838008621442938, 36.125215490977496 ] ] } },
{ "type": "Feature", "properties": { "FEEDER_NAME": "FAIRINTOSH", "SUBSTATION_NAME": "E. Willardsville", "wmType": "SECONDARY OVERHEAD", "WKT": "LINESTRING (-78.83821177190566 36.12537494515244, -78.83806407391872 36.12570320706378)" }, "geometry": { "type": "LineString", "coordinates": [ [ -78.838211771905662, 36.125374945152437 ], [ -78.838064073918716, 36.125703207063779 ] ] } },
{ "type": "Feature", "properties": { "FEEDER_NAME": "FAIRINTOSH", "SUBSTATION_NAME": "E. Willardsville", "wmType": "SECONDARY OVERHEAD", "WKT": "LINESTRING (-78.83954301197119 36.12558274632903, -78.83956940815844 36.12559017009327)" }, "geometry": { "type": "LineString", "coordinates": [ [ -78.839543011971188, 36.12558274632903 ], [ -78.83956940815844, 36.125590170093268 ] ] } },
{ "type": "Feature", "properties": { "FEEDER_NAME": "FAIRINTOSH", "SUBSTATION_NAME": "E. Willardsville", "wmType": "SECONDARY OVERHEAD", "WKT": "LINESTRING (-78.83954301197119 36.12558274632903, -78.83968742422165 36.1253098352403)" }, "geometry": { "type": "LineString", "coordinates": [ [ -78.839543011971188, 36.12558274632903 ], [ -78.839687424221651, 36.125309835240301 ] ] } },
{ "type": "Feature", "properties": { "FEEDER_NAME": "FAIRINTOSH", "SUBSTATION_NAME": "E. Willardsville", "wmType": "SECONDARY OVERHEAD", "WKT": "LINESTRING (-78.83901643614338 36.124800467077, -78.83905854323064 36.12461095938914)" }, "geometry": { "type": "LineString", "coordinates": [ [ -78.839016436143382, 36.124800467077002 ], [ -78.839058543230635, 36.124610959389138 ] ] } },
{ "type": "Feature", "properties": { "FEEDER_NAME": "FAIRINTOSH", "SUBSTATION_NAME": "E. Willardsville", "wmType": "SECONDARY OVERHEAD", "WKT": "LINESTRING (-78.83901643614338 36.124800467077, -78.83915537284345 36.12470969891502)" }, "geometry": { "type": "LineString", "coordinates": [ [ -78.839016436143382, 36.124800467077002 ], [ -78.83915537284345, 36.124709698915019 ] ] } },
{ "type": "Feature", "properties": { "FEEDER_NAME": "FAIRINTOSH", "SUBSTATION_NAME": "E. Willardsville", "wmType": "SECONDARY OVERHEAD", "WKT": "LINESTRING (-78.81901432750963 36.13965890436631, -78.81892836069139 36.13981664226859)" }, "geometry": { "type": "LineString", "coordinates": [ [ -78.819014327509635, 36.139658904366307 ], [ -78.818928360691388, 36.139816642268592 ] ] } },
{ "type": "Feature", "properties": { "FEEDER_NAME": "FAIRINTOSH", "SUBSTATION_NAME": "E. Willardsville", "wmType": "SECONDARY OVERHEAD", "WKT": "LINESTRING (-78.81892836069139 36.13981664226859, -78.81888256635614 36.139820338004476)" }, "geometry": { "type": "LineString", "coordinates": [ [ -78.818928360691388, 36.139816642268592 ], [ -78.818882566356137, 36.139820338004476 ] ] } },
{ "type": "Feature", "properties": { "FEEDER_NAME": "FAIRINTOSH", "SUBSTATION_NAME": "E. Willardsville", "wmType": "SECONDARY OVERHEAD", "WKT": "LINESTRING (-78.82181818441573 36.141445368815276, -78.82210797121732 36.14142381411386)" }, "geometry": { "type": "LineString", "coordinates": [ [ -78.821818184415733, 36.141445368815276 ], [ -78.822107971217321, 36.141423814113857 ] ] } },
{ "type": "Feature", "properties": { "FEEDER_NAME": "FAIRINTOSH", "SUBSTATION_NAME": "E. Willardsville", "wmType": "SECONDARY OVERHEAD", "WKT": "LINESTRING (-78.82184671208333 36.141884085532205, -78.82145369018689 36.14208461553231)" }, "geometry": { "type": "LineString", "coordinates": [ [ -78.821846712083328, 36.141884085532205 ], [ -78.821453690186885, 36.142084615532312 ] ] } },
{ "type": "Feature", "properties": { "FEEDER_NAME": "FAIRINTOSH", "SUBSTATION_NAME": "E. Willardsville", "wmType": "SECONDARY OVERHEAD", "WKT": "LINESTRING (-78.82145369018689 36.14208461553231, -78.8213217317115 36.14217816694786)" }, "geometry": { "type": "LineString", "coordinates": [ [ -78.821453690186885, 36.142084615532312 ], [ -78.821321731711507, 36.142178166947858 ] ] } },
{ "type": "Feature", "properties": { "FEEDER_NAME": "FAIRINTOSH", "SUBSTATION_NAME": "E. Willardsville", "wmType": "SECONDARY OVERHEAD", "WKT": "LINESTRING (-78.8204529848677 36.14666526278707, -78.82031379338352 36.14678201139918)" }, "geometry": { "type": "LineString", "coordinates": [ [ -78.8204529848677, 36.146665262787067 ], [ -78.820313793383519, 36.146782011399182 ] ] } },
{ "type": "Feature", "properties": { "FEEDER_NAME": "FAIRINTOSH", "SUBSTATION_NAME": "E. Willardsville", "wmType": "SECONDARY OVERHEAD", "WKT": "LINESTRING (-78.81865586434954 36.15239435359942, -78.81863147622842 36.15241345388365, -78.81772657109155 36.15249317499938)" }, "geometry": { "type": "LineString", "coordinates": [ [ -78.818655864349537, 36.152394353599419 ], [ -78.818631476228418, 36.152413453883653 ], [ -78.817726571091555, 36.152493174999378 ] ] } },
{ "type": "Feature", "properties": { "FEEDER_NAME": "FAIRINTOSH", "SUBSTATION_NAME": "E. Willardsville", "wmType": "SECONDARY OVERHEAD", "WKT": "LINESTRING (-78.82060570095604 36.14541698473968, -78.82104598266741 36.14537139856219)" }, "geometry": { "type": "LineString", "coordinates": [ [ -78.820605700956037, 36.145416984739683 ], [ -78.821045982667414, 36.14537139856219 ] ] } },
{ "type": "Feature", "properties": { "FEEDER_NAME": "FAIRINTOSH", "SUBSTATION_NAME": "E. Willardsville", "wmType": "SECONDARY OVERHEAD", "WKT": "LINESTRING (-78.82060570095604 36.14541698473968, -78.82090619196306 36.14536179888742)" }, "geometry": { "type": "LineString", "coordinates": [ [ -78.820605700956037, 36.145416984739683 ], [ -78.820906191963061, 36.145361798887421 ] ] } },
{ "type": "Feature", "properties": { "FEEDER_NAME": "FAIRINTOSH", "SUBSTATION_NAME": "E. Willardsville", "wmType": "SECONDARY OVERHEAD", "WKT": "LINESTRING (-78.81989467676611 36.14440455218168, -78.81986086379108 36.144402620674406, -78.81943749786393 36.14474561089205)" }, "geometry": { "type": "LineString", "coordinates": [ [ -78.819894676766111, 36.144404552181683 ], [ -78.819860863791078, 36.144402620674406 ], [ -78.81943749786393, 36.144745610892052 ] ] } },
{ "type": "Feature", "properties": { "FEEDER_NAME": "FAIRINTOSH", "SUBSTATION_NAME": "E. Willardsville", "wmType": "SECONDARY OVERHEAD", "WKT": "LINESTRING (-78.81753037150965 36.13195152989332, -78.81734327463327 36.132268961044495)" }, "geometry": { "type": "LineString", "coordinates": [ [ -78.817530371509648, 36.131951529893321 ], [ -78.817343274633274, 36.132268961044495 ] ] } },
{ "type": "Feature", "properties": { "FEEDER_NAME": "FAIRINTOSH", "SUBSTATION_NAME": "E. Willardsville", "wmType": "SECONDARY OVERHEAD", "WKT": "LINESTRING (-78.80435094043021 36.10657864090742, -78.80442677392199 36.10647849806885)" }, "geometry": { "type": "LineString", "coordinates": [ [ -78.804350940430211, 36.106578640907422 ], [ -78.804426773921989, 36.106478498068853 ] ] } },
{ "type": "Feature", "properties": { "FEEDER_NAME": "FAIRINTOSH", "SUBSTATION_NAME": "E. Willardsville", "wmType": "SECONDARY OVERHEAD", "WKT": "LINESTRING (-78.80618488161183 36.10206035117743, -78.80648085572916 36.10183762781102)" }, "geometry": { "type": "LineString", "coordinates": [ [ -78.806184881611827, 36.102060351177428 ], [ -78.806480855729163, 36.101837627811022 ] ] } },
{ "type": "Feature", "properties": { "FEEDER_NAME": "FAIRINTOSH", "SUBSTATION_NAME": "E. Willardsville", "wmType": "SECONDARY OVERHEAD", "WKT": "LINESTRING (-78.80503355181342 36.10499953789293, -78.80479448155141 36.105145954243824)" }, "geometry": { "type": "LineString", "coordinates": [ [ -78.805033551813423, 36.10499953789293 ], [ -78.804794481551411, 36.105145954243824 ] ] } },
{ "type": "Feature", "properties": { "FEEDER_NAME": "FAIRINTOSH", "SUBSTATION_NAME": "E. Willardsville", "wmType": "SECONDARY OVERHEAD", "WKT": "LINESTRING (-78.8095949751041 36.121257155268424, -78.80929061819769 36.12123314027695)" }, "geometry": { "type": "LineString", "coordinates": [ [ -78.809594975104105, 36.121257155268424 ], [ -78.809290618197693, 36.121233140276949 ] ] } },
{ "type": "Feature", "properties": { "FEEDER_NAME": "FAIRINTOSH", "SUBSTATION_NAME": "E. Willardsville", "wmType": "SECONDARY OVERHEAD", "WKT": "LINESTRING (-78.80929061819769 36.12123314027695, -78.80913733163426 36.12129455068513)" }, "geometry": { "type": "LineString", "coordinates": [ [ -78.809290618197693, 36.121233140276949 ], [ -78.809137331634261, 36.121294550685128 ] ] } },
{ "type": "Feature", "properties": { "FEEDER_NAME": "FAIRINTOSH", "SUBSTATION_NAME": "E. Willardsville", "wmType": "SECONDARY OVERHEAD", "WKT": "LINESTRING (-78.81256920574651 36.12542999200762, -78.81281894822278 36.125184330407144)" }, "geometry": { "type": "LineString", "coordinates": [ [ -78.812569205746513, 36.125429992007618 ], [ -78.812818948222784, 36.125184330407144 ] ] } },
{ "type": "Feature", "properties": { "FEEDER_NAME": "FAIRINTOSH", "SUBSTATION_NAME": "E. Willardsville", "wmType": "SECONDARY OVERHEAD", "WKT": "LINESTRING (-78.81281894822278 36.125184330407144, -78.81258401718067 36.12494347573227)" }, "geometry": { "type": "LineString", "coordinates": [ [ -78.812818948222784, 36.125184330407144 ], [ -78.812584017180669, 36.124943475732273 ] ] } },
{ "type": "Feature", "properties": { "FEEDER_NAME": "FAIRINTOSH", "SUBSTATION_NAME": "E. Willardsville", "wmType": "SECONDARY OVERHEAD", "WKT": "LINESTRING (-78.81291438932185 36.12645592667221, -78.81316324518474 36.126418096712555)" }, "geometry": { "type": "LineString", "coordinates": [ [ -78.812914389321847, 36.126455926672207 ], [ -78.813163245184739, 36.126418096712555 ] ] } },
{ "type": "Feature", "properties": { "FEEDER_NAME": "FAIRINTOSH", "SUBSTATION_NAME": "E. Willardsville", "wmType": "SECONDARY OVERHEAD", "WKT": "LINESTRING (-78.81587336548802 36.130676666147785, -78.81608336017827 36.130504995851645)" }, "geometry": { "type": "LineString", "coordinates": [ [ -78.815873365488017, 36.130676666147785 ], [ -78.816083360178268, 36.130504995851645 ] ] } },
{ "type": "Feature", "properties": { "FEEDER_NAME": "FAIRINTOSH", "SUBSTATION_NAME": "E. Willardsville", "wmType": "SECONDARY OVERHEAD", "WKT": "LINESTRING (-78.81608336017827 36.130504995851645, -78.81620707760472 36.13033373906886)" }, "geometry": { "type": "LineString", "coordinates": [ [ -78.816083360178268, 36.130504995851645 ], [ -78.816207077604716, 36.13033373906886 ] ] } },
{ "type": "Feature", "properties": { "FEEDER_NAME": "FAIRINTOSH", "SUBSTATION_NAME": "E. Willardsville", "wmType": "SECONDARY OVERHEAD", "WKT": "LINESTRING (-78.81817239812283 36.136480392546986, -78.81815235637116 36.13645826119472, -78.81812842813073 36.13614596744171)" }, "geometry": { "type": "LineString", "coordinates": [ [ -78.818172398122826, 36.136480392546986 ], [ -78.818152356371158, 36.136458261194718 ], [ -78.818128428130734, 36.136145967441713 ] ] } },
{ "type": "Feature", "properties": { "FEEDER_NAME": "FAIRINTOSH", "SUBSTATION_NAME": "E. Willardsville", "wmType": "SECONDARY OVERHEAD", "WKT": "LINESTRING (-78.8143578601896 36.132584486814, -78.81424334007637 36.13250998099332)" }, "geometry": { "type": "LineString", "coordinates": [ [ -78.814357860189602, 36.132584486813997 ], [ -78.814243340076374, 36.132509980993319 ] ] } },
{ "type": "Feature", "properties": { "FEEDER_NAME": "FAIRINTOSH", "SUBSTATION_NAME": "E. Willardsville", "wmType": "SECONDARY OVERHEAD", "WKT": "LINESTRING (-78.8143578601896 36.132584486814, -78.81476273712681 36.13269995861265)" }, "geometry": { "type": "LineString", "coordinates": [ [ -78.814357860189602, 36.132584486813997 ], [ -78.814762737126813, 36.132699958612648 ] ] } },
{ "type": "Feature", "properties": { "FEEDER_NAME": "FAIRINTOSH", "SUBSTATION_NAME": "E. Willardsville", "wmType": "SECONDARY OVERHEAD", "WKT": "LINESTRING (-78.81476273712681 36.13269995861265, -78.81447617430733 36.132790713928166)" }, "geometry": { "type": "LineString", "coordinates": [ [ -78.814762737126813, 36.132699958612648 ], [ -78.81447617430733, 36.132790713928166 ] ] } },
{ "type": "Feature", "properties": { "FEEDER_NAME": "FAIRINTOSH", "SUBSTATION_NAME": "E. Willardsville", "wmType": "SECONDARY OVERHEAD", "WKT": "LINESTRING (-78.81522759604643 36.13209132681732, -78.81516501109931 36.132566644122186)" }, "geometry": { "type": "LineString", "coordinates": [ [ -78.815227596046427, 36.132091326817317 ], [ -78.81516501109931, 36.132566644122186 ] ] } },
{ "type": "Feature", "properties": { "FEEDER_NAME": "FAIRINTOSH", "SUBSTATION_NAME": "E. Willardsville", "wmType": "SECONDARY OVERHEAD", "WKT": "LINESTRING (-78.81522759604643 36.13209132681732, -78.81518952060453 36.1318320962171)" }, "geometry": { "type": "LineString", "coordinates": [ [ -78.815227596046427, 36.132091326817317 ], [ -78.815189520604534, 36.131832096217103 ] ] } },
{ "type": "Feature", "properties": { "FEEDER_NAME": "FAIRINTOSH", "SUBSTATION_NAME": "E. Willardsville", "wmType": "SECONDARY OVERHEAD", "WKT": "LINESTRING (-78.81518952060453 36.1318320962171, -78.81517563080114 36.1315830715202)" }, "geometry": { "type": "LineString", "coordinates": [ [ -78.815189520604534, 36.131832096217103 ], [ -78.815175630801136, 36.131583071520197 ] ] } },
{ "type": "Feature", "properties": { "FEEDER_NAME": "FAIRINTOSH", "SUBSTATION_NAME": "E. Willardsville", "wmType": "SECONDARY OVERHEAD", "WKT": "LINESTRING (-78.81973422065512 36.130695902260534, -78.81978918579283 36.130813497475295)" }, "geometry": { "type": "LineString", "coordinates": [ [ -78.819734220655121, 36.130695902260534 ], [ -78.819789185792828, 36.130813497475295 ] ] } },
{ "type": "Feature", "properties": { "FEEDER_NAME": "FAIRINTOSH", "SUBSTATION_NAME": "E. Willardsville", "wmType": "SECONDARY OVERHEAD", "WKT": "LINESTRING (-78.81978918579283 36.130813497475295, -78.81981038687731 36.13084882785241)" }, "geometry": { "type": "LineString", "coordinates": [ [ -78.819789185792828, 36.130813497475295 ], [ -78.819810386877307, 36.130848827852411 ] ] } },
{ "type": "Feature", "properties": { "FEEDER_NAME": "FAIRINTOSH", "SUBSTATION_NAME": "E. Willardsville", "wmType": "SECONDARY OVERHEAD", "WKT": "LINESTRING (-78.86899672799228 36.10103756746575, -78.86926528998153 36.10101453352346)" }, "geometry": { "type": "LineString", "coordinates": [ [ -78.868996727992283, 36.101037567465752 ], [ -78.869265289981527, 36.101014533523461 ] ] } },
{ "type": "Feature", "properties": { "FEEDER_NAME": "FAIRINTOSH", "SUBSTATION_NAME": "E. Willardsville", "wmType": "SECONDARY OVERHEAD", "WKT": "LINESTRING (-78.86926528998153 36.10101453352346, -78.86948382666552 36.10103133069388)" }, "geometry": { "type": "LineString", "coordinates": [ [ -78.869265289981527, 36.101014533523461 ], [ -78.869483826665515, 36.101031330693878 ] ] } },
{ "type": "Feature", "properties": { "FEEDER_NAME": "FAIRINTOSH", "SUBSTATION_NAME": "E. Willardsville", "wmType": "SECONDARY OVERHEAD", "WKT": "LINESTRING (-78.86926528998153 36.10101453352346, -78.86927274766529 36.10114838754386)" }, "geometry": { "type": "LineString", "coordinates": [ [ -78.869265289981527, 36.101014533523461 ], [ -78.869272747665292, 36.101148387543859 ] ] } },
{ "type": "Feature", "properties": { "FEEDER_NAME": "FAIRINTOSH", "SUBSTATION_NAME": "E. Willardsville", "wmType": "SECONDARY OVERHEAD", "WKT": "LINESTRING (-78.86960680302326 36.09981664147001, -78.86944277052439 36.099734661336356)" }, "geometry": { "type": "LineString", "coordinates": [ [ -78.86960680302326, 36.099816641470007 ], [ -78.869442770524387, 36.099734661336356 ] ] } },
{ "type": "Feature", "properties": { "FEEDER_NAME": "FAIRINTOSH", "SUBSTATION_NAME": "E. Willardsville", "wmType": "SECONDARY OVERHEAD", "WKT": "LINESTRING (-78.86962888233644 36.10029286979902, -78.87002981456715 36.10019081695916)" }, "geometry": { "type": "LineString", "coordinates": [ [ -78.869628882336443, 36.10029286979902 ], [ -78.870029814567147, 36.100190816959163 ] ] } },
{ "type": "Feature", "properties": { "FEEDER_NAME": "FAIRINTOSH", "SUBSTATION_NAME": "E. Willardsville", "wmType": "SECONDARY OVERHEAD", "WKT": "LINESTRING (-78.86962888233644 36.10029286979902, -78.86989706111142 36.100651260339475)" }, "geometry": { "type": "LineString", "coordinates": [ [ -78.869628882336443, 36.10029286979902 ], [ -78.869897061111416, 36.100651260339475 ] ] } },
{ "type": "Feature", "properties": { "FEEDER_NAME": "FAIRINTOSH", "SUBSTATION_NAME": "E. Willardsville", "wmType": "SECONDARY OVERHEAD", "WKT": "LINESTRING (-78.86989706111142 36.100651260339475, -78.86991920822659 36.101000730681896)" }, "geometry": { "type": "LineString", "coordinates": [ [ -78.869897061111416, 36.100651260339475 ], [ -78.869919208226591, 36.101000730681896 ] ] } },
{ "type": "Feature", "properties": { "FEEDER_NAME": "FAIRINTOSH", "SUBSTATION_NAME": "E. Willardsville", "wmType": "SECONDARY OVERHEAD", "WKT": "LINESTRING (-78.86891189651959 36.0985028727172, -78.86897840270214 36.098277115791824)" }, "geometry": { "type": "LineString", "coordinates": [ [ -78.868911896519592, 36.098502872717198 ], [ -78.86897840270214, 36.098277115791824 ] ] } },
{ "type": "Feature", "properties": { "FEEDER_NAME": "FAIRINTOSH", "SUBSTATION_NAME": "E. Willardsville", "wmType": "SECONDARY OVERHEAD", "WKT": "LINESTRING (-78.86632520099587 36.08919687951821, -78.86667240257248 36.08907738008549)" }, "geometry": { "type": "LineString", "coordinates": [ [ -78.866325200995874, 36.089196879518212 ], [ -78.866672402572476, 36.089077380085492 ] ] } },
{ "type": "Feature", "properties": { "FEEDER_NAME": "FAIRINTOSH", "SUBSTATION_NAME": "E. Willardsville", "wmType": "SECONDARY OVERHEAD", "WKT": "LINESTRING (-78.86667240257248 36.08907738008549, -78.86685263745986 36.08879586685896)" }, "geometry": { "type": "LineString", "coordinates": [ [ -78.866672402572476, 36.089077380085492 ], [ -78.866852637459857, 36.088795866858959 ] ] } },
{ "type": "Feature", "properties": { "FEEDER_NAME": "FAIRINTOSH", "SUBSTATION_NAME": "E. Willardsville", "wmType": "SECONDARY OVERHEAD", "WKT": "LINESTRING (-78.86655761718623 36.09689612142406, -78.86686257049278 36.09680069460968)" }, "geometry": { "type": "LineString", "coordinates": [ [ -78.866557617186231, 36.096896121424059 ], [ -78.866862570492785, 36.096800694609684 ] ] } },
{ "type": "Feature", "properties": { "FEEDER_NAME": "FAIRINTOSH", "SUBSTATION_NAME": "E. Willardsville", "wmType": "SECONDARY OVERHEAD", "WKT": "LINESTRING (-78.86655761718623 36.09689612142406, -78.86683101999603 36.09692614217945)" }, "geometry": { "type": "LineString", "coordinates": [ [ -78.866557617186231, 36.096896121424059 ], [ -78.866831019996027, 36.096926142179449 ] ] } },
{ "type": "Feature", "properties": { "FEEDER_NAME": "FAIRINTOSH", "SUBSTATION_NAME": "E. Willardsville", "wmType": "SECONDARY OVERHEAD", "WKT": "LINESTRING (-78.86683101999603 36.09692614217945, -78.8669746454855 36.09698071874829)" }, "geometry": { "type": "LineString", "coordinates": [ [ -78.866831019996027, 36.096926142179449 ], [ -78.866974645485499, 36.096980718748291 ] ] } },
{ "type": "Feature", "properties": { "FEEDER_NAME": "FAIRINTOSH", "SUBSTATION_NAME": "E. Willardsville", "wmType": "SECONDARY OVERHEAD", "WKT": "LINESTRING (-78.86646712948972 36.09743514431376, -78.86688590283359 36.097531167898815)" }, "geometry": { "type": "LineString", "coordinates": [ [ -78.86646712948972, 36.097435144313764 ], [ -78.866885902833587, 36.097531167898815 ] ] } },
{ "type": "Feature", "properties": { "FEEDER_NAME": "FAIRINTOSH", "SUBSTATION_NAME": "E. Willardsville", "wmType": "SECONDARY OVERHEAD", "WKT": "LINESTRING (-78.86688590283359 36.097531167898815, -78.86684013120986 36.09763510996883)" }, "geometry": { "type": "LineString", "coordinates": [ [ -78.866885902833587, 36.097531167898815 ], [ -78.866840131209855, 36.097635109968827 ] ] } },
{ "type": "Feature", "properties": { "FEEDER_NAME": "FAIRINTOSH", "SUBSTATION_NAME": "E. Willardsville", "wmType": "SECONDARY OVERHEAD", "WKT": "LINESTRING (-78.86617206144466 36.09848564914515, -78.86579201136078 36.09879297607807)" }, "geometry": { "type": "LineString", "coordinates": [ [ -78.866172061444658, 36.098485649145147 ], [ -78.865792011360782, 36.098792976078073 ] ] } },
{ "type": "Feature", "properties": { "FEEDER_NAME": "FAIRINTOSH", "SUBSTATION_NAME": "E. Willardsville", "wmType": "SECONDARY OVERHEAD", "WKT": "LINESTRING (-78.86579201136078 36.09879297607807, -78.86564999997155 36.09898700051825)" }, "geometry": { "type": "LineString", "coordinates": [ [ -78.865792011360782, 36.098792976078073 ], [ -78.865649999971552, 36.09898700051825 ] ] } },
{ "type": "Feature", "properties": { "FEEDER_NAME": "FAIRINTOSH", "SUBSTATION_NAME": "E. Willardsville", "wmType": "SECONDARY OVERHEAD", "WKT": "LINESTRING (-78.86634529995544 36.09793221355989, -78.8666884569624 36.098009366173414)" }, "geometry": { "type": "LineString", "coordinates": [ [ -78.866345299955441, 36.097932213559893 ], [ -78.866688456962393, 36.098009366173414 ] ] } },
{ "type": "Feature", "properties": { "FEEDER_NAME": "FAIRINTOSH", "SUBSTATION_NAME": "E. Willardsville", "wmType": "SECONDARY OVERHEAD", "WKT": "LINESTRING (-78.86634529995544 36.09793221355989, -78.86592249316175 36.09777803053219)" }, "geometry": { "type": "LineString", "coordinates": [ [ -78.866345299955441, 36.097932213559893 ], [ -78.865922493161747, 36.09777803053219 ] ] } },
{ "type": "Feature", "properties": { "FEEDER_NAME": "FAIRINTOSH", "SUBSTATION_NAME": "E. Willardsville", "wmType": "SECONDARY OVERHEAD", "WKT": "LINESTRING (-78.86592249316175 36.09777803053219, -78.86610675932566 36.09798208486076)" }, "geometry": { "type": "LineString", "coordinates": [ [ -78.865922493161747, 36.09777803053219 ], [ -78.86610675932566, 36.09798208486076 ] ] } },
{ "type": "Feature", "properties": { "FEEDER_NAME": "FAIRINTOSH", "SUBSTATION_NAME": "E. Willardsville", "wmType": "SECONDARY OVERHEAD", "WKT": "LINESTRING (-78.86801818970885 36.09927787686179, -78.8679440620414 36.099463574924265)" }, "geometry": { "type": "LineString", "coordinates": [ [ -78.868018189708849, 36.099277876861791 ], [ -78.867944062041403, 36.099463574924265 ] ] } },
{ "type": "Feature", "properties": { "FEEDER_NAME": "FAIRINTOSH", "SUBSTATION_NAME": "E. Willardsville", "wmType": "SECONDARY OVERHEAD", "WKT": "LINESTRING (-78.86681737138166 36.10060249491285, -78.86678516202039 36.10056668349583)" }, "geometry": { "type": "LineString", "coordinates": [ [ -78.866817371381657, 36.100602494912849 ], [ -78.866785162020392, 36.100566683495828 ] ] } },
{ "type": "Feature", "properties": { "FEEDER_NAME": "FAIRINTOSH", "SUBSTATION_NAME": "E. Willardsville", "wmType": "SECONDARY OVERHEAD", "WKT": "LINESTRING (-78.86681737138166 36.10060249491285, -78.86670052462156 36.10092358775793)" }, "geometry": { "type": "LineString", "coordinates": [ [ -78.866817371381657, 36.100602494912849 ], [ -78.866700524621564, 36.100923587757933 ] ] } },
{ "type": "Feature", "properties": { "FEEDER_NAME": "FAIRINTOSH", "SUBSTATION_NAME": "E. Willardsville", "wmType": "SECONDARY OVERHEAD", "WKT": "LINESTRING (-78.86735534679093 36.102170242663746, -78.86700643216729 36.102248454199625)" }, "geometry": { "type": "LineString", "coordinates": [ [ -78.86735534679093, 36.102170242663746 ], [ -78.867006432167287, 36.102248454199625 ] ] } },
{ "type": "Feature", "properties": { "FEEDER_NAME": "FAIRINTOSH", "SUBSTATION_NAME": "E. Willardsville", "wmType": "SECONDARY OVERHEAD", "WKT": "LINESTRING (-78.86746475922027 36.103069333826504, -78.86769291892166 36.1027613405715)" }, "geometry": { "type": "LineString", "coordinates": [ [ -78.867464759220269, 36.103069333826504 ], [ -78.867692918921662, 36.102761340571497 ] ] } },
{ "type": "Feature", "properties": { "FEEDER_NAME": "FAIRINTOSH", "SUBSTATION_NAME": "E. Willardsville", "wmType": "SECONDARY OVERHEAD", "WKT": "LINESTRING (-78.86601487594828 36.10208543827429, -78.86584008284949 36.101979845470176)" }, "geometry": { "type": "LineString", "coordinates": [ [ -78.866014875948281, 36.102085438274287 ], [ -78.865840082849488, 36.101979845470176 ] ] } },
{ "type": "Feature", "properties": { "FEEDER_NAME": "FAIRINTOSH", "SUBSTATION_NAME": "E. Willardsville", "wmType": "SECONDARY OVERHEAD", "WKT": "LINESTRING (-78.86584008284949 36.101979845470176, -78.86565919774748 36.10189024444404)" }, "geometry": { "type": "LineString", "coordinates": [ [ -78.865840082849488, 36.101979845470176 ], [ -78.865659197747476, 36.101890244444043 ] ] } },
{ "type": "Feature", "properties": { "FEEDER_NAME": "FAIRINTOSH", "SUBSTATION_NAME": "E. Willardsville", "wmType": "SECONDARY OVERHEAD", "WKT": "LINESTRING (-78.85760185095666 36.111879765956175, -78.85750078517744 36.111872424009995)" }, "geometry": { "type": "LineString", "coordinates": [ [ -78.857601850956655, 36.111879765956175 ], [ -78.857500785177436, 36.111872424009995 ] ] } },
{ "type": "Feature", "properties": { "FEEDER_NAME": "FAIRINTOSH", "SUBSTATION_NAME": "E. Willardsville", "wmType": "SECONDARY OVERHEAD", "WKT": "LINESTRING (-78.85999669632668 36.098224636014486, -78.86003975137258 36.09822842722017)" }, "geometry": { "type": "LineString", "coordinates": [ [ -78.859996696326675, 36.098224636014486 ], [ -78.860039751372582, 36.098228427220171 ] ] } },
{ "type": "Feature", "properties": { "FEEDER_NAME": "FAIRINTOSH", "SUBSTATION_NAME": "E. Willardsville", "wmType": "SECONDARY OVERHEAD", "WKT": "LINESTRING (-78.86003975137258 36.09822842722017, -78.86001317273107 36.0982776800189)" }, "geometry": { "type": "LineString", "coordinates": [ [ -78.860039751372582, 36.098228427220171 ], [ -78.860013172731072, 36.098277680018903 ] ] } },
{ "type": "Feature", "properties": { "FEEDER_NAME": "FAIRINTOSH", "SUBSTATION_NAME": "E. Willardsville", "wmType": "SECONDARY OVERHEAD", "WKT": "LINESTRING (-78.85988276056281 36.09856186717288, -78.85989247617242 36.09879438284134)" }, "geometry": { "type": "LineString", "coordinates": [ [ -78.859882760562812, 36.098561867172883 ], [ -78.859892476172419, 36.098794382841341 ] ] } },
{ "type": "Feature", "properties": { "FEEDER_NAME": "FAIRINTOSH", "SUBSTATION_NAME": "E. Willardsville", "wmType": "SECONDARY OVERHEAD", "WKT": "LINESTRING (-78.85989247617242 36.09879438284134, -78.85988717250439 36.099058681400045)" }, "geometry": { "type": "LineString", "coordinates": [ [ -78.859892476172419, 36.098794382841341 ], [ -78.859887172504386, 36.099058681400045 ] ] } },
{ "type": "Feature", "properties": { "FEEDER_NAME": "FAIRINTOSH", "SUBSTATION_NAME": "E. Willardsville", "wmType": "SECONDARY OVERHEAD", "WKT": "LINESTRING (-78.85988717250439 36.099058681400045, -78.85989117268596 36.09926868210225)" }, "geometry": { "type": "LineString", "coordinates": [ [ -78.859887172504386, 36.099058681400045 ], [ -78.859891172685963, 36.099268682102249 ] ] } },
{ "type": "Feature", "properties": { "FEEDER_NAME": "FAIRINTOSH", "SUBSTATION_NAME": "E. Willardsville", "wmType": "SECONDARY OVERHEAD", "WKT": "LINESTRING (-78.85989117268596 36.09926868210225, -78.85996317235495 36.099454682330446)" }, "geometry": { "type": "LineString", "coordinates": [ [ -78.859891172685963, 36.099268682102249 ], [ -78.859963172354952, 36.099454682330446 ] ] } },
{ "type": "Feature", "properties": { "FEEDER_NAME": "FAIRINTOSH", "SUBSTATION_NAME": "E. Willardsville", "wmType": "SECONDARY OVERHEAD", "WKT": "LINESTRING (-78.85996317235495 36.099454682330446, -78.86022817254413 36.09959868298808)" }, "geometry": { "type": "LineString", "coordinates": [ [ -78.859963172354952, 36.099454682330446 ], [ -78.860228172544126, 36.099598682988081 ] ] } },
{ "type": "Feature", "properties": { "FEEDER_NAME": "FAIRINTOSH", "SUBSTATION_NAME": "E. Willardsville", "wmType": "SECONDARY OVERHEAD", "WKT": "LINESTRING (-78.86022817254413 36.09959868298808, -78.86038001616313 36.09944435211327)" }, "geometry": { "type": "LineString", "coordinates": [ [ -78.860228172544126, 36.099598682988081 ], [ -78.860380016163134, 36.099444352113267 ] ] } },
{ "type": "Feature", "properties": { "FEEDER_NAME": "FAIRINTOSH", "SUBSTATION_NAME": "E. Willardsville", "wmType": "SECONDARY OVERHEAD", "WKT": "LINESTRING (-78.86038001616313 36.09944435211327, -78.8605525431683 36.099365298730326)" }, "geometry": { "type": "LineString", "coordinates": [ [ -78.860380016163134, 36.099444352113267 ], [ -78.860552543168296, 36.099365298730326 ] ] } },
{ "type": "Feature", "properties": { "FEEDER_NAME": "FAIRINTOSH", "SUBSTATION_NAME": "E. Willardsville", "wmType": "SECONDARY OVERHEAD", "WKT": "LINESTRING (-78.85989247617242 36.09879438284134, -78.86024417353649 36.09883968115817)" }, "geometry": { "type": "LineString", "coordinates": [ [ -78.859892476172419, 36.098794382841341 ], [ -78.860244173536486, 36.098839681158168 ] ] } },
{ "type": "Feature", "properties": { "FEEDER_NAME": "FAIRINTOSH", "SUBSTATION_NAME": "E. Willardsville", "wmType": "SECONDARY OVERHEAD", "WKT": "LINESTRING (-78.86024417353649 36.09883968115817, -78.86023817287938 36.099073681173635)" }, "geometry": { "type": "LineString", "coordinates": [ [ -78.860244173536486, 36.098839681158168 ], [ -78.860238172879377, 36.099073681173635 ] ] } },
{ "type": "Feature", "properties": { "FEEDER_NAME": "FAIRINTOSH", "SUBSTATION_NAME": "E. Willardsville", "wmType": "SECONDARY OVERHEAD", "WKT": "LINESTRING (-78.86023817287938 36.099073681173635, -78.86021117315309 36.09928168174459)" }, "geometry": { "type": "LineString", "coordinates": [ [ -78.860238172879377, 36.099073681173635 ], [ -78.86021117315309, 36.099281681744593 ] ] } },
{ "type": "Feature", "properties": { "FEEDER_NAME": "FAIRINTOSH", "SUBSTATION_NAME": "E. Willardsville", "wmType": "SECONDARY OVERHEAD", "WKT": "LINESTRING (-78.86003975137258 36.09822842722017, -78.86046117326893 36.098089679374375)" }, "geometry": { "type": "LineString", "coordinates": [ [ -78.860039751372582, 36.098228427220171 ], [ -78.860461173268931, 36.098089679374375 ] ] } },
{ "type": "Feature", "properties": { "FEEDER_NAME": "FAIRINTOSH", "SUBSTATION_NAME": "E. Willardsville", "wmType": "SECONDARY OVERHEAD", "WKT": "LINESTRING (-78.86046117326893 36.098089679374375, -78.8606371741903 36.09804467940968)" }, "geometry": { "type": "LineString", "coordinates": [ [ -78.860461173268931, 36.098089679374375 ], [ -78.860637174190302, 36.098044679409682 ] ] } },
{ "type": "Feature", "properties": { "FEEDER_NAME": "FAIRINTOSH", "SUBSTATION_NAME": "E. Willardsville", "wmType": "SECONDARY OVERHEAD", "WKT": "LINESTRING (-78.8606371741903 36.09804467940968, -78.86084317447232 36.0980776792941)" }, "geometry": { "type": "LineString", "coordinates": [ [ -78.860637174190302, 36.098044679409682 ], [ -78.860843174472322, 36.0980776792941 ] ] } },
{ "type": "Feature", "properties": { "FEEDER_NAME": "FAIRINTOSH", "SUBSTATION_NAME": "E. Willardsville", "wmType": "SECONDARY OVERHEAD", "WKT": "LINESTRING (-78.86106735148579 36.099857061705656, -78.86060763696958 36.099626351346465)" }, "geometry": { "type": "LineString", "coordinates": [ [ -78.861067351485787, 36.099857061705656 ], [ -78.860607636969576, 36.099626351346465 ] ] } },
{ "type": "Feature", "properties": { "FEEDER_NAME": "FAIRINTOSH", "SUBSTATION_NAME": "E. Willardsville", "wmType": "SECONDARY OVERHEAD", "WKT": "LINESTRING (-78.86060763696958 36.099626351346465, -78.86107817505558 36.09955668217041)" }, "geometry": { "type": "LineString", "coordinates": [ [ -78.860607636969576, 36.099626351346465 ], [ -78.861078175055582, 36.099556682170409 ] ] } },
{ "type": "Feature", "properties": { "FEEDER_NAME": "FAIRINTOSH", "SUBSTATION_NAME": "E. Willardsville", "wmType": "SECONDARY OVERHEAD", "WKT": "LINESTRING (-78.86107817505558 36.09955668217041, -78.86129717486108 36.09935668237274)" }, "geometry": { "type": "LineString", "coordinates": [ [ -78.861078175055582, 36.099556682170409 ], [ -78.861297174861079, 36.099356682372743 ] ] } },
{ "type": "Feature", "properties": { "FEEDER_NAME": "FAIRINTOSH", "SUBSTATION_NAME": "E. Willardsville", "wmType": "SECONDARY OVERHEAD", "WKT": "LINESTRING (-78.86129717486108 36.09935668237274, -78.86129517513949 36.09915268172312)" }, "geometry": { "type": "LineString", "coordinates": [ [ -78.861297174861079, 36.099356682372743 ], [ -78.861295175139489, 36.099152681723119 ] ] } },
{ "type": "Feature", "properties": { "FEEDER_NAME": "FAIRINTOSH", "SUBSTATION_NAME": "E. Willardsville", "wmType": "SECONDARY OVERHEAD", "WKT": "LINESTRING (-78.86129517513949 36.09915268172312, -78.86131017501968 36.0989686816381)" }, "geometry": { "type": "LineString", "coordinates": [ [ -78.861295175139489, 36.099152681723119 ], [ -78.861310175019682, 36.098968681638098 ] ] } },
{ "type": "Feature", "properties": { "FEEDER_NAME": "FAIRINTOSH", "SUBSTATION_NAME": "E. Willardsville", "wmType": "SECONDARY OVERHEAD", "WKT": "LINESTRING (-78.86131017501968 36.0989686816381, -78.8612781756108 36.098705680851964)" }, "geometry": { "type": "LineString", "coordinates": [ [ -78.861310175019682, 36.098968681638098 ], [ -78.861278175610806, 36.098705680851964 ] ] } },
{ "type": "Feature", "properties": { "FEEDER_NAME": "FAIRINTOSH", "SUBSTATION_NAME": "E. Willardsville", "wmType": "SECONDARY OVERHEAD", "WKT": "LINESTRING (-78.8612781756108 36.098705680851964, -78.86116917499727 36.0984346807031)" }, "geometry": { "type": "LineString", "coordinates": [ [ -78.861278175610806, 36.098705680851964 ], [ -78.861169174997272, 36.0984346807031 ] ] } },
{ "type": "Feature", "properties": { "FEEDER_NAME": "FAIRINTOSH", "SUBSTATION_NAME": "E. Willardsville", "wmType": "SECONDARY OVERHEAD", "WKT": "LINESTRING (-78.82104598266741 36.14537139856219, -78.8211210850349 36.14501176887707)" }, "geometry": { "type": "LineString", "coordinates": [ [ -78.821045982667414, 36.14537139856219 ], [ -78.821121085034903, 36.145011768877069 ] ] } },
{ "type": "Feature", "properties": { "FEEDER_NAME": "FAIRINTOSH", "SUBSTATION_NAME": "E. Willardsville", "wmType": "SECONDARY OVERHEAD", "WKT": "LINESTRING (-78.86962888233644 36.10029286979902, -78.86981219151524 36.100482056819466)" }, "geometry": { "type": "LineString", "coordinates": [ [ -78.869628882336443, 36.10029286979902 ], [ -78.869812191515237, 36.100482056819466 ] ] } },
{ "type": "Feature", "properties": { "FEEDER_NAME": "FAIRINTOSH", "SUBSTATION_NAME": "E. Willardsville", "wmType": "SECONDARY OVERHEAD", "WKT": "LINESTRING (-78.86840826538527 36.098670344006656, -78.8687985454334 36.09895245630987)" }, "geometry": { "type": "LineString", "coordinates": [ [ -78.86840826538527, 36.098670344006656 ], [ -78.868798545433407, 36.098952456309867 ] ] } },
{ "type": "Feature", "properties": { "FEEDER_NAME": "FAIRINTOSH", "SUBSTATION_NAME": "E. Willardsville", "wmType": "SECONDARY OVERHEAD", "WKT": "LINESTRING (-78.86981219151524 36.100482056819466, -78.87022020654688 36.10046186290984)" }, "geometry": { "type": "LineString", "coordinates": [ [ -78.869812191515237, 36.100482056819466 ], [ -78.870220206546875, 36.100461862909839 ] ] } },
{ "type": "Feature", "properties": { "FEEDER_NAME": "FAIRINTOSH", "SUBSTATION_NAME": "E. Willardsville", "wmType": "SECONDARY OVERHEAD", "WKT": "LINESTRING (-78.86655200465592 36.101837205270066, -78.86649414561954 36.101557582633376)" }, "geometry": { "type": "LineString", "coordinates": [ [ -78.866552004655915, 36.101837205270066 ], [ -78.866494145619541, 36.101557582633376 ] ] } },
{ "type": "Feature", "properties": { "FEEDER_NAME": "FAIRINTOSH", "SUBSTATION_NAME": "E. Willardsville", "wmType": "SECONDARY OVERHEAD", "WKT": "LINESTRING (-78.82024562867491 36.13198744010015, -78.82009768822515 36.1321234300756)" }, "geometry": { "type": "LineString", "coordinates": [ [ -78.820245628674911, 36.131987440100147 ], [ -78.820097688225147, 36.132123430075602 ] ] } },
{ "type": "Feature", "properties": { "FEEDER_NAME": "FAIRINTOSH", "SUBSTATION_NAME": "E. Willardsville", "wmType": "SECONDARY OVERHEAD", "WKT": "LINESTRING (-78.86599757016417 36.1016221701177, -78.86596776136382 36.10162463658447, -78.86553673764597 36.10131092936464)" }, "geometry": { "type": "LineString", "coordinates": [ [ -78.865997570164168, 36.1016221701177 ], [ -78.865967761363819, 36.101624636584468 ], [ -78.865536737645968, 36.101310929364637 ] ] } },
{ "type": "Feature", "properties": { "FEEDER_NAME": "FAIRINTOSH", "SUBSTATION_NAME": "E. Willardsville", "wmType": "SECONDARY OVERHEAD", "WKT": "LINESTRING (-78.82090619196306 36.14536179888742, -78.8209059502978 36.14537553220465)" }, "geometry": { "type": "LineString", "coordinates": [ [ -78.820906191963061, 36.145361798887421 ], [ -78.820905950297799, 36.145375532204653 ] ] } }
]
}
