{
"type": "FeatureCollection",
"name": "Jonathan_s_X_Rd_CORNWALL_overhead",
"crs": { "type": "name", "properties": { "name": "urn:ogc:def:crs:OGC:1.3:CRS84" } },
"features": [
{ "type": "Feature", "properties": { "FEEDER_NAME": "CORNWALL", "SUBSTATION_NAME": "Jonathan's X Rd.", "wmType": "SECONDARY OVERHEAD", "WKT": "LINESTRING (-78.72402357517288 36.50450289439705, -78.72423456204517 36.50455611491847)" }, "geometry": { "type": "LineString", "coordinates": [ [ -78.724023575172879, 36.504502894397049 ], [ -78.724234562045169, 36.504556114918472 ] ] } },
{ "type": "Feature", "properties": { "FEEDER_NAME": "CORNWALL", "SUBSTATION_NAME": "Jonathan's X Rd.", "wmType": "SECONDARY OVERHEAD", "WKT": "LINESTRING (-78.65583092245262 36.485019928952525, -78.65634273763686 36.484864718457146)" }, "geometry": { "type": "LineString", "coordinates": [ [ -78.655830922452623, 36.485019928952525 ], [ -78.656342737636862, 36.484864718457146 ] ] } },
{ "type": "Feature", "properties": { "FEEDER_NAME": "CORNWALL", "SUBSTATION_NAME": "Jonathan's X Rd.", "wmType": "SECONDARY OVERHEAD", "WKT": "LINESTRING (-78.69467498582326 36.51198923087237, -78.6946750803659 36.51176842788332)" }, "geometry": { "type": "LineString", "coordinates": [ [ -78.694674985823255, 36.511989230872373 ], [ -78.694675080365897, 36.511768427883318 ] ] } },
{ "type": "Feature", "properties": { "FEEDER_NAME": "CORNWALL", "SUBSTATION_NAME": "Jonathan's X Rd.", "wmType": "SECONDARY OVERHEAD", "WKT": "LINESTRING (-78.65743064155319 36.50651692080049, -78.6576650253131 36.5065512056485)" }, "geometry": { "type": "LineString", "coordinates": [ [ -78.657430641553191, 36.506516920800493 ], [ -78.657665025313094, 36.506551205648499 ] ] } },
{ "type": "Feature", "properties": { "FEEDER_NAME": "CORNWALL", "SUBSTATION_NAME": "Jonathan's X Rd.", "wmType": "SECONDARY OVERHEAD", "WKT": "LINESTRING (-78.64869110289075 36.50572722199762, -78.6490891416984 36.50611444548567)" }, "geometry": { "type": "LineString", "coordinates": [ [ -78.648691102890751, 36.505727221997617 ], [ -78.649089141698397, 36.506114445485672 ] ] } },
{ "type": "Feature", "properties": { "FEEDER_NAME": "CORNWALL", "SUBSTATION_NAME": "Jonathan's X Rd.", "wmType": "SECONDARY OVERHEAD", "WKT": "LINESTRING (-78.66083227191992 36.48207604188793, -78.66039852106383 36.48226926801694)" }, "geometry": { "type": "LineString", "coordinates": [ [ -78.660832271919915, 36.482076041887929 ], [ -78.660398521063826, 36.482269268016942 ] ] } },
{ "type": "Feature", "properties": { "FEEDER_NAME": "CORNWALL", "SUBSTATION_NAME": "Jonathan's X Rd.", "wmType": "SECONDARY OVERHEAD", "WKT": "LINESTRING (-78.7128530914465 36.50679360557888, -78.71292479802698 36.50706247973132)" }, "geometry": { "type": "LineString", "coordinates": [ [ -78.712853091446505, 36.506793605578878 ], [ -78.712924798026975, 36.507062479731317 ] ] } },
{ "type": "Feature", "properties": { "FEEDER_NAME": "CORNWALL", "SUBSTATION_NAME": "Jonathan's X Rd.", "wmType": "SECONDARY OVERHEAD", "WKT": "LINESTRING (-78.67605691800752 36.51662343603383, -78.67602007704045 36.5166087590067)" }, "geometry": { "type": "LineString", "coordinates": [ [ -78.676056918007518, 36.516623436033832 ], [ -78.676020077040448, 36.516608759006701 ] ] } },
{ "type": "Feature", "properties": { "FEEDER_NAME": "CORNWALL", "SUBSTATION_NAME": "Jonathan's X Rd.", "wmType": "SECONDARY OVERHEAD", "WKT": "LINESTRING (-78.68722250494777 36.51036731344683, -78.68720299133518 36.51028611088745)" }, "geometry": { "type": "LineString", "coordinates": [ [ -78.687222504947769, 36.510367313446828 ], [ -78.687202991335184, 36.510286110887449 ] ] } },
{ "type": "Feature", "properties": { "FEEDER_NAME": "CORNWALL", "SUBSTATION_NAME": "Jonathan's X Rd.", "wmType": "SECONDARY OVERHEAD", "WKT": "LINESTRING (-78.65753224692213 36.49999155725942, -78.65729564063248 36.5000678444144)" }, "geometry": { "type": "LineString", "coordinates": [ [ -78.657532246922131, 36.49999155725942 ], [ -78.657295640632483, 36.500067844414403 ] ] } },
{ "type": "Feature", "properties": { "FEEDER_NAME": "CORNWALL", "SUBSTATION_NAME": "Jonathan's X Rd.", "wmType": "SECONDARY OVERHEAD", "WKT": "LINESTRING (-78.65989249523747 36.48217713096218, -78.6599010220569 36.48240101354803)" }, "geometry": { "type": "LineString", "coordinates": [ [ -78.659892495237472, 36.482177130962178 ], [ -78.6599010220569, 36.482401013548028 ] ] } },
{ "type": "Feature", "properties": { "FEEDER_NAME": "CORNWALL", "SUBSTATION_NAME": "Jonathan's X Rd.", "wmType": "SECONDARY OVERHEAD", "WKT": "LINESTRING (-78.6599010220569 36.48240101354803, -78.65999430039737 36.48250804693028)" }, "geometry": { "type": "LineString", "coordinates": [ [ -78.6599010220569, 36.482401013548028 ], [ -78.659994300397372, 36.482508046930278 ] ] } },
{ "type": "Feature", "properties": { "FEEDER_NAME": "CORNWALL", "SUBSTATION_NAME": "Jonathan's X Rd.", "wmType": "SECONDARY OVERHEAD", "WKT": "LINESTRING (-78.65537924759491 36.484561870538464, -78.65565756679399 36.48462389722167)" }, "geometry": { "type": "LineString", "coordinates": [ [ -78.655379247594908, 36.484561870538464 ], [ -78.655657566793991, 36.484623897221667 ] ] } },
{ "type": "Feature", "properties": { "FEEDER_NAME": "CORNWALL", "SUBSTATION_NAME": "Jonathan's X Rd.", "wmType": "SECONDARY OVERHEAD", "WKT": "LINESTRING (-78.65564337947028 36.485210777895034, -78.65583092245262 36.485019928952525)" }, "geometry": { "type": "LineString", "coordinates": [ [ -78.655643379470277, 36.485210777895034 ], [ -78.655830922452623, 36.485019928952525 ] ] } },
{ "type": "Feature", "properties": { "FEEDER_NAME": "CORNWALL", "SUBSTATION_NAME": "Jonathan's X Rd.", "wmType": "SECONDARY OVERHEAD", "WKT": "LINESTRING (-78.65564337947028 36.485210777895034, -78.65604839916216 36.48568972663522)" }, "geometry": { "type": "LineString", "coordinates": [ [ -78.655643379470277, 36.485210777895034 ], [ -78.65604839916216, 36.485689726635222 ] ] } },
{ "type": "Feature", "properties": { "FEEDER_NAME": "CORNWALL", "SUBSTATION_NAME": "Jonathan's X Rd.", "wmType": "SECONDARY OVERHEAD", "WKT": "LINESTRING (-78.65638848880754 36.48865915273023, -78.65587178424092 36.48836907486205)" }, "geometry": { "type": "LineString", "coordinates": [ [ -78.656388488807536, 36.488659152730229 ], [ -78.655871784240915, 36.48836907486205 ] ] } },
{ "type": "Feature", "properties": { "FEEDER_NAME": "CORNWALL", "SUBSTATION_NAME": "Jonathan's X Rd.", "wmType": "SECONDARY OVERHEAD", "WKT": "LINESTRING (-78.6806592380859 36.51712362387845, -78.68023247339497 36.5173570848888)" }, "geometry": { "type": "LineString", "coordinates": [ [ -78.680659238085894, 36.517123623878447 ], [ -78.680232473394966, 36.517357084888801 ] ] } },
{ "type": "Feature", "properties": { "FEEDER_NAME": "CORNWALL", "SUBSTATION_NAME": "Jonathan's X Rd.", "wmType": "SECONDARY OVERHEAD", "WKT": "LINESTRING (-78.6819269558015 36.51721930240382, -78.68177983273293 36.517446895956)" }, "geometry": { "type": "LineString", "coordinates": [ [ -78.681926955801501, 36.517219302403817 ], [ -78.681779832732929, 36.517446895955999 ] ] } },
{ "type": "Feature", "properties": { "FEEDER_NAME": "CORNWALL", "SUBSTATION_NAME": "Jonathan's X Rd.", "wmType": "SECONDARY OVERHEAD", "WKT": "LINESTRING (-78.6819269558015 36.51721930240382, -78.6817418301501 36.51756187315473)" }, "geometry": { "type": "LineString", "coordinates": [ [ -78.681926955801501, 36.517219302403817 ], [ -78.681741830150102, 36.517561873154733 ] ] } },
{ "type": "Feature", "properties": { "FEEDER_NAME": "CORNWALL", "SUBSTATION_NAME": "Jonathan's X Rd.", "wmType": "SECONDARY OVERHEAD", "WKT": "LINESTRING (-78.69359943311696 36.513282739016226, -78.69402694009595 36.51319267683708)" }, "geometry": { "type": "LineString", "coordinates": [ [ -78.693599433116958, 36.513282739016226 ], [ -78.694026940095952, 36.513192676837079 ] ] } },
{ "type": "Feature", "properties": { "FEEDER_NAME": "CORNWALL", "SUBSTATION_NAME": "Jonathan's X Rd.", "wmType": "SECONDARY OVERHEAD", "WKT": "LINESTRING (-78.69359943311696 36.513282739016226, -78.69357396079822 36.5136445723485)" }, "geometry": { "type": "LineString", "coordinates": [ [ -78.693599433116958, 36.513282739016226 ], [ -78.693573960798219, 36.513644572348497 ] ] } },
{ "type": "Feature", "properties": { "FEEDER_NAME": "CORNWALL", "SUBSTATION_NAME": "Jonathan's X Rd.", "wmType": "SECONDARY OVERHEAD", "WKT": "LINESTRING (-78.69357396079822 36.5136445723485, -78.69365421643938 36.513833121946035)" }, "geometry": { "type": "LineString", "coordinates": [ [ -78.693573960798219, 36.513644572348497 ], [ -78.693654216439384, 36.513833121946035 ] ] } },
{ "type": "Feature", "properties": { "FEEDER_NAME": "CORNWALL", "SUBSTATION_NAME": "Jonathan's X Rd.", "wmType": "SECONDARY OVERHEAD", "WKT": "LINESTRING (-78.6938558514123 36.512663591026566, -78.69376722727075 36.512946966346554)" }, "geometry": { "type": "LineString", "coordinates": [ [ -78.693855851412295, 36.512663591026566 ], [ -78.693767227270754, 36.512946966346554 ] ] } },
{ "type": "Feature", "properties": { "FEEDER_NAME": "CORNWALL", "SUBSTATION_NAME": "Jonathan's X Rd.", "wmType": "SECONDARY OVERHEAD", "WKT": "LINESTRING (-78.6938558514123 36.512663591026566, -78.69412883342758 36.51273532224998)" }, "geometry": { "type": "LineString", "coordinates": [ [ -78.693855851412295, 36.512663591026566 ], [ -78.694128833427584, 36.512735322249981 ] ] } },
{ "type": "Feature", "properties": { "FEEDER_NAME": "CORNWALL", "SUBSTATION_NAME": "Jonathan's X Rd.", "wmType": "SECONDARY OVERHEAD", "WKT": "LINESTRING (-78.69763340729546 36.507712399924614, -78.69743010845 36.50739352220185)" }, "geometry": { "type": "LineString", "coordinates": [ [ -78.697633407295456, 36.507712399924614 ], [ -78.697430108450007, 36.507393522201852 ] ] } },
{ "type": "Feature", "properties": { "FEEDER_NAME": "CORNWALL", "SUBSTATION_NAME": "Jonathan's X Rd.", "wmType": "SECONDARY OVERHEAD", "WKT": "LINESTRING (-78.70316436176475 36.49276590440632, -78.70336082232554 36.49270268307639)" }, "geometry": { "type": "LineString", "coordinates": [ [ -78.703164361764749, 36.492765904406319 ], [ -78.703360822325536, 36.492702683076388 ] ] } },
{ "type": "Feature", "properties": { "FEEDER_NAME": "CORNWALL", "SUBSTATION_NAME": "Jonathan's X Rd.", "wmType": "SECONDARY OVERHEAD", "WKT": "LINESTRING (-78.70316436176475 36.49276590440632, -78.7029569807916 36.492933722784315)" }, "geometry": { "type": "LineString", "coordinates": [ [ -78.703164361764749, 36.492765904406319 ], [ -78.702956980791598, 36.492933722784315 ] ] } },
{ "type": "Feature", "properties": { "FEEDER_NAME": "CORNWALL", "SUBSTATION_NAME": "Jonathan's X Rd.", "wmType": "SECONDARY OVERHEAD", "WKT": "LINESTRING (-78.70280420877491 36.511229247012714, -78.7025748214501 36.51136865189275)" }, "geometry": { "type": "LineString", "coordinates": [ [ -78.702804208774907, 36.511229247012714 ], [ -78.702574821450099, 36.511368651892752 ] ] } },
{ "type": "Feature", "properties": { "FEEDER_NAME": "CORNWALL", "SUBSTATION_NAME": "Jonathan's X Rd.", "wmType": "SECONDARY OVERHEAD", "WKT": "LINESTRING (-78.72048707873452 36.51457548541967, -78.72073889843288 36.514758392363554)" }, "geometry": { "type": "LineString", "coordinates": [ [ -78.720487078734521, 36.51457548541967 ], [ -78.720738898432884, 36.514758392363554 ] ] } },
{ "type": "Feature", "properties": { "FEEDER_NAME": "CORNWALL", "SUBSTATION_NAME": "Jonathan's X Rd.", "wmType": "SECONDARY OVERHEAD", "WKT": "LINESTRING (-78.72048707873452 36.51457548541967, -78.72043850464321 36.51474754776622)" }, "geometry": { "type": "LineString", "coordinates": [ [ -78.720487078734521, 36.51457548541967 ], [ -78.720438504643212, 36.51474754776622 ] ] } },
{ "type": "Feature", "properties": { "FEEDER_NAME": "CORNWALL", "SUBSTATION_NAME": "Jonathan's X Rd.", "wmType": "SECONDARY OVERHEAD", "WKT": "LINESTRING (-78.71116203176918 36.51520362833093, -78.7115214077832 36.51546472544259)" }, "geometry": { "type": "LineString", "coordinates": [ [ -78.711162031769177, 36.51520362833093 ], [ -78.711521407783195, 36.515464725442591 ] ] } },
{ "type": "Feature", "properties": { "FEEDER_NAME": "CORNWALL", "SUBSTATION_NAME": "Jonathan's X Rd.", "wmType": "SECONDARY OVERHEAD", "WKT": "LINESTRING (-78.71116203176918 36.51520362833093, -78.71128076678377 36.515484287602625)" }, "geometry": { "type": "LineString", "coordinates": [ [ -78.711162031769177, 36.51520362833093 ], [ -78.711280766783773, 36.515484287602625 ] ] } },
{ "type": "Feature", "properties": { "FEEDER_NAME": "CORNWALL", "SUBSTATION_NAME": "Jonathan's X Rd.", "wmType": "SECONDARY OVERHEAD", "WKT": "LINESTRING (-78.70766814799548 36.51503237639037, -78.70762458041814 36.51515489655906)" }, "geometry": { "type": "LineString", "coordinates": [ [ -78.707668147995477, 36.515032376390373 ], [ -78.707624580418141, 36.515154896559061 ] ] } },
{ "type": "Feature", "properties": { "FEEDER_NAME": "CORNWALL", "SUBSTATION_NAME": "Jonathan's X Rd.", "wmType": "SECONDARY OVERHEAD", "WKT": "LINESTRING (-78.7128530914465 36.50679360557888, -78.71339621496847 36.50682118358861)" }, "geometry": { "type": "LineString", "coordinates": [ [ -78.712853091446505, 36.506793605578878 ], [ -78.713396214968469, 36.506821183588613 ] ] } },
{ "type": "Feature", "properties": { "FEEDER_NAME": "CORNWALL", "SUBSTATION_NAME": "Jonathan's X Rd.", "wmType": "SECONDARY OVERHEAD", "WKT": "LINESTRING (-78.7128530914465 36.50679360557888, -78.71272365223368 36.50660132711262)" }, "geometry": { "type": "LineString", "coordinates": [ [ -78.712853091446505, 36.506793605578878 ], [ -78.712723652233677, 36.50660132711262 ] ] } },
{ "type": "Feature", "properties": { "FEEDER_NAME": "CORNWALL", "SUBSTATION_NAME": "Jonathan's X Rd.", "wmType": "SECONDARY OVERHEAD", "WKT": "LINESTRING (-78.71272365223368 36.50660132711262, -78.71260486392487 36.50649994434644)" }, "geometry": { "type": "LineString", "coordinates": [ [ -78.712723652233677, 36.50660132711262 ], [ -78.712604863924867, 36.506499944346437 ] ] } },
{ "type": "Feature", "properties": { "FEEDER_NAME": "CORNWALL", "SUBSTATION_NAME": "Jonathan's X Rd.", "wmType": "SECONDARY OVERHEAD", "WKT": "LINESTRING (-78.72402357517288 36.50450289439705, -78.7240479594832 36.50468303232669)" }, "geometry": { "type": "LineString", "coordinates": [ [ -78.724023575172879, 36.504502894397049 ], [ -78.724047959483201, 36.504683032326689 ] ] } },
{ "type": "Feature", "properties": { "FEEDER_NAME": "CORNWALL", "SUBSTATION_NAME": "Jonathan's X Rd.", "wmType": "SECONDARY OVERHEAD", "WKT": "LINESTRING (-78.7240479594832 36.50468303232669, -78.72395395512982 36.504704924336664)" }, "geometry": { "type": "LineString", "coordinates": [ [ -78.724047959483201, 36.504683032326689 ], [ -78.723953955129815, 36.504704924336664 ] ] } },
{ "type": "Feature", "properties": { "FEEDER_NAME": "CORNWALL", "SUBSTATION_NAME": "Jonathan's X Rd.", "wmType": "SECONDARY OVERHEAD", "WKT": "LINESTRING (-78.71564622666898 36.503952563383365, -78.71545635432007 36.503773496045895)" }, "geometry": { "type": "LineString", "coordinates": [ [ -78.71564622666898, 36.503952563383365 ], [ -78.715456354320068, 36.503773496045895 ] ] } },
{ "type": "Feature", "properties": { "FEEDER_NAME": "CORNWALL", "SUBSTATION_NAME": "Jonathan's X Rd.", "wmType": "SECONDARY OVERHEAD", "WKT": "LINESTRING (-78.70883183795766 36.510291810796566, -78.7086290200921 36.510257933600826)" }, "geometry": { "type": "LineString", "coordinates": [ [ -78.708831837957661, 36.510291810796566 ], [ -78.708629020092104, 36.510257933600826 ] ] } },
{ "type": "Feature", "properties": { "FEEDER_NAME": "CORNWALL", "SUBSTATION_NAME": "Jonathan's X Rd.", "wmType": "SECONDARY OVERHEAD", "WKT": "LINESTRING (-78.70275176797361 36.51350740947595, -78.70307878596117 36.513502113735605)" }, "geometry": { "type": "LineString", "coordinates": [ [ -78.702751767973609, 36.513507409475949 ], [ -78.703078785961168, 36.513502113735605 ] ] } },
{ "type": "Feature", "properties": { "FEEDER_NAME": "CORNWALL", "SUBSTATION_NAME": "Jonathan's X Rd.", "wmType": "SECONDARY OVERHEAD", "WKT": "LINESTRING (-78.69628033300849 36.51196607262346, -78.69655443669106 36.51202864471659)" }, "geometry": { "type": "LineString", "coordinates": [ [ -78.696280333008488, 36.511966072623459 ], [ -78.696554436691059, 36.512028644716587 ] ] } },
{ "type": "Feature", "properties": { "FEEDER_NAME": "CORNWALL", "SUBSTATION_NAME": "Jonathan's X Rd.", "wmType": "SECONDARY OVERHEAD", "WKT": "LINESTRING (-78.69268075209077 36.51275467635993, -78.69272620160422 36.51296178705196)" }, "geometry": { "type": "LineString", "coordinates": [ [ -78.692680752090766, 36.512754676359933 ], [ -78.692726201604216, 36.512961787051957 ] ] } },
{ "type": "Feature", "properties": { "FEEDER_NAME": "CORNWALL", "SUBSTATION_NAME": "Jonathan's X Rd.", "wmType": "SECONDARY OVERHEAD", "WKT": "LINESTRING (-78.68628583714779 36.51081714163602, -78.68659330651289 36.51112082352114)" }, "geometry": { "type": "LineString", "coordinates": [ [ -78.686285837147793, 36.510817141636018 ], [ -78.68659330651289, 36.511120823521139 ] ] } },
{ "type": "Feature", "properties": { "FEEDER_NAME": "CORNWALL", "SUBSTATION_NAME": "Jonathan's X Rd.", "wmType": "SECONDARY OVERHEAD", "WKT": "LINESTRING (-78.68155749142221 36.51206321413445, -78.68117556955467 36.51216096246807)" }, "geometry": { "type": "LineString", "coordinates": [ [ -78.681557491422211, 36.51206321413445 ], [ -78.681175569554668, 36.512160962468073 ] ] } },
{ "type": "Feature", "properties": { "FEEDER_NAME": "CORNWALL", "SUBSTATION_NAME": "Jonathan's X Rd.", "wmType": "SECONDARY OVERHEAD", "WKT": "LINESTRING (-78.68117556955467 36.51216096246807, -78.68088808881748 36.51222602105825)" }, "geometry": { "type": "LineString", "coordinates": [ [ -78.681175569554668, 36.512160962468073 ], [ -78.680888088817483, 36.512226021058247 ] ] } },
{ "type": "Feature", "properties": { "FEEDER_NAME": "CORNWALL", "SUBSTATION_NAME": "Jonathan's X Rd.", "wmType": "SECONDARY OVERHEAD", "WKT": "LINESTRING (-78.68155749142221 36.51206321413445, -78.68156207159824 36.512217638447126)" }, "geometry": { "type": "LineString", "coordinates": [ [ -78.681557491422211, 36.51206321413445 ], [ -78.681562071598236, 36.512217638447126 ] ] } },
{ "type": "Feature", "properties": { "FEEDER_NAME": "CORNWALL", "SUBSTATION_NAME": "Jonathan's X Rd.", "wmType": "SECONDARY OVERHEAD", "WKT": "LINESTRING (-78.68093755432719 36.51433545836985, -78.68060003775254 36.514286576646974)" }, "geometry": { "type": "LineString", "coordinates": [ [ -78.680937554327187, 36.51433545836985 ], [ -78.680600037752541, 36.514286576646974 ] ] } },
{ "type": "Feature", "properties": { "FEEDER_NAME": "CORNWALL", "SUBSTATION_NAME": "Jonathan's X Rd.", "wmType": "SECONDARY OVERHEAD", "WKT": "LINESTRING (-78.68093755432719 36.51433545836985, -78.68122286712784 36.51448221628265)" }, "geometry": { "type": "LineString", "coordinates": [ [ -78.680937554327187, 36.51433545836985 ], [ -78.681222867127843, 36.514482216282651 ] ] } },
{ "type": "Feature", "properties": { "FEEDER_NAME": "CORNWALL", "SUBSTATION_NAME": "Jonathan's X Rd.", "wmType": "SECONDARY OVERHEAD", "WKT": "LINESTRING (-78.68122286712784 36.51448221628265, -78.68106014427379 36.51456779661813)" }, "geometry": { "type": "LineString", "coordinates": [ [ -78.681222867127843, 36.514482216282651 ], [ -78.681060144273786, 36.514567796618131 ] ] } },
{ "type": "Feature", "properties": { "FEEDER_NAME": "CORNWALL", "SUBSTATION_NAME": "Jonathan's X Rd.", "wmType": "SECONDARY OVERHEAD", "WKT": "LINESTRING (-78.6770030199053 36.51646943363734, -78.67724187386598 36.516604580214924)" }, "geometry": { "type": "LineString", "coordinates": [ [ -78.6770030199053, 36.51646943363734 ], [ -78.677241873865981, 36.516604580214924 ] ] } },
{ "type": "Feature", "properties": { "FEEDER_NAME": "CORNWALL", "SUBSTATION_NAME": "Jonathan's X Rd.", "wmType": "SECONDARY OVERHEAD", "WKT": "LINESTRING (-78.66819266175128 36.507986050382705, -78.66831770581953 36.50781159376275)" }, "geometry": { "type": "LineString", "coordinates": [ [ -78.668192661751277, 36.507986050382705 ], [ -78.668317705819533, 36.507811593762753 ] ] } },
{ "type": "Feature", "properties": { "FEEDER_NAME": "CORNWALL", "SUBSTATION_NAME": "Jonathan's X Rd.", "wmType": "SECONDARY OVERHEAD", "WKT": "LINESTRING (-78.66984416912848 36.50335919032398, -78.66944583834614 36.50335926900405)" }, "geometry": { "type": "LineString", "coordinates": [ [ -78.669844169128481, 36.503359190323977 ], [ -78.669445838346135, 36.503359269004051 ] ] } },
{ "type": "Feature", "properties": { "FEEDER_NAME": "CORNWALL", "SUBSTATION_NAME": "Jonathan's X Rd.", "wmType": "SECONDARY OVERHEAD", "WKT": "LINESTRING (-78.66984416912848 36.50335919032398, -78.66923729365888 36.50355862600896)" }, "geometry": { "type": "LineString", "coordinates": [ [ -78.669844169128481, 36.503359190323977 ], [ -78.669237293658881, 36.50355862600896 ] ] } },
{ "type": "Feature", "properties": { "FEEDER_NAME": "CORNWALL", "SUBSTATION_NAME": "Jonathan's X Rd.", "wmType": "SECONDARY OVERHEAD", "WKT": "LINESTRING (-78.66602293437788 36.48512126170664, -78.66613709762396 36.484985483872464)" }, "geometry": { "type": "LineString", "coordinates": [ [ -78.666022934377878, 36.485121261706638 ], [ -78.66613709762396, 36.484985483872464 ] ] } },
{ "type": "Feature", "properties": { "FEEDER_NAME": "CORNWALL", "SUBSTATION_NAME": "Jonathan's X Rd.", "wmType": "SECONDARY OVERHEAD", "WKT": "LINESTRING (-78.6529374724628 36.48483074722435, -78.6532200973963 36.48492720441683)" }, "geometry": { "type": "LineString", "coordinates": [ [ -78.652937472462796, 36.48483074722435 ], [ -78.6532200973963, 36.484927204416827 ] ] } },
{ "type": "Feature", "properties": { "FEEDER_NAME": "CORNWALL", "SUBSTATION_NAME": "Jonathan's X Rd.", "wmType": "SECONDARY OVERHEAD", "WKT": "LINESTRING (-78.65366020693106 36.48454880003758, -78.65317623640391 36.48435026655264)" }, "geometry": { "type": "LineString", "coordinates": [ [ -78.653660206931065, 36.484548800037579 ], [ -78.653176236403908, 36.484350266552639 ] ] } },
{ "type": "Feature", "properties": { "FEEDER_NAME": "CORNWALL", "SUBSTATION_NAME": "Jonathan's X Rd.", "wmType": "SECONDARY OVERHEAD", "WKT": "LINESTRING (-78.65366020693106 36.48454880003758, -78.65354277364943 36.48483047677087)" }, "geometry": { "type": "LineString", "coordinates": [ [ -78.653660206931065, 36.484548800037579 ], [ -78.653542773649434, 36.484830476770867 ] ] } },
{ "type": "Feature", "properties": { "FEEDER_NAME": "CORNWALL", "SUBSTATION_NAME": "Jonathan's X Rd.", "wmType": "SECONDARY OVERHEAD", "WKT": "LINESTRING (-78.65366020693106 36.48454880003758, -78.65390704086407 36.484647819295795)" }, "geometry": { "type": "LineString", "coordinates": [ [ -78.653660206931065, 36.484548800037579 ], [ -78.65390704086407, 36.484647819295795 ] ] } },
{ "type": "Feature", "properties": { "FEEDER_NAME": "CORNWALL", "SUBSTATION_NAME": "Jonathan's X Rd.", "wmType": "SECONDARY OVERHEAD", "WKT": "LINESTRING (-78.65440660136542 36.484260598572895, -78.65388573194106 36.48401400993822)" }, "geometry": { "type": "LineString", "coordinates": [ [ -78.654406601365423, 36.484260598572895 ], [ -78.65388573194106, 36.484014009938221 ] ] } },
{ "type": "Feature", "properties": { "FEEDER_NAME": "CORNWALL", "SUBSTATION_NAME": "Jonathan's X Rd.", "wmType": "SECONDARY OVERHEAD", "WKT": "LINESTRING (-78.65514195171578 36.48397672816163, -78.65553370148821 36.48365742226154)" }, "geometry": { "type": "LineString", "coordinates": [ [ -78.655141951715777, 36.483976728161629 ], [ -78.65553370148821, 36.483657422261537 ] ] } },
{ "type": "Feature", "properties": { "FEEDER_NAME": "CORNWALL", "SUBSTATION_NAME": "Jonathan's X Rd.", "wmType": "SECONDARY OVERHEAD", "WKT": "LINESTRING (-78.65537924759491 36.484561870538464, -78.65559059023678 36.484206217623225)" }, "geometry": { "type": "LineString", "coordinates": [ [ -78.655379247594908, 36.484561870538464 ], [ -78.655590590236784, 36.484206217623225 ] ] } },
{ "type": "Feature", "properties": { "FEEDER_NAME": "CORNWALL", "SUBSTATION_NAME": "Jonathan's X Rd.", "wmType": "SECONDARY OVERHEAD", "WKT": "LINESTRING (-78.6571597100079 36.491621398779074, -78.65686796435273 36.491829343527414)" }, "geometry": { "type": "LineString", "coordinates": [ [ -78.657159710007903, 36.491621398779074 ], [ -78.656867964352728, 36.491829343527414 ] ] } },
{ "type": "Feature", "properties": { "FEEDER_NAME": "CORNWALL", "SUBSTATION_NAME": "Jonathan's X Rd.", "wmType": "SECONDARY OVERHEAD", "WKT": "LINESTRING (-78.65686796435273 36.491829343527414, -78.65677387974883 36.492012241989215)" }, "geometry": { "type": "LineString", "coordinates": [ [ -78.656867964352728, 36.491829343527414 ], [ -78.656773879748826, 36.492012241989215 ] ] } },
{ "type": "Feature", "properties": { "FEEDER_NAME": "CORNWALL", "SUBSTATION_NAME": "Jonathan's X Rd.", "wmType": "SECONDARY OVERHEAD", "WKT": "LINESTRING (-78.65793182668293 36.505546907813894, -78.65782596087688 36.50526214086506)" }, "geometry": { "type": "LineString", "coordinates": [ [ -78.657931826682926, 36.505546907813894 ], [ -78.657825960876878, 36.505262140865057 ] ] } },
{ "type": "Feature", "properties": { "FEEDER_NAME": "CORNWALL", "SUBSTATION_NAME": "Jonathan's X Rd.", "wmType": "SECONDARY OVERHEAD", "WKT": "LINESTRING (-78.65978450360514 36.507243580130904, -78.65983012953812 36.507018141095244)" }, "geometry": { "type": "LineString", "coordinates": [ [ -78.659784503605138, 36.507243580130904 ], [ -78.659830129538122, 36.507018141095244 ] ] } },
{ "type": "Feature", "properties": { "FEEDER_NAME": "CORNWALL", "SUBSTATION_NAME": "Jonathan's X Rd.", "wmType": "SECONDARY OVERHEAD", "WKT": "LINESTRING (-78.65983012953812 36.507018141095244, -78.6598829411082 36.50674298422382)" }, "geometry": { "type": "LineString", "coordinates": [ [ -78.659830129538122, 36.507018141095244 ], [ -78.659882941108194, 36.50674298422382 ] ] } },
{ "type": "Feature", "properties": { "FEEDER_NAME": "CORNWALL", "SUBSTATION_NAME": "Jonathan's X Rd.", "wmType": "SECONDARY OVERHEAD", "WKT": "LINESTRING (-78.6598829411082 36.50674298422382, -78.66002229904026 36.50677881463425)" }, "geometry": { "type": "LineString", "coordinates": [ [ -78.659882941108194, 36.50674298422382 ], [ -78.660022299040264, 36.506778814634252 ] ] } },
{ "type": "Feature", "properties": { "FEEDER_NAME": "CORNWALL", "SUBSTATION_NAME": "Jonathan's X Rd.", "wmType": "SECONDARY OVERHEAD", "WKT": "LINESTRING (-78.65827286304456 36.50653976067316, -78.65826357320331 36.50670781699722)" }, "geometry": { "type": "LineString", "coordinates": [ [ -78.658272863044559, 36.506539760673157 ], [ -78.658263573203314, 36.506707816997221 ] ] } },
{ "type": "Feature", "properties": { "FEEDER_NAME": "CORNWALL", "SUBSTATION_NAME": "Jonathan's X Rd.", "wmType": "SECONDARY OVERHEAD", "WKT": "LINESTRING (-78.64716060696891 36.50601204019911, -78.64701376441622 36.50579833021334)" }, "geometry": { "type": "LineString", "coordinates": [ [ -78.64716060696891, 36.50601204019911 ], [ -78.647013764416215, 36.505798330213338 ] ] } },
{ "type": "Feature", "properties": { "FEEDER_NAME": "CORNWALL", "SUBSTATION_NAME": "Jonathan's X Rd.", "wmType": "SECONDARY OVERHEAD", "WKT": "LINESTRING (-78.64812857333125 36.508377515197324, -78.64827760565642 36.50849027677338)" }, "geometry": { "type": "LineString", "coordinates": [ [ -78.648128573331249, 36.508377515197324 ], [ -78.648277605656418, 36.508490276773379 ] ] } },
{ "type": "Feature", "properties": { "FEEDER_NAME": "CORNWALL", "SUBSTATION_NAME": "Jonathan's X Rd.", "wmType": "SECONDARY OVERHEAD", "WKT": "LINESTRING (-78.65323272415753 36.50743392574593, -78.65330139068739 36.507164885956996)" }, "geometry": { "type": "LineString", "coordinates": [ [ -78.653232724157533, 36.507433925745929 ], [ -78.653301390687389, 36.507164885956996 ] ] } },
{ "type": "Feature", "properties": { "FEEDER_NAME": "CORNWALL", "SUBSTATION_NAME": "Jonathan's X Rd.", "wmType": "SECONDARY OVERHEAD", "WKT": "LINESTRING (-78.65814977696004 36.50615686668331, -78.657874480127 36.50603822328685)" }, "geometry": { "type": "LineString", "coordinates": [ [ -78.658149776960045, 36.506156866683313 ], [ -78.657874480127006, 36.506038223286851 ] ] } },
{ "type": "Feature", "properties": { "FEEDER_NAME": "CORNWALL", "SUBSTATION_NAME": "Jonathan's X Rd.", "wmType": "SECONDARY OVERHEAD", "WKT": "LINESTRING (-78.657874480127 36.50603822328685, -78.65767394832812 36.505945417219095)" }, "geometry": { "type": "LineString", "coordinates": [ [ -78.657874480127006, 36.506038223286851 ], [ -78.657673948328124, 36.505945417219095 ] ] } },
{ "type": "Feature", "properties": { "FEEDER_NAME": "CORNWALL", "SUBSTATION_NAME": "Jonathan's X Rd.", "wmType": "SECONDARY OVERHEAD", "WKT": "LINESTRING (-78.65816160317222 36.50592070523006, -78.65828148133015 36.50607215544065)" }, "geometry": { "type": "LineString", "coordinates": [ [ -78.658161603172218, 36.505920705230061 ], [ -78.65828148133015, 36.506072155440648 ] ] } },
{ "type": "Feature", "properties": { "FEEDER_NAME": "CORNWALL", "SUBSTATION_NAME": "Jonathan's X Rd.", "wmType": "SECONDARY OVERHEAD", "WKT": "LINESTRING (-78.65968431412011 36.50510410045033, -78.66018347702034 36.5050826029565)" }, "geometry": { "type": "LineString", "coordinates": [ [ -78.659684314120113, 36.505104100450332 ], [ -78.66018347702034, 36.505082602956499 ] ] } },
{ "type": "Feature", "properties": { "FEEDER_NAME": "CORNWALL", "SUBSTATION_NAME": "Jonathan's X Rd.", "wmType": "SECONDARY OVERHEAD", "WKT": "LINESTRING (-78.65651418387536 36.5029649517101, -78.65691585800663 36.50297448543498)" }, "geometry": { "type": "LineString", "coordinates": [ [ -78.656514183875359, 36.502964951710098 ], [ -78.656915858006627, 36.502974485434983 ] ] } },
{ "type": "Feature", "properties": { "FEEDER_NAME": "CORNWALL", "SUBSTATION_NAME": "Jonathan's X Rd.", "wmType": "SECONDARY OVERHEAD", "WKT": "LINESTRING (-78.65746680773469 36.50306875344333, -78.65776673455268 36.50323983450082)" }, "geometry": { "type": "LineString", "coordinates": [ [ -78.657466807734693, 36.50306875344333 ], [ -78.657766734552681, 36.503239834500818 ] ] } },
{ "type": "Feature", "properties": { "FEEDER_NAME": "CORNWALL", "SUBSTATION_NAME": "Jonathan's X Rd.", "wmType": "SECONDARY OVERHEAD", "WKT": "LINESTRING (-78.65783729164531 36.5001268633455, -78.65753224692213 36.49999155725942)" }, "geometry": { "type": "LineString", "coordinates": [ [ -78.657837291645308, 36.5001268633455 ], [ -78.657532246922131, 36.49999155725942 ] ] } },
{ "type": "Feature", "properties": { "FEEDER_NAME": "CORNWALL", "SUBSTATION_NAME": "Jonathan's X Rd.", "wmType": "SECONDARY OVERHEAD", "WKT": "LINESTRING (-78.65753224692213 36.49999155725942, -78.65720344918539 36.49990941997572)" }, "geometry": { "type": "LineString", "coordinates": [ [ -78.657532246922131, 36.49999155725942 ], [ -78.657203449185388, 36.499909419975722 ] ] } },
{ "type": "Feature", "properties": { "FEEDER_NAME": "CORNWALL", "SUBSTATION_NAME": "Jonathan's X Rd.", "wmType": "SECONDARY OVERHEAD", "WKT": "LINESTRING (-78.65783729164531 36.5001268633455, -78.65770871372601 36.50042743391558)" }, "geometry": { "type": "LineString", "coordinates": [ [ -78.657837291645308, 36.5001268633455 ], [ -78.657708713726009, 36.500427433915583 ] ] } },
{ "type": "Feature", "properties": { "FEEDER_NAME": "CORNWALL", "SUBSTATION_NAME": "Jonathan's X Rd.", "wmType": "SECONDARY OVERHEAD", "WKT": "LINESTRING (-78.65790765983228 36.50099101026568, -78.65817681593889 36.50094232284241)" }, "geometry": { "type": "LineString", "coordinates": [ [ -78.657907659832276, 36.500991010265679 ], [ -78.658176815938887, 36.500942322842413 ] ] } },
{ "type": "Feature", "properties": { "FEEDER_NAME": "CORNWALL", "SUBSTATION_NAME": "Jonathan's X Rd.", "wmType": "SECONDARY OVERHEAD", "WKT": "LINESTRING (-78.65817681593889 36.50094232284241, -78.65846414477554 36.5010528816792)" }, "geometry": { "type": "LineString", "coordinates": [ [ -78.658176815938887, 36.500942322842413 ], [ -78.658464144775536, 36.5010528816792 ] ] } },
{ "type": "Feature", "properties": { "FEEDER_NAME": "CORNWALL", "SUBSTATION_NAME": "Jonathan's X Rd.", "wmType": "SECONDARY OVERHEAD", "WKT": "LINESTRING (-78.65817681593889 36.50094232284241, -78.65824484586098 36.50135052356939)" }, "geometry": { "type": "LineString", "coordinates": [ [ -78.658176815938887, 36.500942322842413 ], [ -78.658244845860978, 36.501350523569393 ] ] } },
{ "type": "Feature", "properties": { "FEEDER_NAME": "CORNWALL", "SUBSTATION_NAME": "Jonathan's X Rd.", "wmType": "SECONDARY OVERHEAD", "WKT": "LINESTRING (-78.65817681593889 36.50094232284241, -78.65859929134143 36.50106118185321)" }, "geometry": { "type": "LineString", "coordinates": [ [ -78.658176815938887, 36.500942322842413 ], [ -78.658599291341432, 36.50106118185321 ] ] } },
{ "type": "Feature", "properties": { "FEEDER_NAME": "CORNWALL", "SUBSTATION_NAME": "Jonathan's X Rd.", "wmType": "SECONDARY OVERHEAD", "WKT": "LINESTRING (-78.66977111442283 36.49997621894234, -78.66978149455265 36.49996277050589, -78.66961808241905 36.49944053695528, -78.66957400302388 36.49943637362801)" }, "geometry": { "type": "LineString", "coordinates": [ [ -78.669771114422829, 36.499976218942336 ], [ -78.669781494552652, 36.499962770505888 ], [ -78.669618082419049, 36.499440536955277 ], [ -78.669574003023882, 36.499436373628008 ] ] } },
{ "type": "Feature", "properties": { "FEEDER_NAME": "CORNWALL", "SUBSTATION_NAME": "Jonathan's X Rd.", "wmType": "SECONDARY OVERHEAD", "WKT": "LINESTRING (-78.65633256476912 36.49199936465449, -78.65656868346495 36.49225552779641)" }, "geometry": { "type": "LineString", "coordinates": [ [ -78.656332564769116, 36.49199936465449 ], [ -78.656568683464954, 36.492255527796409 ] ] } },
{ "type": "Feature", "properties": { "FEEDER_NAME": "CORNWALL", "SUBSTATION_NAME": "Jonathan's X Rd.", "wmType": "SECONDARY OVERHEAD", "WKT": "LINESTRING (-78.65635153917263 36.491270588348335, -78.65656338669594 36.49119741072024)" }, "geometry": { "type": "LineString", "coordinates": [ [ -78.656351539172633, 36.491270588348335 ], [ -78.656563386695936, 36.49119741072024 ] ] } },
{ "type": "Feature", "properties": { "FEEDER_NAME": "CORNWALL", "SUBSTATION_NAME": "Jonathan's X Rd.", "wmType": "SECONDARY OVERHEAD", "WKT": "LINESTRING (-78.65656338669594 36.49119741072024, -78.656701198159 36.4911181429337)" }, "geometry": { "type": "LineString", "coordinates": [ [ -78.656563386695936, 36.49119741072024 ], [ -78.656701198158999, 36.491118142933701 ] ] } },
{ "type": "Feature", "properties": { "FEEDER_NAME": "CORNWALL", "SUBSTATION_NAME": "Jonathan's X Rd.", "wmType": "SECONDARY OVERHEAD", "WKT": "LINESTRING (-78.65634302782927 36.49074898441858, -78.65660389605274 36.4905864360224)" }, "geometry": { "type": "LineString", "coordinates": [ [ -78.656343027829266, 36.49074898441858 ], [ -78.656603896052744, 36.490586436022397 ] ] } },
{ "type": "Feature", "properties": { "FEEDER_NAME": "CORNWALL", "SUBSTATION_NAME": "Jonathan's X Rd.", "wmType": "SECONDARY OVERHEAD", "WKT": "LINESTRING (-78.65660389605274 36.4905864360224, -78.65676947247411 36.490618592598906)" }, "geometry": { "type": "LineString", "coordinates": [ [ -78.656603896052744, 36.490586436022397 ], [ -78.65676947247411, 36.490618592598906 ] ] } },
{ "type": "Feature", "properties": { "FEEDER_NAME": "CORNWALL", "SUBSTATION_NAME": "Jonathan's X Rd.", "wmType": "SECONDARY OVERHEAD", "WKT": "LINESTRING (-78.65676947247411 36.490618592598906, -78.65696014950521 36.490421087812244)" }, "geometry": { "type": "LineString", "coordinates": [ [ -78.65676947247411, 36.490618592598906 ], [ -78.65696014950521, 36.490421087812244 ] ] } },
{ "type": "Feature", "properties": { "FEEDER_NAME": "CORNWALL", "SUBSTATION_NAME": "Jonathan's X Rd.", "wmType": "SECONDARY OVERHEAD", "WKT": "LINESTRING (-78.65666246011115 36.490000558558194, -78.65694867491888 36.49009789631215)" }, "geometry": { "type": "LineString", "coordinates": [ [ -78.65666246011115, 36.490000558558194 ], [ -78.65694867491888, 36.49009789631215 ] ] } },
{ "type": "Feature", "properties": { "FEEDER_NAME": "CORNWALL", "SUBSTATION_NAME": "Jonathan's X Rd.", "wmType": "SECONDARY OVERHEAD", "WKT": "LINESTRING (-78.65650912737264 36.48861202688965, -78.65638848880754 36.48865915273023)" }, "geometry": { "type": "LineString", "coordinates": [ [ -78.656509127372644, 36.488612026889648 ], [ -78.656388488807536, 36.488659152730229 ] ] } },
{ "type": "Feature", "properties": { "FEEDER_NAME": "CORNWALL", "SUBSTATION_NAME": "Jonathan's X Rd.", "wmType": "SECONDARY OVERHEAD", "WKT": "LINESTRING (-78.65673173612846 36.48754840438475, -78.65648362879291 36.48757698894487)" }, "geometry": { "type": "LineString", "coordinates": [ [ -78.656731736128464, 36.487548404384746 ], [ -78.656483628792913, 36.487576988944873 ] ] } },
{ "type": "Feature", "properties": { "FEEDER_NAME": "CORNWALL", "SUBSTATION_NAME": "Jonathan's X Rd.", "wmType": "SECONDARY OVERHEAD", "WKT": "LINESTRING (-78.65673173612846 36.48754840438475, -78.65693181294468 36.48727475536611)" }, "geometry": { "type": "LineString", "coordinates": [ [ -78.656731736128464, 36.487548404384746 ], [ -78.656931812944677, 36.487274755366109 ] ] } },
{ "type": "Feature", "properties": { "FEEDER_NAME": "CORNWALL", "SUBSTATION_NAME": "Jonathan's X Rd.", "wmType": "SECONDARY OVERHEAD", "WKT": "LINESTRING (-78.65660071523067 36.487025494934755, -78.65631795612518 36.486941789127826)" }, "geometry": { "type": "LineString", "coordinates": [ [ -78.656600715230667, 36.487025494934755 ], [ -78.656317956125179, 36.486941789127826 ] ] } },
{ "type": "Feature", "properties": { "FEEDER_NAME": "CORNWALL", "SUBSTATION_NAME": "Jonathan's X Rd.", "wmType": "SECONDARY OVERHEAD", "WKT": "LINESTRING (-78.65660071523067 36.487025494934755, -78.65685942279362 36.48697372092816)" }, "geometry": { "type": "LineString", "coordinates": [ [ -78.656600715230667, 36.487025494934755 ], [ -78.656859422793616, 36.486973720928162 ] ] } },
{ "type": "Feature", "properties": { "FEEDER_NAME": "CORNWALL", "SUBSTATION_NAME": "Jonathan's X Rd.", "wmType": "SECONDARY OVERHEAD", "WKT": "LINESTRING (-78.65640406669898 36.48650729099496, -78.6561456918992 36.486432605956125)" }, "geometry": { "type": "LineString", "coordinates": [ [ -78.656404066698983, 36.486507290994957 ], [ -78.656145691899198, 36.486432605956125 ] ] } },
{ "type": "Feature", "properties": { "FEEDER_NAME": "CORNWALL", "SUBSTATION_NAME": "Jonathan's X Rd.", "wmType": "SECONDARY OVERHEAD", "WKT": "LINESTRING (-78.65608840083497 36.48569100904006, -78.6558802354725 36.48584472329462)" }, "geometry": { "type": "LineString", "coordinates": [ [ -78.656088400834975, 36.48569100904006 ], [ -78.655880235472495, 36.485844723294619 ] ] } },
{ "type": "Feature", "properties": { "FEEDER_NAME": "CORNWALL", "SUBSTATION_NAME": "Jonathan's X Rd.", "wmType": "SECONDARY OVERHEAD", "WKT": "LINESTRING (-78.65859204745841 36.48268148712013, -78.6587169777943 36.48282686891592)" }, "geometry": { "type": "LineString", "coordinates": [ [ -78.658592047458413, 36.482681487120132 ], [ -78.658716977794299, 36.482826868915922 ] ] } },
{ "type": "Feature", "properties": { "FEEDER_NAME": "CORNWALL", "SUBSTATION_NAME": "Jonathan's X Rd.", "wmType": "SECONDARY OVERHEAD", "WKT": "LINESTRING (-78.6587169777943 36.48282686891592, -78.65909400428679 36.48293398394963)" }, "geometry": { "type": "LineString", "coordinates": [ [ -78.658716977794299, 36.482826868915922 ], [ -78.659094004286786, 36.482933983949628 ] ] } },
{ "type": "Feature", "properties": { "FEEDER_NAME": "CORNWALL", "SUBSTATION_NAME": "Jonathan's X Rd.", "wmType": "SECONDARY OVERHEAD", "WKT": "LINESTRING (-78.66075039931289 36.481837586622774, -78.66083227191992 36.48207604188793)" }, "geometry": { "type": "LineString", "coordinates": [ [ -78.660750399312889, 36.481837586622774 ], [ -78.660832271919915, 36.482076041887929 ] ] } },
{ "type": "Feature", "properties": { "FEEDER_NAME": "CORNWALL", "SUBSTATION_NAME": "Jonathan's X Rd.", "wmType": "SECONDARY OVERHEAD", "WKT": "LINESTRING (-78.65999430039737 36.48250804693028, -78.6601041363103 36.482465956091595)" }, "geometry": { "type": "LineString", "coordinates": [ [ -78.659994300397372, 36.482508046930278 ], [ -78.660104136310295, 36.482465956091595 ] ] } },
{ "type": "Feature", "properties": { "FEEDER_NAME": "CORNWALL", "SUBSTATION_NAME": "Jonathan's X Rd.", "wmType": "SECONDARY OVERHEAD", "WKT": "LINESTRING (-78.66332894440981 36.48633421793292, -78.66348100822056 36.48668612222235)" }, "geometry": { "type": "LineString", "coordinates": [ [ -78.663328944409812, 36.486334217932921 ], [ -78.663481008220558, 36.486686122222352 ] ] } },
{ "type": "Feature", "properties": { "FEEDER_NAME": "CORNWALL", "SUBSTATION_NAME": "Jonathan's X Rd.", "wmType": "SECONDARY OVERHEAD", "WKT": "LINESTRING (-78.66348100822056 36.48668612222235, -78.66381201895507 36.48686162655708)" }, "geometry": { "type": "LineString", "coordinates": [ [ -78.663481008220558, 36.486686122222352 ], [ -78.66381201895507, 36.486861626557079 ] ] } },
{ "type": "Feature", "properties": { "FEEDER_NAME": "CORNWALL", "SUBSTATION_NAME": "Jonathan's X Rd.", "wmType": "SECONDARY OVERHEAD", "WKT": "LINESTRING (-78.66664709833611 36.48535428248328, -78.66649376437903 36.485164937148156)" }, "geometry": { "type": "LineString", "coordinates": [ [ -78.666647098336114, 36.485354282483279 ], [ -78.666493764379027, 36.485164937148156 ] ] } },
{ "type": "Feature", "properties": { "FEEDER_NAME": "CORNWALL", "SUBSTATION_NAME": "Jonathan's X Rd.", "wmType": "SECONDARY OVERHEAD", "WKT": "LINESTRING (-78.66776581834547 36.48471041553445, -78.66778133126267 36.48460290554173)" }, "geometry": { "type": "LineString", "coordinates": [ [ -78.667765818345472, 36.484710415534451 ], [ -78.667781331262674, 36.484602905541728 ] ] } },
{ "type": "Feature", "properties": { "FEEDER_NAME": "CORNWALL", "SUBSTATION_NAME": "Jonathan's X Rd.", "wmType": "SECONDARY OVERHEAD", "WKT": "LINESTRING (-78.66776581834547 36.48471041553445, -78.6681592981096 36.48453710472607)" }, "geometry": { "type": "LineString", "coordinates": [ [ -78.667765818345472, 36.484710415534451 ], [ -78.6681592981096, 36.484537104726073 ] ] } },
{ "type": "Feature", "properties": { "FEEDER_NAME": "CORNWALL", "SUBSTATION_NAME": "Jonathan's X Rd.", "wmType": "SECONDARY OVERHEAD", "WKT": "LINESTRING (-78.668958849875 36.48317409933674, -78.66915134506829 36.482961106649604)" }, "geometry": { "type": "LineString", "coordinates": [ [ -78.668958849874997, 36.483174099336743 ], [ -78.669151345068286, 36.482961106649604 ] ] } },
{ "type": "Feature", "properties": { "FEEDER_NAME": "CORNWALL", "SUBSTATION_NAME": "Jonathan's X Rd.", "wmType": "SECONDARY OVERHEAD", "WKT": "LINESTRING (-78.66915134506829 36.482961106649604, -78.66943036503663 36.48287902348908)" }, "geometry": { "type": "LineString", "coordinates": [ [ -78.669151345068286, 36.482961106649604 ], [ -78.669430365036632, 36.482879023489083 ] ] } },
{ "type": "Feature", "properties": { "FEEDER_NAME": "CORNWALL", "SUBSTATION_NAME": "Jonathan's X Rd.", "wmType": "SECONDARY OVERHEAD", "WKT": "LINESTRING (-78.66803710183234 36.48331204039583, -78.66828710319781 36.4835231760021)" }, "geometry": { "type": "LineString", "coordinates": [ [ -78.66803710183234, 36.48331204039583 ], [ -78.668287103197812, 36.483523176002102 ] ] } },
{ "type": "Feature", "properties": { "FEEDER_NAME": "CORNWALL", "SUBSTATION_NAME": "Jonathan's X Rd.", "wmType": "SECONDARY OVERHEAD", "WKT": "LINESTRING (-78.66614483314473 36.481200363298626, -78.66615737055666 36.48111751300779)" }, "geometry": { "type": "LineString", "coordinates": [ [ -78.666144833144727, 36.481200363298626 ], [ -78.666157370556661, 36.481117513007788 ] ] } },
{ "type": "Feature", "properties": { "FEEDER_NAME": "CORNWALL", "SUBSTATION_NAME": "Jonathan's X Rd.", "wmType": "SECONDARY OVERHEAD", "WKT": "LINESTRING (-78.66645722236336 36.48240453501139, -78.66613547741338 36.48236119673503)" }, "geometry": { "type": "LineString", "coordinates": [ [ -78.666457222363363, 36.482404535011391 ], [ -78.666135477413377, 36.482361196735027 ] ] } },
{ "type": "Feature", "properties": { "FEEDER_NAME": "CORNWALL", "SUBSTATION_NAME": "Jonathan's X Rd.", "wmType": "SECONDARY OVERHEAD", "WKT": "LINESTRING (-78.66613547741338 36.48236119673503, -78.66576600444814 36.48234950869512)" }, "geometry": { "type": "LineString", "coordinates": [ [ -78.666135477413377, 36.482361196735027 ], [ -78.665766004448145, 36.482349508695123 ] ] } },
{ "type": "Feature", "properties": { "FEEDER_NAME": "CORNWALL", "SUBSTATION_NAME": "Jonathan's X Rd.", "wmType": "SECONDARY OVERHEAD", "WKT": "LINESTRING (-78.66670275583802 36.483272621229915, -78.66702451216888 36.48335876616572)" }, "geometry": { "type": "LineString", "coordinates": [ [ -78.666702755838017, 36.483272621229915 ], [ -78.667024512168879, 36.483358766165722 ] ] } },
{ "type": "Feature", "properties": { "FEEDER_NAME": "CORNWALL", "SUBSTATION_NAME": "Jonathan's X Rd.", "wmType": "SECONDARY OVERHEAD", "WKT": "LINESTRING (-78.66682736735596 36.48380184429229, -78.66692024387905 36.483575022179906)" }, "geometry": { "type": "LineString", "coordinates": [ [ -78.666827367355964, 36.483801844292287 ], [ -78.666920243879048, 36.483575022179906 ] ] } },
{ "type": "Feature", "properties": { "FEEDER_NAME": "CORNWALL", "SUBSTATION_NAME": "Jonathan's X Rd.", "wmType": "SECONDARY OVERHEAD", "WKT": "LINESTRING (-78.66698466212372 36.48717139142796, -78.66692138073888 36.48693412220213)" }, "geometry": { "type": "LineString", "coordinates": [ [ -78.666984662123724, 36.487171391427957 ], [ -78.666921380738884, 36.486934122202129 ] ] } },
{ "type": "Feature", "properties": { "FEEDER_NAME": "CORNWALL", "SUBSTATION_NAME": "Jonathan's X Rd.", "wmType": "SECONDARY OVERHEAD", "WKT": "LINESTRING (-78.66698466212372 36.48717139142796, -78.66711422181362 36.48745120750188)" }, "geometry": { "type": "LineString", "coordinates": [ [ -78.666984662123724, 36.487171391427957 ], [ -78.66711422181362, 36.487451207501877 ] ] } },
{ "type": "Feature", "properties": { "FEEDER_NAME": "CORNWALL", "SUBSTATION_NAME": "Jonathan's X Rd.", "wmType": "SECONDARY OVERHEAD", "WKT": "LINESTRING (-78.66768385563059 36.48712404716068, -78.66766975319005 36.486732929991526)" }, "geometry": { "type": "LineString", "coordinates": [ [ -78.667683855630585, 36.487124047160677 ], [ -78.667669753190054, 36.486732929991526 ] ] } },
{ "type": "Feature", "properties": { "FEEDER_NAME": "CORNWALL", "SUBSTATION_NAME": "Jonathan's X Rd.", "wmType": "SECONDARY OVERHEAD", "WKT": "LINESTRING (-78.66768385563059 36.48712404716068, -78.66781956162649 36.486995403152164)" }, "geometry": { "type": "LineString", "coordinates": [ [ -78.667683855630585, 36.487124047160677 ], [ -78.667819561626487, 36.486995403152164 ] ] } },
{ "type": "Feature", "properties": { "FEEDER_NAME": "CORNWALL", "SUBSTATION_NAME": "Jonathan's X Rd.", "wmType": "SECONDARY OVERHEAD", "WKT": "LINESTRING (-78.66875475312746 36.49428673445614, -78.6684987171028 36.494253228419)" }, "geometry": { "type": "LineString", "coordinates": [ [ -78.668754753127459, 36.494286734456139 ], [ -78.668498717102807, 36.494253228418998 ] ] } },
{ "type": "Feature", "properties": { "FEEDER_NAME": "CORNWALL", "SUBSTATION_NAME": "Jonathan's X Rd.", "wmType": "SECONDARY OVERHEAD", "WKT": "LINESTRING (-78.6684987171028 36.494253228419, -78.6681368514238 36.49426389667985)" }, "geometry": { "type": "LineString", "coordinates": [ [ -78.668498717102807, 36.494253228418998 ], [ -78.668136851423796, 36.494263896679847 ] ] } },
{ "type": "Feature", "properties": { "FEEDER_NAME": "CORNWALL", "SUBSTATION_NAME": "Jonathan's X Rd.", "wmType": "SECONDARY OVERHEAD", "WKT": "LINESTRING (-78.6681368514238 36.49426389667985, -78.66819918473189 36.4943092056664)" }, "geometry": { "type": "LineString", "coordinates": [ [ -78.668136851423796, 36.494263896679847 ], [ -78.66819918473189, 36.494309205666397 ] ] } },
{ "type": "Feature", "properties": { "FEEDER_NAME": "CORNWALL", "SUBSTATION_NAME": "Jonathan's X Rd.", "wmType": "SECONDARY OVERHEAD", "WKT": "LINESTRING (-78.67000381801589 36.50065262631036, -78.66976724058347 36.50047216675211)" }, "geometry": { "type": "LineString", "coordinates": [ [ -78.670003818015886, 36.500652626310362 ], [ -78.669767240583468, 36.500472166752111 ] ] } },
{ "type": "Feature", "properties": { "FEEDER_NAME": "CORNWALL", "SUBSTATION_NAME": "Jonathan's X Rd.", "wmType": "SECONDARY OVERHEAD", "WKT": "LINESTRING (-78.66976724058347 36.50047216675211, -78.66954665938873 36.50030099192232)" }, "geometry": { "type": "LineString", "coordinates": [ [ -78.669767240583468, 36.500472166752111 ], [ -78.669546659388729, 36.500300991922323 ] ] } },
{ "type": "Feature", "properties": { "FEEDER_NAME": "CORNWALL", "SUBSTATION_NAME": "Jonathan's X Rd.", "wmType": "SECONDARY OVERHEAD", "WKT": "LINESTRING (-78.68019080472698 36.4965475079625, -78.68036297603685 36.496546108494805)" }, "geometry": { "type": "LineString", "coordinates": [ [ -78.680190804726976, 36.496547507962497 ], [ -78.680362976036847, 36.496546108494805 ] ] } },
{ "type": "Feature", "properties": { "FEEDER_NAME": "CORNWALL", "SUBSTATION_NAME": "Jonathan's X Rd.", "wmType": "SECONDARY OVERHEAD", "WKT": "LINESTRING (-78.65729200621695 36.50067897391148, -78.65748521587649 36.50062642428061)" }, "geometry": { "type": "LineString", "coordinates": [ [ -78.657292006216949, 36.500678973911477 ], [ -78.657485215876491, 36.500626424280611 ] ] } },
{ "type": "Feature", "properties": { "FEEDER_NAME": "CORNWALL", "SUBSTATION_NAME": "Jonathan's X Rd.", "wmType": "SECONDARY OVERHEAD", "WKT": "LINESTRING (-78.65748521587649 36.50062642428061, -78.65755840778172 36.50058913666839)" }, "geometry": { "type": "LineString", "coordinates": [ [ -78.657485215876491, 36.500626424280611 ], [ -78.657558407781721, 36.500589136668388 ] ] } },
{ "type": "Feature", "properties": { "FEEDER_NAME": "CORNWALL", "SUBSTATION_NAME": "Jonathan's X Rd.", "wmType": "SECONDARY OVERHEAD", "WKT": "LINESTRING (-78.6736524817877 36.50796162386352, -78.67385617029763 36.507584584046405)" }, "geometry": { "type": "LineString", "coordinates": [ [ -78.673652481787698, 36.507961623863523 ], [ -78.673856170297626, 36.507584584046405 ] ] } },
{ "type": "Feature", "properties": { "FEEDER_NAME": "CORNWALL", "SUBSTATION_NAME": "Jonathan's X Rd.", "wmType": "SECONDARY OVERHEAD", "WKT": "LINESTRING (-78.6736524817877 36.50796162386352, -78.67360453012431 36.50771872218228)" }, "geometry": { "type": "LineString", "coordinates": [ [ -78.673652481787698, 36.507961623863523 ], [ -78.673604530124308, 36.507718722182283 ] ] } },
{ "type": "Feature", "properties": { "FEEDER_NAME": "CORNWALL", "SUBSTATION_NAME": "Jonathan's X Rd.", "wmType": "SECONDARY OVERHEAD", "WKT": "LINESTRING (-78.67144810007287 36.506902122438575, -78.67161740732824 36.507289177392074)" }, "geometry": { "type": "LineString", "coordinates": [ [ -78.671448100072865, 36.506902122438575 ], [ -78.671617407328242, 36.507289177392074 ] ] } },
{ "type": "Feature", "properties": { "FEEDER_NAME": "CORNWALL", "SUBSTATION_NAME": "Jonathan's X Rd.", "wmType": "SECONDARY OVERHEAD", "WKT": "LINESTRING (-78.67161740732824 36.507289177392074, -78.67160981746885 36.50742262668873)" }, "geometry": { "type": "LineString", "coordinates": [ [ -78.671617407328242, 36.507289177392074 ], [ -78.671609817468848, 36.507422626688729 ] ] } },
{ "type": "Feature", "properties": { "FEEDER_NAME": "CORNWALL", "SUBSTATION_NAME": "Jonathan's X Rd.", "wmType": "SECONDARY OVERHEAD", "WKT": "LINESTRING (-78.6715781628223 36.508098640924764, -78.67162937193666 36.507890262476785)" }, "geometry": { "type": "LineString", "coordinates": [ [ -78.6715781628223, 36.508098640924764 ], [ -78.67162937193666, 36.507890262476785 ] ] } },
{ "type": "Feature", "properties": { "FEEDER_NAME": "CORNWALL", "SUBSTATION_NAME": "Jonathan's X Rd.", "wmType": "SECONDARY OVERHEAD", "WKT": "LINESTRING (-78.67401924483254 36.512340493120625, -78.6741426966974 36.512260219777396)" }, "geometry": { "type": "LineString", "coordinates": [ [ -78.674019244832536, 36.512340493120625 ], [ -78.674142696697402, 36.512260219777396 ] ] } },
{ "type": "Feature", "properties": { "FEEDER_NAME": "CORNWALL", "SUBSTATION_NAME": "Jonathan's X Rd.", "wmType": "SECONDARY OVERHEAD", "WKT": "LINESTRING (-78.67047517461884 36.511747621477134, -78.67020767797024 36.51159793964927)" }, "geometry": { "type": "LineString", "coordinates": [ [ -78.670475174618844, 36.511747621477134 ], [ -78.67020767797024, 36.51159793964927 ] ] } },
{ "type": "Feature", "properties": { "FEEDER_NAME": "CORNWALL", "SUBSTATION_NAME": "Jonathan's X Rd.", "wmType": "SECONDARY OVERHEAD", "WKT": "LINESTRING (-78.67020767797024 36.51159793964927, -78.66998394898773 36.51156764057138)" }, "geometry": { "type": "LineString", "coordinates": [ [ -78.67020767797024, 36.51159793964927 ], [ -78.669983948987735, 36.511567640571378 ] ] } },
{ "type": "Feature", "properties": { "FEEDER_NAME": "CORNWALL", "SUBSTATION_NAME": "Jonathan's X Rd.", "wmType": "SECONDARY OVERHEAD", "WKT": "LINESTRING (-78.67239090090878 36.51812912610924, -78.6725648686739 36.51790138190251)" }, "geometry": { "type": "LineString", "coordinates": [ [ -78.672390900908781, 36.518129126109237 ], [ -78.672564868673902, 36.517901381902512 ] ] } },
{ "type": "Feature", "properties": { "FEEDER_NAME": "CORNWALL", "SUBSTATION_NAME": "Jonathan's X Rd.", "wmType": "SECONDARY OVERHEAD", "WKT": "LINESTRING (-78.6725648686739 36.51790138190251, -78.67264154695926 36.51786811092955)" }, "geometry": { "type": "LineString", "coordinates": [ [ -78.672564868673902, 36.517901381902512 ], [ -78.672641546959255, 36.517868110929548 ] ] } },
{ "type": "Feature", "properties": { "FEEDER_NAME": "CORNWALL", "SUBSTATION_NAME": "Jonathan's X Rd.", "wmType": "SECONDARY OVERHEAD", "WKT": "LINESTRING (-78.6565690284207 36.50689830461087, -78.65669087972692 36.5072292261094)" }, "geometry": { "type": "LineString", "coordinates": [ [ -78.656569028420705, 36.506898304610871 ], [ -78.656690879726924, 36.507229226109402 ] ] } },
{ "type": "Feature", "properties": { "FEEDER_NAME": "CORNWALL", "SUBSTATION_NAME": "Jonathan's X Rd.", "wmType": "SECONDARY OVERHEAD", "WKT": "LINESTRING (-78.71741074700878 36.51517707727808, -78.71743780585228 36.51504149640219)" }, "geometry": { "type": "LineString", "coordinates": [ [ -78.717410747008785, 36.515177077278082 ], [ -78.717437805852285, 36.515041496402191 ] ] } },
{ "type": "Feature", "properties": { "FEEDER_NAME": "CORNWALL", "SUBSTATION_NAME": "Jonathan's X Rd.", "wmType": "SECONDARY OVERHEAD", "WKT": "LINESTRING (-78.65743064155319 36.50651692080049, -78.65696616072088 36.50679644795686)" }, "geometry": { "type": "LineString", "coordinates": [ [ -78.657430641553191, 36.506516920800493 ], [ -78.656966160720884, 36.506796447956859 ] ] } },
{ "type": "Feature", "properties": { "FEEDER_NAME": "CORNWALL", "SUBSTATION_NAME": "Jonathan's X Rd.", "wmType": "SECONDARY OVERHEAD", "WKT": "LINESTRING (-78.71743780585228 36.51504149640219, -78.71750145538094 36.514986194390374)" }, "geometry": { "type": "LineString", "coordinates": [ [ -78.717437805852285, 36.515041496402191 ], [ -78.71750145538094, 36.514986194390374 ] ] } },
{ "type": "Feature", "properties": { "FEEDER_NAME": "CORNWALL", "SUBSTATION_NAME": "Jonathan's X Rd.", "wmType": "SECONDARY OVERHEAD", "WKT": "LINESTRING (-78.65770950433388 36.502987775861776, -78.65776700469155 36.50287391180011)" }, "geometry": { "type": "LineString", "coordinates": [ [ -78.65770950433388, 36.502987775861776 ], [ -78.65776700469155, 36.502873911800108 ] ] } },
{ "type": "Feature", "properties": { "FEEDER_NAME": "CORNWALL", "SUBSTATION_NAME": "Jonathan's X Rd.", "wmType": "SECONDARY OVERHEAD", "WKT": "LINESTRING (-78.65746680773469 36.50306875344333, -78.65770950433388 36.502987775861776)" }, "geometry": { "type": "LineString", "coordinates": [ [ -78.657466807734693, 36.50306875344333 ], [ -78.65770950433388, 36.502987775861776 ] ] } },
{ "type": "Feature", "properties": { "FEEDER_NAME": "CORNWALL", "SUBSTATION_NAME": "Jonathan's X Rd.", "wmType": "SECONDARY OVERHEAD", "WKT": "LINESTRING (-78.71363070355058 36.51497284482142, -78.71381230904394 36.51497684566018)" }, "geometry": { "type": "LineString", "coordinates": [ [ -78.713630703550578, 36.514972844821422 ], [ -78.713812309043945, 36.514976845660179 ] ] } },
{ "type": "Feature", "properties": { "FEEDER_NAME": "CORNWALL", "SUBSTATION_NAME": "Jonathan's X Rd.", "wmType": "SECONDARY OVERHEAD", "WKT": "LINESTRING (-78.7133202214652 36.514743457905126, -78.71363070355058 36.51497284482142)" }, "geometry": { "type": "LineString", "coordinates": [ [ -78.713320221465196, 36.514743457905126 ], [ -78.713630703550578, 36.514972844821422 ] ] } },
{ "type": "Feature", "properties": { "FEEDER_NAME": "CORNWALL", "SUBSTATION_NAME": "Jonathan's X Rd.", "wmType": "SECONDARY OVERHEAD", "WKT": "LINESTRING (-78.71105532580965 36.51501418217141, -78.71116203176918 36.51520362833093)" }, "geometry": { "type": "LineString", "coordinates": [ [ -78.711055325809653, 36.515014182171413 ], [ -78.711162031769177, 36.51520362833093 ] ] } },
{ "type": "Feature", "properties": { "FEEDER_NAME": "CORNWALL", "SUBSTATION_NAME": "Jonathan's X Rd.", "wmType": "SECONDARY OVERHEAD", "WKT": "LINESTRING (-78.693751757843 36.51218448752951, -78.69342210342892 36.512087688221136)" }, "geometry": { "type": "LineString", "coordinates": [ [ -78.693751757843003, 36.51218448752951 ], [ -78.693422103428915, 36.512087688221136 ] ] } },
{ "type": "Feature", "properties": { "FEEDER_NAME": "CORNWALL", "SUBSTATION_NAME": "Jonathan's X Rd.", "wmType": "SECONDARY OVERHEAD", "WKT": "LINESTRING (-78.69615458284898 36.51172408937857, -78.69628033300849 36.51196607262346)" }, "geometry": { "type": "LineString", "coordinates": [ [ -78.696154582848976, 36.511724089378568 ], [ -78.696280333008488, 36.511966072623459 ] ] } },
{ "type": "Feature", "properties": { "FEEDER_NAME": "CORNWALL", "SUBSTATION_NAME": "Jonathan's X Rd.", "wmType": "SECONDARY OVERHEAD", "WKT": "LINESTRING (-78.65696616072088 36.50679644795686, -78.6565690284207 36.50689830461087)" }, "geometry": { "type": "LineString", "coordinates": [ [ -78.656966160720884, 36.506796447956859 ], [ -78.656569028420705, 36.506898304610871 ] ] } },
{ "type": "Feature", "properties": { "FEEDER_NAME": "CORNWALL", "SUBSTATION_NAME": "Jonathan's X Rd.", "wmType": "SECONDARY OVERHEAD", "WKT": "LINESTRING (-78.7086290200921 36.510257933600826, -78.7087557890311 36.509891484392234)" }, "geometry": { "type": "LineString", "coordinates": [ [ -78.708629020092104, 36.510257933600826 ], [ -78.708755789031102, 36.509891484392234 ] ] } },
{ "type": "Feature", "properties": { "FEEDER_NAME": "CORNWALL", "SUBSTATION_NAME": "Jonathan's X Rd.", "wmType": "SECONDARY OVERHEAD", "WKT": "LINESTRING (-78.69052115130326 36.511413552810986, -78.69085823168888 36.51136644725279)" }, "geometry": { "type": "LineString", "coordinates": [ [ -78.690521151303258, 36.511413552810986 ], [ -78.690858231688878, 36.51136644725279 ] ] } },
{ "type": "Feature", "properties": { "FEEDER_NAME": "CORNWALL", "SUBSTATION_NAME": "Jonathan's X Rd.", "wmType": "SECONDARY OVERHEAD", "WKT": "LINESTRING (-78.69036454591851 36.5116239367265, -78.69052115130326 36.511413552810986)" }, "geometry": { "type": "LineString", "coordinates": [ [ -78.690364545918513, 36.511623936726501 ], [ -78.690521151303258, 36.511413552810986 ] ] } },
{ "type": "Feature", "properties": { "FEEDER_NAME": "CORNWALL", "SUBSTATION_NAME": "Jonathan's X Rd.", "wmType": "SECONDARY OVERHEAD", "WKT": "LINESTRING (-78.67401924483254 36.512340493120625, -78.67411571676075 36.512068485161784)" }, "geometry": { "type": "LineString", "coordinates": [ [ -78.674019244832536, 36.512340493120625 ], [ -78.674115716760753, 36.512068485161784 ] ] } },
{ "type": "Feature", "properties": { "FEEDER_NAME": "CORNWALL", "SUBSTATION_NAME": "Jonathan's X Rd.", "wmType": "SECONDARY OVERHEAD", "WKT": "LINESTRING (-78.65638848880754 36.48865915273023, -78.65614626940068 36.488756010917136)" }, "geometry": { "type": "LineString", "coordinates": [ [ -78.656388488807536, 36.488659152730229 ], [ -78.656146269400679, 36.488756010917136 ] ] } },
{ "type": "Feature", "properties": { "FEEDER_NAME": "CORNWALL", "SUBSTATION_NAME": "Jonathan's X Rd.", "wmType": "SECONDARY OVERHEAD", "WKT": "LINESTRING (-78.72043850464321 36.51474754776622, -78.72018995895228 36.51489219207966)" }, "geometry": { "type": "LineString", "coordinates": [ [ -78.720438504643212, 36.51474754776622 ], [ -78.720189958952275, 36.514892192079657 ] ] } },
{ "type": "Feature", "properties": { "FEEDER_NAME": "CORNWALL", "SUBSTATION_NAME": "Jonathan's X Rd.", "wmType": "SECONDARY OVERHEAD", "WKT": "LINESTRING (-78.66614483314473 36.481200363298626, -78.66615679185449 36.481210927522916, -78.66631152300805 36.48179012323228, -78.66629497347597 36.48180857193217)" }, "geometry": { "type": "LineString", "coordinates": [ [ -78.666144833144727, 36.481200363298626 ], [ -78.66615679185449, 36.481210927522916 ], [ -78.666311523008048, 36.48179012323228 ], [ -78.666294973475971, 36.48180857193217 ] ] } },
{ "type": "Feature", "properties": { "FEEDER_NAME": "CORNWALL", "SUBSTATION_NAME": "Jonathan's X Rd.", "wmType": "SECONDARY OVERHEAD", "WKT": "LINESTRING (-78.65753224692213 36.49999155725942, -78.65732866731396 36.4996551452921)" }, "geometry": { "type": "LineString", "coordinates": [ [ -78.657532246922131, 36.49999155725942 ], [ -78.657328667313962, 36.499655145292103 ] ] } },
{ "type": "Feature", "properties": { "FEEDER_NAME": "CORNWALL", "SUBSTATION_NAME": "Jonathan's X Rd.", "wmType": "SECONDARY OVERHEAD", "WKT": "LINESTRING (-78.66018347702034 36.5050826029565, -78.66016168969777 36.50479446874728)" }, "geometry": { "type": "LineString", "coordinates": [ [ -78.66018347702034, 36.505082602956499 ], [ -78.660161689697773, 36.504794468747278 ] ] } },
{ "type": "Feature", "properties": { "FEEDER_NAME": "CORNWALL", "SUBSTATION_NAME": "Jonathan's X Rd.", "wmType": "SECONDARY OVERHEAD", "WKT": "LINESTRING (-78.69269275478578 36.51229048800694, -78.69268075209077 36.51275467635993)" }, "geometry": { "type": "LineString", "coordinates": [ [ -78.692692754785782, 36.51229048800694 ], [ -78.692680752090766, 36.512754676359933 ] ] } },
{ "type": "Feature", "properties": { "FEEDER_NAME": "CORNWALL", "SUBSTATION_NAME": "Jonathan's X Rd.", "wmType": "SECONDARY OVERHEAD", "WKT": "LINESTRING (-78.69631660650643 36.51142075571435, -78.69615458284898 36.51172408937857)" }, "geometry": { "type": "LineString", "coordinates": [ [ -78.696316606506429, 36.511420755714347 ], [ -78.696154582848976, 36.511724089378568 ] ] } },
{ "type": "Feature", "properties": { "FEEDER_NAME": "CORNWALL", "SUBSTATION_NAME": "Jonathan's X Rd.", "wmType": "SECONDARY OVERHEAD", "WKT": "LINESTRING (-78.7029569807916 36.492933722784315, -78.7027233763685 36.49302679970279)" }, "geometry": { "type": "LineString", "coordinates": [ [ -78.702956980791598, 36.492933722784315 ], [ -78.702723376368496, 36.49302679970279 ] ] } },
{ "type": "Feature", "properties": { "FEEDER_NAME": "CORNWALL", "SUBSTATION_NAME": "Jonathan's X Rd.", "wmType": "SECONDARY OVERHEAD", "WKT": "LINESTRING (-78.65073928985001 36.507163542068696, -78.6512566698776 36.50701447199552)" }, "geometry": { "type": "LineString", "coordinates": [ [ -78.650739289850009, 36.507163542068696 ], [ -78.651256669877597, 36.507014471995518 ] ] } },
{ "type": "Feature", "properties": { "FEEDER_NAME": "CORNWALL", "SUBSTATION_NAME": "Jonathan's X Rd.", "wmType": "SECONDARY OVERHEAD", "WKT": "LINESTRING (-78.64643153895499 36.51092651556546, -78.64663050214035 36.51063832854269)" }, "geometry": { "type": "LineString", "coordinates": [ [ -78.646431538954985, 36.510926515565458 ], [ -78.646630502140354, 36.51063832854269 ] ] } },
{ "type": "Feature", "properties": { "FEEDER_NAME": "CORNWALL", "SUBSTATION_NAME": "Jonathan's X Rd.", "wmType": "SECONDARY OVERHEAD", "WKT": "LINESTRING (-78.7027233763685 36.49302679970279, -78.70269372881053 36.49308296808146)" }, "geometry": { "type": "LineString", "coordinates": [ [ -78.702723376368496, 36.49302679970279 ], [ -78.70269372881053, 36.49308296808146 ] ] } },
{ "type": "Feature", "properties": { "FEEDER_NAME": "CORNWALL", "SUBSTATION_NAME": "Jonathan's X Rd.", "wmType": "SECONDARY OVERHEAD", "WKT": "LINESTRING (-78.65817194240466 36.50508378372249, -78.65815612298245 36.505073414476875, -78.6581700693314 36.504668552025315)" }, "geometry": { "type": "LineString", "coordinates": [ [ -78.658171942404664, 36.50508378372249 ], [ -78.658156122982447, 36.505073414476875 ], [ -78.658170069331405, 36.504668552025315 ] ] } },
{ "type": "Feature", "properties": { "FEEDER_NAME": "CORNWALL", "SUBSTATION_NAME": "Jonathan's X Rd.", "wmType": "SECONDARY OVERHEAD", "WKT": "LINESTRING (-78.65608840083497 36.48569100904006, -78.65608137513517 36.48571368377288, -78.65590411235975 36.4858430150184)" }, "geometry": { "type": "LineString", "coordinates": [ [ -78.656088400834975, 36.48569100904006 ], [ -78.656081375135173, 36.485713683772879 ], [ -78.65590411235975, 36.485843015018403 ] ] } }
]
}
