{
"type": "FeatureCollection",
"name": "Little_River_Little_River_overhead",
"crs": { "type": "name", "properties": { "name": "urn:ogc:def:crs:OGC:1.3:CRS84" } },
"features": [
{ "type": "Feature", "properties": { "FEEDER_NAME": "Little River", "SUBSTATION_NAME": "Little River", "wmType": "PRIMARY OVERHEAD", "WKT": "LINESTRING (-79.00059774842904 36.21216520042167, -79.00057467212089 36.21218911721531)" }, "geometry": { "type": "LineString", "coordinates": [ [ -79.000597748429044, 36.212165200421673 ], [ -79.000574672120891, 36.21218911721531 ] ] } },
{ "type": "Feature", "properties": { "FEEDER_NAME": "Little River", "SUBSTATION_NAME": "Little River", "wmType": "PRIMARY OVERHEAD", "WKT": "LINESTRING (-79.00062509725167 36.212137722999735, -79.00059774842904 36.21216520042167)" }, "geometry": { "type": "LineString", "coordinates": [ [ -79.000625097251671, 36.212137722999735 ], [ -79.000597748429044, 36.212165200421673 ] ] } },
{ "type": "Feature", "properties": { "FEEDER_NAME": "Little River", "SUBSTATION_NAME": "Little River", "wmType": "PRIMARY OVERHEAD", "WKT": "LINESTRING (-79.00065580335115 36.21210668405018, -79.00062509725167 36.212137722999735)" }, "geometry": { "type": "LineString", "coordinates": [ [ -79.000655803351151, 36.212106684050177 ], [ -79.000625097251671, 36.212137722999735 ] ] } }
]
}
