{
"type": "FeatureCollection",
"name": "N_Roxboro_Chub_Lake_overhead",
"crs": { "type": "name", "properties": { "name": "urn:ogc:def:crs:OGC:1.3:CRS84" } },
"features": [
{ "type": "Feature", "properties": { "FEEDER_NAME": "Chub Lake", "SUBSTATION_NAME": "N.Roxboro", "wmType": "SECONDARY OVERHEAD", "WKT": "LINESTRING (-78.95515696070863 36.42292813019789, -78.95489880330831 36.42306286404335)" }, "geometry": { "type": "LineString", "coordinates": [ [ -78.955156960708635, 36.422928130197889 ], [ -78.954898803308311, 36.423062864043352 ] ] } },
{ "type": "Feature", "properties": { "FEEDER_NAME": "Chub Lake", "SUBSTATION_NAME": "N.Roxboro", "wmType": "SECONDARY OVERHEAD", "WKT": "LINESTRING (-78.95489880330831 36.42306286404335, -78.95467246270518 36.42316552824838)" }, "geometry": { "type": "LineString", "coordinates": [ [ -78.954898803308311, 36.423062864043352 ], [ -78.954672462705176, 36.423165528248383 ] ] } },
{ "type": "Feature", "properties": { "FEEDER_NAME": "Chub Lake", "SUBSTATION_NAME": "N.Roxboro", "wmType": "PRIMARY OVERHEAD", "WKT": "LINESTRING (-78.96297853428104 36.424406769910384, -78.96294515372826 36.42446592579322)" }, "geometry": { "type": "LineString", "coordinates": [ [ -78.962978534281035, 36.424406769910384 ], [ -78.962945153728256, 36.424465925793221 ] ] } },
{ "type": "Feature", "properties": { "FEEDER_NAME": "Chub Lake", "SUBSTATION_NAME": "N.Roxboro", "wmType": "PRIMARY OVERHEAD", "WKT": "LINESTRING (-78.99849050562831 36.428252247843055, -78.9985377395155 36.42825805145904)" }, "geometry": { "type": "LineString", "coordinates": [ [ -78.998490505628311, 36.428252247843055 ], [ -78.998537739515498, 36.428258051459039 ] ] } },
{ "type": "Feature", "properties": { "FEEDER_NAME": "Chub Lake", "SUBSTATION_NAME": "N.Roxboro", "wmType": "PRIMARY OVERHEAD", "WKT": "LINESTRING (-78.99776135106761 36.428107557078484, -78.99844398878068 36.42818646019873, -78.99849050562831 36.428252247843055)" }, "geometry": { "type": "LineString", "coordinates": [ [ -78.997761351067609, 36.428107557078484 ], [ -78.998443988780679, 36.428186460198731 ], [ -78.998490505628311, 36.428252247843055 ] ] } },
{ "type": "Feature", "properties": { "FEEDER_NAME": "Chub Lake", "SUBSTATION_NAME": "N.Roxboro", "wmType": "PRIMARY OVERHEAD", "WKT": "LINESTRING (-78.97522299074544 36.42606642728262, -78.9753362409035 36.42609240701451)" }, "geometry": { "type": "LineString", "coordinates": [ [ -78.975222990745436, 36.42606642728262 ], [ -78.975336240903502, 36.426092407014508 ] ] } },
{ "type": "Feature", "properties": { "FEEDER_NAME": "Chub Lake", "SUBSTATION_NAME": "N.Roxboro", "wmType": "PRIMARY OVERHEAD", "WKT": "LINESTRING (-78.97522299074544 36.42606642728262, -78.97530043891966 36.42600006822415, -78.97603129757526 36.42617169317645)" }, "geometry": { "type": "LineString", "coordinates": [ [ -78.975222990745436, 36.42606642728262 ], [ -78.97530043891966, 36.426000068224148 ], [ -78.976031297575261, 36.42617169317645 ] ] } },
{ "type": "Feature", "properties": { "FEEDER_NAME": "Chub Lake", "SUBSTATION_NAME": "N.Roxboro", "wmType": "PRIMARY OVERHEAD", "WKT": "LINESTRING (-78.97603129757526 36.42617169317645, -78.97677248590757 36.426338726441955)" }, "geometry": { "type": "LineString", "coordinates": [ [ -78.976031297575261, 36.42617169317645 ], [ -78.976772485907574, 36.426338726441955 ] ] } },
{ "type": "Feature", "properties": { "FEEDER_NAME": "Chub Lake", "SUBSTATION_NAME": "N.Roxboro", "wmType": "PRIMARY OVERHEAD", "WKT": "LINESTRING (-78.97677248590757 36.426338726441955, -78.97773862135088 36.426538578018125)" }, "geometry": { "type": "LineString", "coordinates": [ [ -78.976772485907574, 36.426338726441955 ], [ -78.977738621350881, 36.426538578018125 ] ] } },
{ "type": "Feature", "properties": { "FEEDER_NAME": "Chub Lake", "SUBSTATION_NAME": "N.Roxboro", "wmType": "PRIMARY OVERHEAD", "WKT": "LINESTRING (-78.97773862135088 36.426538578018125, -78.97866788467768 36.42673543475504)" }, "geometry": { "type": "LineString", "coordinates": [ [ -78.977738621350881, 36.426538578018125 ], [ -78.978667884677677, 36.426735434755038 ] ] } },
{ "type": "Feature", "properties": { "FEEDER_NAME": "Chub Lake", "SUBSTATION_NAME": "N.Roxboro", "wmType": "PRIMARY OVERHEAD", "WKT": "LINESTRING (-78.97866788467768 36.42673543475504, -78.97925789431635 36.42686666398529)" }, "geometry": { "type": "LineString", "coordinates": [ [ -78.978667884677677, 36.426735434755038 ], [ -78.979257894316348, 36.426866663985287 ] ] } },
{ "type": "Feature", "properties": { "FEEDER_NAME": "Chub Lake", "SUBSTATION_NAME": "N.Roxboro", "wmType": "PRIMARY OVERHEAD", "WKT": "LINESTRING (-78.97925789431635 36.42686666398529, -78.97994378440231 36.427009827544396)" }, "geometry": { "type": "LineString", "coordinates": [ [ -78.979257894316348, 36.426866663985287 ], [ -78.979943784402309, 36.427009827544396 ] ] } },
{ "type": "Feature", "properties": { "FEEDER_NAME": "Chub Lake", "SUBSTATION_NAME": "N.Roxboro", "wmType": "PRIMARY OVERHEAD", "WKT": "LINESTRING (-78.97994378440231 36.427009827544396, -78.98059649047819 36.427141060546106)" }, "geometry": { "type": "LineString", "coordinates": [ [ -78.979943784402309, 36.427009827544396 ], [ -78.980596490478192, 36.427141060546106 ] ] } },
{ "type": "Feature", "properties": { "FEEDER_NAME": "Chub Lake", "SUBSTATION_NAME": "N.Roxboro", "wmType": "PRIMARY OVERHEAD", "WKT": "LINESTRING (-78.98059649047819 36.427141060546106, -78.98144464238302 36.42731404221943)" }, "geometry": { "type": "LineString", "coordinates": [ [ -78.980596490478192, 36.427141060546106 ], [ -78.981444642383025, 36.427314042219429 ] ] } },
{ "type": "Feature", "properties": { "FEEDER_NAME": "Chub Lake", "SUBSTATION_NAME": "N.Roxboro", "wmType": "PRIMARY OVERHEAD", "WKT": "LINESTRING (-78.98144464238302 36.42731404221943, -78.98245136937092 36.42750194217203)" }, "geometry": { "type": "LineString", "coordinates": [ [ -78.981444642383025, 36.427314042219429 ], [ -78.982451369370921, 36.427501942172029 ] ] } },
{ "type": "Feature", "properties": { "FEEDER_NAME": "Chub Lake", "SUBSTATION_NAME": "N.Roxboro", "wmType": "PRIMARY OVERHEAD", "WKT": "LINESTRING (-78.98245136937092 36.42750194217203, -78.9829492000096 36.427609299264496, -78.98351709716965 36.42773454416598)" }, "geometry": { "type": "LineString", "coordinates": [ [ -78.982451369370921, 36.427501942172029 ], [ -78.9829492000096, 36.427609299264496 ], [ -78.983517097169653, 36.427734544165979 ] ] } },
{ "type": "Feature", "properties": { "FEEDER_NAME": "Chub Lake", "SUBSTATION_NAME": "N.Roxboro", "wmType": "PRIMARY OVERHEAD", "WKT": "LINESTRING (-78.98351709716965 36.42773454416598, -78.98452014507103 36.427931367282696)" }, "geometry": { "type": "LineString", "coordinates": [ [ -78.983517097169653, 36.427734544165979 ], [ -78.984520145071031, 36.427931367282696 ] ] } },
{ "type": "Feature", "properties": { "FEEDER_NAME": "Chub Lake", "SUBSTATION_NAME": "N.Roxboro", "wmType": "PRIMARY OVERHEAD", "WKT": "LINESTRING (-78.98452014507103 36.427931367282696, -78.98527243368521 36.42808344910862)" }, "geometry": { "type": "LineString", "coordinates": [ [ -78.984520145071031, 36.427931367282696 ], [ -78.985272433685211, 36.42808344910862 ] ] } },
{ "type": "Feature", "properties": { "FEEDER_NAME": "Chub Lake", "SUBSTATION_NAME": "N.Roxboro", "wmType": "PRIMARY OVERHEAD", "WKT": "LINESTRING (-78.98527243368521 36.42808344910862, -78.98584771710904 36.428190803682)" }, "geometry": { "type": "LineString", "coordinates": [ [ -78.985272433685211, 36.42808344910862 ], [ -78.985847717109039, 36.428190803682 ] ] } },
{ "type": "Feature", "properties": { "FEEDER_NAME": "Chub Lake", "SUBSTATION_NAME": "N.Roxboro", "wmType": "PRIMARY OVERHEAD", "WKT": "LINESTRING (-78.98584771710904 36.428190803682, -78.98639349612394 36.428313052778854)" }, "geometry": { "type": "LineString", "coordinates": [ [ -78.985847717109039, 36.428190803682 ], [ -78.986393496123938, 36.428313052778854 ] ] } },
{ "type": "Feature", "properties": { "FEEDER_NAME": "Chub Lake", "SUBSTATION_NAME": "N.Roxboro", "wmType": "PRIMARY OVERHEAD", "WKT": "LINESTRING (-78.98639349612394 36.428313052778854, -78.98720848238497 36.428483010950714)" }, "geometry": { "type": "LineString", "coordinates": [ [ -78.986393496123938, 36.428313052778854 ], [ -78.987208482384972, 36.428483010950714 ] ] } },
{ "type": "Feature", "properties": { "FEEDER_NAME": "Chub Lake", "SUBSTATION_NAME": "N.Roxboro", "wmType": "PRIMARY OVERHEAD", "WKT": "LINESTRING (-78.98720848238497 36.428483010950714, -78.9878649016568 36.42860228504505)" }, "geometry": { "type": "LineString", "coordinates": [ [ -78.987208482384972, 36.428483010950714 ], [ -78.987864901656806, 36.428602285045052 ] ] } },
{ "type": "Feature", "properties": { "FEEDER_NAME": "Chub Lake", "SUBSTATION_NAME": "N.Roxboro", "wmType": "PRIMARY OVERHEAD", "WKT": "LINESTRING (-78.9878649016568 36.42860228504505, -78.98856188649503 36.428739440710636)" }, "geometry": { "type": "LineString", "coordinates": [ [ -78.987864901656806, 36.428602285045052 ], [ -78.988561886495035, 36.428739440710636 ] ] } },
{ "type": "Feature", "properties": { "FEEDER_NAME": "Chub Lake", "SUBSTATION_NAME": "N.Roxboro", "wmType": "PRIMARY OVERHEAD", "WKT": "LINESTRING (-78.98856188649503 36.428739440710636, -78.98924043612001 36.42886765014748)" }, "geometry": { "type": "LineString", "coordinates": [ [ -78.988561886495035, 36.428739440710636 ], [ -78.989240436120014, 36.428867650147481 ] ] } },
{ "type": "Feature", "properties": { "FEEDER_NAME": "Chub Lake", "SUBSTATION_NAME": "N.Roxboro", "wmType": "PRIMARY OVERHEAD", "WKT": "LINESTRING (-78.98924043612001 36.42886765014748, -78.98990795829172 36.428724657284796)" }, "geometry": { "type": "LineString", "coordinates": [ [ -78.989240436120014, 36.428867650147481 ], [ -78.989907958291724, 36.428724657284796 ] ] } },
{ "type": "Feature", "properties": { "FEEDER_NAME": "Chub Lake", "SUBSTATION_NAME": "N.Roxboro", "wmType": "PRIMARY OVERHEAD", "WKT": "LINESTRING (-78.98990795829172 36.428724657284796, -78.99077831043783 36.428584656996044)" }, "geometry": { "type": "LineString", "coordinates": [ [ -78.989907958291724, 36.428724657284796 ], [ -78.990778310437832, 36.428584656996044 ] ] } },
{ "type": "Feature", "properties": { "FEEDER_NAME": "Chub Lake", "SUBSTATION_NAME": "N.Roxboro", "wmType": "PRIMARY OVERHEAD", "WKT": "LINESTRING (-78.99077831043783 36.428584656996044, -78.99143107203531 36.42847145750313)" }, "geometry": { "type": "LineString", "coordinates": [ [ -78.990778310437832, 36.428584656996044 ], [ -78.991431072035311, 36.428471457503129 ] ] } },
{ "type": "Feature", "properties": { "FEEDER_NAME": "Chub Lake", "SUBSTATION_NAME": "N.Roxboro", "wmType": "PRIMARY OVERHEAD", "WKT": "LINESTRING (-78.99143107203531 36.42847145750313, -78.99187893266543 36.42839900934818, -78.99196242448834 36.42838442162491)" }, "geometry": { "type": "LineString", "coordinates": [ [ -78.991431072035311, 36.428471457503129 ], [ -78.991878932665429, 36.428399009348183 ], [ -78.991962424488335, 36.428384421624912 ] ] } },
{ "type": "Feature", "properties": { "FEEDER_NAME": "Chub Lake", "SUBSTATION_NAME": "N.Roxboro", "wmType": "PRIMARY OVERHEAD", "WKT": "LINESTRING (-78.99196242448834 36.42838442162491, -78.99250912206138 36.42828890238449)" }, "geometry": { "type": "LineString", "coordinates": [ [ -78.991962424488335, 36.428384421624912 ], [ -78.992509122061378, 36.428288902384487 ] ] } },
{ "type": "Feature", "properties": { "FEEDER_NAME": "Chub Lake", "SUBSTATION_NAME": "N.Roxboro", "wmType": "PRIMARY OVERHEAD", "WKT": "LINESTRING (-78.99250912206138 36.42828890238449, -78.99345440322963 36.42811300608898)" }, "geometry": { "type": "LineString", "coordinates": [ [ -78.992509122061378, 36.428288902384487 ], [ -78.993454403229634, 36.428113006088978 ] ] } },
{ "type": "Feature", "properties": { "FEEDER_NAME": "Chub Lake", "SUBSTATION_NAME": "N.Roxboro", "wmType": "PRIMARY OVERHEAD", "WKT": "LINESTRING (-78.99345440322963 36.42811300608898, -78.99442269371156 36.42793996452374)" }, "geometry": { "type": "LineString", "coordinates": [ [ -78.993454403229634, 36.428113006088978 ], [ -78.994422693711556, 36.427939964523738 ] ] } },
{ "type": "Feature", "properties": { "FEEDER_NAME": "Chub Lake", "SUBSTATION_NAME": "N.Roxboro", "wmType": "PRIMARY OVERHEAD", "WKT": "LINESTRING (-78.99442269371156 36.42793996452374, -78.99514669489226 36.427805529498706)" }, "geometry": { "type": "LineString", "coordinates": [ [ -78.994422693711556, 36.427939964523738 ], [ -78.995146694892256, 36.427805529498706 ] ] } },
{ "type": "Feature", "properties": { "FEEDER_NAME": "Chub Lake", "SUBSTATION_NAME": "N.Roxboro", "wmType": "PRIMARY OVERHEAD", "WKT": "LINESTRING (-78.99514669489226 36.427805529498706, -78.99578911055117 36.42786670595028)" }, "geometry": { "type": "LineString", "coordinates": [ [ -78.995146694892256, 36.427805529498706 ], [ -78.995789110551172, 36.427866705950279 ] ] } },
{ "type": "Feature", "properties": { "FEEDER_NAME": "Chub Lake", "SUBSTATION_NAME": "N.Roxboro", "wmType": "PRIMARY OVERHEAD", "WKT": "LINESTRING (-78.99578911055117 36.42786670595028, -78.99636588270279 36.427927520282545)" }, "geometry": { "type": "LineString", "coordinates": [ [ -78.995789110551172, 36.427866705950279 ], [ -78.99636588270279, 36.427927520282545 ] ] } },
{ "type": "Feature", "properties": { "FEEDER_NAME": "Chub Lake", "SUBSTATION_NAME": "N.Roxboro", "wmType": "PRIMARY OVERHEAD", "WKT": "LINESTRING (-78.99636588270279 36.427927520282545, -78.99710049400454 36.428028866039014)" }, "geometry": { "type": "LineString", "coordinates": [ [ -78.99636588270279, 36.427927520282545 ], [ -78.997100494004542, 36.428028866039014 ] ] } },
{ "type": "Feature", "properties": { "FEEDER_NAME": "Chub Lake", "SUBSTATION_NAME": "N.Roxboro", "wmType": "PRIMARY OVERHEAD", "WKT": "LINESTRING (-78.99710049400454 36.428028866039014, -78.99776135106761 36.428107557078484)" }, "geometry": { "type": "LineString", "coordinates": [ [ -78.997100494004542, 36.428028866039014 ], [ -78.997761351067609, 36.428107557078484 ] ] } },
{ "type": "Feature", "properties": { "FEEDER_NAME": "Chub Lake", "SUBSTATION_NAME": "N.Roxboro", "wmType": "PRIMARY OVERHEAD", "WKT": "LINESTRING (-78.95505773074711 36.42290920694885, -78.95515696070863 36.42292813019789)" }, "geometry": { "type": "LineString", "coordinates": [ [ -78.955057730747114, 36.422909206948852 ], [ -78.955156960708635, 36.422928130197889 ] ] } },
{ "type": "Feature", "properties": { "FEEDER_NAME": "Chub Lake", "SUBSTATION_NAME": "N.Roxboro", "wmType": "PRIMARY OVERHEAD", "WKT": "LINESTRING (-78.94298243316719 36.42059611252342, -78.94331287140372 36.42066534361408)" }, "geometry": { "type": "LineString", "coordinates": [ [ -78.942982433167188, 36.42059611252342 ], [ -78.94331287140372, 36.420665343614083 ] ] } },
{ "type": "Feature", "properties": { "FEEDER_NAME": "Chub Lake", "SUBSTATION_NAME": "N.Roxboro", "wmType": "PRIMARY OVERHEAD", "WKT": "LINESTRING (-78.94331287140372 36.42066534361408, -78.94341441908706 36.420351147930106)" }, "geometry": { "type": "LineString", "coordinates": [ [ -78.94331287140372, 36.420665343614083 ], [ -78.943414419087063, 36.420351147930106 ] ] } },
{ "type": "Feature", "properties": { "FEEDER_NAME": "Chub Lake", "SUBSTATION_NAME": "N.Roxboro", "wmType": "PRIMARY OVERHEAD", "WKT": "LINESTRING (-78.94341441908706 36.420351147930106, -78.94413423989886 36.42053490128145)" }, "geometry": { "type": "LineString", "coordinates": [ [ -78.943414419087063, 36.420351147930106 ], [ -78.944134239898858, 36.420534901281449 ] ] } },
{ "type": "Feature", "properties": { "FEEDER_NAME": "Chub Lake", "SUBSTATION_NAME": "N.Roxboro", "wmType": "PRIMARY OVERHEAD", "WKT": "LINESTRING (-78.94413423989886 36.42053490128145, -78.94524921646597 36.42082387802545)" }, "geometry": { "type": "LineString", "coordinates": [ [ -78.944134239898858, 36.420534901281449 ], [ -78.945249216465967, 36.420823878025452 ] ] } },
{ "type": "Feature", "properties": { "FEEDER_NAME": "Chub Lake", "SUBSTATION_NAME": "N.Roxboro", "wmType": "PRIMARY OVERHEAD", "WKT": "LINESTRING (-78.94524921646597 36.42082387802545, -78.94609726133997 36.42104306661272)" }, "geometry": { "type": "LineString", "coordinates": [ [ -78.945249216465967, 36.420823878025452 ], [ -78.946097261339972, 36.421043066612718 ] ] } },
{ "type": "Feature", "properties": { "FEEDER_NAME": "Chub Lake", "SUBSTATION_NAME": "N.Roxboro", "wmType": "PRIMARY OVERHEAD", "WKT": "LINESTRING (-78.94609726133997 36.42104306661272, -78.94670750100597 36.42120721637838)" }, "geometry": { "type": "LineString", "coordinates": [ [ -78.946097261339972, 36.421043066612718 ], [ -78.946707501005974, 36.421207216378377 ] ] } },
{ "type": "Feature", "properties": { "FEEDER_NAME": "Chub Lake", "SUBSTATION_NAME": "N.Roxboro", "wmType": "PRIMARY OVERHEAD", "WKT": "LINESTRING (-78.94670750100597 36.42120721637838, -78.94749321987278 36.421417282459394)" }, "geometry": { "type": "LineString", "coordinates": [ [ -78.946707501005974, 36.421207216378377 ], [ -78.947493219872783, 36.421417282459394 ] ] } },
{ "type": "Feature", "properties": { "FEEDER_NAME": "Chub Lake", "SUBSTATION_NAME": "N.Roxboro", "wmType": "PRIMARY OVERHEAD", "WKT": "LINESTRING (-78.94749321987278 36.421417282459394, -78.94799746150385 36.42153719962979)" }, "geometry": { "type": "LineString", "coordinates": [ [ -78.947493219872783, 36.421417282459394 ], [ -78.947997461503846, 36.421537199629789 ] ] } },
{ "type": "Feature", "properties": { "FEEDER_NAME": "Chub Lake", "SUBSTATION_NAME": "N.Roxboro", "wmType": "PRIMARY OVERHEAD", "WKT": "LINESTRING (-78.94799746150385 36.42153719962979, -78.9490988600984 36.42177839629439)" }, "geometry": { "type": "LineString", "coordinates": [ [ -78.947997461503846, 36.421537199629789 ], [ -78.949098860098402, 36.421778396294393 ] ] } },
{ "type": "Feature", "properties": { "FEEDER_NAME": "Chub Lake", "SUBSTATION_NAME": "N.Roxboro", "wmType": "PRIMARY OVERHEAD", "WKT": "LINESTRING (-78.9490988600984 36.42177839629439, -78.94974930291194 36.421912336453836)" }, "geometry": { "type": "LineString", "coordinates": [ [ -78.949098860098402, 36.421778396294393 ], [ -78.94974930291194, 36.421912336453836 ] ] } },
{ "type": "Feature", "properties": { "FEEDER_NAME": "Chub Lake", "SUBSTATION_NAME": "N.Roxboro", "wmType": "PRIMARY OVERHEAD", "WKT": "LINESTRING (-78.94974930291194 36.421912336453836, -78.95048940893736 36.42206924585386)" }, "geometry": { "type": "LineString", "coordinates": [ [ -78.94974930291194, 36.421912336453836 ], [ -78.950489408937358, 36.422069245853862 ] ] } },
{ "type": "Feature", "properties": { "FEEDER_NAME": "Chub Lake", "SUBSTATION_NAME": "N.Roxboro", "wmType": "PRIMARY OVERHEAD", "WKT": "LINESTRING (-78.95048940893736 36.42206924585386, -78.95118206349309 36.42220200686435)" }, "geometry": { "type": "LineString", "coordinates": [ [ -78.950489408937358, 36.422069245853862 ], [ -78.951182063493093, 36.422202006864353 ] ] } },
{ "type": "Feature", "properties": { "FEEDER_NAME": "Chub Lake", "SUBSTATION_NAME": "N.Roxboro", "wmType": "PRIMARY OVERHEAD", "WKT": "LINESTRING (-78.95118206349309 36.42220200686435, -78.9519383068395 36.42234533799635)" }, "geometry": { "type": "LineString", "coordinates": [ [ -78.951182063493093, 36.422202006864353 ], [ -78.951938306839494, 36.422345337996347 ] ] } },
{ "type": "Feature", "properties": { "FEEDER_NAME": "Chub Lake", "SUBSTATION_NAME": "N.Roxboro", "wmType": "PRIMARY OVERHEAD", "WKT": "LINESTRING (-78.9519383068395 36.42234533799635, -78.95270371660743 36.42247595351551)" }, "geometry": { "type": "LineString", "coordinates": [ [ -78.951938306839494, 36.422345337996347 ], [ -78.952703716607431, 36.422475953515509 ] ] } },
{ "type": "Feature", "properties": { "FEEDER_NAME": "Chub Lake", "SUBSTATION_NAME": "N.Roxboro", "wmType": "PRIMARY OVERHEAD", "WKT": "LINESTRING (-78.95270371660743 36.42247595351551, -78.95338962927963 36.42259730328069)" }, "geometry": { "type": "LineString", "coordinates": [ [ -78.952703716607431, 36.422475953515509 ], [ -78.953389629279627, 36.422597303280689 ] ] } },
{ "type": "Feature", "properties": { "FEEDER_NAME": "Chub Lake", "SUBSTATION_NAME": "N.Roxboro", "wmType": "PRIMARY OVERHEAD", "WKT": "LINESTRING (-78.95338962927963 36.42259730328069, -78.95423954300072 36.422753177358764)" }, "geometry": { "type": "LineString", "coordinates": [ [ -78.953389629279627, 36.422597303280689 ], [ -78.954239543000725, 36.422753177358764 ] ] } },
{ "type": "Feature", "properties": { "FEEDER_NAME": "Chub Lake", "SUBSTATION_NAME": "N.Roxboro", "wmType": "PRIMARY OVERHEAD", "WKT": "LINESTRING (-78.95423954300072 36.422753177358764, -78.95505773074711 36.42290920694885)" }, "geometry": { "type": "LineString", "coordinates": [ [ -78.954239543000725, 36.422753177358764 ], [ -78.955057730747114, 36.422909206948852 ] ] } },
{ "type": "Feature", "properties": { "FEEDER_NAME": "Chub Lake", "SUBSTATION_NAME": "N.Roxboro", "wmType": "PRIMARY OVERHEAD", "WKT": "LINESTRING (-78.95515696070863 36.42292813019789, -78.95606865698937 36.42309688719326)" }, "geometry": { "type": "LineString", "coordinates": [ [ -78.955156960708635, 36.422928130197889 ], [ -78.956068656989373, 36.42309688719326 ] ] } },
{ "type": "Feature", "properties": { "FEEDER_NAME": "Chub Lake", "SUBSTATION_NAME": "N.Roxboro", "wmType": "PRIMARY OVERHEAD", "WKT": "LINESTRING (-78.95606865698937 36.42309688719326, -78.956954902179 36.42326915808366)" }, "geometry": { "type": "LineString", "coordinates": [ [ -78.956068656989373, 36.42309688719326 ], [ -78.956954902179007, 36.423269158083663 ] ] } },
{ "type": "Feature", "properties": { "FEEDER_NAME": "Chub Lake", "SUBSTATION_NAME": "N.Roxboro", "wmType": "PRIMARY OVERHEAD", "WKT": "LINESTRING (-78.956954902179 36.42326915808366, -78.9577227164668 36.42341602771279)" }, "geometry": { "type": "LineString", "coordinates": [ [ -78.956954902179007, 36.423269158083663 ], [ -78.957722716466805, 36.42341602771279 ] ] } },
{ "type": "Feature", "properties": { "FEEDER_NAME": "Chub Lake", "SUBSTATION_NAME": "N.Roxboro", "wmType": "PRIMARY OVERHEAD", "WKT": "LINESTRING (-78.9577227164668 36.42341602771279, -78.95852650585543 36.423558028850415)" }, "geometry": { "type": "LineString", "coordinates": [ [ -78.957722716466805, 36.42341602771279 ], [ -78.958526505855431, 36.423558028850415 ] ] } },
{ "type": "Feature", "properties": { "FEEDER_NAME": "Chub Lake", "SUBSTATION_NAME": "N.Roxboro", "wmType": "PRIMARY OVERHEAD", "WKT": "LINESTRING (-78.95852650585543 36.423558028850415, -78.95921250167032 36.42368949509857)" }, "geometry": { "type": "LineString", "coordinates": [ [ -78.958526505855431, 36.423558028850415 ], [ -78.959212501670322, 36.423689495098571 ] ] } },
{ "type": "Feature", "properties": { "FEEDER_NAME": "Chub Lake", "SUBSTATION_NAME": "N.Roxboro", "wmType": "PRIMARY OVERHEAD", "WKT": "LINESTRING (-78.95921250167032 36.42368949509857, -78.95996265484182 36.423836086210855)" }, "geometry": { "type": "LineString", "coordinates": [ [ -78.959212501670322, 36.423689495098571 ], [ -78.959962654841817, 36.423836086210855 ] ] } },
{ "type": "Feature", "properties": { "FEEDER_NAME": "Chub Lake", "SUBSTATION_NAME": "N.Roxboro", "wmType": "PRIMARY OVERHEAD", "WKT": "LINESTRING (-78.95996265484182 36.423836086210855, -78.9606660505495 36.42397205276744)" }, "geometry": { "type": "LineString", "coordinates": [ [ -78.959962654841817, 36.423836086210855 ], [ -78.960666050549506, 36.423972052767439 ] ] } },
{ "type": "Feature", "properties": { "FEEDER_NAME": "Chub Lake", "SUBSTATION_NAME": "N.Roxboro", "wmType": "PRIMARY OVERHEAD", "WKT": "LINESTRING (-78.9606660505495 36.42397205276744, -78.96144939290491 36.42412042146001)" }, "geometry": { "type": "LineString", "coordinates": [ [ -78.960666050549506, 36.423972052767439 ], [ -78.96144939290491, 36.42412042146001 ] ] } },
{ "type": "Feature", "properties": { "FEEDER_NAME": "Chub Lake", "SUBSTATION_NAME": "N.Roxboro", "wmType": "PRIMARY OVERHEAD", "WKT": "LINESTRING (-78.96144939290491 36.42412042146001, -78.96221632800689 36.42426534241826)" }, "geometry": { "type": "LineString", "coordinates": [ [ -78.96144939290491, 36.42412042146001 ], [ -78.962216328006889, 36.424265342418259 ] ] } },
{ "type": "Feature", "properties": { "FEEDER_NAME": "Chub Lake", "SUBSTATION_NAME": "N.Roxboro", "wmType": "PRIMARY OVERHEAD", "WKT": "LINESTRING (-78.96221632800689 36.42426534241826, -78.96297853428104 36.424406769910384)" }, "geometry": { "type": "LineString", "coordinates": [ [ -78.962216328006889, 36.424265342418259 ], [ -78.962978534281035, 36.424406769910384 ] ] } },
{ "type": "Feature", "properties": { "FEEDER_NAME": "Chub Lake", "SUBSTATION_NAME": "N.Roxboro", "wmType": "PRIMARY OVERHEAD", "WKT": "LINESTRING (-78.96821734668043 36.424481475477045, -78.96892389944513 36.42464389313034)" }, "geometry": { "type": "LineString", "coordinates": [ [ -78.968217346680433, 36.424481475477045 ], [ -78.96892389944513, 36.424643893130337 ] ] } },
{ "type": "Feature", "properties": { "FEEDER_NAME": "Chub Lake", "SUBSTATION_NAME": "N.Roxboro", "wmType": "PRIMARY OVERHEAD", "WKT": "LINESTRING (-78.96892389944513 36.42464389313034, -78.96982172308907 36.424842567073306)" }, "geometry": { "type": "LineString", "coordinates": [ [ -78.96892389944513, 36.424643893130337 ], [ -78.969821723089069, 36.424842567073306 ] ] } },
{ "type": "Feature", "properties": { "FEEDER_NAME": "Chub Lake", "SUBSTATION_NAME": "N.Roxboro", "wmType": "PRIMARY OVERHEAD", "WKT": "LINESTRING (-78.96982172308907 36.424842567073306, -78.97045168084684 36.42498634223445)" }, "geometry": { "type": "LineString", "coordinates": [ [ -78.969821723089069, 36.424842567073306 ], [ -78.970451680846836, 36.424986342234448 ] ] } },
{ "type": "Feature", "properties": { "FEEDER_NAME": "Chub Lake", "SUBSTATION_NAME": "N.Roxboro", "wmType": "PRIMARY OVERHEAD", "WKT": "LINESTRING (-78.97045168084684 36.42498634223445, -78.97110711459901 36.425133103675364)" }, "geometry": { "type": "LineString", "coordinates": [ [ -78.970451680846836, 36.424986342234448 ], [ -78.971107114599008, 36.425133103675364 ] ] } },
{ "type": "Feature", "properties": { "FEEDER_NAME": "Chub Lake", "SUBSTATION_NAME": "N.Roxboro", "wmType": "PRIMARY OVERHEAD", "WKT": "LINESTRING (-78.97110711459901 36.425133103675364, -78.97174011812137 36.42527539512584)" }, "geometry": { "type": "LineString", "coordinates": [ [ -78.971107114599008, 36.425133103675364 ], [ -78.971740118121375, 36.425275395125837 ] ] } },
{ "type": "Feature", "properties": { "FEEDER_NAME": "Chub Lake", "SUBSTATION_NAME": "N.Roxboro", "wmType": "PRIMARY OVERHEAD", "WKT": "LINESTRING (-78.97174011812137 36.42527539512584, -78.9727593498125 36.425512345814795)" }, "geometry": { "type": "LineString", "coordinates": [ [ -78.971740118121375, 36.425275395125837 ], [ -78.972759349812506, 36.425512345814795 ] ] } },
{ "type": "Feature", "properties": { "FEEDER_NAME": "Chub Lake", "SUBSTATION_NAME": "N.Roxboro", "wmType": "PRIMARY OVERHEAD", "WKT": "LINESTRING (-78.9727593498125 36.425512345814795, -78.9734948384663 36.42567983468482)" }, "geometry": { "type": "LineString", "coordinates": [ [ -78.972759349812506, 36.425512345814795 ], [ -78.973494838466294, 36.425679834684821 ] ] } },
{ "type": "Feature", "properties": { "FEEDER_NAME": "Chub Lake", "SUBSTATION_NAME": "N.Roxboro", "wmType": "PRIMARY OVERHEAD", "WKT": "LINESTRING (-78.9734948384663 36.42567983468482, -78.97436557587088 36.42587681594607)" }, "geometry": { "type": "LineString", "coordinates": [ [ -78.973494838466294, 36.425679834684821 ], [ -78.974365575870877, 36.425876815946069 ] ] } },
{ "type": "Feature", "properties": { "FEEDER_NAME": "Chub Lake", "SUBSTATION_NAME": "N.Roxboro", "wmType": "PRIMARY OVERHEAD", "WKT": "LINESTRING (-78.97436557587088 36.42587681594607, -78.97522299074544 36.42606642728262)" }, "geometry": { "type": "LineString", "coordinates": [ [ -78.974365575870877, 36.425876815946069 ], [ -78.975222990745436, 36.42606642728262 ] ] } },
{ "type": "Feature", "properties": { "FEEDER_NAME": "Chub Lake", "SUBSTATION_NAME": "N.Roxboro", "wmType": "PRIMARY OVERHEAD", "WKT": "LINESTRING (-78.9753362409035 36.42609240701451, -78.97602026231318 36.42624931764387)" }, "geometry": { "type": "LineString", "coordinates": [ [ -78.975336240903502, 36.426092407014508 ], [ -78.976020262313185, 36.426249317643872 ] ] } },
{ "type": "Feature", "properties": { "FEEDER_NAME": "Chub Lake", "SUBSTATION_NAME": "N.Roxboro", "wmType": "PRIMARY OVERHEAD", "WKT": "LINESTRING (-78.97602026231318 36.42624931764387, -78.97675731252042 36.42640413764842)" }, "geometry": { "type": "LineString", "coordinates": [ [ -78.976020262313185, 36.426249317643872 ], [ -78.976757312520419, 36.426404137648419 ] ] } },
{ "type": "Feature", "properties": { "FEEDER_NAME": "Chub Lake", "SUBSTATION_NAME": "N.Roxboro", "wmType": "PRIMARY OVERHEAD", "WKT": "LINESTRING (-78.97675731252042 36.42640413764842, -78.97770795401009 36.426600447927264)" }, "geometry": { "type": "LineString", "coordinates": [ [ -78.976757312520419, 36.426404137648419 ], [ -78.977707954010086, 36.426600447927264 ] ] } },
{ "type": "Feature", "properties": { "FEEDER_NAME": "Chub Lake", "SUBSTATION_NAME": "N.Roxboro", "wmType": "PRIMARY OVERHEAD", "WKT": "LINESTRING (-78.97770795401009 36.426600447927264, -78.97864085671888 36.426800134058446)" }, "geometry": { "type": "LineString", "coordinates": [ [ -78.977707954010086, 36.426600447927264 ], [ -78.978640856718883, 36.426800134058446 ] ] } },
{ "type": "Feature", "properties": { "FEEDER_NAME": "Chub Lake", "SUBSTATION_NAME": "N.Roxboro", "wmType": "PRIMARY OVERHEAD", "WKT": "LINESTRING (-78.97864085671888 36.426800134058446, -78.97924267672369 36.42692506225392)" }, "geometry": { "type": "LineString", "coordinates": [ [ -78.978640856718883, 36.426800134058446 ], [ -78.979242676723686, 36.426925062253922 ] ] } },
{ "type": "Feature", "properties": { "FEEDER_NAME": "Chub Lake", "SUBSTATION_NAME": "N.Roxboro", "wmType": "PRIMARY OVERHEAD", "WKT": "LINESTRING (-78.97924267672369 36.42692506225392, -78.9799315001709 36.42706694141205)" }, "geometry": { "type": "LineString", "coordinates": [ [ -78.979242676723686, 36.426925062253922 ], [ -78.979931500170906, 36.42706694141205 ] ] } },
{ "type": "Feature", "properties": { "FEEDER_NAME": "Chub Lake", "SUBSTATION_NAME": "N.Roxboro", "wmType": "PRIMARY OVERHEAD", "WKT": "LINESTRING (-78.9799315001709 36.42706694141205, -78.98057903483294 36.42719469363091)" }, "geometry": { "type": "LineString", "coordinates": [ [ -78.979931500170906, 36.42706694141205 ], [ -78.980579034832942, 36.427194693630909 ] ] } },
{ "type": "Feature", "properties": { "FEEDER_NAME": "Chub Lake", "SUBSTATION_NAME": "N.Roxboro", "wmType": "PRIMARY OVERHEAD", "WKT": "LINESTRING (-78.98057903483294 36.42719469363091, -78.98142116859698 36.42737091844933)" }, "geometry": { "type": "LineString", "coordinates": [ [ -78.980579034832942, 36.427194693630909 ], [ -78.981421168596981, 36.427370918449327 ] ] } },
{ "type": "Feature", "properties": { "FEEDER_NAME": "Chub Lake", "SUBSTATION_NAME": "N.Roxboro", "wmType": "PRIMARY OVERHEAD", "WKT": "LINESTRING (-78.98142116859698 36.42737091844933, -78.98243364696005 36.42757228986883)" }, "geometry": { "type": "LineString", "coordinates": [ [ -78.981421168596981, 36.427370918449327 ], [ -78.982433646960047, 36.427572289868827 ] ] } },
{ "type": "Feature", "properties": { "FEEDER_NAME": "Chub Lake", "SUBSTATION_NAME": "N.Roxboro", "wmType": "PRIMARY OVERHEAD", "WKT": "LINESTRING (-78.98243364696005 36.42757228986883, -78.98292572697434 36.42767249334431)" }, "geometry": { "type": "LineString", "coordinates": [ [ -78.982433646960047, 36.427572289868827 ], [ -78.982925726974344, 36.427672493344311 ] ] } },
{ "type": "Feature", "properties": { "FEEDER_NAME": "Chub Lake", "SUBSTATION_NAME": "N.Roxboro", "wmType": "PRIMARY OVERHEAD", "WKT": "LINESTRING (-78.98292572697434 36.42767249334431, -78.98350041068375 36.4277927327829)" }, "geometry": { "type": "LineString", "coordinates": [ [ -78.982925726974344, 36.427672493344311 ], [ -78.983500410683746, 36.427792732782898 ] ] } },
{ "type": "Feature", "properties": { "FEEDER_NAME": "Chub Lake", "SUBSTATION_NAME": "N.Roxboro", "wmType": "PRIMARY OVERHEAD", "WKT": "LINESTRING (-78.98350041068375 36.4277927327829, -78.98449991716744 36.427998853972184)" }, "geometry": { "type": "LineString", "coordinates": [ [ -78.983500410683746, 36.427792732782898 ], [ -78.98449991716744, 36.427998853972184 ] ] } },
{ "type": "Feature", "properties": { "FEEDER_NAME": "Chub Lake", "SUBSTATION_NAME": "N.Roxboro", "wmType": "PRIMARY OVERHEAD", "WKT": "LINESTRING (-78.98449991716744 36.427998853972184, -78.98524870530613 36.428149751458726)" }, "geometry": { "type": "LineString", "coordinates": [ [ -78.98449991716744, 36.427998853972184 ], [ -78.985248705306134, 36.428149751458726 ] ] } },
{ "type": "Feature", "properties": { "FEEDER_NAME": "Chub Lake", "SUBSTATION_NAME": "N.Roxboro", "wmType": "PRIMARY OVERHEAD", "WKT": "LINESTRING (-78.98524870530613 36.428149751458726, -78.98582276990905 36.42825364039163)" }, "geometry": { "type": "LineString", "coordinates": [ [ -78.985248705306134, 36.428149751458726 ], [ -78.985822769909049, 36.428253640391631 ] ] } },
{ "type": "Feature", "properties": { "FEEDER_NAME": "Chub Lake", "SUBSTATION_NAME": "N.Roxboro", "wmType": "PRIMARY OVERHEAD", "WKT": "LINESTRING (-78.98582276990905 36.42825364039163, -78.98635824916958 36.428371140588425)" }, "geometry": { "type": "LineString", "coordinates": [ [ -78.985822769909049, 36.428253640391631 ], [ -78.986358249169584, 36.428371140588425 ] ] } },
{ "type": "Feature", "properties": { "FEEDER_NAME": "Chub Lake", "SUBSTATION_NAME": "N.Roxboro", "wmType": "PRIMARY OVERHEAD", "WKT": "LINESTRING (-78.98635824916958 36.428371140588425, -78.98719019992024 36.42854503403333)" }, "geometry": { "type": "LineString", "coordinates": [ [ -78.986358249169584, 36.428371140588425 ], [ -78.987190199920235, 36.428545034033327 ] ] } },
{ "type": "Feature", "properties": { "FEEDER_NAME": "Chub Lake", "SUBSTATION_NAME": "N.Roxboro", "wmType": "PRIMARY OVERHEAD", "WKT": "LINESTRING (-78.98719019992024 36.42854503403333, -78.98784337324285 36.42866740766253)" }, "geometry": { "type": "LineString", "coordinates": [ [ -78.987190199920235, 36.428545034033327 ], [ -78.987843373242853, 36.42866740766253 ] ] } },
{ "type": "Feature", "properties": { "FEEDER_NAME": "Chub Lake", "SUBSTATION_NAME": "N.Roxboro", "wmType": "PRIMARY OVERHEAD", "WKT": "LINESTRING (-78.98784337324285 36.42866740766253, -78.98854522706885 36.4288040872211)" }, "geometry": { "type": "LineString", "coordinates": [ [ -78.987843373242853, 36.42866740766253 ], [ -78.988545227068855, 36.428804087221103 ] ] } },
{ "type": "Feature", "properties": { "FEEDER_NAME": "Chub Lake", "SUBSTATION_NAME": "N.Roxboro", "wmType": "PRIMARY OVERHEAD", "WKT": "LINESTRING (-78.98854522706885 36.4288040872211, -78.98924354370408 36.42893503960467)" }, "geometry": { "type": "LineString", "coordinates": [ [ -78.988545227068855, 36.428804087221103 ], [ -78.989243543704077, 36.428935039604667 ] ] } },
{ "type": "Feature", "properties": { "FEEDER_NAME": "Chub Lake", "SUBSTATION_NAME": "N.Roxboro", "wmType": "PRIMARY OVERHEAD", "WKT": "LINESTRING (-78.98924354370408 36.42893503960467, -78.98995694450876 36.4287856139776)" }, "geometry": { "type": "LineString", "coordinates": [ [ -78.989243543704077, 36.428935039604667 ], [ -78.989956944508762, 36.428785613977603 ] ] } },
{ "type": "Feature", "properties": { "FEEDER_NAME": "Chub Lake", "SUBSTATION_NAME": "N.Roxboro", "wmType": "PRIMARY OVERHEAD", "WKT": "LINESTRING (-78.98995694450876 36.4287856139776, -78.99083231186265 36.42864406383943)" }, "geometry": { "type": "LineString", "coordinates": [ [ -78.989956944508762, 36.428785613977603 ], [ -78.990832311862647, 36.428644063839428 ] ] } },
{ "type": "Feature", "properties": { "FEEDER_NAME": "Chub Lake", "SUBSTATION_NAME": "N.Roxboro", "wmType": "PRIMARY OVERHEAD", "WKT": "LINESTRING (-78.99083231186265 36.42864406383943, -78.99145719551802 36.42852609353936)" }, "geometry": { "type": "LineString", "coordinates": [ [ -78.990832311862647, 36.428644063839428 ], [ -78.991457195518024, 36.428526093539361 ] ] } },
{ "type": "Feature", "properties": { "FEEDER_NAME": "Chub Lake", "SUBSTATION_NAME": "N.Roxboro", "wmType": "PRIMARY OVERHEAD", "WKT": "LINESTRING (-78.99145719551802 36.42852609353936, -78.99199091074253 36.42843171739457)" }, "geometry": { "type": "LineString", "coordinates": [ [ -78.991457195518024, 36.428526093539361 ], [ -78.99199091074253, 36.428431717394567 ] ] } },
{ "type": "Feature", "properties": { "FEEDER_NAME": "Chub Lake", "SUBSTATION_NAME": "N.Roxboro", "wmType": "PRIMARY OVERHEAD", "WKT": "LINESTRING (-78.99199091074253 36.42843171739457, -78.99254144281375 36.42832947249808)" }, "geometry": { "type": "LineString", "coordinates": [ [ -78.99199091074253, 36.428431717394567 ], [ -78.992541442813746, 36.428329472498078 ] ] } },
{ "type": "Feature", "properties": { "FEEDER_NAME": "Chub Lake", "SUBSTATION_NAME": "N.Roxboro", "wmType": "PRIMARY OVERHEAD", "WKT": "LINESTRING (-78.99254144281375 36.42832947249808, -78.99348052853554 36.42816072761151)" }, "geometry": { "type": "LineString", "coordinates": [ [ -78.992541442813746, 36.428329472498078 ], [ -78.993480528535542, 36.428160727611512 ] ] } },
{ "type": "Feature", "properties": { "FEEDER_NAME": "Chub Lake", "SUBSTATION_NAME": "N.Roxboro", "wmType": "PRIMARY OVERHEAD", "WKT": "LINESTRING (-78.99348052853554 36.42816072761151, -78.9944328875454 36.42798840059237)" }, "geometry": { "type": "LineString", "coordinates": [ [ -78.993480528535542, 36.428160727611512 ], [ -78.9944328875454, 36.427988400592369 ] ] } },
{ "type": "Feature", "properties": { "FEEDER_NAME": "Chub Lake", "SUBSTATION_NAME": "N.Roxboro", "wmType": "PRIMARY OVERHEAD", "WKT": "LINESTRING (-78.9944328875454 36.42798840059237, -78.99515954551089 36.4278489582356)" }, "geometry": { "type": "LineString", "coordinates": [ [ -78.9944328875454, 36.427988400592369 ], [ -78.995159545510887, 36.4278489582356 ] ] } },
{ "type": "Feature", "properties": { "FEEDER_NAME": "Chub Lake", "SUBSTATION_NAME": "N.Roxboro", "wmType": "PRIMARY OVERHEAD", "WKT": "LINESTRING (-78.99515954551089 36.4278489582356, -78.99578856567074 36.427923152265784)" }, "geometry": { "type": "LineString", "coordinates": [ [ -78.995159545510887, 36.4278489582356 ], [ -78.995788565670736, 36.427923152265784 ] ] } },
{ "type": "Feature", "properties": { "FEEDER_NAME": "Chub Lake", "SUBSTATION_NAME": "N.Roxboro", "wmType": "PRIMARY OVERHEAD", "WKT": "LINESTRING (-78.99578856567074 36.427923152265784, -78.99634940757781 36.42798009232318)" }, "geometry": { "type": "LineString", "coordinates": [ [ -78.995788565670736, 36.427923152265784 ], [ -78.99634940757781, 36.427980092323182 ] ] } },
{ "type": "Feature", "properties": { "FEEDER_NAME": "Chub Lake", "SUBSTATION_NAME": "N.Roxboro", "wmType": "PRIMARY OVERHEAD", "WKT": "LINESTRING (-78.99634940757781 36.42798009232318, -78.99707851200954 36.428082948278046)" }, "geometry": { "type": "LineString", "coordinates": [ [ -78.99634940757781, 36.427980092323182 ], [ -78.997078512009537, 36.428082948278046 ] ] } },
{ "type": "Feature", "properties": { "FEEDER_NAME": "Chub Lake", "SUBSTATION_NAME": "N.Roxboro", "wmType": "PRIMARY OVERHEAD", "WKT": "LINESTRING (-78.96435176473992 36.424479124102255, -78.96485235086283 36.42429434367872)" }, "geometry": { "type": "LineString", "coordinates": [ [ -78.964351764739916, 36.424479124102255 ], [ -78.964852350862827, 36.424294343678717 ] ] } },
{ "type": "Feature", "properties": { "FEEDER_NAME": "Chub Lake", "SUBSTATION_NAME": "N.Roxboro", "wmType": "PRIMARY OVERHEAD", "WKT": "LINESTRING (-78.96485235086283 36.42429434367872, -78.96533134653396 36.42412633621522)" }, "geometry": { "type": "LineString", "coordinates": [ [ -78.964852350862827, 36.424294343678717 ], [ -78.965331346533958, 36.424126336215217 ] ] } },
{ "type": "Feature", "properties": { "FEEDER_NAME": "Chub Lake", "SUBSTATION_NAME": "N.Roxboro", "wmType": "PRIMARY OVERHEAD", "WKT": "LINESTRING (-78.96533134653396 36.42412633621522, -78.96586935348233 36.424242335372135)" }, "geometry": { "type": "LineString", "coordinates": [ [ -78.965331346533958, 36.424126336215217 ], [ -78.965869353482333, 36.424242335372135 ] ] } },
{ "type": "Feature", "properties": { "FEEDER_NAME": "Chub Lake", "SUBSTATION_NAME": "N.Roxboro", "wmType": "PRIMARY OVERHEAD", "WKT": "LINESTRING (-78.96586935348233 36.424242335372135, -78.96645254251905 36.42406663275048)" }, "geometry": { "type": "LineString", "coordinates": [ [ -78.965869353482333, 36.424242335372135 ], [ -78.96645254251905, 36.424066632750481 ] ] } },
{ "type": "Feature", "properties": { "FEEDER_NAME": "Chub Lake", "SUBSTATION_NAME": "N.Roxboro", "wmType": "PRIMARY OVERHEAD", "WKT": "LINESTRING (-78.96645254251905 36.42406663275048, -78.96669634615353 36.424017318134865)" }, "geometry": { "type": "LineString", "coordinates": [ [ -78.96645254251905, 36.424066632750481 ], [ -78.966696346153526, 36.424017318134865 ] ] } },
{ "type": "Feature", "properties": { "FEEDER_NAME": "Chub Lake", "SUBSTATION_NAME": "N.Roxboro", "wmType": "PRIMARY OVERHEAD", "WKT": "LINESTRING (-78.96669634615353 36.424017318134865, -78.96684136635281 36.424088328584624)" }, "geometry": { "type": "LineString", "coordinates": [ [ -78.966696346153526, 36.424017318134865 ], [ -78.96684136635281, 36.424088328584624 ] ] } },
{ "type": "Feature", "properties": { "FEEDER_NAME": "Chub Lake", "SUBSTATION_NAME": "N.Roxboro", "wmType": "PRIMARY OVERHEAD", "WKT": "LINESTRING (-78.96684136635281 36.424088328584624, -78.96720034887197 36.424185323410775)" }, "geometry": { "type": "LineString", "coordinates": [ [ -78.96684136635281, 36.424088328584624 ], [ -78.96720034887197, 36.424185323410775 ] ] } },
{ "type": "Feature", "properties": { "FEEDER_NAME": "Chub Lake", "SUBSTATION_NAME": "N.Roxboro", "wmType": "PRIMARY OVERHEAD", "WKT": "LINESTRING (-78.96720034887197 36.424185323410775, -78.96735837054976 36.42421033126616)" }, "geometry": { "type": "LineString", "coordinates": [ [ -78.96720034887197, 36.424185323410775 ], [ -78.967358370549761, 36.42421033126616 ] ] } },
{ "type": "Feature", "properties": { "FEEDER_NAME": "Chub Lake", "SUBSTATION_NAME": "N.Roxboro", "wmType": "PRIMARY OVERHEAD", "WKT": "LINESTRING (-78.96735837054976 36.42421033126616, -78.96787681000096 36.42439970526826)" }, "geometry": { "type": "LineString", "coordinates": [ [ -78.967358370549761, 36.42421033126616 ], [ -78.967876810000959, 36.424399705268257 ] ] } },
{ "type": "Feature", "properties": { "FEEDER_NAME": "Chub Lake", "SUBSTATION_NAME": "N.Roxboro", "wmType": "PRIMARY OVERHEAD", "WKT": "LINESTRING (-78.99707851200954 36.428082948278046, -78.99775766092672 36.42816211644748)" }, "geometry": { "type": "LineString", "coordinates": [ [ -78.997078512009537, 36.428082948278046 ], [ -78.997757660926723, 36.428162116447481 ] ] } },
{ "type": "Feature", "properties": { "FEEDER_NAME": "Chub Lake", "SUBSTATION_NAME": "N.Roxboro", "wmType": "PRIMARY OVERHEAD", "WKT": "LINESTRING (-78.94295602884392 36.420589782667925, -78.94298243316719 36.42059611252342)" }, "geometry": { "type": "LineString", "coordinates": [ [ -78.942956028843923, 36.420589782667925 ], [ -78.942982433167188, 36.42059611252342 ] ] } },
{ "type": "Feature", "properties": { "FEEDER_NAME": "Chub Lake", "SUBSTATION_NAME": "N.Roxboro", "wmType": "PRIMARY OVERHEAD", "WKT": "LINESTRING (-78.96297853428104 36.424406769910384, -78.96401522182325 36.42459550701162)" }, "geometry": { "type": "LineString", "coordinates": [ [ -78.962978534281035, 36.424406769910384 ], [ -78.964015221823246, 36.424595507011617 ] ] } },
{ "type": "Feature", "properties": { "FEEDER_NAME": "Chub Lake", "SUBSTATION_NAME": "N.Roxboro", "wmType": "PRIMARY OVERHEAD", "WKT": "LINESTRING (-78.96401522182325 36.42459550701162, -78.96435176473992 36.424479124102255)" }, "geometry": { "type": "LineString", "coordinates": [ [ -78.964015221823246, 36.424595507011617 ], [ -78.964351764739916, 36.424479124102255 ] ] } },
{ "type": "Feature", "properties": { "FEEDER_NAME": "Chub Lake", "SUBSTATION_NAME": "N.Roxboro", "wmType": "PRIMARY OVERHEAD", "WKT": "LINESTRING (-78.99775766092672 36.42816211644748, -78.99849050562831 36.428252247843055)" }, "geometry": { "type": "LineString", "coordinates": [ [ -78.997757660926723, 36.428162116447481 ], [ -78.998490505628311, 36.428252247843055 ] ] } },
{ "type": "Feature", "properties": { "FEEDER_NAME": "Chub Lake", "SUBSTATION_NAME": "N.Roxboro", "wmType": "PRIMARY OVERHEAD", "WKT": "LINESTRING (-78.96787681000096 36.42439970526826, -78.96821734668043 36.424481475477045)" }, "geometry": { "type": "LineString", "coordinates": [ [ -78.967876810000959, 36.424399705268257 ], [ -78.968217346680433, 36.424481475477045 ] ] } }
]
}
