{
"type": "FeatureCollection",
"name": "New_Hope_POWDER_MILL_overhead",
"crs": { "type": "name", "properties": { "name": "urn:ogc:def:crs:OGC:1.3:CRS84" } },
"features": [
{ "type": "Feature", "properties": { "FEEDER_NAME": "POWDER MILL", "SUBSTATION_NAME": "New Hope", "wmType": "SECONDARY OVERHEAD", "WKT": "LINESTRING (-79.04829659083912 36.01594062845852, -79.0482275739676 36.01603853683752)" }, "geometry": { "type": "LineString", "coordinates": [ [ -79.048296590839115, 36.015940628458523 ], [ -79.048227573967594, 36.01603853683752 ] ] } },
{ "type": "Feature", "properties": { "FEEDER_NAME": "POWDER MILL", "SUBSTATION_NAME": "New Hope", "wmType": "SECONDARY OVERHEAD", "WKT": "LINESTRING (-79.03242548942467 36.011943250739385, -79.032351754554 36.0121080111893)" }, "geometry": { "type": "LineString", "coordinates": [ [ -79.032425489424668, 36.011943250739385 ], [ -79.032351754554, 36.012108011189298 ] ] } },
{ "type": "Feature", "properties": { "FEEDER_NAME": "POWDER MILL", "SUBSTATION_NAME": "New Hope", "wmType": "SECONDARY OVERHEAD", "WKT": "LINESTRING (-79.03544154823263 36.01353153043189, -79.03527460779682 36.01348071392994)" }, "geometry": { "type": "LineString", "coordinates": [ [ -79.035441548232626, 36.013531530431891 ], [ -79.035274607796822, 36.013480713929937 ] ] } },
{ "type": "Feature", "properties": { "FEEDER_NAME": "POWDER MILL", "SUBSTATION_NAME": "New Hope", "wmType": "SECONDARY OVERHEAD", "WKT": "LINESTRING (-79.03568861503952 36.01356850870608, -79.03589554433078 36.013577986199856)" }, "geometry": { "type": "LineString", "coordinates": [ [ -79.035688615039518, 36.013568508706079 ], [ -79.035895544330785, 36.013577986199856 ] ] } },
{ "type": "Feature", "properties": { "FEEDER_NAME": "POWDER MILL", "SUBSTATION_NAME": "New Hope", "wmType": "SECONDARY OVERHEAD", "WKT": "LINESTRING (-79.06124647097865 36.018494226814795, -79.06121328945665 36.018525570525576, -79.06104872954867 36.0190049304192)" }, "geometry": { "type": "LineString", "coordinates": [ [ -79.061246470978645, 36.018494226814795 ], [ -79.061213289456646, 36.018525570525576 ], [ -79.061048729548673, 36.0190049304192 ] ] } },
{ "type": "Feature", "properties": { "FEEDER_NAME": "POWDER MILL", "SUBSTATION_NAME": "New Hope", "wmType": "SECONDARY OVERHEAD", "WKT": "LINESTRING (-79.03563654788942 36.01356153007038, -79.03568861503952 36.01356850870608)" }, "geometry": { "type": "LineString", "coordinates": [ [ -79.035636547889425, 36.013561530070383 ], [ -79.035688615039518, 36.013568508706079 ] ] } },
{ "type": "Feature", "properties": { "FEEDER_NAME": "POWDER MILL", "SUBSTATION_NAME": "New Hope", "wmType": "SECONDARY OVERHEAD", "WKT": "LINESTRING (-79.03492002161137 36.01244299478888, -79.03464432429934 36.012254466823144)" }, "geometry": { "type": "LineString", "coordinates": [ [ -79.03492002161137, 36.012442994788877 ], [ -79.034644324299336, 36.012254466823144 ] ] } },
{ "type": "Feature", "properties": { "FEEDER_NAME": "POWDER MILL", "SUBSTATION_NAME": "New Hope", "wmType": "SECONDARY OVERHEAD", "WKT": "LINESTRING (-79.03602502488087 36.01372165331999, -79.03625323517932 36.013860133991834)" }, "geometry": { "type": "LineString", "coordinates": [ [ -79.036025024880871, 36.01372165331999 ], [ -79.036253235179316, 36.013860133991834 ] ] } },
{ "type": "Feature", "properties": { "FEEDER_NAME": "POWDER MILL", "SUBSTATION_NAME": "New Hope", "wmType": "SECONDARY OVERHEAD", "WKT": "LINESTRING (-79.03464432429934 36.012254466823144, -79.0345045464994 36.0121265272836)" }, "geometry": { "type": "LineString", "coordinates": [ [ -79.034644324299336, 36.012254466823144 ], [ -79.034504546499406, 36.012126527283598 ] ] } },
{ "type": "Feature", "properties": { "FEEDER_NAME": "POWDER MILL", "SUBSTATION_NAME": "New Hope", "wmType": "SECONDARY OVERHEAD", "WKT": "LINESTRING (-79.03589554433078 36.013577986199856, -79.03607954897464 36.01351952989874)" }, "geometry": { "type": "LineString", "coordinates": [ [ -79.035895544330785, 36.013577986199856 ], [ -79.036079548974641, 36.013519529898737 ] ] } },
{ "type": "Feature", "properties": { "FEEDER_NAME": "POWDER MILL", "SUBSTATION_NAME": "New Hope", "wmType": "SECONDARY OVERHEAD", "WKT": "LINESTRING (-79.06160362049008 36.01885102857065, -79.06195140152884 36.01899490106941)" }, "geometry": { "type": "LineString", "coordinates": [ [ -79.061603620490075, 36.018851028570651 ], [ -79.061951401528844, 36.018994901069412 ] ] } },
{ "type": "Feature", "properties": { "FEEDER_NAME": "POWDER MILL", "SUBSTATION_NAME": "New Hope", "wmType": "SECONDARY OVERHEAD", "WKT": "LINESTRING (-79.0353989054266 36.01389990594352, -79.03544154823263 36.01353153043189)" }, "geometry": { "type": "LineString", "coordinates": [ [ -79.035398905426604, 36.013899905943518 ], [ -79.035441548232626, 36.013531530431891 ] ] } },
{ "type": "Feature", "properties": { "FEEDER_NAME": "POWDER MILL", "SUBSTATION_NAME": "New Hope", "wmType": "SECONDARY OVERHEAD", "WKT": "LINESTRING (-79.03544154823263 36.01353153043189, -79.03563654788942 36.01356153007038)" }, "geometry": { "type": "LineString", "coordinates": [ [ -79.035441548232626, 36.013531530431891 ], [ -79.035636547889425, 36.013561530070383 ] ] } },
{ "type": "Feature", "properties": { "FEEDER_NAME": "POWDER MILL", "SUBSTATION_NAME": "New Hope", "wmType": "SECONDARY OVERHEAD", "WKT": "LINESTRING (-79.05210817181795 36.01925648984868, -79.05221997882767 36.01954087325209)" }, "geometry": { "type": "LineString", "coordinates": [ [ -79.052108171817949, 36.019256489848679 ], [ -79.052219978827665, 36.01954087325209 ] ] } },
{ "type": "Feature", "properties": { "FEEDER_NAME": "POWDER MILL", "SUBSTATION_NAME": "New Hope", "wmType": "SECONDARY OVERHEAD", "WKT": "LINESTRING (-79.04119960348217 36.017145801147805, -79.04132540891673 36.01718240503367)" }, "geometry": { "type": "LineString", "coordinates": [ [ -79.04119960348217, 36.017145801147805 ], [ -79.041325408916734, 36.017182405033672 ] ] } },
{ "type": "Feature", "properties": { "FEEDER_NAME": "POWDER MILL", "SUBSTATION_NAME": "New Hope", "wmType": "SECONDARY OVERHEAD", "WKT": "LINESTRING (-79.04132540891673 36.01718240503367, -79.04153363356629 36.017046876887406)" }, "geometry": { "type": "LineString", "coordinates": [ [ -79.041325408916734, 36.017182405033672 ], [ -79.041533633566289, 36.017046876887406 ] ] } },
{ "type": "Feature", "properties": { "FEEDER_NAME": "POWDER MILL", "SUBSTATION_NAME": "New Hope", "wmType": "SECONDARY OVERHEAD", "WKT": "LINESTRING (-79.0423473558849 36.01374877268552, -79.04232010180863 36.01368312662687)" }, "geometry": { "type": "LineString", "coordinates": [ [ -79.0423473558849, 36.013748772685517 ], [ -79.042320101808627, 36.013683126626873 ] ] } },
{ "type": "Feature", "properties": { "FEEDER_NAME": "POWDER MILL", "SUBSTATION_NAME": "New Hope", "wmType": "SECONDARY OVERHEAD", "WKT": "LINESTRING (-79.04232010180863 36.01368312662687, -79.04200179951442 36.01343762134707)" }, "geometry": { "type": "LineString", "coordinates": [ [ -79.042320101808627, 36.013683126626873 ], [ -79.042001799514424, 36.013437621347073 ] ] } },
{ "type": "Feature", "properties": { "FEEDER_NAME": "POWDER MILL", "SUBSTATION_NAME": "New Hope", "wmType": "SECONDARY OVERHEAD", "WKT": "LINESTRING (-79.04200179951442 36.01343762134707, -79.04193440585024 36.013512470395504)" }, "geometry": { "type": "LineString", "coordinates": [ [ -79.042001799514424, 36.013437621347073 ], [ -79.041934405850242, 36.013512470395504 ] ] } },
{ "type": "Feature", "properties": { "FEEDER_NAME": "POWDER MILL", "SUBSTATION_NAME": "New Hope", "wmType": "SECONDARY OVERHEAD", "WKT": "LINESTRING (-79.03492002161137 36.01244299478888, -79.03483800060486 36.01218200031453)" }, "geometry": { "type": "LineString", "coordinates": [ [ -79.03492002161137, 36.012442994788877 ], [ -79.034838000604864, 36.012182000314532 ] ] } },
{ "type": "Feature", "properties": { "FEEDER_NAME": "POWDER MILL", "SUBSTATION_NAME": "New Hope", "wmType": "SECONDARY OVERHEAD", "WKT": "LINESTRING (-79.03660960229801 36.01184622069791, -79.03630539277066 36.0121329686531)" }, "geometry": { "type": "LineString", "coordinates": [ [ -79.036609602298014, 36.011846220697912 ], [ -79.036305392770657, 36.012132968653098 ] ] } },
{ "type": "Feature", "properties": { "FEEDER_NAME": "POWDER MILL", "SUBSTATION_NAME": "New Hope", "wmType": "SECONDARY OVERHEAD", "WKT": "LINESTRING (-79.03242548942467 36.011943250739385, -79.03220634037935 36.01215646930426)" }, "geometry": { "type": "LineString", "coordinates": [ [ -79.032425489424668, 36.011943250739385 ], [ -79.032206340379346, 36.012156469304259 ] ] } },
{ "type": "Feature", "properties": { "FEEDER_NAME": "POWDER MILL", "SUBSTATION_NAME": "New Hope", "wmType": "SECONDARY OVERHEAD", "WKT": "LINESTRING (-79.03340116287005 36.011693327755424, -79.03377702759478 36.01175698821828)" }, "geometry": { "type": "LineString", "coordinates": [ [ -79.033401162870049, 36.011693327755424 ], [ -79.03377702759478, 36.011756988218281 ] ] } },
{ "type": "Feature", "properties": { "FEEDER_NAME": "POWDER MILL", "SUBSTATION_NAME": "New Hope", "wmType": "SECONDARY OVERHEAD", "WKT": "LINESTRING (-79.03340116287005 36.011693327755424, -79.03337002308643 36.01188497551898)" }, "geometry": { "type": "LineString", "coordinates": [ [ -79.033401162870049, 36.011693327755424 ], [ -79.033370023086434, 36.011884975518981 ] ] } },
{ "type": "Feature", "properties": { "FEEDER_NAME": "POWDER MILL", "SUBSTATION_NAME": "New Hope", "wmType": "SECONDARY OVERHEAD", "WKT": "LINESTRING (-79.03337002308643 36.01188497551898, -79.03330799963454 36.011943999337234)" }, "geometry": { "type": "LineString", "coordinates": [ [ -79.033370023086434, 36.011884975518981 ], [ -79.033307999634545, 36.011943999337234 ] ] } },
{ "type": "Feature", "properties": { "FEEDER_NAME": "POWDER MILL", "SUBSTATION_NAME": "New Hope", "wmType": "SECONDARY OVERHEAD", "WKT": "LINESTRING (-79.03340116287005 36.011693327755424, -79.03307203294487 36.011454976080074)" }, "geometry": { "type": "LineString", "coordinates": [ [ -79.033401162870049, 36.011693327755424 ], [ -79.033072032944872, 36.011454976080074 ] ] } },
{ "type": "Feature", "properties": { "FEEDER_NAME": "POWDER MILL", "SUBSTATION_NAME": "New Hope", "wmType": "SECONDARY OVERHEAD", "WKT": "LINESTRING (-79.03353977514304 36.01144133226522, -79.0333680292059 36.01123499255388)" }, "geometry": { "type": "LineString", "coordinates": [ [ -79.033539775143041, 36.011441332265221 ], [ -79.033368029205903, 36.011234992553881 ] ] } },
{ "type": "Feature", "properties": { "FEEDER_NAME": "POWDER MILL", "SUBSTATION_NAME": "New Hope", "wmType": "SECONDARY OVERHEAD", "WKT": "LINESTRING (-79.0333680292059 36.01123499255388, -79.03360300209306 36.01103197433451)" }, "geometry": { "type": "LineString", "coordinates": [ [ -79.033368029205903, 36.011234992553881 ], [ -79.033603002093059, 36.011031974334507 ] ] } },
{ "type": "Feature", "properties": { "FEEDER_NAME": "POWDER MILL", "SUBSTATION_NAME": "New Hope", "wmType": "SECONDARY OVERHEAD", "WKT": "LINESTRING (-79.03420793604917 36.01150038465601, -79.03424002648887 36.011318976588086)" }, "geometry": { "type": "LineString", "coordinates": [ [ -79.034207936049171, 36.01150038465601 ], [ -79.034240026488874, 36.011318976588086 ] ] } },
{ "type": "Feature", "properties": { "FEEDER_NAME": "POWDER MILL", "SUBSTATION_NAME": "New Hope", "wmType": "SECONDARY OVERHEAD", "WKT": "LINESTRING (-79.03519798161922 36.01126796299877, -79.03522825569884 36.01097401564716)" }, "geometry": { "type": "LineString", "coordinates": [ [ -79.03519798161922, 36.011267962998772 ], [ -79.03522825569884, 36.010974015647157 ] ] } },
{ "type": "Feature", "properties": { "FEEDER_NAME": "POWDER MILL", "SUBSTATION_NAME": "New Hope", "wmType": "SECONDARY OVERHEAD", "WKT": "LINESTRING (-79.03626779234787 36.012506965282974, -79.03611331033576 36.01273937670432)" }, "geometry": { "type": "LineString", "coordinates": [ [ -79.036267792347871, 36.012506965282974 ], [ -79.036113310335764, 36.012739376704317 ] ] } },
{ "type": "Feature", "properties": { "FEEDER_NAME": "POWDER MILL", "SUBSTATION_NAME": "New Hope", "wmType": "SECONDARY OVERHEAD", "WKT": "LINESTRING (-79.0356457642495 36.01459327157461, -79.03575820878844 36.01472215680633)" }, "geometry": { "type": "LineString", "coordinates": [ [ -79.035645764249495, 36.014593271574611 ], [ -79.035758208788437, 36.014722156806329 ] ] } },
{ "type": "Feature", "properties": { "FEEDER_NAME": "POWDER MILL", "SUBSTATION_NAME": "New Hope", "wmType": "SECONDARY OVERHEAD", "WKT": "LINESTRING (-79.03234955058825 36.01575652775411, -79.03254255044311 36.01557352124858)" }, "geometry": { "type": "LineString", "coordinates": [ [ -79.032349550588251, 36.015756527754107 ], [ -79.032542550443111, 36.015573521248577 ] ] } },
{ "type": "Feature", "properties": { "FEEDER_NAME": "POWDER MILL", "SUBSTATION_NAME": "New Hope", "wmType": "SECONDARY OVERHEAD", "WKT": "LINESTRING (-79.03254255044311 36.01557352124858, -79.03256954237003 36.015579533614755)" }, "geometry": { "type": "LineString", "coordinates": [ [ -79.032542550443111, 36.015573521248577 ], [ -79.032569542370027, 36.015579533614755 ] ] } },
{ "type": "Feature", "properties": { "FEEDER_NAME": "POWDER MILL", "SUBSTATION_NAME": "New Hope", "wmType": "SECONDARY OVERHEAD", "WKT": "LINESTRING (-79.03102593490362 36.0174402438558, -79.03106956771397 36.01729851234548)" }, "geometry": { "type": "LineString", "coordinates": [ [ -79.031025934903624, 36.017440243855802 ], [ -79.031069567713971, 36.017298512345477 ] ] } },
{ "type": "Feature", "properties": { "FEEDER_NAME": "POWDER MILL", "SUBSTATION_NAME": "New Hope", "wmType": "SECONDARY OVERHEAD", "WKT": "LINESTRING (-79.03106956771397 36.01729851234548, -79.0311051940685 36.01718860203735)" }, "geometry": { "type": "LineString", "coordinates": [ [ -79.031069567713971, 36.017298512345477 ], [ -79.031105194068502, 36.017188602037351 ] ] } },
{ "type": "Feature", "properties": { "FEEDER_NAME": "POWDER MILL", "SUBSTATION_NAME": "New Hope", "wmType": "SECONDARY OVERHEAD", "WKT": "LINESTRING (-79.03158515581838 36.014077524813914, -79.03107878532069 36.01410537582607)" }, "geometry": { "type": "LineString", "coordinates": [ [ -79.031585155818377, 36.014077524813914 ], [ -79.031078785320688, 36.01410537582607 ] ] } },
{ "type": "Feature", "properties": { "FEEDER_NAME": "POWDER MILL", "SUBSTATION_NAME": "New Hope", "wmType": "SECONDARY OVERHEAD", "WKT": "LINESTRING (-79.03107878532069 36.01410537582607, -79.03110379155278 36.01397203694147)" }, "geometry": { "type": "LineString", "coordinates": [ [ -79.031078785320688, 36.01410537582607 ], [ -79.031103791552781, 36.013972036941468 ] ] } },
{ "type": "Feature", "properties": { "FEEDER_NAME": "POWDER MILL", "SUBSTATION_NAME": "New Hope", "wmType": "SECONDARY OVERHEAD", "WKT": "LINESTRING (-79.03110379155278 36.01397203694147, -79.03104743369538 36.01382111790364)" }, "geometry": { "type": "LineString", "coordinates": [ [ -79.031103791552781, 36.013972036941468 ], [ -79.031047433695377, 36.013821117903639 ] ] } },
{ "type": "Feature", "properties": { "FEEDER_NAME": "POWDER MILL", "SUBSTATION_NAME": "New Hope", "wmType": "SECONDARY OVERHEAD", "WKT": "LINESTRING (-79.03158515581838 36.014077524813914, -79.03178596633636 36.01390839416773)" }, "geometry": { "type": "LineString", "coordinates": [ [ -79.031585155818377, 36.014077524813914 ], [ -79.031785966336358, 36.013908394167728 ] ] } },
{ "type": "Feature", "properties": { "FEEDER_NAME": "POWDER MILL", "SUBSTATION_NAME": "New Hope", "wmType": "SECONDARY OVERHEAD", "WKT": "LINESTRING (-79.03178596633636 36.01390839416773, -79.03190335879707 36.01423831377041)" }, "geometry": { "type": "LineString", "coordinates": [ [ -79.031785966336358, 36.013908394167728 ], [ -79.031903358797067, 36.014238313770413 ] ] } },
{ "type": "Feature", "properties": { "FEEDER_NAME": "POWDER MILL", "SUBSTATION_NAME": "New Hope", "wmType": "SECONDARY OVERHEAD", "WKT": "LINESTRING (-79.03233183969945 36.01349849891154, -79.03220555749415 36.01314061925001)" }, "geometry": { "type": "LineString", "coordinates": [ [ -79.032331839699452, 36.013498498911538 ], [ -79.032205557494152, 36.013140619250009 ] ] } },
{ "type": "Feature", "properties": { "FEEDER_NAME": "POWDER MILL", "SUBSTATION_NAME": "New Hope", "wmType": "SECONDARY OVERHEAD", "WKT": "LINESTRING (-79.03275476223902 36.01382523165809, -79.03270529909389 36.01393392958995)" }, "geometry": { "type": "LineString", "coordinates": [ [ -79.032754762239023, 36.013825231658089 ], [ -79.032705299093891, 36.013933929589953 ] ] } },
{ "type": "Feature", "properties": { "FEEDER_NAME": "POWDER MILL", "SUBSTATION_NAME": "New Hope", "wmType": "SECONDARY OVERHEAD", "WKT": "LINESTRING (-79.0342554847089 36.01344801211105, -79.03433534067591 36.01377903229363)" }, "geometry": { "type": "LineString", "coordinates": [ [ -79.034255484708893, 36.013448012111049 ], [ -79.034335340675909, 36.013779032293627 ] ] } },
{ "type": "Feature", "properties": { "FEEDER_NAME": "POWDER MILL", "SUBSTATION_NAME": "New Hope", "wmType": "SECONDARY OVERHEAD", "WKT": "LINESTRING (-79.0353989054266 36.01389990594352, -79.03487793743122 36.01387645428479)" }, "geometry": { "type": "LineString", "coordinates": [ [ -79.035398905426604, 36.013899905943518 ], [ -79.034877937431219, 36.013876454284791 ] ] } },
{ "type": "Feature", "properties": { "FEEDER_NAME": "POWDER MILL", "SUBSTATION_NAME": "New Hope", "wmType": "SECONDARY OVERHEAD", "WKT": "LINESTRING (-79.0353989054266 36.01389990594352, -79.03563487416719 36.01405169091551)" }, "geometry": { "type": "LineString", "coordinates": [ [ -79.035398905426604, 36.013899905943518 ], [ -79.035634874167187, 36.014051690915508 ] ] } },
{ "type": "Feature", "properties": { "FEEDER_NAME": "POWDER MILL", "SUBSTATION_NAME": "New Hope", "wmType": "SECONDARY OVERHEAD", "WKT": "LINESTRING (-79.03563487416719 36.01405169091551, -79.03572995711242 36.013980898374776)" }, "geometry": { "type": "LineString", "coordinates": [ [ -79.035634874167187, 36.014051690915508 ], [ -79.035729957112423, 36.013980898374776 ] ] } },
{ "type": "Feature", "properties": { "FEEDER_NAME": "POWDER MILL", "SUBSTATION_NAME": "New Hope", "wmType": "SECONDARY OVERHEAD", "WKT": "LINESTRING (-79.03572995711242 36.013980898374776, -79.0356434373641 36.01384140031103)" }, "geometry": { "type": "LineString", "coordinates": [ [ -79.035729957112423, 36.013980898374776 ], [ -79.035643437364101, 36.01384140031103 ] ] } },
{ "type": "Feature", "properties": { "FEEDER_NAME": "POWDER MILL", "SUBSTATION_NAME": "New Hope", "wmType": "SECONDARY OVERHEAD", "WKT": "LINESTRING (-79.03563487416719 36.01405169091551, -79.03580952599582 36.01407526476415)" }, "geometry": { "type": "LineString", "coordinates": [ [ -79.035634874167187, 36.014051690915508 ], [ -79.035809525995816, 36.014075264764152 ] ] } },
{ "type": "Feature", "properties": { "FEEDER_NAME": "POWDER MILL", "SUBSTATION_NAME": "New Hope", "wmType": "SECONDARY OVERHEAD", "WKT": "LINESTRING (-79.0353989054266 36.01389990594352, -79.03572095899068 36.01369965253621)" }, "geometry": { "type": "LineString", "coordinates": [ [ -79.035398905426604, 36.013899905943518 ], [ -79.03572095899068, 36.013699652536211 ] ] } },
{ "type": "Feature", "properties": { "FEEDER_NAME": "POWDER MILL", "SUBSTATION_NAME": "New Hope", "wmType": "SECONDARY OVERHEAD", "WKT": "LINESTRING (-79.03588751090648 36.01440890077718, -79.03588339186173 36.014436172516554, -79.03608369745142 36.01464926761332)" }, "geometry": { "type": "LineString", "coordinates": [ [ -79.035887510906477, 36.014408900777177 ], [ -79.035883391861731, 36.014436172516554 ], [ -79.036083697451417, 36.014649267613322 ] ] } },
{ "type": "Feature", "properties": { "FEEDER_NAME": "POWDER MILL", "SUBSTATION_NAME": "New Hope", "wmType": "SECONDARY OVERHEAD", "WKT": "LINESTRING (-79.03588751090648 36.01440890077718, -79.03588685691801 36.01440508680828)" }, "geometry": { "type": "LineString", "coordinates": [ [ -79.035887510906477, 36.014408900777177 ], [ -79.035886856918012, 36.014405086808281 ] ] } },
{ "type": "Feature", "properties": { "FEEDER_NAME": "POWDER MILL", "SUBSTATION_NAME": "New Hope", "wmType": "SECONDARY OVERHEAD", "WKT": "LINESTRING (-79.03588751090648 36.01440890077718, -79.0356457642495 36.01459327157461)" }, "geometry": { "type": "LineString", "coordinates": [ [ -79.035887510906477, 36.014408900777177 ], [ -79.035645764249495, 36.014593271574611 ] ] } },
{ "type": "Feature", "properties": { "FEEDER_NAME": "POWDER MILL", "SUBSTATION_NAME": "New Hope", "wmType": "SECONDARY OVERHEAD", "WKT": "LINESTRING (-79.03958384665121 36.01633070489569, -79.03995945482635 36.01620820061639)" }, "geometry": { "type": "LineString", "coordinates": [ [ -79.039583846651212, 36.016330704895687 ], [ -79.039959454826345, 36.01620820061639 ] ] } },
{ "type": "Feature", "properties": { "FEEDER_NAME": "POWDER MILL", "SUBSTATION_NAME": "New Hope", "wmType": "SECONDARY OVERHEAD", "WKT": "LINESTRING (-79.03995945482635 36.01620820061639, -79.04019083290817 36.01632899533177)" }, "geometry": { "type": "LineString", "coordinates": [ [ -79.039959454826345, 36.01620820061639 ], [ -79.040190832908166, 36.016328995331769 ] ] } },
{ "type": "Feature", "properties": { "FEEDER_NAME": "POWDER MILL", "SUBSTATION_NAME": "New Hope", "wmType": "SECONDARY OVERHEAD", "WKT": "LINESTRING (-79.03998455562457 36.02054754442133, -79.04039083460282 36.0206390153356)" }, "geometry": { "type": "LineString", "coordinates": [ [ -79.039984555624571, 36.020547544421333 ], [ -79.040390834602817, 36.020639015335597 ] ] } },
{ "type": "Feature", "properties": { "FEEDER_NAME": "POWDER MILL", "SUBSTATION_NAME": "New Hope", "wmType": "SECONDARY OVERHEAD", "WKT": "LINESTRING (-79.04039083460282 36.0206390153356, -79.04065398981699 36.02091783698211)" }, "geometry": { "type": "LineString", "coordinates": [ [ -79.040390834602817, 36.020639015335597 ], [ -79.040653989816988, 36.020917836982107 ] ] } },
{ "type": "Feature", "properties": { "FEEDER_NAME": "POWDER MILL", "SUBSTATION_NAME": "New Hope", "wmType": "SECONDARY OVERHEAD", "WKT": "LINESTRING (-79.04039083460282 36.0206390153356, -79.04036000439919 36.02059166587304)" }, "geometry": { "type": "LineString", "coordinates": [ [ -79.040390834602817, 36.020639015335597 ], [ -79.04036000439919, 36.020591665873042 ] ] } },
{ "type": "Feature", "properties": { "FEEDER_NAME": "POWDER MILL", "SUBSTATION_NAME": "New Hope", "wmType": "SECONDARY OVERHEAD", "WKT": "LINESTRING (-79.04034296704042 36.02004402794896, -79.04066493511644 36.02029235574512)" }, "geometry": { "type": "LineString", "coordinates": [ [ -79.040342967040417, 36.020044027948963 ], [ -79.040664935116439, 36.02029235574512 ] ] } },
{ "type": "Feature", "properties": { "FEEDER_NAME": "POWDER MILL", "SUBSTATION_NAME": "New Hope", "wmType": "SECONDARY OVERHEAD", "WKT": "LINESTRING (-79.04066493511644 36.02029235574512, -79.04071303318361 36.0205170457282)" }, "geometry": { "type": "LineString", "coordinates": [ [ -79.040664935116439, 36.02029235574512 ], [ -79.040713033183607, 36.020517045728198 ] ] } },
{ "type": "Feature", "properties": { "FEEDER_NAME": "POWDER MILL", "SUBSTATION_NAME": "New Hope", "wmType": "SECONDARY OVERHEAD", "WKT": "LINESTRING (-79.0375314165799 36.01615029358859, -79.03732922771762 36.01625641922564)" }, "geometry": { "type": "LineString", "coordinates": [ [ -79.037531416579895, 36.016150293588588 ], [ -79.03732922771762, 36.016256419225641 ] ] } },
{ "type": "Feature", "properties": { "FEEDER_NAME": "POWDER MILL", "SUBSTATION_NAME": "New Hope", "wmType": "SECONDARY OVERHEAD", "WKT": "LINESTRING (-79.0375314165799 36.01615029358859, -79.0371201106015 36.016225743448466)" }, "geometry": { "type": "LineString", "coordinates": [ [ -79.037531416579895, 36.016150293588588 ], [ -79.037120110601506, 36.016225743448466 ] ] } },
{ "type": "Feature", "properties": { "FEEDER_NAME": "POWDER MILL", "SUBSTATION_NAME": "New Hope", "wmType": "SECONDARY OVERHEAD", "WKT": "LINESTRING (-79.0371201106015 36.016225743448466, -79.03710744429694 36.01618083269844)" }, "geometry": { "type": "LineString", "coordinates": [ [ -79.037120110601506, 36.016225743448466 ], [ -79.037107444296936, 36.016180832698439 ] ] } },
{ "type": "Feature", "properties": { "FEEDER_NAME": "POWDER MILL", "SUBSTATION_NAME": "New Hope", "wmType": "SECONDARY OVERHEAD", "WKT": "LINESTRING (-79.03688342362568 36.01547680428601, -79.03664896234667 36.01557340316556)" }, "geometry": { "type": "LineString", "coordinates": [ [ -79.036883423625682, 36.01547680428601 ], [ -79.036648962346675, 36.015573403165561 ] ] } },
{ "type": "Feature", "properties": { "FEEDER_NAME": "POWDER MILL", "SUBSTATION_NAME": "New Hope", "wmType": "SECONDARY OVERHEAD", "WKT": "LINESTRING (-79.03664896234667 36.01557340316556, -79.03642822795831 36.01579587105372)" }, "geometry": { "type": "LineString", "coordinates": [ [ -79.036648962346675, 36.015573403165561 ], [ -79.036428227958311, 36.015795871053719 ] ] } },
{ "type": "Feature", "properties": { "FEEDER_NAME": "POWDER MILL", "SUBSTATION_NAME": "New Hope", "wmType": "SECONDARY OVERHEAD", "WKT": "LINESTRING (-79.03688342362568 36.01547680428601, -79.03717151417723 36.0158745152072)" }, "geometry": { "type": "LineString", "coordinates": [ [ -79.036883423625682, 36.01547680428601 ], [ -79.037171514177231, 36.015874515207202 ] ] } },
{ "type": "Feature", "properties": { "FEEDER_NAME": "POWDER MILL", "SUBSTATION_NAME": "New Hope", "wmType": "SECONDARY OVERHEAD", "WKT": "LINESTRING (-79.04330828185205 36.016002488378554, -79.04324656404752 36.016193536309196)" }, "geometry": { "type": "LineString", "coordinates": [ [ -79.043308281852049, 36.016002488378554 ], [ -79.043246564047521, 36.016193536309196 ] ] } },
{ "type": "Feature", "properties": { "FEEDER_NAME": "POWDER MILL", "SUBSTATION_NAME": "New Hope", "wmType": "SECONDARY OVERHEAD", "WKT": "LINESTRING (-79.04324656404752 36.016193536309196, -79.04314052274125 36.01611781786659)" }, "geometry": { "type": "LineString", "coordinates": [ [ -79.043246564047521, 36.016193536309196 ], [ -79.043140522741254, 36.016117817866593 ] ] } },
{ "type": "Feature", "properties": { "FEEDER_NAME": "POWDER MILL", "SUBSTATION_NAME": "New Hope", "wmType": "SECONDARY OVERHEAD", "WKT": "LINESTRING (-79.04752715826578 36.01593629945269, -79.04780567360991 36.0161018462414)" }, "geometry": { "type": "LineString", "coordinates": [ [ -79.04752715826578, 36.01593629945269 ], [ -79.047805673609915, 36.016101846241398 ] ] } },
{ "type": "Feature", "properties": { "FEEDER_NAME": "POWDER MILL", "SUBSTATION_NAME": "New Hope", "wmType": "SECONDARY OVERHEAD", "WKT": "LINESTRING (-79.05123878211117 36.017799404183265, -79.05134838557824 36.017765486810454)" }, "geometry": { "type": "LineString", "coordinates": [ [ -79.05123878211117, 36.017799404183265 ], [ -79.051348385578237, 36.017765486810454 ] ] } },
{ "type": "Feature", "properties": { "FEEDER_NAME": "POWDER MILL", "SUBSTATION_NAME": "New Hope", "wmType": "SECONDARY OVERHEAD", "WKT": "LINESTRING (-79.05478720676098 36.020191681844125, -79.05436972444559 36.02024224900855)" }, "geometry": { "type": "LineString", "coordinates": [ [ -79.054787206760977, 36.020191681844125 ], [ -79.054369724445593, 36.020242249008547 ] ] } },
{ "type": "Feature", "properties": { "FEEDER_NAME": "POWDER MILL", "SUBSTATION_NAME": "New Hope", "wmType": "SECONDARY OVERHEAD", "WKT": "LINESTRING (-79.05436972444559 36.02024224900855, -79.05425064722351 36.02026052009729)" }, "geometry": { "type": "LineString", "coordinates": [ [ -79.054369724445593, 36.020242249008547 ], [ -79.054250647223512, 36.020260520097288 ] ] } },
{ "type": "Feature", "properties": { "FEEDER_NAME": "POWDER MILL", "SUBSTATION_NAME": "New Hope", "wmType": "SECONDARY OVERHEAD", "WKT": "LINESTRING (-79.06320722548783 36.01580794621562, -79.06318476773745 36.015609837840834)" }, "geometry": { "type": "LineString", "coordinates": [ [ -79.06320722548783, 36.015807946215617 ], [ -79.063184767737454, 36.015609837840834 ] ] } },
{ "type": "Feature", "properties": { "FEEDER_NAME": "POWDER MILL", "SUBSTATION_NAME": "New Hope", "wmType": "SECONDARY OVERHEAD", "WKT": "LINESTRING (-79.0624662641424 36.01649286872146, -79.06212518041161 36.01630890672505)" }, "geometry": { "type": "LineString", "coordinates": [ [ -79.062466264142401, 36.016492868721457 ], [ -79.062125180411613, 36.016308906725051 ] ] } },
{ "type": "Feature", "properties": { "FEEDER_NAME": "POWDER MILL", "SUBSTATION_NAME": "New Hope", "wmType": "SECONDARY OVERHEAD", "WKT": "LINESTRING (-79.06212518041161 36.01630890672505, -79.06206769843308 36.01613565128139)" }, "geometry": { "type": "LineString", "coordinates": [ [ -79.062125180411613, 36.016308906725051 ], [ -79.062067698433083, 36.016135651281388 ] ] } },
{ "type": "Feature", "properties": { "FEEDER_NAME": "POWDER MILL", "SUBSTATION_NAME": "New Hope", "wmType": "SECONDARY OVERHEAD", "WKT": "LINESTRING (-79.06124647097865 36.018494226814795, -79.06115658879926 36.01813424241406)" }, "geometry": { "type": "LineString", "coordinates": [ [ -79.061246470978645, 36.018494226814795 ], [ -79.061156588799264, 36.018134242414057 ] ] } },
{ "type": "Feature", "properties": { "FEEDER_NAME": "POWDER MILL", "SUBSTATION_NAME": "New Hope", "wmType": "SECONDARY OVERHEAD", "WKT": "LINESTRING (-79.06115658879926 36.01813424241406, -79.06127742997447 36.01813678653224)" }, "geometry": { "type": "LineString", "coordinates": [ [ -79.061156588799264, 36.018134242414057 ], [ -79.061277429974467, 36.018136786532239 ] ] } },
{ "type": "Feature", "properties": { "FEEDER_NAME": "POWDER MILL", "SUBSTATION_NAME": "New Hope", "wmType": "SECONDARY OVERHEAD", "WKT": "LINESTRING (-79.06124647097865 36.018494226814795, -79.06160362049008 36.01885102857065)" }, "geometry": { "type": "LineString", "coordinates": [ [ -79.061246470978645, 36.018494226814795 ], [ -79.061603620490075, 36.018851028570651 ] ] } },
{ "type": "Feature", "properties": { "FEEDER_NAME": "POWDER MILL", "SUBSTATION_NAME": "New Hope", "wmType": "SECONDARY OVERHEAD", "WKT": "LINESTRING (-79.06160362049008 36.01885102857065, -79.06177792484871 36.01907092950345)" }, "geometry": { "type": "LineString", "coordinates": [ [ -79.061603620490075, 36.018851028570651 ], [ -79.061777924848712, 36.019070929503449 ] ] } },
{ "type": "Feature", "properties": { "FEEDER_NAME": "POWDER MILL", "SUBSTATION_NAME": "New Hope", "wmType": "SECONDARY OVERHEAD", "WKT": "LINESTRING (-79.06104872954867 36.0190049304192, -79.0612153300532 36.01914727581349)" }, "geometry": { "type": "LineString", "coordinates": [ [ -79.061048729548673, 36.0190049304192 ], [ -79.061215330053201, 36.019147275813488 ] ] } },
{ "type": "Feature", "properties": { "FEEDER_NAME": "POWDER MILL", "SUBSTATION_NAME": "New Hope", "wmType": "SECONDARY OVERHEAD", "WKT": "LINESTRING (-79.0617401180296 36.020733767930125, -79.06119002239815 36.02079667710646)" }, "geometry": { "type": "LineString", "coordinates": [ [ -79.061740118029604, 36.020733767930125 ], [ -79.061190022398151, 36.02079667710646 ] ] } },
{ "type": "Feature", "properties": { "FEEDER_NAME": "POWDER MILL", "SUBSTATION_NAME": "New Hope", "wmType": "SECONDARY OVERHEAD", "WKT": "LINESTRING (-79.0617401180296 36.020733767930125, -79.06179170781736 36.020541667038806)" }, "geometry": { "type": "LineString", "coordinates": [ [ -79.061740118029604, 36.020733767930125 ], [ -79.061791707817363, 36.020541667038806 ] ] } },
{ "type": "Feature", "properties": { "FEEDER_NAME": "POWDER MILL", "SUBSTATION_NAME": "New Hope", "wmType": "SECONDARY OVERHEAD", "WKT": "LINESTRING (-79.06179170781736 36.020541667038806, -79.06189474981637 36.02023213500395)" }, "geometry": { "type": "LineString", "coordinates": [ [ -79.061791707817363, 36.020541667038806 ], [ -79.061894749816375, 36.020232135003951 ] ] } },
{ "type": "Feature", "properties": { "FEEDER_NAME": "POWDER MILL", "SUBSTATION_NAME": "New Hope", "wmType": "SECONDARY OVERHEAD", "WKT": "LINESTRING (-79.0617401180296 36.020733767930125, -79.06149907300188 36.02090252328991)" }, "geometry": { "type": "LineString", "coordinates": [ [ -79.061740118029604, 36.020733767930125 ], [ -79.061499073001883, 36.020902523289912 ] ] } },
{ "type": "Feature", "properties": { "FEEDER_NAME": "POWDER MILL", "SUBSTATION_NAME": "New Hope", "wmType": "SECONDARY OVERHEAD", "WKT": "LINESTRING (-79.0617401180296 36.020733767930125, -79.06209458335941 36.02049214132824)" }, "geometry": { "type": "LineString", "coordinates": [ [ -79.061740118029604, 36.020733767930125 ], [ -79.062094583359411, 36.020492141328241 ] ] } },
{ "type": "Feature", "properties": { "FEEDER_NAME": "POWDER MILL", "SUBSTATION_NAME": "New Hope", "wmType": "SECONDARY OVERHEAD", "WKT": "LINESTRING (-79.06428924752656 36.02343753638693, -79.06394563041081 36.02376956102256)" }, "geometry": { "type": "LineString", "coordinates": [ [ -79.06428924752656, 36.023437536386929 ], [ -79.063945630410814, 36.023769561022561 ] ] } },
{ "type": "Feature", "properties": { "FEEDER_NAME": "POWDER MILL", "SUBSTATION_NAME": "New Hope", "wmType": "SECONDARY OVERHEAD", "WKT": "LINESTRING (-79.06428924752656 36.02343753638693, -79.06422646694286 36.023604085961)" }, "geometry": { "type": "LineString", "coordinates": [ [ -79.06428924752656, 36.023437536386929 ], [ -79.064226466942856, 36.023604085960997 ] ] } },
{ "type": "Feature", "properties": { "FEEDER_NAME": "POWDER MILL", "SUBSTATION_NAME": "New Hope", "wmType": "SECONDARY OVERHEAD", "WKT": "LINESTRING (-79.06219507990699 36.02495661621136, -79.06229029598394 36.02533310638483)" }, "geometry": { "type": "LineString", "coordinates": [ [ -79.062195079906985, 36.024956616211362 ], [ -79.062290295983942, 36.025333106384828 ] ] } },
{ "type": "Feature", "properties": { "FEEDER_NAME": "POWDER MILL", "SUBSTATION_NAME": "New Hope", "wmType": "SECONDARY OVERHEAD", "WKT": "LINESTRING (-79.06219507990699 36.02495661621136, -79.06217205369126 36.02514084158664)" }, "geometry": { "type": "LineString", "coordinates": [ [ -79.062195079906985, 36.024956616211362 ], [ -79.062172053691256, 36.025140841586641 ] ] } },
{ "type": "Feature", "properties": { "FEEDER_NAME": "POWDER MILL", "SUBSTATION_NAME": "New Hope", "wmType": "SECONDARY OVERHEAD", "WKT": "LINESTRING (-79.06240034485413 36.02420722477296, -79.06259903089112 36.024614978134025)" }, "geometry": { "type": "LineString", "coordinates": [ [ -79.062400344854126, 36.024207224772958 ], [ -79.062599030891121, 36.024614978134025 ] ] } },
{ "type": "Feature", "properties": { "FEEDER_NAME": "POWDER MILL", "SUBSTATION_NAME": "New Hope", "wmType": "SECONDARY OVERHEAD", "WKT": "LINESTRING (-79.06259903089112 36.024614978134025, -79.06270000337851 36.02482598327463)" }, "geometry": { "type": "LineString", "coordinates": [ [ -79.062599030891121, 36.024614978134025 ], [ -79.062700003378509, 36.024825983274631 ] ] } },
{ "type": "Feature", "properties": { "FEEDER_NAME": "POWDER MILL", "SUBSTATION_NAME": "New Hope", "wmType": "SECONDARY OVERHEAD", "WKT": "LINESTRING (-79.06270000337851 36.02482598327463, -79.06272400015192 36.02490699992097)" }, "geometry": { "type": "LineString", "coordinates": [ [ -79.062700003378509, 36.024825983274631 ], [ -79.062724000151917, 36.024906999920972 ] ] } },
{ "type": "Feature", "properties": { "FEEDER_NAME": "POWDER MILL", "SUBSTATION_NAME": "New Hope", "wmType": "SECONDARY OVERHEAD", "WKT": "LINESTRING (-79.06546283015628 36.02203940273389, -79.06568238546832 36.02206483936413)" }, "geometry": { "type": "LineString", "coordinates": [ [ -79.065462830156278, 36.022039402733888 ], [ -79.065682385468321, 36.022064839364127 ] ] } },
{ "type": "Feature", "properties": { "FEEDER_NAME": "POWDER MILL", "SUBSTATION_NAME": "New Hope", "wmType": "SECONDARY OVERHEAD", "WKT": "LINESTRING (-79.06671899968332 36.02225425795527, -79.06667774794715 36.02246056629061)" }, "geometry": { "type": "LineString", "coordinates": [ [ -79.066718999683317, 36.022254257955268 ], [ -79.066677747947153, 36.022460566290611 ] ] } },
{ "type": "Feature", "properties": { "FEEDER_NAME": "POWDER MILL", "SUBSTATION_NAME": "New Hope", "wmType": "SECONDARY OVERHEAD", "WKT": "LINESTRING (-79.03568861503952 36.01356850870608, -79.03589510026134 36.01356725584464)" }, "geometry": { "type": "LineString", "coordinates": [ [ -79.035688615039518, 36.013568508706079 ], [ -79.035895100261342, 36.013567255844642 ] ] } }
]
}
