{
"type": "FeatureCollection",
"name": "New_Hope_UNION_GROVE_overhead",
"crs": { "type": "name", "properties": { "name": "urn:ogc:def:crs:OGC:1.3:CRS84" } },
"features": [
{ "type": "Feature", "properties": { "FEEDER_NAME": "UNION GROVE", "SUBSTATION_NAME": "New Hope", "wmType": "SECONDARY OVERHEAD", "WKT": "LINESTRING (-79.12239281156982 35.97510920880971, -79.12247424457145 35.97522353131517)" }, "geometry": { "type": "LineString", "coordinates": [ [ -79.122392811569824, 35.975109208809712 ], [ -79.12247424457145, 35.975223531315173 ] ] } },
{ "type": "Feature", "properties": { "FEEDER_NAME": "UNION GROVE", "SUBSTATION_NAME": "New Hope", "wmType": "SECONDARY OVERHEAD", "WKT": "LINESTRING (-79.15035514495453 36.01435250477199, -79.15040117817247 36.014114593630865)" }, "geometry": { "type": "LineString", "coordinates": [ [ -79.150355144954531, 36.014352504771992 ], [ -79.150401178172473, 36.014114593630865 ] ] } },
{ "type": "Feature", "properties": { "FEEDER_NAME": "UNION GROVE", "SUBSTATION_NAME": "New Hope", "wmType": "SECONDARY OVERHEAD", "WKT": "LINESTRING (-79.15040117817247 36.014114593630865, -79.15053758973166 36.01395699758014)" }, "geometry": { "type": "LineString", "coordinates": [ [ -79.150401178172473, 36.014114593630865 ], [ -79.150537589731655, 36.013956997580138 ] ] } },
{ "type": "Feature", "properties": { "FEEDER_NAME": "UNION GROVE", "SUBSTATION_NAME": "New Hope", "wmType": "SECONDARY OVERHEAD", "WKT": "LINESTRING (-79.15035514495453 36.01435250477199, -79.15044174633647 36.01462471351219)" }, "geometry": { "type": "LineString", "coordinates": [ [ -79.150355144954531, 36.014352504771992 ], [ -79.150441746336469, 36.014624713512191 ] ] } },
{ "type": "Feature", "properties": { "FEEDER_NAME": "UNION GROVE", "SUBSTATION_NAME": "New Hope", "wmType": "SECONDARY OVERHEAD", "WKT": "LINESTRING (-79.15044174633647 36.01462471351219, -79.15031282745122 36.014868215330765)" }, "geometry": { "type": "LineString", "coordinates": [ [ -79.150441746336469, 36.014624713512191 ], [ -79.150312827451216, 36.014868215330765 ] ] } },
{ "type": "Feature", "properties": { "FEEDER_NAME": "UNION GROVE", "SUBSTATION_NAME": "New Hope", "wmType": "SECONDARY OVERHEAD", "WKT": "LINESTRING (-79.15118020215242 36.015328003868056, -79.1515173308254 36.01523570477564)" }, "geometry": { "type": "LineString", "coordinates": [ [ -79.151180202152418, 36.015328003868056 ], [ -79.151517330825399, 36.015235704775641 ] ] } },
{ "type": "Feature", "properties": { "FEEDER_NAME": "UNION GROVE", "SUBSTATION_NAME": "New Hope", "wmType": "SECONDARY OVERHEAD", "WKT": "LINESTRING (-79.1515173308254 36.01523570477564, -79.15166803142112 36.015323984420945)" }, "geometry": { "type": "LineString", "coordinates": [ [ -79.151517330825399, 36.015235704775641 ], [ -79.151668031421124, 36.015323984420945 ] ] } },
{ "type": "Feature", "properties": { "FEEDER_NAME": "UNION GROVE", "SUBSTATION_NAME": "New Hope", "wmType": "SECONDARY OVERHEAD", "WKT": "LINESTRING (-79.15118020215242 36.015328003868056, -79.1509653413617 36.0154238984951)" }, "geometry": { "type": "LineString", "coordinates": [ [ -79.151180202152418, 36.015328003868056 ], [ -79.150965341361697, 36.015423898495101 ] ] } },
{ "type": "Feature", "properties": { "FEEDER_NAME": "UNION GROVE", "SUBSTATION_NAME": "New Hope", "wmType": "SECONDARY OVERHEAD", "WKT": "LINESTRING (-79.1509653413617 36.0154238984951, -79.1507553979233 36.01551093893164)" }, "geometry": { "type": "LineString", "coordinates": [ [ -79.150965341361697, 36.015423898495101 ], [ -79.150755397923305, 36.015510938931641 ] ] } },
{ "type": "Feature", "properties": { "FEEDER_NAME": "UNION GROVE", "SUBSTATION_NAME": "New Hope", "wmType": "SECONDARY OVERHEAD", "WKT": "LINESTRING (-79.15138403011242 36.01591599967596, -79.15161637816267 36.01579629278484)" }, "geometry": { "type": "LineString", "coordinates": [ [ -79.151384030112425, 36.015915999675961 ], [ -79.151616378162672, 36.015796292784842 ] ] } },
{ "type": "Feature", "properties": { "FEEDER_NAME": "UNION GROVE", "SUBSTATION_NAME": "New Hope", "wmType": "SECONDARY OVERHEAD", "WKT": "LINESTRING (-79.12161239884392 35.976497663863775, -79.1215807315307 35.97660546604652)" }, "geometry": { "type": "LineString", "coordinates": [ [ -79.121612398843922, 35.976497663863775 ], [ -79.121580731530699, 35.976605466046522 ] ] } },
{ "type": "Feature", "properties": { "FEEDER_NAME": "UNION GROVE", "SUBSTATION_NAME": "New Hope", "wmType": "SECONDARY OVERHEAD", "WKT": "LINESTRING (-79.12389154128425 35.98736058112469, -79.12391682015597 35.98737426570835, -79.12461447773704 35.987406705814905)" }, "geometry": { "type": "LineString", "coordinates": [ [ -79.123891541284252, 35.98736058112469 ], [ -79.123916820155969, 35.987374265708347 ], [ -79.12461447773704, 35.987406705814905 ] ] } },
{ "type": "Feature", "properties": { "FEEDER_NAME": "UNION GROVE", "SUBSTATION_NAME": "New Hope", "wmType": "SECONDARY OVERHEAD", "WKT": "LINESTRING (-79.0841916526733 36.00402071473947, -79.0845818945558 36.00408411906833)" }, "geometry": { "type": "LineString", "coordinates": [ [ -79.084191652673297, 36.004020714739468 ], [ -79.084581894555797, 36.004084119068331 ] ] } },
{ "type": "Feature", "properties": { "FEEDER_NAME": "UNION GROVE", "SUBSTATION_NAME": "New Hope", "wmType": "SECONDARY OVERHEAD", "WKT": "LINESTRING (-79.15161637816267 36.01579629278484, -79.15186076492658 36.015649831685366)" }, "geometry": { "type": "LineString", "coordinates": [ [ -79.151616378162672, 36.015796292784842 ], [ -79.151860764926582, 36.015649831685366 ] ] } },
{ "type": "Feature", "properties": { "FEEDER_NAME": "UNION GROVE", "SUBSTATION_NAME": "New Hope", "wmType": "SECONDARY OVERHEAD", "WKT": "LINESTRING (-79.09689307005198 36.00152374867328, -79.09686285695342 36.00151121881767)" }, "geometry": { "type": "LineString", "coordinates": [ [ -79.096893070051976, 36.001523748673279 ], [ -79.096862856953422, 36.001511218817669 ] ] } },
{ "type": "Feature", "properties": { "FEEDER_NAME": "UNION GROVE", "SUBSTATION_NAME": "New Hope", "wmType": "SECONDARY OVERHEAD", "WKT": "LINESTRING (-79.12389170255867 35.986920371076714, -79.12419905560348 35.986975729032295)" }, "geometry": { "type": "LineString", "coordinates": [ [ -79.123891702558666, 35.986920371076714 ], [ -79.124199055603484, 35.986975729032295 ] ] } },
{ "type": "Feature", "properties": { "FEEDER_NAME": "UNION GROVE", "SUBSTATION_NAME": "New Hope", "wmType": "SECONDARY OVERHEAD", "WKT": "LINESTRING (-79.08620882239546 36.00914592291865, -79.08639357480976 36.008990171208445)" }, "geometry": { "type": "LineString", "coordinates": [ [ -79.086208822395463, 36.009145922918648 ], [ -79.086393574809762, 36.008990171208445 ] ] } },
{ "type": "Feature", "properties": { "FEEDER_NAME": "UNION GROVE", "SUBSTATION_NAME": "New Hope", "wmType": "SECONDARY OVERHEAD", "WKT": "LINESTRING (-79.09417764371614 36.0024360473619, -79.09413026437613 36.00217956309529)" }, "geometry": { "type": "LineString", "coordinates": [ [ -79.094177643716137, 36.002436047361897 ], [ -79.094130264376133, 36.002179563095289 ] ] } },
{ "type": "Feature", "properties": { "FEEDER_NAME": "UNION GROVE", "SUBSTATION_NAME": "New Hope", "wmType": "SECONDARY OVERHEAD", "WKT": "LINESTRING (-79.09425565511306 36.00271495141331, -79.09417764371614 36.0024360473619)" }, "geometry": { "type": "LineString", "coordinates": [ [ -79.094255655113059, 36.00271495141331 ], [ -79.094177643716137, 36.002436047361897 ] ] } },
{ "type": "Feature", "properties": { "FEEDER_NAME": "UNION GROVE", "SUBSTATION_NAME": "New Hope", "wmType": "SECONDARY OVERHEAD", "WKT": "LINESTRING (-79.09472745324854 36.002531827602866, -79.09470447143707 36.00228552613916)" }, "geometry": { "type": "LineString", "coordinates": [ [ -79.094727453248538, 36.002531827602866 ], [ -79.094704471437069, 36.002285526139161 ] ] } },
{ "type": "Feature", "properties": { "FEEDER_NAME": "UNION GROVE", "SUBSTATION_NAME": "New Hope", "wmType": "SECONDARY OVERHEAD", "WKT": "LINESTRING (-79.09425565511306 36.00271495141331, -79.09472745324854 36.002531827602866)" }, "geometry": { "type": "LineString", "coordinates": [ [ -79.094255655113059, 36.00271495141331 ], [ -79.094727453248538, 36.002531827602866 ] ] } },
{ "type": "Feature", "properties": { "FEEDER_NAME": "UNION GROVE", "SUBSTATION_NAME": "New Hope", "wmType": "SECONDARY OVERHEAD", "WKT": "LINESTRING (-79.09353534428928 36.00344553736862, -79.09430008973739 36.00363320786896)" }, "geometry": { "type": "LineString", "coordinates": [ [ -79.093535344289279, 36.00344553736862 ], [ -79.094300089737388, 36.003633207868958 ] ] } },
{ "type": "Feature", "properties": { "FEEDER_NAME": "UNION GROVE", "SUBSTATION_NAME": "New Hope", "wmType": "SECONDARY OVERHEAD", "WKT": "LINESTRING (-79.09284840524128 36.00430345477155, -79.09288666798653 36.00447951865886)" }, "geometry": { "type": "LineString", "coordinates": [ [ -79.092848405241284, 36.004303454771552 ], [ -79.092886667986534, 36.004479518658862 ] ] } },
{ "type": "Feature", "properties": { "FEEDER_NAME": "UNION GROVE", "SUBSTATION_NAME": "New Hope", "wmType": "SECONDARY OVERHEAD", "WKT": "LINESTRING (-79.09273252682118 36.003967485944216, -79.09284840524128 36.00430345477155)" }, "geometry": { "type": "LineString", "coordinates": [ [ -79.09273252682118, 36.003967485944216 ], [ -79.092848405241284, 36.004303454771552 ] ] } },
{ "type": "Feature", "properties": { "FEEDER_NAME": "UNION GROVE", "SUBSTATION_NAME": "New Hope", "wmType": "SECONDARY OVERHEAD", "WKT": "LINESTRING (-79.0841916526733 36.00402071473947, -79.08419967395136 36.00402561482826, -79.08441052886039 36.00451845356777)" }, "geometry": { "type": "LineString", "coordinates": [ [ -79.084191652673297, 36.004020714739468 ], [ -79.08419967395136, 36.004025614828258 ], [ -79.084410528860388, 36.004518453567769 ] ] } },
{ "type": "Feature", "properties": { "FEEDER_NAME": "UNION GROVE", "SUBSTATION_NAME": "New Hope", "wmType": "SECONDARY OVERHEAD", "WKT": "LINESTRING (-79.13213245636858 35.98333373322398, -79.13177960184255 35.983482652349345)" }, "geometry": { "type": "LineString", "coordinates": [ [ -79.132132456368581, 35.983333733223979 ], [ -79.131779601842553, 35.983482652349345 ] ] } },
{ "type": "Feature", "properties": { "FEEDER_NAME": "UNION GROVE", "SUBSTATION_NAME": "New Hope", "wmType": "SECONDARY OVERHEAD", "WKT": "LINESTRING (-79.09273252682118 36.003967485944216, -79.09272225976302 36.00395657484054)" }, "geometry": { "type": "LineString", "coordinates": [ [ -79.09273252682118, 36.003967485944216 ], [ -79.092722259763022, 36.003956574840537 ] ] } },
{ "type": "Feature", "properties": { "FEEDER_NAME": "UNION GROVE", "SUBSTATION_NAME": "New Hope", "wmType": "SECONDARY OVERHEAD", "WKT": "LINESTRING (-79.12389170255867 35.986920371076714, -79.1242812797705 35.98660722759205)" }, "geometry": { "type": "LineString", "coordinates": [ [ -79.123891702558666, 35.986920371076714 ], [ -79.1242812797705, 35.986607227592053 ] ] } },
{ "type": "Feature", "properties": { "FEEDER_NAME": "UNION GROVE", "SUBSTATION_NAME": "New Hope", "wmType": "SECONDARY OVERHEAD", "WKT": "LINESTRING (-79.14421177509999 35.9894934938445, -79.1441930564707 35.989407945141146)" }, "geometry": { "type": "LineString", "coordinates": [ [ -79.14421177509999, 35.989493493844499 ], [ -79.144193056470698, 35.989407945141146 ] ] } },
{ "type": "Feature", "properties": { "FEEDER_NAME": "UNION GROVE", "SUBSTATION_NAME": "New Hope", "wmType": "SECONDARY OVERHEAD", "WKT": "LINESTRING (-79.12377239452326 35.98593053437174, -79.12377529817523 35.985931534551284, -79.12396809989 35.98591780183314)" }, "geometry": { "type": "LineString", "coordinates": [ [ -79.123772394523257, 35.985930534371739 ], [ -79.123775298175232, 35.985931534551284 ], [ -79.123968099890007, 35.985917801833139 ] ] } },
{ "type": "Feature", "properties": { "FEEDER_NAME": "UNION GROVE", "SUBSTATION_NAME": "New Hope", "wmType": "SECONDARY OVERHEAD", "WKT": "LINESTRING (-79.1402644347755 36.00294022507024, -79.1402619137339 36.00298495086943)" }, "geometry": { "type": "LineString", "coordinates": [ [ -79.140264434775503, 36.00294022507024 ], [ -79.140261913733895, 36.002984950869433 ] ] } },
{ "type": "Feature", "properties": { "FEEDER_NAME": "UNION GROVE", "SUBSTATION_NAME": "New Hope", "wmType": "SECONDARY OVERHEAD", "WKT": "LINESTRING (-79.13585707279942 35.98972991229748, -79.13564535206649 35.98964002446347)" }, "geometry": { "type": "LineString", "coordinates": [ [ -79.135857072799425, 35.989729912297477 ], [ -79.13564535206649, 35.989640024463469 ] ] } },
{ "type": "Feature", "properties": { "FEEDER_NAME": "UNION GROVE", "SUBSTATION_NAME": "New Hope", "wmType": "SECONDARY OVERHEAD", "WKT": "LINESTRING (-79.09108667974446 36.00404498874549, -79.09123463112294 36.00392930839127)" }, "geometry": { "type": "LineString", "coordinates": [ [ -79.091086679744464, 36.004044988745491 ], [ -79.091234631122944, 36.003929308391271 ] ] } },
{ "type": "Feature", "properties": { "FEEDER_NAME": "UNION GROVE", "SUBSTATION_NAME": "New Hope", "wmType": "SECONDARY OVERHEAD", "WKT": "LINESTRING (-79.09127465224583 36.00438140818764, -79.09108667974446 36.00404498874549)" }, "geometry": { "type": "LineString", "coordinates": [ [ -79.091274652245829, 36.004381408187641 ], [ -79.091086679744464, 36.004044988745491 ] ] } },
{ "type": "Feature", "properties": { "FEEDER_NAME": "UNION GROVE", "SUBSTATION_NAME": "New Hope", "wmType": "SECONDARY OVERHEAD", "WKT": "LINESTRING (-79.13634279648106 35.98670623154082, -79.13648876050557 35.98677148774425)" }, "geometry": { "type": "LineString", "coordinates": [ [ -79.13634279648106, 35.986706231540822 ], [ -79.136488760505571, 35.986771487744249 ] ] } },
{ "type": "Feature", "properties": { "FEEDER_NAME": "UNION GROVE", "SUBSTATION_NAME": "New Hope", "wmType": "SECONDARY OVERHEAD", "WKT": "LINESTRING (-79.13885442947688 36.00621252160784, -79.13878464878746 36.00642185787773)" }, "geometry": { "type": "LineString", "coordinates": [ [ -79.138854429476879, 36.006212521607843 ], [ -79.138784648787464, 36.006421857877733 ] ] } },
{ "type": "Feature", "properties": { "FEEDER_NAME": "UNION GROVE", "SUBSTATION_NAME": "New Hope", "wmType": "SECONDARY OVERHEAD", "WKT": "LINESTRING (-79.0845818945558 36.00408411906833, -79.08460465099704 36.004254517379294)" }, "geometry": { "type": "LineString", "coordinates": [ [ -79.084581894555797, 36.004084119068331 ], [ -79.084604650997036, 36.004254517379294 ] ] } },
{ "type": "Feature", "properties": { "FEEDER_NAME": "UNION GROVE", "SUBSTATION_NAME": "New Hope", "wmType": "SECONDARY OVERHEAD", "WKT": "LINESTRING (-79.13648876050557 35.98677148774425, -79.1364442965238 35.98692085655111)" }, "geometry": { "type": "LineString", "coordinates": [ [ -79.136488760505571, 35.986771487744249 ], [ -79.136444296523806, 35.986920856551109 ] ] } },
{ "type": "Feature", "properties": { "FEEDER_NAME": "UNION GROVE", "SUBSTATION_NAME": "New Hope", "wmType": "SECONDARY OVERHEAD", "WKT": "LINESTRING (-79.08605727212777 36.00794513908276, -79.08602203649095 36.00778573114263)" }, "geometry": { "type": "LineString", "coordinates": [ [ -79.086057272127775, 36.007945139082757 ], [ -79.086022036490945, 36.007785731142633 ] ] } },
{ "type": "Feature", "properties": { "FEEDER_NAME": "UNION GROVE", "SUBSTATION_NAME": "New Hope", "wmType": "SECONDARY OVERHEAD", "WKT": "LINESTRING (-79.08602203649095 36.00778573114263, -79.08619493022215 36.007719998678205)" }, "geometry": { "type": "LineString", "coordinates": [ [ -79.086022036490945, 36.007785731142633 ], [ -79.086194930222149, 36.007719998678205 ] ] } },
{ "type": "Feature", "properties": { "FEEDER_NAME": "UNION GROVE", "SUBSTATION_NAME": "New Hope", "wmType": "SECONDARY OVERHEAD", "WKT": "LINESTRING (-79.0787517211807 36.01214663146645, -79.07865987905392 36.01188359882471)" }, "geometry": { "type": "LineString", "coordinates": [ [ -79.078751721180694, 36.01214663146645 ], [ -79.078659879053916, 36.01188359882471 ] ] } },
{ "type": "Feature", "properties": { "FEEDER_NAME": "UNION GROVE", "SUBSTATION_NAME": "New Hope", "wmType": "SECONDARY OVERHEAD", "WKT": "LINESTRING (-79.07865987905392 36.01188359882471, -79.07854951086019 36.01159299288861)" }, "geometry": { "type": "LineString", "coordinates": [ [ -79.078659879053916, 36.01188359882471 ], [ -79.078549510860185, 36.011592992888609 ] ] } },
{ "type": "Feature", "properties": { "FEEDER_NAME": "UNION GROVE", "SUBSTATION_NAME": "New Hope", "wmType": "SECONDARY OVERHEAD", "WKT": "LINESTRING (-79.07854951086019 36.01159299288861, -79.07857952509667 36.01129001864101)" }, "geometry": { "type": "LineString", "coordinates": [ [ -79.078549510860185, 36.011592992888609 ], [ -79.078579525096671, 36.011290018641013 ] ] } },
{ "type": "Feature", "properties": { "FEEDER_NAME": "UNION GROVE", "SUBSTATION_NAME": "New Hope", "wmType": "SECONDARY OVERHEAD", "WKT": "LINESTRING (-79.08619493022215 36.007719998678205, -79.08610271621633 36.007586945296964)" }, "geometry": { "type": "LineString", "coordinates": [ [ -79.086194930222149, 36.007719998678205 ], [ -79.086102716216331, 36.007586945296964 ] ] } },
{ "type": "Feature", "properties": { "FEEDER_NAME": "UNION GROVE", "SUBSTATION_NAME": "New Hope", "wmType": "SECONDARY OVERHEAD", "WKT": "LINESTRING (-79.12389154128425 35.98736058112469, -79.12392288146383 35.9873213582012, -79.12389170255867 35.986920371076714)" }, "geometry": { "type": "LineString", "coordinates": [ [ -79.123891541284252, 35.98736058112469 ], [ -79.123922881463827, 35.9873213582012 ], [ -79.123891702558666, 35.986920371076714 ] ] } },
{ "type": "Feature", "properties": { "FEEDER_NAME": "UNION GROVE", "SUBSTATION_NAME": "New Hope", "wmType": "SECONDARY OVERHEAD", "WKT": "LINESTRING (-79.12377239452326 35.98593053437174, -79.12377510071235 35.985929320312415, -79.12396809611076 35.985915342250536)" }, "geometry": { "type": "LineString", "coordinates": [ [ -79.123772394523257, 35.985930534371739 ], [ -79.123775100712351, 35.985929320312415 ], [ -79.123968096110758, 35.985915342250536 ] ] } },
{ "type": "Feature", "properties": { "FEEDER_NAME": "UNION GROVE", "SUBSTATION_NAME": "New Hope", "wmType": "SECONDARY OVERHEAD", "WKT": "LINESTRING (-79.12396809989 35.98591780183314, -79.12410621477733 35.98598402174165)" }, "geometry": { "type": "LineString", "coordinates": [ [ -79.123968099890007, 35.985917801833139 ], [ -79.124106214777328, 35.98598402174165 ] ] } },
{ "type": "Feature", "properties": { "FEEDER_NAME": "UNION GROVE", "SUBSTATION_NAME": "New Hope", "wmType": "SECONDARY OVERHEAD", "WKT": "LINESTRING (-79.12396809611076 35.985915342250536, -79.1242383797716 35.98581796218208)" }, "geometry": { "type": "LineString", "coordinates": [ [ -79.123968096110758, 35.985915342250536 ], [ -79.124238379771597, 35.985817962182082 ] ] } },
{ "type": "Feature", "properties": { "FEEDER_NAME": "UNION GROVE", "SUBSTATION_NAME": "New Hope", "wmType": "SECONDARY OVERHEAD", "WKT": "LINESTRING (-79.09755196074252 36.0015233234619, -79.09787880198232 36.001579041831086)" }, "geometry": { "type": "LineString", "coordinates": [ [ -79.097551960742521, 36.001523323461903 ], [ -79.097878801982318, 36.001579041831086 ] ] } },
{ "type": "Feature", "properties": { "FEEDER_NAME": "UNION GROVE", "SUBSTATION_NAME": "New Hope", "wmType": "SECONDARY OVERHEAD", "WKT": "LINESTRING (-79.09787880198232 36.001579041831086, -79.09786367300188 36.00166041084876)" }, "geometry": { "type": "LineString", "coordinates": [ [ -79.097878801982318, 36.001579041831086 ], [ -79.097863673001882, 36.001660410848757 ] ] } },
{ "type": "Feature", "properties": { "FEEDER_NAME": "UNION GROVE", "SUBSTATION_NAME": "New Hope", "wmType": "SECONDARY OVERHEAD", "WKT": "LINESTRING (-79.09755196074252 36.0015233234619, -79.09731457350162 36.001523413646474)" }, "geometry": { "type": "LineString", "coordinates": [ [ -79.097551960742521, 36.001523323461903 ], [ -79.09731457350162, 36.001523413646474 ] ] } },
{ "type": "Feature", "properties": { "FEEDER_NAME": "UNION GROVE", "SUBSTATION_NAME": "New Hope", "wmType": "SECONDARY OVERHEAD", "WKT": "LINESTRING (-79.09731457350162 36.001523413646474, -79.09710890306366 36.0015320510598)" }, "geometry": { "type": "LineString", "coordinates": [ [ -79.09731457350162, 36.001523413646474 ], [ -79.097108903063656, 36.001532051059797 ] ] } },
{ "type": "Feature", "properties": { "FEEDER_NAME": "UNION GROVE", "SUBSTATION_NAME": "New Hope", "wmType": "SECONDARY OVERHEAD", "WKT": "LINESTRING (-79.09710890306366 36.0015320510598, -79.09689307005198 36.00152374867328)" }, "geometry": { "type": "LineString", "coordinates": [ [ -79.097108903063656, 36.001532051059797 ], [ -79.096893070051976, 36.001523748673279 ] ] } },
{ "type": "Feature", "properties": { "FEEDER_NAME": "UNION GROVE", "SUBSTATION_NAME": "New Hope", "wmType": "SECONDARY OVERHEAD", "WKT": "LINESTRING (-79.09689307005198 36.00152374867328, -79.09663240385186 36.00152395513283)" }, "geometry": { "type": "LineString", "coordinates": [ [ -79.096893070051976, 36.001523748673279 ], [ -79.096632403851856, 36.001523955132832 ] ] } },
{ "type": "Feature", "properties": { "FEEDER_NAME": "UNION GROVE", "SUBSTATION_NAME": "New Hope", "wmType": "SECONDARY OVERHEAD", "WKT": "LINESTRING (-79.09663240385186 36.00152395513283, -79.09647935564533 36.0015235803954)" }, "geometry": { "type": "LineString", "coordinates": [ [ -79.096632403851856, 36.001523955132832 ], [ -79.096479355645329, 36.0015235803954 ] ] } },
{ "type": "Feature", "properties": { "FEEDER_NAME": "UNION GROVE", "SUBSTATION_NAME": "New Hope", "wmType": "SECONDARY OVERHEAD", "WKT": "LINESTRING (-79.09647935564533 36.0015235803954, -79.09650323764788 36.00132014178701)" }, "geometry": { "type": "LineString", "coordinates": [ [ -79.096479355645329, 36.0015235803954 ], [ -79.09650323764788, 36.001320141787012 ] ] } },
{ "type": "Feature", "properties": { "FEEDER_NAME": "UNION GROVE", "SUBSTATION_NAME": "New Hope", "wmType": "SECONDARY OVERHEAD", "WKT": "LINESTRING (-79.09054266295983 36.003078515041594, -79.0905774026809 36.003250467140475)" }, "geometry": { "type": "LineString", "coordinates": [ [ -79.090542662959834, 36.003078515041594 ], [ -79.090577402680907, 36.003250467140475 ] ] } },
{ "type": "Feature", "properties": { "FEEDER_NAME": "UNION GROVE", "SUBSTATION_NAME": "New Hope", "wmType": "SECONDARY OVERHEAD", "WKT": "LINESTRING (-79.08465518857615 36.00257536677503, -79.08455584516399 36.002271681899124)" }, "geometry": { "type": "LineString", "coordinates": [ [ -79.08465518857615, 36.002575366775027 ], [ -79.08455584516399, 36.002271681899124 ] ] } },
{ "type": "Feature", "properties": { "FEEDER_NAME": "UNION GROVE", "SUBSTATION_NAME": "New Hope", "wmType": "SECONDARY OVERHEAD", "WKT": "LINESTRING (-79.08455584516399 36.002271681899124, -79.08448407357805 36.002079653489375)" }, "geometry": { "type": "LineString", "coordinates": [ [ -79.08455584516399, 36.002271681899124 ], [ -79.084484073578054, 36.002079653489375 ] ] } },
{ "type": "Feature", "properties": { "FEEDER_NAME": "UNION GROVE", "SUBSTATION_NAME": "New Hope", "wmType": "SECONDARY OVERHEAD", "WKT": "LINESTRING (-79.12556844078536 35.98177887970245, -79.1255888991225 35.98169649978863)" }, "geometry": { "type": "LineString", "coordinates": [ [ -79.125568440785358, 35.981778879702453 ], [ -79.125588899122505, 35.981696499788633 ] ] } },
{ "type": "Feature", "properties": { "FEEDER_NAME": "UNION GROVE", "SUBSTATION_NAME": "New Hope", "wmType": "SECONDARY OVERHEAD", "WKT": "LINESTRING (-79.09768380011158 36.0009086687679, -79.09802273287575 36.00098604727773)" }, "geometry": { "type": "LineString", "coordinates": [ [ -79.097683800111582, 36.000908668767899 ], [ -79.098022732875748, 36.000986047277728 ] ] } },
{ "type": "Feature", "properties": { "FEEDER_NAME": "UNION GROVE", "SUBSTATION_NAME": "New Hope", "wmType": "SECONDARY OVERHEAD", "WKT": "LINESTRING (-79.1251750356307 35.994599887851166, -79.12528865942402 35.99407276907293)" }, "geometry": { "type": "LineString", "coordinates": [ [ -79.125175035630704, 35.994599887851166 ], [ -79.125288659424015, 35.994072769072929 ] ] } },
{ "type": "Feature", "properties": { "FEEDER_NAME": "UNION GROVE", "SUBSTATION_NAME": "New Hope", "wmType": "SECONDARY OVERHEAD", "WKT": "LINESTRING (-79.11678345803446 35.989309094240355, -79.11655725474748 35.98891262973625)" }, "geometry": { "type": "LineString", "coordinates": [ [ -79.116783458034462, 35.989309094240355 ], [ -79.116557254747477, 35.988912629736248 ] ] } },
{ "type": "Feature", "properties": { "FEEDER_NAME": "UNION GROVE", "SUBSTATION_NAME": "New Hope", "wmType": "SECONDARY OVERHEAD", "WKT": "LINESTRING (-79.1186632228952 36.006357395608596, -79.11890534184239 36.00671464452085)" }, "geometry": { "type": "LineString", "coordinates": [ [ -79.118663222895194, 36.006357395608596 ], [ -79.118905341842392, 36.006714644520848 ] ] } },
{ "type": "Feature", "properties": { "FEEDER_NAME": "UNION GROVE", "SUBSTATION_NAME": "New Hope", "wmType": "SECONDARY OVERHEAD", "WKT": "LINESTRING (-79.11750671898336 36.001614195409054, -79.1176324536575 36.001757094541055)" }, "geometry": { "type": "LineString", "coordinates": [ [ -79.117506718983364, 36.001614195409054 ], [ -79.117632453657507, 36.001757094541055 ] ] } },
{ "type": "Feature", "properties": { "FEEDER_NAME": "UNION GROVE", "SUBSTATION_NAME": "New Hope", "wmType": "SECONDARY OVERHEAD", "WKT": "LINESTRING (-79.1176324536575 36.001757094541055, -79.11783284753679 36.001954369182116)" }, "geometry": { "type": "LineString", "coordinates": [ [ -79.117632453657507, 36.001757094541055 ], [ -79.117832847536789, 36.001954369182116 ] ] } },
{ "type": "Feature", "properties": { "FEEDER_NAME": "UNION GROVE", "SUBSTATION_NAME": "New Hope", "wmType": "SECONDARY OVERHEAD", "WKT": "LINESTRING (-79.12161657113319 35.982732370483426, -79.12141996843202 35.98275700606034)" }, "geometry": { "type": "LineString", "coordinates": [ [ -79.121616571133188, 35.982732370483426 ], [ -79.121419968432022, 35.982757006060339 ] ] } },
{ "type": "Feature", "properties": { "FEEDER_NAME": "UNION GROVE", "SUBSTATION_NAME": "New Hope", "wmType": "SECONDARY OVERHEAD", "WKT": "LINESTRING (-79.12136472678151 35.99808450831144, -79.1212667264557 35.9981295088663)" }, "geometry": { "type": "LineString", "coordinates": [ [ -79.121364726781508, 35.998084508311443 ], [ -79.121266726455701, 35.998129508866299 ] ] } },
{ "type": "Feature", "properties": { "FEEDER_NAME": "UNION GROVE", "SUBSTATION_NAME": "New Hope", "wmType": "SECONDARY OVERHEAD", "WKT": "LINESTRING (-79.12321463364255 35.980584863950575, -79.12324398289294 35.980709436215456)" }, "geometry": { "type": "LineString", "coordinates": [ [ -79.123214633642547, 35.980584863950575 ], [ -79.123243982892944, 35.980709436215456 ] ] } },
{ "type": "Feature", "properties": { "FEEDER_NAME": "UNION GROVE", "SUBSTATION_NAME": "New Hope", "wmType": "SECONDARY OVERHEAD", "WKT": "LINESTRING (-79.12730575627478 35.99293158566962, -79.1271358813751 35.993155163445316)" }, "geometry": { "type": "LineString", "coordinates": [ [ -79.127305756274779, 35.992931585669623 ], [ -79.127135881375096, 35.993155163445316 ] ] } },
{ "type": "Feature", "properties": { "FEEDER_NAME": "UNION GROVE", "SUBSTATION_NAME": "New Hope", "wmType": "SECONDARY OVERHEAD", "WKT": "LINESTRING (-79.1308966296143 35.98057839204076, -79.13128013106252 35.98044780231417)" }, "geometry": { "type": "LineString", "coordinates": [ [ -79.130896629614298, 35.980578392040762 ], [ -79.131280131062525, 35.980447802314167 ] ] } },
{ "type": "Feature", "properties": { "FEEDER_NAME": "UNION GROVE", "SUBSTATION_NAME": "New Hope", "wmType": "SECONDARY OVERHEAD", "WKT": "LINESTRING (-79.13128013106252 35.98044780231417, -79.13129622535915 35.98049352855629)" }, "geometry": { "type": "LineString", "coordinates": [ [ -79.131280131062525, 35.980447802314167 ], [ -79.131296225359151, 35.980493528556288 ] ] } },
{ "type": "Feature", "properties": { "FEEDER_NAME": "UNION GROVE", "SUBSTATION_NAME": "New Hope", "wmType": "SECONDARY OVERHEAD", "WKT": "LINESTRING (-79.12313620886603 35.977021171790945, -79.12339690134498 35.97715080844936)" }, "geometry": { "type": "LineString", "coordinates": [ [ -79.123136208866029, 35.977021171790945 ], [ -79.123396901344975, 35.977150808449359 ] ] } },
{ "type": "Feature", "properties": { "FEEDER_NAME": "UNION GROVE", "SUBSTATION_NAME": "New Hope", "wmType": "SECONDARY OVERHEAD", "WKT": "LINESTRING (-79.12397479103207 35.9770799512473, -79.12423053301792 35.977132523544824)" }, "geometry": { "type": "LineString", "coordinates": [ [ -79.123974791032069, 35.977079951247298 ], [ -79.124230533017922, 35.977132523544824 ] ] } },
{ "type": "Feature", "properties": { "FEEDER_NAME": "UNION GROVE", "SUBSTATION_NAME": "New Hope", "wmType": "SECONDARY OVERHEAD", "WKT": "LINESTRING (-79.12467275461997 35.98448701539421, -79.12492305526425 35.98469971001829)" }, "geometry": { "type": "LineString", "coordinates": [ [ -79.124672754619965, 35.984487015394208 ], [ -79.124923055264247, 35.98469971001829 ] ] } },
{ "type": "Feature", "properties": { "FEEDER_NAME": "UNION GROVE", "SUBSTATION_NAME": "New Hope", "wmType": "SECONDARY OVERHEAD", "WKT": "LINESTRING (-79.12492305526425 35.98469971001829, -79.12502524641532 35.984681690754655)" }, "geometry": { "type": "LineString", "coordinates": [ [ -79.124923055264247, 35.98469971001829 ], [ -79.125025246415319, 35.984681690754655 ] ] } },
{ "type": "Feature", "properties": { "FEEDER_NAME": "UNION GROVE", "SUBSTATION_NAME": "New Hope", "wmType": "SECONDARY OVERHEAD", "WKT": "LINESTRING (-79.12365421326975 35.984460588854596, -79.12356322976174 35.98406498017427)" }, "geometry": { "type": "LineString", "coordinates": [ [ -79.123654213269745, 35.984460588854596 ], [ -79.123563229761743, 35.984064980174267 ] ] } },
{ "type": "Feature", "properties": { "FEEDER_NAME": "UNION GROVE", "SUBSTATION_NAME": "New Hope", "wmType": "SECONDARY OVERHEAD", "WKT": "LINESTRING (-79.14031176302298 36.01225653886635, -79.1402502674762 36.01242442113026)" }, "geometry": { "type": "LineString", "coordinates": [ [ -79.140311763022979, 36.012256538866353 ], [ -79.140250267476205, 36.012424421130262 ] ] } },
{ "type": "Feature", "properties": { "FEEDER_NAME": "UNION GROVE", "SUBSTATION_NAME": "New Hope", "wmType": "SECONDARY OVERHEAD", "WKT": "LINESTRING (-79.14031189729354 36.01198492795168, -79.14031176302298 36.01225653886635)" }, "geometry": { "type": "LineString", "coordinates": [ [ -79.140311897293543, 36.01198492795168 ], [ -79.140311763022979, 36.012256538866353 ] ] } },
{ "type": "Feature", "properties": { "FEEDER_NAME": "UNION GROVE", "SUBSTATION_NAME": "New Hope", "wmType": "SECONDARY OVERHEAD", "WKT": "LINESTRING (-79.13143550249978 35.990468947613515, -79.1314660080481 35.99051998288776)" }, "geometry": { "type": "LineString", "coordinates": [ [ -79.131435502499784, 35.990468947613515 ], [ -79.131466008048093, 35.990519982887761 ] ] } },
{ "type": "Feature", "properties": { "FEEDER_NAME": "UNION GROVE", "SUBSTATION_NAME": "New Hope", "wmType": "SECONDARY OVERHEAD", "WKT": "LINESTRING (-79.13657086680392 35.99085548890528, -79.13656066999542 35.99104649329271)" }, "geometry": { "type": "LineString", "coordinates": [ [ -79.136570866803922, 35.990855488905282 ], [ -79.136560669995418, 35.991046493292707 ] ] } },
{ "type": "Feature", "properties": { "FEEDER_NAME": "UNION GROVE", "SUBSTATION_NAME": "New Hope", "wmType": "SECONDARY OVERHEAD", "WKT": "LINESTRING (-79.13656066999542 35.99104649329271, -79.1364733495986 35.99114310851592)" }, "geometry": { "type": "LineString", "coordinates": [ [ -79.136560669995418, 35.991046493292707 ], [ -79.136473349598603, 35.991143108515921 ] ] } },
{ "type": "Feature", "properties": { "FEEDER_NAME": "UNION GROVE", "SUBSTATION_NAME": "New Hope", "wmType": "SECONDARY OVERHEAD", "WKT": "LINESTRING (-79.14221810302979 35.99412019132953, -79.14199467989143 35.99410790098817)" }, "geometry": { "type": "LineString", "coordinates": [ [ -79.142218103029791, 35.994120191329529 ], [ -79.141994679891425, 35.994107900988169 ] ] } },
{ "type": "Feature", "properties": { "FEEDER_NAME": "UNION GROVE", "SUBSTATION_NAME": "New Hope", "wmType": "SECONDARY OVERHEAD", "WKT": "LINESTRING (-79.14221810302979 35.99412019132953, -79.14214666673799 35.99429800046912)" }, "geometry": { "type": "LineString", "coordinates": [ [ -79.142218103029791, 35.994120191329529 ], [ -79.142146666737986, 35.994298000469122 ] ] } },
{ "type": "Feature", "properties": { "FEEDER_NAME": "UNION GROVE", "SUBSTATION_NAME": "New Hope", "wmType": "SECONDARY OVERHEAD", "WKT": "LINESTRING (-79.12293056515783 35.98444061966849, -79.12280654063788 35.98469645593175)" }, "geometry": { "type": "LineString", "coordinates": [ [ -79.12293056515783, 35.98444061966849 ], [ -79.122806540637882, 35.984696455931747 ] ] } },
{ "type": "Feature", "properties": { "FEEDER_NAME": "UNION GROVE", "SUBSTATION_NAME": "New Hope", "wmType": "SECONDARY OVERHEAD", "WKT": "LINESTRING (-79.12280654063788 35.98469645593175, -79.12270066262461 35.98491045001419)" }, "geometry": { "type": "LineString", "coordinates": [ [ -79.122806540637882, 35.984696455931747 ], [ -79.122700662624609, 35.984910450014191 ] ] } },
{ "type": "Feature", "properties": { "FEEDER_NAME": "UNION GROVE", "SUBSTATION_NAME": "New Hope", "wmType": "SECONDARY OVERHEAD", "WKT": "LINESTRING (-79.12599043801981 35.99188962228494, -79.12592927268932 35.99176664773267)" }, "geometry": { "type": "LineString", "coordinates": [ [ -79.125990438019812, 35.991889622284937 ], [ -79.125929272689319, 35.991766647732668 ] ] } },
{ "type": "Feature", "properties": { "FEEDER_NAME": "UNION GROVE", "SUBSTATION_NAME": "New Hope", "wmType": "SECONDARY OVERHEAD", "WKT": "LINESTRING (-79.12506815780552 35.99190775287317, -79.12461288982826 35.99195161727367)" }, "geometry": { "type": "LineString", "coordinates": [ [ -79.125068157805515, 35.991907752873168 ], [ -79.124612889828256, 35.991951617273671 ] ] } },
{ "type": "Feature", "properties": { "FEEDER_NAME": "UNION GROVE", "SUBSTATION_NAME": "New Hope", "wmType": "SECONDARY OVERHEAD", "WKT": "LINESTRING (-79.13419875440594 35.98727259377289, -79.13442176955445 35.98695891856629)" }, "geometry": { "type": "LineString", "coordinates": [ [ -79.134198754405944, 35.987272593772893 ], [ -79.13442176955445, 35.986958918566287 ] ] } },
{ "type": "Feature", "properties": { "FEEDER_NAME": "UNION GROVE", "SUBSTATION_NAME": "New Hope", "wmType": "SECONDARY OVERHEAD", "WKT": "LINESTRING (-79.14785418547928 35.99302857253592, -79.14783250585452 35.993422569628926)" }, "geometry": { "type": "LineString", "coordinates": [ [ -79.147854185479275, 35.99302857253592 ], [ -79.147832505854524, 35.993422569628926 ] ] } },
{ "type": "Feature", "properties": { "FEEDER_NAME": "UNION GROVE", "SUBSTATION_NAME": "New Hope", "wmType": "SECONDARY OVERHEAD", "WKT": "LINESTRING (-79.14783250585452 35.993422569628926, -79.14769057641641 35.99347242590696)" }, "geometry": { "type": "LineString", "coordinates": [ [ -79.147832505854524, 35.993422569628926 ], [ -79.147690576416409, 35.993472425906958 ] ] } },
{ "type": "Feature", "properties": { "FEEDER_NAME": "UNION GROVE", "SUBSTATION_NAME": "New Hope", "wmType": "SECONDARY OVERHEAD", "WKT": "LINESTRING (-79.13395449243048 35.98361654172996, -79.13405665307383 35.98350343996381)" }, "geometry": { "type": "LineString", "coordinates": [ [ -79.133954492430476, 35.983616541729958 ], [ -79.134056653073827, 35.983503439963812 ] ] } },
{ "type": "Feature", "properties": { "FEEDER_NAME": "UNION GROVE", "SUBSTATION_NAME": "New Hope", "wmType": "SECONDARY OVERHEAD", "WKT": "LINESTRING (-79.1412735923753 36.005503325962486, -79.1413655274763 36.00521968611482)" }, "geometry": { "type": "LineString", "coordinates": [ [ -79.141273592375299, 36.005503325962486 ], [ -79.141365527476296, 36.00521968611482 ] ] } },
{ "type": "Feature", "properties": { "FEEDER_NAME": "UNION GROVE", "SUBSTATION_NAME": "New Hope", "wmType": "SECONDARY OVERHEAD", "WKT": "LINESTRING (-79.14396534444508 35.990708908711156, -79.14431095985667 35.990498113289604)" }, "geometry": { "type": "LineString", "coordinates": [ [ -79.143965344445078, 35.990708908711156 ], [ -79.144310959856668, 35.990498113289604 ] ] } },
{ "type": "Feature", "properties": { "FEEDER_NAME": "UNION GROVE", "SUBSTATION_NAME": "New Hope", "wmType": "SECONDARY OVERHEAD", "WKT": "LINESTRING (-79.12450446692789 36.00480125034503, -79.12444154291794 36.00476473457281)" }, "geometry": { "type": "LineString", "coordinates": [ [ -79.124504466927888, 36.004801250345032 ], [ -79.124441542917936, 36.004764734572809 ] ] } },
{ "type": "Feature", "properties": { "FEEDER_NAME": "UNION GROVE", "SUBSTATION_NAME": "New Hope", "wmType": "SECONDARY OVERHEAD", "WKT": "LINESTRING (-79.12118367874673 35.99701586700539, -79.12084272669196 35.99676850591696)" }, "geometry": { "type": "LineString", "coordinates": [ [ -79.121183678746732, 35.997015867005388 ], [ -79.120842726691961, 35.996768505916961 ] ] } },
{ "type": "Feature", "properties": { "FEEDER_NAME": "UNION GROVE", "SUBSTATION_NAME": "New Hope", "wmType": "SECONDARY OVERHEAD", "WKT": "LINESTRING (-79.12446387626174 36.00228798759965, -79.12456883661203 36.00230189629993)" }, "geometry": { "type": "LineString", "coordinates": [ [ -79.124463876261743, 36.002287987599651 ], [ -79.124568836612028, 36.002301896299933 ] ] } },
{ "type": "Feature", "properties": { "FEEDER_NAME": "UNION GROVE", "SUBSTATION_NAME": "New Hope", "wmType": "SECONDARY OVERHEAD", "WKT": "LINESTRING (-79.13752077121949 36.005254280420836, -79.13734522614729 36.005758633434674)" }, "geometry": { "type": "LineString", "coordinates": [ [ -79.137520771219485, 36.005254280420836 ], [ -79.137345226147289, 36.005758633434674 ] ] } },
{ "type": "Feature", "properties": { "FEEDER_NAME": "UNION GROVE", "SUBSTATION_NAME": "New Hope", "wmType": "SECONDARY OVERHEAD", "WKT": "LINESTRING (-79.13734522614729 36.005758633434674, -79.13712275789358 36.00599052609909)" }, "geometry": { "type": "LineString", "coordinates": [ [ -79.137345226147289, 36.005758633434674 ], [ -79.137122757893579, 36.00599052609909 ] ] } },
{ "type": "Feature", "properties": { "FEEDER_NAME": "UNION GROVE", "SUBSTATION_NAME": "New Hope", "wmType": "SECONDARY OVERHEAD", "WKT": "LINESTRING (-79.13712275789358 36.00599052609909, -79.13719396905722 36.00609882574326)" }, "geometry": { "type": "LineString", "coordinates": [ [ -79.137122757893579, 36.00599052609909 ], [ -79.137193969057222, 36.006098825743258 ] ] } },
{ "type": "Feature", "properties": { "FEEDER_NAME": "UNION GROVE", "SUBSTATION_NAME": "New Hope", "wmType": "SECONDARY OVERHEAD", "WKT": "LINESTRING (-79.14006135693947 36.00533000583373, -79.13986678879131 36.00514920847488)" }, "geometry": { "type": "LineString", "coordinates": [ [ -79.140061356939469, 36.005330005833727 ], [ -79.139866788791309, 36.005149208474883 ] ] } },
{ "type": "Feature", "properties": { "FEEDER_NAME": "UNION GROVE", "SUBSTATION_NAME": "New Hope", "wmType": "SECONDARY OVERHEAD", "WKT": "LINESTRING (-79.14006135693947 36.00533000583373, -79.13989000128457 36.0057133071348)" }, "geometry": { "type": "LineString", "coordinates": [ [ -79.140061356939469, 36.005330005833727 ], [ -79.13989000128457, 36.005713307134798 ] ] } },
{ "type": "Feature", "properties": { "FEEDER_NAME": "UNION GROVE", "SUBSTATION_NAME": "New Hope", "wmType": "SECONDARY OVERHEAD", "WKT": "LINESTRING (-79.13774173209084 36.006214879789184, -79.13756720115212 36.00610912577243)" }, "geometry": { "type": "LineString", "coordinates": [ [ -79.137741732090845, 36.006214879789184 ], [ -79.137567201152123, 36.006109125772433 ] ] } },
{ "type": "Feature", "properties": { "FEEDER_NAME": "UNION GROVE", "SUBSTATION_NAME": "New Hope", "wmType": "SECONDARY OVERHEAD", "WKT": "LINESTRING (-79.13792964265433 36.00602009970302, -79.13774173209084 36.006214879789184)" }, "geometry": { "type": "LineString", "coordinates": [ [ -79.137929642654328, 36.006020099703022 ], [ -79.137741732090845, 36.006214879789184 ] ] } },
{ "type": "Feature", "properties": { "FEEDER_NAME": "UNION GROVE", "SUBSTATION_NAME": "New Hope", "wmType": "SECONDARY OVERHEAD", "WKT": "LINESTRING (-79.13821237826244 36.00596948387426, -79.13792964265433 36.00602009970302)" }, "geometry": { "type": "LineString", "coordinates": [ [ -79.138212378262438, 36.00596948387426 ], [ -79.137929642654328, 36.006020099703022 ] ] } },
{ "type": "Feature", "properties": { "FEEDER_NAME": "UNION GROVE", "SUBSTATION_NAME": "New Hope", "wmType": "SECONDARY OVERHEAD", "WKT": "LINESTRING (-79.13821237826244 36.00596948387426, -79.13832144957478 36.00591333294883)" }, "geometry": { "type": "LineString", "coordinates": [ [ -79.138212378262438, 36.00596948387426 ], [ -79.138321449574775, 36.005913332948829 ] ] } },
{ "type": "Feature", "properties": { "FEEDER_NAME": "UNION GROVE", "SUBSTATION_NAME": "New Hope", "wmType": "SECONDARY OVERHEAD", "WKT": "LINESTRING (-79.1363127601095 35.98753048944599, -79.13645188146468 35.987152757545196)" }, "geometry": { "type": "LineString", "coordinates": [ [ -79.136312760109504, 35.987530489445987 ], [ -79.13645188146468, 35.987152757545196 ] ] } },
{ "type": "Feature", "properties": { "FEEDER_NAME": "UNION GROVE", "SUBSTATION_NAME": "New Hope", "wmType": "SECONDARY OVERHEAD", "WKT": "LINESTRING (-79.13726573489528 35.98787848954637, -79.13734845885513 35.98820937700176)" }, "geometry": { "type": "LineString", "coordinates": [ [ -79.13726573489528, 35.987878489546368 ], [ -79.137348458855129, 35.988209377001759 ] ] } },
{ "type": "Feature", "properties": { "FEEDER_NAME": "UNION GROVE", "SUBSTATION_NAME": "New Hope", "wmType": "SECONDARY OVERHEAD", "WKT": "LINESTRING (-79.13734845885513 35.98820937700176, -79.1373678754288 35.98818755868637)" }, "geometry": { "type": "LineString", "coordinates": [ [ -79.137348458855129, 35.988209377001759 ], [ -79.137367875428794, 35.98818755868637 ] ] } },
{ "type": "Feature", "properties": { "FEEDER_NAME": "UNION GROVE", "SUBSTATION_NAME": "New Hope", "wmType": "SECONDARY OVERHEAD", "WKT": "LINESTRING (-79.13726876210715 35.98708248806732, -79.1374658971413 35.987301823816715)" }, "geometry": { "type": "LineString", "coordinates": [ [ -79.137268762107155, 35.987082488067323 ], [ -79.137465897141297, 35.987301823816715 ] ] } },
{ "type": "Feature", "properties": { "FEEDER_NAME": "UNION GROVE", "SUBSTATION_NAME": "New Hope", "wmType": "SECONDARY OVERHEAD", "WKT": "LINESTRING (-79.1374658971413 35.987301823816715, -79.13767282554234 35.987499764490586)" }, "geometry": { "type": "LineString", "coordinates": [ [ -79.137465897141297, 35.987301823816715 ], [ -79.137672825542339, 35.987499764490586 ] ] } },
{ "type": "Feature", "properties": { "FEEDER_NAME": "UNION GROVE", "SUBSTATION_NAME": "New Hope", "wmType": "SECONDARY OVERHEAD", "WKT": "LINESTRING (-79.14149612899257 35.9850713586664, -79.14149880563767 35.9852064841825)" }, "geometry": { "type": "LineString", "coordinates": [ [ -79.141496128992571, 35.985071358666403 ], [ -79.141498805637667, 35.985206484182498 ] ] } },
{ "type": "Feature", "properties": { "FEEDER_NAME": "UNION GROVE", "SUBSTATION_NAME": "New Hope", "wmType": "SECONDARY OVERHEAD", "WKT": "LINESTRING (-79.14149612899257 35.9850713586664, -79.14161876009825 35.98538623393732)" }, "geometry": { "type": "LineString", "coordinates": [ [ -79.141496128992571, 35.985071358666403 ], [ -79.141618760098254, 35.985386233937319 ] ] } },
{ "type": "Feature", "properties": { "FEEDER_NAME": "UNION GROVE", "SUBSTATION_NAME": "New Hope", "wmType": "SECONDARY OVERHEAD", "WKT": "LINESTRING (-79.14161876009825 35.98538623393732, -79.14150803762527 35.98554415349773)" }, "geometry": { "type": "LineString", "coordinates": [ [ -79.141618760098254, 35.985386233937319 ], [ -79.141508037625272, 35.985544153497727 ] ] } },
{ "type": "Feature", "properties": { "FEEDER_NAME": "UNION GROVE", "SUBSTATION_NAME": "New Hope", "wmType": "SECONDARY OVERHEAD", "WKT": "LINESTRING (-79.13603030223238 35.98667689728824, -79.13634279648106 35.98670623154082)" }, "geometry": { "type": "LineString", "coordinates": [ [ -79.136030302232385, 35.986676897288241 ], [ -79.13634279648106, 35.986706231540822 ] ] } },
{ "type": "Feature", "properties": { "FEEDER_NAME": "UNION GROVE", "SUBSTATION_NAME": "New Hope", "wmType": "SECONDARY OVERHEAD", "WKT": "LINESTRING (-79.13621365561482 35.984421544405635, -79.13599574778922 35.984407605612006)" }, "geometry": { "type": "LineString", "coordinates": [ [ -79.136213655614824, 35.984421544405635 ], [ -79.135995747789224, 35.984407605612006 ] ] } },
{ "type": "Feature", "properties": { "FEEDER_NAME": "UNION GROVE", "SUBSTATION_NAME": "New Hope", "wmType": "SECONDARY OVERHEAD", "WKT": "LINESTRING (-79.13599574778922 35.984407605612006, -79.13577975921785 35.98413448280043)" }, "geometry": { "type": "LineString", "coordinates": [ [ -79.135995747789224, 35.984407605612006 ], [ -79.135779759217854, 35.984134482800428 ] ] } },
{ "type": "Feature", "properties": { "FEEDER_NAME": "UNION GROVE", "SUBSTATION_NAME": "New Hope", "wmType": "SECONDARY OVERHEAD", "WKT": "LINESTRING (-79.13599574778922 35.984407605612006, -79.13578795411324 35.984395374824715)" }, "geometry": { "type": "LineString", "coordinates": [ [ -79.135995747789224, 35.984407605612006 ], [ -79.135787954113241, 35.984395374824715 ] ] } },
{ "type": "Feature", "properties": { "FEEDER_NAME": "UNION GROVE", "SUBSTATION_NAME": "New Hope", "wmType": "SECONDARY OVERHEAD", "WKT": "LINESTRING (-79.13638511393033 35.98323568613686, -79.13655358392646 35.98333839958653)" }, "geometry": { "type": "LineString", "coordinates": [ [ -79.136385113930331, 35.983235686136858 ], [ -79.136553583926457, 35.983338399586529 ] ] } },
{ "type": "Feature", "properties": { "FEEDER_NAME": "UNION GROVE", "SUBSTATION_NAME": "New Hope", "wmType": "SECONDARY OVERHEAD", "WKT": "LINESTRING (-79.13638511393033 35.98323568613686, -79.13647693978652 35.98322926650444)" }, "geometry": { "type": "LineString", "coordinates": [ [ -79.136385113930331, 35.983235686136858 ], [ -79.136476939786519, 35.983229266504438 ] ] } },
{ "type": "Feature", "properties": { "FEEDER_NAME": "UNION GROVE", "SUBSTATION_NAME": "New Hope", "wmType": "SECONDARY OVERHEAD", "WKT": "LINESTRING (-79.13638511393033 35.98323568613686, -79.13654685077151 35.98301546634889)" }, "geometry": { "type": "LineString", "coordinates": [ [ -79.136385113930331, 35.983235686136858 ], [ -79.136546850771509, 35.983015466348888 ] ] } },
{ "type": "Feature", "properties": { "FEEDER_NAME": "UNION GROVE", "SUBSTATION_NAME": "New Hope", "wmType": "SECONDARY OVERHEAD", "WKT": "LINESTRING (-79.13654685077151 35.98301546634889, -79.13654566383047 35.98286451970774)" }, "geometry": { "type": "LineString", "coordinates": [ [ -79.136546850771509, 35.983015466348888 ], [ -79.136545663830475, 35.982864519707739 ] ] } },
{ "type": "Feature", "properties": { "FEEDER_NAME": "UNION GROVE", "SUBSTATION_NAME": "New Hope", "wmType": "SECONDARY OVERHEAD", "WKT": "LINESTRING (-79.15098240083358 36.014991814302185, -79.1509291698379 36.01470192605837)" }, "geometry": { "type": "LineString", "coordinates": [ [ -79.150982400833584, 36.014991814302185 ], [ -79.150929169837895, 36.014701926058372 ] ] } },
{ "type": "Feature", "properties": { "FEEDER_NAME": "UNION GROVE", "SUBSTATION_NAME": "New Hope", "wmType": "SECONDARY OVERHEAD", "WKT": "LINESTRING (-79.13654685077151 35.98301546634889, -79.1369733884516 35.98286161273743)" }, "geometry": { "type": "LineString", "coordinates": [ [ -79.136546850771509, 35.983015466348888 ], [ -79.136973388451594, 35.98286161273743 ] ] } },
{ "type": "Feature", "properties": { "FEEDER_NAME": "UNION GROVE", "SUBSTATION_NAME": "New Hope", "wmType": "SECONDARY OVERHEAD", "WKT": "LINESTRING (-79.1369733884516 35.98286161273743, -79.13710482886525 35.982488724268194)" }, "geometry": { "type": "LineString", "coordinates": [ [ -79.136973388451594, 35.98286161273743 ], [ -79.137104828865247, 35.982488724268194 ] ] } },
{ "type": "Feature", "properties": { "FEEDER_NAME": "UNION GROVE", "SUBSTATION_NAME": "New Hope", "wmType": "SECONDARY OVERHEAD", "WKT": "LINESTRING (-79.1369733884516 35.98286161273743, -79.1366861131367 35.98261755371402)" }, "geometry": { "type": "LineString", "coordinates": [ [ -79.136973388451594, 35.98286161273743 ], [ -79.136686113136705, 35.982617553714022 ] ] } },
{ "type": "Feature", "properties": { "FEEDER_NAME": "UNION GROVE", "SUBSTATION_NAME": "New Hope", "wmType": "SECONDARY OVERHEAD", "WKT": "LINESTRING (-79.1366861131367 35.98261755371402, -79.13663263050636 35.98253817663707)" }, "geometry": { "type": "LineString", "coordinates": [ [ -79.136686113136705, 35.982617553714022 ], [ -79.136632630506355, 35.982538176637071 ] ] } },
{ "type": "Feature", "properties": { "FEEDER_NAME": "UNION GROVE", "SUBSTATION_NAME": "New Hope", "wmType": "SECONDARY OVERHEAD", "WKT": "LINESTRING (-79.13615755195478 35.98209557624107, -79.13592248372167 35.98216990878157)" }, "geometry": { "type": "LineString", "coordinates": [ [ -79.136157551954781, 35.982095576241072 ], [ -79.135922483721671, 35.982169908781572 ] ] } },
{ "type": "Feature", "properties": { "FEEDER_NAME": "UNION GROVE", "SUBSTATION_NAME": "New Hope", "wmType": "SECONDARY OVERHEAD", "WKT": "LINESTRING (-79.13615755195478 35.98209557624107, -79.13611842047328 35.981787505881705)" }, "geometry": { "type": "LineString", "coordinates": [ [ -79.136157551954781, 35.982095576241072 ], [ -79.136118420473281, 35.981787505881705 ] ] } },
{ "type": "Feature", "properties": { "FEEDER_NAME": "UNION GROVE", "SUBSTATION_NAME": "New Hope", "wmType": "SECONDARY OVERHEAD", "WKT": "LINESTRING (-79.13611842047328 35.981787505881705, -79.136067333005 35.98160355494452)" }, "geometry": { "type": "LineString", "coordinates": [ [ -79.136118420473281, 35.981787505881705 ], [ -79.136067333005002, 35.98160355494452 ] ] } },
{ "type": "Feature", "properties": { "FEEDER_NAME": "UNION GROVE", "SUBSTATION_NAME": "New Hope", "wmType": "SECONDARY OVERHEAD", "WKT": "LINESTRING (-79.13611842047328 35.981787505881705, -79.13582199009436 35.981439459925745)" }, "geometry": { "type": "LineString", "coordinates": [ [ -79.136118420473281, 35.981787505881705 ], [ -79.135821990094357, 35.981439459925745 ] ] } },
{ "type": "Feature", "properties": { "FEEDER_NAME": "UNION GROVE", "SUBSTATION_NAME": "New Hope", "wmType": "SECONDARY OVERHEAD", "WKT": "LINESTRING (-79.13386413932002 35.98338613970849, -79.13436873372106 35.98344738540445)" }, "geometry": { "type": "LineString", "coordinates": [ [ -79.133864139320025, 35.983386139708493 ], [ -79.134368733721061, 35.983447385404453 ] ] } },
{ "type": "Feature", "properties": { "FEEDER_NAME": "UNION GROVE", "SUBSTATION_NAME": "New Hope", "wmType": "SECONDARY OVERHEAD", "WKT": "LINESTRING (-79.13395449243048 35.98361654172996, -79.13386413932002 35.98338613970849)" }, "geometry": { "type": "LineString", "coordinates": [ [ -79.133954492430476, 35.983616541729958 ], [ -79.133864139320025, 35.983386139708493 ] ] } },
{ "type": "Feature", "properties": { "FEEDER_NAME": "UNION GROVE", "SUBSTATION_NAME": "New Hope", "wmType": "SECONDARY OVERHEAD", "WKT": "LINESTRING (-79.13395449243048 35.98361654172996, -79.13383775509054 35.98347848117637)" }, "geometry": { "type": "LineString", "coordinates": [ [ -79.133954492430476, 35.983616541729958 ], [ -79.133837755090539, 35.98347848117637 ] ] } },
{ "type": "Feature", "properties": { "FEEDER_NAME": "UNION GROVE", "SUBSTATION_NAME": "New Hope", "wmType": "SECONDARY OVERHEAD", "WKT": "LINESTRING (-79.13395449243048 35.98361654172996, -79.13346649692936 35.9835782578892)" }, "geometry": { "type": "LineString", "coordinates": [ [ -79.133954492430476, 35.983616541729958 ], [ -79.133466496929358, 35.983578257889199 ] ] } },
{ "type": "Feature", "properties": { "FEEDER_NAME": "UNION GROVE", "SUBSTATION_NAME": "New Hope", "wmType": "SECONDARY OVERHEAD", "WKT": "LINESTRING (-79.13395449243048 35.98361654172996, -79.1337667871006 35.98397296242046)" }, "geometry": { "type": "LineString", "coordinates": [ [ -79.133954492430476, 35.983616541729958 ], [ -79.133766787100598, 35.983972962420459 ] ] } },
{ "type": "Feature", "properties": { "FEEDER_NAME": "UNION GROVE", "SUBSTATION_NAME": "New Hope", "wmType": "SECONDARY OVERHEAD", "WKT": "LINESTRING (-79.15104279325492 36.010040754024544, -79.15088891032735 36.01020901465986)" }, "geometry": { "type": "LineString", "coordinates": [ [ -79.151042793254916, 36.010040754024544 ], [ -79.150888910327353, 36.010209014659857 ] ] } },
{ "type": "Feature", "properties": { "FEEDER_NAME": "UNION GROVE", "SUBSTATION_NAME": "New Hope", "wmType": "SECONDARY OVERHEAD", "WKT": "LINESTRING (-79.15088891032735 36.01020901465986, -79.15074360789315 36.01034328845689)" }, "geometry": { "type": "LineString", "coordinates": [ [ -79.150888910327353, 36.010209014659857 ], [ -79.150743607893148, 36.010343288456887 ] ] } },
{ "type": "Feature", "properties": { "FEEDER_NAME": "UNION GROVE", "SUBSTATION_NAME": "New Hope", "wmType": "SECONDARY OVERHEAD", "WKT": "LINESTRING (-79.14857598522465 36.01247731898681, -79.14881647276215 36.01260085969556)" }, "geometry": { "type": "LineString", "coordinates": [ [ -79.148575985224653, 36.012477318986811 ], [ -79.148816472762149, 36.01260085969556 ] ] } },
{ "type": "Feature", "properties": { "FEEDER_NAME": "UNION GROVE", "SUBSTATION_NAME": "New Hope", "wmType": "SECONDARY OVERHEAD", "WKT": "LINESTRING (-79.14857598522465 36.01247731898681, -79.1486833135705 36.01215660813577)" }, "geometry": { "type": "LineString", "coordinates": [ [ -79.148575985224653, 36.012477318986811 ], [ -79.148683313570501, 36.012156608135768 ] ] } },
{ "type": "Feature", "properties": { "FEEDER_NAME": "UNION GROVE", "SUBSTATION_NAME": "New Hope", "wmType": "SECONDARY OVERHEAD", "WKT": "LINESTRING (-79.14857598522465 36.01247731898681, -79.14860926124632 36.012774695274736)" }, "geometry": { "type": "LineString", "coordinates": [ [ -79.148575985224653, 36.012477318986811 ], [ -79.148609261246321, 36.012774695274736 ] ] } },
{ "type": "Feature", "properties": { "FEEDER_NAME": "UNION GROVE", "SUBSTATION_NAME": "New Hope", "wmType": "SECONDARY OVERHEAD", "WKT": "LINESTRING (-79.15041323114075 36.01275484914254, -79.15053813196121 36.01241459177843)" }, "geometry": { "type": "LineString", "coordinates": [ [ -79.150413231140746, 36.012754849142539 ], [ -79.150538131961213, 36.01241459177843 ] ] } },
{ "type": "Feature", "properties": { "FEEDER_NAME": "UNION GROVE", "SUBSTATION_NAME": "New Hope", "wmType": "SECONDARY OVERHEAD", "WKT": "LINESTRING (-79.13047874421035 36.006046525914144, -79.13082974490652 36.00578652515498)" }, "geometry": { "type": "LineString", "coordinates": [ [ -79.13047874421035, 36.006046525914144 ], [ -79.130829744906521, 36.005786525154981 ] ] } },
{ "type": "Feature", "properties": { "FEEDER_NAME": "UNION GROVE", "SUBSTATION_NAME": "New Hope", "wmType": "SECONDARY OVERHEAD", "WKT": "LINESTRING (-79.13082974490652 36.00578652515498, -79.13090874557507 36.005671524924985)" }, "geometry": { "type": "LineString", "coordinates": [ [ -79.130829744906521, 36.005786525154981 ], [ -79.13090874557507, 36.005671524924985 ] ] } },
{ "type": "Feature", "properties": { "FEEDER_NAME": "UNION GROVE", "SUBSTATION_NAME": "New Hope", "wmType": "SECONDARY OVERHEAD", "WKT": "LINESTRING (-79.12959762890813 36.00583855283696, -79.12983903398082 36.00571698550727)" }, "geometry": { "type": "LineString", "coordinates": [ [ -79.12959762890813, 36.005838552836963 ], [ -79.129839033980815, 36.00571698550727 ] ] } },
{ "type": "Feature", "properties": { "FEEDER_NAME": "UNION GROVE", "SUBSTATION_NAME": "New Hope", "wmType": "SECONDARY OVERHEAD", "WKT": "LINESTRING (-79.12983903398082 36.00571698550727, -79.12999515671008 36.00561234780576)" }, "geometry": { "type": "LineString", "coordinates": [ [ -79.129839033980815, 36.00571698550727 ], [ -79.129995156710081, 36.005612347805759 ] ] } },
{ "type": "Feature", "properties": { "FEEDER_NAME": "UNION GROVE", "SUBSTATION_NAME": "New Hope", "wmType": "SECONDARY OVERHEAD", "WKT": "LINESTRING (-79.12039500857875 36.00110098561448, -79.120127723678 36.001174514942456)" }, "geometry": { "type": "LineString", "coordinates": [ [ -79.120395008578754, 36.001100985614478 ], [ -79.120127723677996, 36.001174514942456 ] ] } },
{ "type": "Feature", "properties": { "FEEDER_NAME": "UNION GROVE", "SUBSTATION_NAME": "New Hope", "wmType": "SECONDARY OVERHEAD", "WKT": "LINESTRING (-79.11862698814873 35.99984059052734, -79.11864318736193 35.99983169906403, -79.11868787485291 35.99964719579817)" }, "geometry": { "type": "LineString", "coordinates": [ [ -79.118626988148733, 35.999840590527342 ], [ -79.118643187361926, 35.999831699064032 ], [ -79.11868787485291, 35.999647195798168 ] ] } },
{ "type": "Feature", "properties": { "FEEDER_NAME": "UNION GROVE", "SUBSTATION_NAME": "New Hope", "wmType": "SECONDARY OVERHEAD", "WKT": "LINESTRING (-79.1283048724796 35.99280198064589, -79.1286158527494 35.992779870692196)" }, "geometry": { "type": "LineString", "coordinates": [ [ -79.128304872479603, 35.992801980645893 ], [ -79.128615852749405, 35.992779870692196 ] ] } },
{ "type": "Feature", "properties": { "FEEDER_NAME": "UNION GROVE", "SUBSTATION_NAME": "New Hope", "wmType": "SECONDARY OVERHEAD", "WKT": "LINESTRING (-79.1286158527494 35.992779870692196, -79.12882882662103 35.992793071662476)" }, "geometry": { "type": "LineString", "coordinates": [ [ -79.128615852749405, 35.992779870692196 ], [ -79.128828826621032, 35.992793071662476 ] ] } },
{ "type": "Feature", "properties": { "FEEDER_NAME": "UNION GROVE", "SUBSTATION_NAME": "New Hope", "wmType": "SECONDARY OVERHEAD", "WKT": "LINESTRING (-79.12592927268932 35.99176664773267, -79.1259869073375 35.99173368994358)" }, "geometry": { "type": "LineString", "coordinates": [ [ -79.125929272689319, 35.991766647732668 ], [ -79.125986907337506, 35.99173368994358 ] ] } },
{ "type": "Feature", "properties": { "FEEDER_NAME": "UNION GROVE", "SUBSTATION_NAME": "New Hope", "wmType": "SECONDARY OVERHEAD", "WKT": "LINESTRING (-79.1161971651527 36.00133031076385, -79.1159915465364 36.001509023804374)" }, "geometry": { "type": "LineString", "coordinates": [ [ -79.116197165152698, 36.001330310763848 ], [ -79.115991546536407, 36.001509023804374 ] ] } },
{ "type": "Feature", "properties": { "FEEDER_NAME": "UNION GROVE", "SUBSTATION_NAME": "New Hope", "wmType": "SECONDARY OVERHEAD", "WKT": "LINESTRING (-79.1159915465364 36.001509023804374, -79.11581965781468 36.00170009339615)" }, "geometry": { "type": "LineString", "coordinates": [ [ -79.115991546536407, 36.001509023804374 ], [ -79.115819657814683, 36.001700093396153 ] ] } },
{ "type": "Feature", "properties": { "FEEDER_NAME": "UNION GROVE", "SUBSTATION_NAME": "New Hope", "wmType": "SECONDARY OVERHEAD", "WKT": "LINESTRING (-79.09148611885409 35.995697744399656, -79.09138890061338 35.99592929220367)" }, "geometry": { "type": "LineString", "coordinates": [ [ -79.091486118854093, 35.995697744399656 ], [ -79.091388900613381, 35.99592929220367 ] ] } },
{ "type": "Feature", "properties": { "FEEDER_NAME": "UNION GROVE", "SUBSTATION_NAME": "New Hope", "wmType": "SECONDARY OVERHEAD", "WKT": "LINESTRING (-79.09138890061338 35.99592929220367, -79.09132012987497 35.996085347795386)" }, "geometry": { "type": "LineString", "coordinates": [ [ -79.091388900613381, 35.99592929220367 ], [ -79.091320129874973, 35.996085347795386 ] ] } },
{ "type": "Feature", "properties": { "FEEDER_NAME": "UNION GROVE", "SUBSTATION_NAME": "New Hope", "wmType": "SECONDARY OVERHEAD", "WKT": "LINESTRING (-79.08465518857615 36.00257536677503, -79.08477909952731 36.00261900963119)" }, "geometry": { "type": "LineString", "coordinates": [ [ -79.08465518857615, 36.002575366775027 ], [ -79.08477909952731, 36.002619009631189 ] ] } },
{ "type": "Feature", "properties": { "FEEDER_NAME": "UNION GROVE", "SUBSTATION_NAME": "New Hope", "wmType": "SECONDARY OVERHEAD", "WKT": "LINESTRING (-79.09768380011158 36.0009086687679, -79.09763666675093 36.000986667372466)" }, "geometry": { "type": "LineString", "coordinates": [ [ -79.097683800111582, 36.000908668767899 ], [ -79.09763666675093, 36.000986667372466 ] ] } },
{ "type": "Feature", "properties": { "FEEDER_NAME": "UNION GROVE", "SUBSTATION_NAME": "New Hope", "wmType": "SECONDARY OVERHEAD", "WKT": "LINESTRING (-79.0967868817629 36.000721024004854, -79.0968904207055 36.00042710830364)" }, "geometry": { "type": "LineString", "coordinates": [ [ -79.096786881762895, 36.000721024004854 ], [ -79.096890420705506, 36.00042710830364 ] ] } },
{ "type": "Feature", "properties": { "FEEDER_NAME": "UNION GROVE", "SUBSTATION_NAME": "New Hope", "wmType": "SECONDARY OVERHEAD", "WKT": "LINESTRING (-79.0968904207055 36.00042710830364, -79.09710063629022 36.000485176198104)" }, "geometry": { "type": "LineString", "coordinates": [ [ -79.096890420705506, 36.00042710830364 ], [ -79.097100636290222, 36.000485176198104 ] ] } },
{ "type": "Feature", "properties": { "FEEDER_NAME": "UNION GROVE", "SUBSTATION_NAME": "New Hope", "wmType": "SECONDARY OVERHEAD", "WKT": "LINESTRING (-79.08374896235523 36.00487534242073, -79.08375207134502 36.004848519382094, -79.0838746445659 36.00476444680023)" }, "geometry": { "type": "LineString", "coordinates": [ [ -79.08374896235523, 36.004875342420732 ], [ -79.083752071345017, 36.004848519382094 ], [ -79.083874644565896, 36.00476444680023 ] ] } },
{ "type": "Feature", "properties": { "FEEDER_NAME": "UNION GROVE", "SUBSTATION_NAME": "New Hope", "wmType": "SECONDARY OVERHEAD", "WKT": "LINESTRING (-79.08459217455622 36.00351294687828, -79.08431373988716 36.00368555878461)" }, "geometry": { "type": "LineString", "coordinates": [ [ -79.084592174556221, 36.003512946878281 ], [ -79.084313739887165, 36.003685558784611 ] ] } },
{ "type": "Feature", "properties": { "FEEDER_NAME": "UNION GROVE", "SUBSTATION_NAME": "New Hope", "wmType": "SECONDARY OVERHEAD", "WKT": "LINESTRING (-79.0884465436831 36.00267926063514, -79.08840782315106 36.00237645699048)" }, "geometry": { "type": "LineString", "coordinates": [ [ -79.088446543683105, 36.002679260635141 ], [ -79.088407823151059, 36.002376456990483 ] ] } },
{ "type": "Feature", "properties": { "FEEDER_NAME": "UNION GROVE", "SUBSTATION_NAME": "New Hope", "wmType": "SECONDARY OVERHEAD", "WKT": "LINESTRING (-79.09104787566676 36.002619205054835, -79.09074794977857 36.00254829717188)" }, "geometry": { "type": "LineString", "coordinates": [ [ -79.09104787566676, 36.002619205054835 ], [ -79.090747949778574, 36.002548297171877 ] ] } },
{ "type": "Feature", "properties": { "FEEDER_NAME": "UNION GROVE", "SUBSTATION_NAME": "New Hope", "wmType": "SECONDARY OVERHEAD", "WKT": "LINESTRING (-79.09074794977857 36.00254829717188, -79.09042944095198 36.00247312577484)" }, "geometry": { "type": "LineString", "coordinates": [ [ -79.090747949778574, 36.002548297171877 ], [ -79.090429440951979, 36.002473125774841 ] ] } },
{ "type": "Feature", "properties": { "FEEDER_NAME": "UNION GROVE", "SUBSTATION_NAME": "New Hope", "wmType": "SECONDARY OVERHEAD", "WKT": "LINESTRING (-79.09127465224583 36.00438140818764, -79.0913916878134 36.004557963434046)" }, "geometry": { "type": "LineString", "coordinates": [ [ -79.091274652245829, 36.004381408187641 ], [ -79.091391687813399, 36.004557963434046 ] ] } },
{ "type": "Feature", "properties": { "FEEDER_NAME": "UNION GROVE", "SUBSTATION_NAME": "New Hope", "wmType": "SECONDARY OVERHEAD", "WKT": "LINESTRING (-79.09108667974446 36.00404498874549, -79.09097001714647 36.0039333243958)" }, "geometry": { "type": "LineString", "coordinates": [ [ -79.091086679744464, 36.004044988745491 ], [ -79.090970017146475, 36.003933324395803 ] ] } },
{ "type": "Feature", "properties": { "FEEDER_NAME": "UNION GROVE", "SUBSTATION_NAME": "New Hope", "wmType": "SECONDARY OVERHEAD", "WKT": "LINESTRING (-79.09425565511306 36.00271495141331, -79.09420726028127 36.00273657328733, -79.09353534428928 36.00344553736862)" }, "geometry": { "type": "LineString", "coordinates": [ [ -79.094255655113059, 36.00271495141331 ], [ -79.094207260281266, 36.002736573287329 ], [ -79.093535344289279, 36.00344553736862 ] ] } },
{ "type": "Feature", "properties": { "FEEDER_NAME": "UNION GROVE", "SUBSTATION_NAME": "New Hope", "wmType": "SECONDARY OVERHEAD", "WKT": "LINESTRING (-79.0871030680899 36.00695303753338, -79.08725518401882 36.00694346205379)" }, "geometry": { "type": "LineString", "coordinates": [ [ -79.087103068089903, 36.006953037533378 ], [ -79.087255184018815, 36.00694346205379 ] ] } },
{ "type": "Feature", "properties": { "FEEDER_NAME": "UNION GROVE", "SUBSTATION_NAME": "New Hope", "wmType": "SECONDARY OVERHEAD", "WKT": "LINESTRING (-79.07614999904644 36.01533700010098, -79.0759600102997 36.01547598100954)" }, "geometry": { "type": "LineString", "coordinates": [ [ -79.076149999046436, 36.015337000100978 ], [ -79.075960010299696, 36.015475981009537 ] ] } },
{ "type": "Feature", "properties": { "FEEDER_NAME": "UNION GROVE", "SUBSTATION_NAME": "New Hope", "wmType": "SECONDARY OVERHEAD", "WKT": "LINESTRING (-79.0759600102997 36.01547598100954, -79.07575197532405 36.01549483036662)" }, "geometry": { "type": "LineString", "coordinates": [ [ -79.075960010299696, 36.015475981009537 ], [ -79.075751975324053, 36.01549483036662 ] ] } },
{ "type": "Feature", "properties": { "FEEDER_NAME": "UNION GROVE", "SUBSTATION_NAME": "New Hope", "wmType": "SECONDARY OVERHEAD", "WKT": "LINESTRING (-79.0759600102997 36.01547598100954, -79.07591466688861 36.015389111767156)" }, "geometry": { "type": "LineString", "coordinates": [ [ -79.075960010299696, 36.015475981009537 ], [ -79.075914666888607, 36.015389111767156 ] ] } },
{ "type": "Feature", "properties": { "FEEDER_NAME": "UNION GROVE", "SUBSTATION_NAME": "New Hope", "wmType": "SECONDARY OVERHEAD", "WKT": "LINESTRING (-79.08481635969508 36.00312599476769, -79.08498981511796 36.00342399485241)" }, "geometry": { "type": "LineString", "coordinates": [ [ -79.084816359695083, 36.003125994767693 ], [ -79.084989815117964, 36.003423994852412 ] ] } },
{ "type": "Feature", "properties": { "FEEDER_NAME": "UNION GROVE", "SUBSTATION_NAME": "New Hope", "wmType": "SECONDARY OVERHEAD", "WKT": "LINESTRING (-79.08498981511796 36.00342399485241, -79.08505272227308 36.0037496568649)" }, "geometry": { "type": "LineString", "coordinates": [ [ -79.084989815117964, 36.003423994852412 ], [ -79.085052722273076, 36.003749656864898 ] ] } },
{ "type": "Feature", "properties": { "FEEDER_NAME": "UNION GROVE", "SUBSTATION_NAME": "New Hope", "wmType": "SECONDARY OVERHEAD", "WKT": "LINESTRING (-79.08505272227308 36.0037496568649, -79.0853085029001 36.00367172949583)" }, "geometry": { "type": "LineString", "coordinates": [ [ -79.085052722273076, 36.003749656864898 ], [ -79.085308502900105, 36.003671729495828 ] ] } }
]
}
