{
"type": "FeatureCollection",
"name": "New_Hope_New_Hope_overhead",
"crs": { "type": "name", "properties": { "name": "urn:ogc:def:crs:OGC:1.3:CRS84" } },
"features": [
{ "type": "Feature", "properties": { "FEEDER_NAME": "New Hope", "SUBSTATION_NAME": "New Hope", "wmType": "PRIMARY OVERHEAD", "WKT": "LINESTRING (-79.06793812003401 36.01488075476686, -79.06794416237034 36.014894919320376)" }, "geometry": { "type": "LineString", "coordinates": [ [ -79.067938120034015, 36.014880754766857 ], [ -79.067944162370338, 36.014894919320376 ] ] } },
{ "type": "Feature", "properties": { "FEEDER_NAME": "New Hope", "SUBSTATION_NAME": "New Hope", "wmType": "PRIMARY OVERHEAD", "WKT": "LINESTRING (-79.06793184649905 36.014866047778945, -79.06793812003401 36.01488075476686)" }, "geometry": { "type": "LineString", "coordinates": [ [ -79.06793184649905, 36.014866047778945 ], [ -79.067938120034015, 36.014880754766857 ] ] } },
{ "type": "Feature", "properties": { "FEEDER_NAME": "New Hope", "SUBSTATION_NAME": "New Hope", "wmType": "PRIMARY OVERHEAD", "WKT": "LINESTRING (-79.06794416237034 36.014894919320376, -79.06785131944041 36.01485853089391)" }, "geometry": { "type": "LineString", "coordinates": [ [ -79.067944162370338, 36.014894919320376 ], [ -79.067851319440408, 36.01485853089391 ] ] } },
{ "type": "Feature", "properties": { "FEEDER_NAME": "New Hope", "SUBSTATION_NAME": "New Hope", "wmType": "PRIMARY OVERHEAD", "WKT": "LINESTRING (-79.06794416237034 36.014894919320376, -79.06790859782888 36.01492783172196)" }, "geometry": { "type": "LineString", "coordinates": [ [ -79.067944162370338, 36.014894919320376 ], [ -79.067908597828875, 36.014927831721963 ] ] } },
{ "type": "Feature", "properties": { "FEEDER_NAME": "New Hope", "SUBSTATION_NAME": "New Hope", "wmType": "PRIMARY OVERHEAD", "WKT": "LINESTRING (-79.06794416237034 36.014894919320376, -79.06798376469189 36.01489860870919)" }, "geometry": { "type": "LineString", "coordinates": [ [ -79.067944162370338, 36.014894919320376 ], [ -79.067983764691888, 36.014898608709188 ] ] } },
{ "type": "Feature", "properties": { "FEEDER_NAME": "New Hope", "SUBSTATION_NAME": "New Hope", "wmType": "PRIMARY OVERHEAD", "WKT": "LINESTRING (-79.06794416237034 36.014894919320376, -79.06788166187238 36.01489102543653)" }, "geometry": { "type": "LineString", "coordinates": [ [ -79.067944162370338, 36.014894919320376 ], [ -79.067881661872377, 36.014891025436533 ] ] } }
]
}
