{
"type": "FeatureCollection",
"name": "New_Hope_BLACKWOOD_STATION_overhead",
"crs": { "type": "name", "properties": { "name": "urn:ogc:def:crs:OGC:1.3:CRS84" } },
"features": [
{ "type": "Feature", "properties": { "FEEDER_NAME": "BLACKWOOD STATION", "SUBSTATION_NAME": "New Hope", "wmType": "SECONDARY OVERHEAD", "WKT": "LINESTRING (-79.07296981740762 35.99178713221819, -79.07297013855059 35.991782928479644, -79.0728721966538 35.99174454125859, -79.07286691765647 35.99174574039973)" }, "geometry": { "type": "LineString", "coordinates": [ [ -79.072969817407625, 35.991787132218192 ], [ -79.072970138550588, 35.991782928479644 ], [ -79.072872196653805, 35.991744541258591 ], [ -79.072866917656469, 35.991745740399729 ] ] } },
{ "type": "Feature", "properties": { "FEEDER_NAME": "BLACKWOOD STATION", "SUBSTATION_NAME": "New Hope", "wmType": "SECONDARY OVERHEAD", "WKT": "LINESTRING (-79.07870275645622 35.98837512240292, -79.07831964070216 35.98854948530803)" }, "geometry": { "type": "LineString", "coordinates": [ [ -79.078702756456224, 35.988375122402921 ], [ -79.078319640702162, 35.988549485308027 ] ] } },
{ "type": "Feature", "properties": { "FEEDER_NAME": "BLACKWOOD STATION", "SUBSTATION_NAME": "New Hope", "wmType": "SECONDARY OVERHEAD", "WKT": "LINESTRING (-79.072662229497 35.99295435740558, -79.07266369981396 35.99295897646463)" }, "geometry": { "type": "LineString", "coordinates": [ [ -79.072662229496999, 35.99295435740558 ], [ -79.072663699813958, 35.992958976464628 ] ] } },
{ "type": "Feature", "properties": { "FEEDER_NAME": "BLACKWOOD STATION", "SUBSTATION_NAME": "New Hope", "wmType": "SECONDARY OVERHEAD", "WKT": "LINESTRING (-79.07428785644834 35.9969852311278, -79.07452455885803 35.997054285809945)" }, "geometry": { "type": "LineString", "coordinates": [ [ -79.074287856448336, 35.996985231127802 ], [ -79.07452455885803, 35.997054285809945 ] ] } },
{ "type": "Feature", "properties": { "FEEDER_NAME": "BLACKWOOD STATION", "SUBSTATION_NAME": "New Hope", "wmType": "SECONDARY OVERHEAD", "WKT": "LINESTRING (-79.07119062191681 36.01338653372587, -79.07147600033679 36.01329900006841)" }, "geometry": { "type": "LineString", "coordinates": [ [ -79.071190621916813, 36.013386533725871 ], [ -79.071476000336787, 36.013299000068407 ] ] } },
{ "type": "Feature", "properties": { "FEEDER_NAME": "BLACKWOOD STATION", "SUBSTATION_NAME": "New Hope", "wmType": "SECONDARY OVERHEAD", "WKT": "LINESTRING (-79.0793446422591 35.98777148375261, -79.07952964262073 35.987696483584685)" }, "geometry": { "type": "LineString", "coordinates": [ [ -79.079344642259102, 35.98777148375261 ], [ -79.079529642620727, 35.987696483584685 ] ] } },
{ "type": "Feature", "properties": { "FEEDER_NAME": "BLACKWOOD STATION", "SUBSTATION_NAME": "New Hope", "wmType": "SECONDARY OVERHEAD", "WKT": "LINESTRING (-79.07233462918985 36.012384817712984, -79.0720544262606 36.012418634806366)" }, "geometry": { "type": "LineString", "coordinates": [ [ -79.072334629189854, 36.012384817712984 ], [ -79.072054426260607, 36.012418634806366 ] ] } },
{ "type": "Feature", "properties": { "FEEDER_NAME": "BLACKWOOD STATION", "SUBSTATION_NAME": "New Hope", "wmType": "SECONDARY OVERHEAD", "WKT": "LINESTRING (-79.0755075349913 36.00978276831692, -79.0753220315249 36.010089977465526)" }, "geometry": { "type": "LineString", "coordinates": [ [ -79.075507534991303, 36.009782768316917 ], [ -79.075322031524905, 36.010089977465526 ] ] } },
{ "type": "Feature", "properties": { "FEEDER_NAME": "BLACKWOOD STATION", "SUBSTATION_NAME": "New Hope", "wmType": "SECONDARY OVERHEAD", "WKT": "LINESTRING (-79.0753220315249 36.010089977465526, -79.0757110292725 36.01005798084179)" }, "geometry": { "type": "LineString", "coordinates": [ [ -79.075322031524905, 36.010089977465526 ], [ -79.075711029272497, 36.010057980841793 ] ] } },
{ "type": "Feature", "properties": { "FEEDER_NAME": "BLACKWOOD STATION", "SUBSTATION_NAME": "New Hope", "wmType": "SECONDARY OVERHEAD", "WKT": "LINESTRING (-79.07481532728278 36.00985720000803, -79.07498801151587 36.010124247269076)" }, "geometry": { "type": "LineString", "coordinates": [ [ -79.074815327282778, 36.009857200008028 ], [ -79.07498801151587, 36.010124247269076 ] ] } },
{ "type": "Feature", "properties": { "FEEDER_NAME": "BLACKWOOD STATION", "SUBSTATION_NAME": "New Hope", "wmType": "SECONDARY OVERHEAD", "WKT": "LINESTRING (-79.06863777370035 36.00900769549862, -79.06896453563131 36.00906761801567)" }, "geometry": { "type": "LineString", "coordinates": [ [ -79.068637773700345, 36.009007695498617 ], [ -79.068964535631309, 36.009067618015671 ] ] } },
{ "type": "Feature", "properties": { "FEEDER_NAME": "BLACKWOOD STATION", "SUBSTATION_NAME": "New Hope", "wmType": "SECONDARY OVERHEAD", "WKT": "LINESTRING (-79.06896453563131 36.00906761801567, -79.06896244319535 36.009276070955124)" }, "geometry": { "type": "LineString", "coordinates": [ [ -79.068964535631309, 36.009067618015671 ], [ -79.068962443195346, 36.009276070955124 ] ] } },
{ "type": "Feature", "properties": { "FEEDER_NAME": "BLACKWOOD STATION", "SUBSTATION_NAME": "New Hope", "wmType": "SECONDARY OVERHEAD", "WKT": "LINESTRING (-79.07214451190475 35.99833137807564, -79.07203261448038 35.99843243080884)" }, "geometry": { "type": "LineString", "coordinates": [ [ -79.072144511904753, 35.99833137807564 ], [ -79.072032614480378, 35.99843243080884 ] ] } },
{ "type": "Feature", "properties": { "FEEDER_NAME": "BLACKWOOD STATION", "SUBSTATION_NAME": "New Hope", "wmType": "SECONDARY OVERHEAD", "WKT": "LINESTRING (-79.07214451190475 35.99833137807564, -79.07219505488071 35.99859833762162)" }, "geometry": { "type": "LineString", "coordinates": [ [ -79.072144511904753, 35.99833137807564 ], [ -79.072195054880709, 35.998598337621623 ] ] } },
{ "type": "Feature", "properties": { "FEEDER_NAME": "BLACKWOOD STATION", "SUBSTATION_NAME": "New Hope", "wmType": "SECONDARY OVERHEAD", "WKT": "LINESTRING (-79.07620790332487 36.00313957380816, -79.0758866370324 36.003044148028714)" }, "geometry": { "type": "LineString", "coordinates": [ [ -79.076207903324871, 36.003139573808163 ], [ -79.075886637032397, 36.003044148028714 ] ] } },
{ "type": "Feature", "properties": { "FEEDER_NAME": "BLACKWOOD STATION", "SUBSTATION_NAME": "New Hope", "wmType": "SECONDARY OVERHEAD", "WKT": "LINESTRING (-79.07568472724557 35.999106826120325, -79.07581173766107 35.99914302178047)" }, "geometry": { "type": "LineString", "coordinates": [ [ -79.075684727245573, 35.999106826120325 ], [ -79.07581173766107, 35.999143021780469 ] ] } },
{ "type": "Feature", "properties": { "FEEDER_NAME": "BLACKWOOD STATION", "SUBSTATION_NAME": "New Hope", "wmType": "SECONDARY OVERHEAD", "WKT": "LINESTRING (-79.07509975385726 35.99850164733902, -79.0753308777182 35.99852872887912)" }, "geometry": { "type": "LineString", "coordinates": [ [ -79.075099753857259, 35.998501647339019 ], [ -79.075330877718201, 35.998528728879123 ] ] } },
{ "type": "Feature", "properties": { "FEEDER_NAME": "BLACKWOOD STATION", "SUBSTATION_NAME": "New Hope", "wmType": "SECONDARY OVERHEAD", "WKT": "LINESTRING (-79.07468492298997 35.99773873359458, -79.07493512197517 35.99777736936103)" }, "geometry": { "type": "LineString", "coordinates": [ [ -79.074684922989974, 35.997738733594581 ], [ -79.074935121975173, 35.997777369361032 ] ] } },
{ "type": "Feature", "properties": { "FEEDER_NAME": "BLACKWOOD STATION", "SUBSTATION_NAME": "New Hope", "wmType": "SECONDARY OVERHEAD", "WKT": "LINESTRING (-79.07156451419036 35.99284438479119, -79.07188202405686 35.99296116939034)" }, "geometry": { "type": "LineString", "coordinates": [ [ -79.071564514190356, 35.992844384791191 ], [ -79.071882024056862, 35.992961169390341 ] ] } },
{ "type": "Feature", "properties": { "FEEDER_NAME": "BLACKWOOD STATION", "SUBSTATION_NAME": "New Hope", "wmType": "SECONDARY OVERHEAD", "WKT": "LINESTRING (-79.07188202405686 35.99296116939034, -79.07198400658451 35.99295784041309)" }, "geometry": { "type": "LineString", "coordinates": [ [ -79.071882024056862, 35.992961169390341 ], [ -79.071984006584515, 35.992957840413091 ] ] } },
{ "type": "Feature", "properties": { "FEEDER_NAME": "BLACKWOOD STATION", "SUBSTATION_NAME": "New Hope", "wmType": "SECONDARY OVERHEAD", "WKT": "LINESTRING (-79.07198400658451 35.99295784041309, -79.07227169324922 35.99303771544508)" }, "geometry": { "type": "LineString", "coordinates": [ [ -79.071984006584515, 35.992957840413091 ], [ -79.07227169324922, 35.993037715445077 ] ] } },
{ "type": "Feature", "properties": { "FEEDER_NAME": "BLACKWOOD STATION", "SUBSTATION_NAME": "New Hope", "wmType": "SECONDARY OVERHEAD", "WKT": "LINESTRING (-79.08161321119681 35.98962349145659, -79.08164283248992 35.98961028419346, -79.08202602233042 35.98902114187197)" }, "geometry": { "type": "LineString", "coordinates": [ [ -79.08161321119681, 35.989623491456591 ], [ -79.081642832489919, 35.989610284193461 ], [ -79.082026022330425, 35.989021141871973 ] ] } },
{ "type": "Feature", "properties": { "FEEDER_NAME": "BLACKWOOD STATION", "SUBSTATION_NAME": "New Hope", "wmType": "SECONDARY OVERHEAD", "WKT": "LINESTRING (-79.08161321119681 35.98962349145659, -79.08163470289104 35.98964472196944, -79.08258736744064 35.9898658999696)" }, "geometry": { "type": "LineString", "coordinates": [ [ -79.08161321119681, 35.989623491456591 ], [ -79.081634702891037, 35.989644721969441 ], [ -79.082587367440638, 35.989865899969601 ] ] } },
{ "type": "Feature", "properties": { "FEEDER_NAME": "BLACKWOOD STATION", "SUBSTATION_NAME": "New Hope", "wmType": "SECONDARY OVERHEAD", "WKT": "LINESTRING (-79.08258736744064 35.9898658999696, -79.08266757207589 35.9898707279266, -79.08336073639647 35.98981960064055)" }, "geometry": { "type": "LineString", "coordinates": [ [ -79.082587367440638, 35.989865899969601 ], [ -79.082667572075891, 35.989870727926601 ], [ -79.083360736396472, 35.989819600640551 ] ] } },
{ "type": "Feature", "properties": { "FEEDER_NAME": "BLACKWOOD STATION", "SUBSTATION_NAME": "New Hope", "wmType": "SECONDARY OVERHEAD", "WKT": "LINESTRING (-79.07737572949023 35.98763283810447, -79.07717146706729 35.98723989446923)" }, "geometry": { "type": "LineString", "coordinates": [ [ -79.077375729490228, 35.987632838104467 ], [ -79.077171467067288, 35.987239894469234 ] ] } },
{ "type": "Feature", "properties": { "FEEDER_NAME": "BLACKWOOD STATION", "SUBSTATION_NAME": "New Hope", "wmType": "SECONDARY OVERHEAD", "WKT": "LINESTRING (-79.07717146706729 35.98723989446923, -79.07746390617012 35.987053209071654)" }, "geometry": { "type": "LineString", "coordinates": [ [ -79.077171467067288, 35.987239894469234 ], [ -79.077463906170124, 35.987053209071654 ] ] } },
{ "type": "Feature", "properties": { "FEEDER_NAME": "BLACKWOOD STATION", "SUBSTATION_NAME": "New Hope", "wmType": "SECONDARY OVERHEAD", "WKT": "LINESTRING (-79.07737572949023 35.98763283810447, -79.07747904737238 35.98772005673569)" }, "geometry": { "type": "LineString", "coordinates": [ [ -79.077375729490228, 35.987632838104467 ], [ -79.077479047372378, 35.987720056735689 ] ] } },
{ "type": "Feature", "properties": { "FEEDER_NAME": "BLACKWOOD STATION", "SUBSTATION_NAME": "New Hope", "wmType": "SECONDARY OVERHEAD", "WKT": "LINESTRING (-79.07615036437525 35.98750272661032, -79.0761442894226 35.987489781757155, -79.07578295354405 35.98747984548261)" }, "geometry": { "type": "LineString", "coordinates": [ [ -79.076150364375252, 35.987502726610323 ], [ -79.076144289422601, 35.987489781757155 ], [ -79.075782953544049, 35.987479845482611 ] ] } },
{ "type": "Feature", "properties": { "FEEDER_NAME": "BLACKWOOD STATION", "SUBSTATION_NAME": "New Hope", "wmType": "SECONDARY OVERHEAD", "WKT": "LINESTRING (-79.07578295354405 35.98747984548261, -79.07550410606426 35.98738090568491)" }, "geometry": { "type": "LineString", "coordinates": [ [ -79.075782953544049, 35.987479845482611 ], [ -79.075504106064258, 35.987380905684908 ] ] } },
{ "type": "Feature", "properties": { "FEEDER_NAME": "BLACKWOOD STATION", "SUBSTATION_NAME": "New Hope", "wmType": "SECONDARY OVERHEAD", "WKT": "LINESTRING (-79.07550410606426 35.98738090568491, -79.07541254622664 35.987072288513865)" }, "geometry": { "type": "LineString", "coordinates": [ [ -79.075504106064258, 35.987380905684908 ], [ -79.075412546226644, 35.987072288513865 ] ] } },
{ "type": "Feature", "properties": { "FEEDER_NAME": "BLACKWOOD STATION", "SUBSTATION_NAME": "New Hope", "wmType": "SECONDARY OVERHEAD", "WKT": "LINESTRING (-79.07428293006974 35.992074977671834, -79.07459886377953 35.9920837951857)" }, "geometry": { "type": "LineString", "coordinates": [ [ -79.074282930069742, 35.992074977671834 ], [ -79.074598863779528, 35.9920837951857 ] ] } },
{ "type": "Feature", "properties": { "FEEDER_NAME": "BLACKWOOD STATION", "SUBSTATION_NAME": "New Hope", "wmType": "SECONDARY OVERHEAD", "WKT": "LINESTRING (-79.07352166204859 35.99200006371143, -79.07353194835235 35.99188330005082)" }, "geometry": { "type": "LineString", "coordinates": [ [ -79.073521662048591, 35.99200006371143 ], [ -79.073531948352354, 35.991883300050823 ] ] } },
{ "type": "Feature", "properties": { "FEEDER_NAME": "BLACKWOOD STATION", "SUBSTATION_NAME": "New Hope", "wmType": "SECONDARY OVERHEAD", "WKT": "LINESTRING (-79.07353194835235 35.99188330005082, -79.073647947087 35.991608520633875)" }, "geometry": { "type": "LineString", "coordinates": [ [ -79.073531948352354, 35.991883300050823 ], [ -79.073647947086997, 35.991608520633875 ] ] } },
{ "type": "Feature", "properties": { "FEEDER_NAME": "BLACKWOOD STATION", "SUBSTATION_NAME": "New Hope", "wmType": "SECONDARY OVERHEAD", "WKT": "LINESTRING (-79.073647947087 35.991608520633875, -79.07369969463578 35.99149242501688)" }, "geometry": { "type": "LineString", "coordinates": [ [ -79.073647947086997, 35.991608520633875 ], [ -79.073699694635778, 35.99149242501688 ] ] } },
{ "type": "Feature", "properties": { "FEEDER_NAME": "BLACKWOOD STATION", "SUBSTATION_NAME": "New Hope", "wmType": "SECONDARY OVERHEAD", "WKT": "LINESTRING (-79.07369969463578 35.99149242501688, -79.07378573505058 35.99131914167917)" }, "geometry": { "type": "LineString", "coordinates": [ [ -79.073699694635778, 35.99149242501688 ], [ -79.073785735050578, 35.99131914167917 ] ] } },
{ "type": "Feature", "properties": { "FEEDER_NAME": "BLACKWOOD STATION", "SUBSTATION_NAME": "New Hope", "wmType": "SECONDARY OVERHEAD", "WKT": "LINESTRING (-79.07378573505058 35.99131914167917, -79.07386967997797 35.991148083883374)" }, "geometry": { "type": "LineString", "coordinates": [ [ -79.073785735050578, 35.99131914167917 ], [ -79.073869679977975, 35.991148083883374 ] ] } },
{ "type": "Feature", "properties": { "FEEDER_NAME": "BLACKWOOD STATION", "SUBSTATION_NAME": "New Hope", "wmType": "SECONDARY OVERHEAD", "WKT": "LINESTRING (-79.07386967997797 35.991148083883374, -79.07395080771049 35.99096378798933)" }, "geometry": { "type": "LineString", "coordinates": [ [ -79.073869679977975, 35.991148083883374 ], [ -79.073950807710489, 35.99096378798933 ] ] } },
{ "type": "Feature", "properties": { "FEEDER_NAME": "BLACKWOOD STATION", "SUBSTATION_NAME": "New Hope", "wmType": "SECONDARY OVERHEAD", "WKT": "LINESTRING (-79.07352166204859 35.99200006371143, -79.07342765139508 35.992016789338635)" }, "geometry": { "type": "LineString", "coordinates": [ [ -79.073521662048591, 35.99200006371143 ], [ -79.073427651395079, 35.992016789338635 ] ] } },
{ "type": "Feature", "properties": { "FEEDER_NAME": "BLACKWOOD STATION", "SUBSTATION_NAME": "New Hope", "wmType": "SECONDARY OVERHEAD", "WKT": "LINESTRING (-79.07342765139508 35.992016789338635, -79.07327031800027 35.99226272096199)" }, "geometry": { "type": "LineString", "coordinates": [ [ -79.073427651395079, 35.992016789338635 ], [ -79.073270318000269, 35.992262720961989 ] ] } },
{ "type": "Feature", "properties": { "FEEDER_NAME": "BLACKWOOD STATION", "SUBSTATION_NAME": "New Hope", "wmType": "SECONDARY OVERHEAD", "WKT": "LINESTRING (-79.07327031800027 35.99226272096199, -79.07315752042219 35.99241695523309)" }, "geometry": { "type": "LineString", "coordinates": [ [ -79.073270318000269, 35.992262720961989 ], [ -79.073157520422185, 35.992416955233089 ] ] } },
{ "type": "Feature", "properties": { "FEEDER_NAME": "BLACKWOOD STATION", "SUBSTATION_NAME": "New Hope", "wmType": "SECONDARY OVERHEAD", "WKT": "LINESTRING (-79.07315752042219 35.99241695523309, -79.07306355140291 35.99257211185066)" }, "geometry": { "type": "LineString", "coordinates": [ [ -79.073157520422185, 35.992416955233089 ], [ -79.07306355140291, 35.992572111850663 ] ] } },
{ "type": "Feature", "properties": { "FEEDER_NAME": "BLACKWOOD STATION", "SUBSTATION_NAME": "New Hope", "wmType": "SECONDARY OVERHEAD", "WKT": "LINESTRING (-79.07306355140291 35.99257211185066, -79.07296384282371 35.99275066530047)" }, "geometry": { "type": "LineString", "coordinates": [ [ -79.07306355140291, 35.992572111850663 ], [ -79.072963842823711, 35.99275066530047 ] ] } },
{ "type": "Feature", "properties": { "FEEDER_NAME": "BLACKWOOD STATION", "SUBSTATION_NAME": "New Hope", "wmType": "SECONDARY OVERHEAD", "WKT": "LINESTRING (-79.07286691765647 35.99174574039973, -79.07293316077393 35.99158848424615)" }, "geometry": { "type": "LineString", "coordinates": [ [ -79.072866917656469, 35.991745740399729 ], [ -79.072933160773928, 35.991588484246151 ] ] } },
{ "type": "Feature", "properties": { "FEEDER_NAME": "BLACKWOOD STATION", "SUBSTATION_NAME": "New Hope", "wmType": "SECONDARY OVERHEAD", "WKT": "LINESTRING (-79.07293316077393 35.99158848424615, -79.07303454494954 35.99141129066273)" }, "geometry": { "type": "LineString", "coordinates": [ [ -79.072933160773928, 35.991588484246151 ], [ -79.073034544949536, 35.991411290662732 ] ] } },
{ "type": "Feature", "properties": { "FEEDER_NAME": "BLACKWOOD STATION", "SUBSTATION_NAME": "New Hope", "wmType": "SECONDARY OVERHEAD", "WKT": "LINESTRING (-79.07303454494954 35.99141129066273, -79.07312014035041 35.991231305271334)" }, "geometry": { "type": "LineString", "coordinates": [ [ -79.073034544949536, 35.991411290662732 ], [ -79.073120140350412, 35.991231305271334 ] ] } },
{ "type": "Feature", "properties": { "FEEDER_NAME": "BLACKWOOD STATION", "SUBSTATION_NAME": "New Hope", "wmType": "SECONDARY OVERHEAD", "WKT": "LINESTRING (-79.07312014035041 35.991231305271334, -79.07321719053401 35.99108444201841)" }, "geometry": { "type": "LineString", "coordinates": [ [ -79.073120140350412, 35.991231305271334 ], [ -79.07321719053401, 35.991084442018412 ] ] } },
{ "type": "Feature", "properties": { "FEEDER_NAME": "BLACKWOOD STATION", "SUBSTATION_NAME": "New Hope", "wmType": "SECONDARY OVERHEAD", "WKT": "LINESTRING (-79.07321719053401 35.99108444201841, -79.07329903135953 35.99090223347981)" }, "geometry": { "type": "LineString", "coordinates": [ [ -79.07321719053401, 35.991084442018412 ], [ -79.073299031359525, 35.990902233479808 ] ] } },
{ "type": "Feature", "properties": { "FEEDER_NAME": "BLACKWOOD STATION", "SUBSTATION_NAME": "New Hope", "wmType": "SECONDARY OVERHEAD", "WKT": "LINESTRING (-79.07286691765647 35.99174574039973, -79.07279810960723 35.9919047933759)" }, "geometry": { "type": "LineString", "coordinates": [ [ -79.072866917656469, 35.991745740399729 ], [ -79.072798109607234, 35.991904793375902 ] ] } },
{ "type": "Feature", "properties": { "FEEDER_NAME": "BLACKWOOD STATION", "SUBSTATION_NAME": "New Hope", "wmType": "SECONDARY OVERHEAD", "WKT": "LINESTRING (-79.07279810960723 35.9919047933759, -79.0727373982558 35.99208467535336)" }, "geometry": { "type": "LineString", "coordinates": [ [ -79.072798109607234, 35.991904793375902 ], [ -79.072737398255796, 35.992084675353361 ] ] } },
{ "type": "Feature", "properties": { "FEEDER_NAME": "BLACKWOOD STATION", "SUBSTATION_NAME": "New Hope", "wmType": "SECONDARY OVERHEAD", "WKT": "LINESTRING (-79.07217006049315 35.99288045444546, -79.07265861300819 35.992958167441984)" }, "geometry": { "type": "LineString", "coordinates": [ [ -79.07217006049315, 35.992880454445462 ], [ -79.072658613008187, 35.992958167441984 ] ] } },
{ "type": "Feature", "properties": { "FEEDER_NAME": "BLACKWOOD STATION", "SUBSTATION_NAME": "New Hope", "wmType": "SECONDARY OVERHEAD", "WKT": "LINESTRING (-79.07217006049315 35.99288045444546, -79.07217770412629 35.992876855646095, -79.072662229497 35.99295435740558)" }, "geometry": { "type": "LineString", "coordinates": [ [ -79.07217006049315, 35.992880454445462 ], [ -79.07217770412629, 35.992876855646095 ], [ -79.072662229496999, 35.99295435740558 ] ] } },
{ "type": "Feature", "properties": { "FEEDER_NAME": "BLACKWOOD STATION", "SUBSTATION_NAME": "New Hope", "wmType": "SECONDARY OVERHEAD", "WKT": "LINESTRING (-79.072662229497 35.99295435740558, -79.072776301438 35.99292371916434)" }, "geometry": { "type": "LineString", "coordinates": [ [ -79.072662229496999, 35.99295435740558 ], [ -79.072776301437997, 35.992923719164338 ] ] } },
{ "type": "Feature", "properties": { "FEEDER_NAME": "BLACKWOOD STATION", "SUBSTATION_NAME": "New Hope", "wmType": "SECONDARY OVERHEAD", "WKT": "LINESTRING (-79.07059762350443 35.99524649709791, -79.07052262294826 35.99572049862691)" }, "geometry": { "type": "LineString", "coordinates": [ [ -79.070597623504426, 35.995246497097909 ], [ -79.070522622948261, 35.995720498626909 ] ] } },
{ "type": "Feature", "properties": { "FEEDER_NAME": "BLACKWOOD STATION", "SUBSTATION_NAME": "New Hope", "wmType": "SECONDARY OVERHEAD", "WKT": "LINESTRING (-79.07052262294826 35.99572049862691, -79.07046843262208 35.9957579381614)" }, "geometry": { "type": "LineString", "coordinates": [ [ -79.070522622948261, 35.995720498626909 ], [ -79.070468432622079, 35.995757938161397 ] ] } },
{ "type": "Feature", "properties": { "FEEDER_NAME": "BLACKWOOD STATION", "SUBSTATION_NAME": "New Hope", "wmType": "SECONDARY OVERHEAD", "WKT": "LINESTRING (-79.07052262294826 35.99572049862691, -79.0704056232946 35.99563749842838)" }, "geometry": { "type": "LineString", "coordinates": [ [ -79.070522622948261, 35.995720498626909 ], [ -79.070405623294604, 35.99563749842838 ] ] } },
{ "type": "Feature", "properties": { "FEEDER_NAME": "BLACKWOOD STATION", "SUBSTATION_NAME": "New Hope", "wmType": "SECONDARY OVERHEAD", "WKT": "LINESTRING (-79.07156262568947 35.99358349408521, -79.0714616250212 35.99381849470317)" }, "geometry": { "type": "LineString", "coordinates": [ [ -79.071562625689467, 35.993583494085208 ], [ -79.0714616250212, 35.99381849470317 ] ] } },
{ "type": "Feature", "properties": { "FEEDER_NAME": "BLACKWOOD STATION", "SUBSTATION_NAME": "New Hope", "wmType": "SECONDARY OVERHEAD", "WKT": "LINESTRING (-79.07288249770393 35.99384170573025, -79.07272391541746 35.99368365003222)" }, "geometry": { "type": "LineString", "coordinates": [ [ -79.07288249770393, 35.993841705730247 ], [ -79.072723915417455, 35.993683650032217 ] ] } },
{ "type": "Feature", "properties": { "FEEDER_NAME": "BLACKWOOD STATION", "SUBSTATION_NAME": "New Hope", "wmType": "SECONDARY OVERHEAD", "WKT": "LINESTRING (-79.07272391541746 35.99368365003222, -79.07261780474016 35.99357433810529)" }, "geometry": { "type": "LineString", "coordinates": [ [ -79.072723915417455, 35.993683650032217 ], [ -79.072617804740162, 35.99357433810529 ] ] } },
{ "type": "Feature", "properties": { "FEEDER_NAME": "BLACKWOOD STATION", "SUBSTATION_NAME": "New Hope", "wmType": "SECONDARY OVERHEAD", "WKT": "LINESTRING (-79.07272391541746 35.99368365003222, -79.07263245150016 35.99347031061407)" }, "geometry": { "type": "LineString", "coordinates": [ [ -79.072723915417455, 35.993683650032217 ], [ -79.072632451500155, 35.993470310614072 ] ] } },
{ "type": "Feature", "properties": { "FEEDER_NAME": "BLACKWOOD STATION", "SUBSTATION_NAME": "New Hope", "wmType": "SECONDARY OVERHEAD", "WKT": "LINESTRING (-79.07263245150016 35.99347031061407, -79.07262724570131 35.993416204797235)" }, "geometry": { "type": "LineString", "coordinates": [ [ -79.072632451500155, 35.993470310614072 ], [ -79.072627245701312, 35.993416204797235 ] ] } },
{ "type": "Feature", "properties": { "FEEDER_NAME": "BLACKWOOD STATION", "SUBSTATION_NAME": "New Hope", "wmType": "SECONDARY OVERHEAD", "WKT": "LINESTRING (-79.07263245150016 35.99347031061407, -79.07228808339319 35.99346175179519)" }, "geometry": { "type": "LineString", "coordinates": [ [ -79.072632451500155, 35.993470310614072 ], [ -79.07228808339319, 35.993461751795188 ] ] } },
{ "type": "Feature", "properties": { "FEEDER_NAME": "BLACKWOOD STATION", "SUBSTATION_NAME": "New Hope", "wmType": "SECONDARY OVERHEAD", "WKT": "LINESTRING (-79.07228808339319 35.99346175179519, -79.07198491590636 35.99325727212379)" }, "geometry": { "type": "LineString", "coordinates": [ [ -79.07228808339319, 35.993461751795188 ], [ -79.071984915906356, 35.993257272123792 ] ] } },
{ "type": "Feature", "properties": { "FEEDER_NAME": "BLACKWOOD STATION", "SUBSTATION_NAME": "New Hope", "wmType": "SECONDARY OVERHEAD", "WKT": "LINESTRING (-79.07272391541746 35.99368365003222, -79.07250139518369 35.99361130181981)" }, "geometry": { "type": "LineString", "coordinates": [ [ -79.072723915417455, 35.993683650032217 ], [ -79.072501395183693, 35.993611301819811 ] ] } },
{ "type": "Feature", "properties": { "FEEDER_NAME": "BLACKWOOD STATION", "SUBSTATION_NAME": "New Hope", "wmType": "SECONDARY OVERHEAD", "WKT": "LINESTRING (-79.07288249770393 35.99384170573025, -79.07318070207994 35.99401183403573)" }, "geometry": { "type": "LineString", "coordinates": [ [ -79.07288249770393, 35.993841705730247 ], [ -79.073180702079938, 35.994011834035732 ] ] } },
{ "type": "Feature", "properties": { "FEEDER_NAME": "BLACKWOOD STATION", "SUBSTATION_NAME": "New Hope", "wmType": "SECONDARY OVERHEAD", "WKT": "LINESTRING (-79.07189062593156 35.99734950172759, -79.07212529217766 35.99759225918232)" }, "geometry": { "type": "LineString", "coordinates": [ [ -79.071890625931559, 35.997349501727591 ], [ -79.07212529217766, 35.997592259182319 ] ] } },
{ "type": "Feature", "properties": { "FEEDER_NAME": "BLACKWOOD STATION", "SUBSTATION_NAME": "New Hope", "wmType": "SECONDARY OVERHEAD", "WKT": "LINESTRING (-79.07212529217766 35.99759225918232, -79.07244178704897 35.99759946144857)" }, "geometry": { "type": "LineString", "coordinates": [ [ -79.07212529217766, 35.997592259182319 ], [ -79.072441787048973, 35.997599461448573 ] ] } },
{ "type": "Feature", "properties": { "FEEDER_NAME": "BLACKWOOD STATION", "SUBSTATION_NAME": "New Hope", "wmType": "SECONDARY OVERHEAD", "WKT": "LINESTRING (-79.07244178704897 35.99759946144857, -79.07253922734452 35.99761382129137)" }, "geometry": { "type": "LineString", "coordinates": [ [ -79.072441787048973, 35.997599461448573 ], [ -79.072539227344521, 35.997613821291367 ] ] } },
{ "type": "Feature", "properties": { "FEEDER_NAME": "BLACKWOOD STATION", "SUBSTATION_NAME": "New Hope", "wmType": "SECONDARY OVERHEAD", "WKT": "LINESTRING (-79.07040596733201 36.000185822967964, -79.07071324635088 36.00023476301493)" }, "geometry": { "type": "LineString", "coordinates": [ [ -79.070405967332007, 36.000185822967964 ], [ -79.070713246350877, 36.00023476301493 ] ] } },
{ "type": "Feature", "properties": { "FEEDER_NAME": "BLACKWOOD STATION", "SUBSTATION_NAME": "New Hope", "wmType": "SECONDARY OVERHEAD", "WKT": "LINESTRING (-79.07071324635088 36.00023476301493, -79.07077160545585 36.0002642584971)" }, "geometry": { "type": "LineString", "coordinates": [ [ -79.070713246350877, 36.00023476301493 ], [ -79.070771605455846, 36.000264258497097 ] ] } },
{ "type": "Feature", "properties": { "FEEDER_NAME": "BLACKWOOD STATION", "SUBSTATION_NAME": "New Hope", "wmType": "SECONDARY OVERHEAD", "WKT": "LINESTRING (-79.06591208449605 36.00159210240611, -79.06566000218936 36.00184341709504)" }, "geometry": { "type": "LineString", "coordinates": [ [ -79.065912084496048, 36.001592102406107 ], [ -79.065660002189361, 36.001843417095039 ] ] } },
{ "type": "Feature", "properties": { "FEEDER_NAME": "BLACKWOOD STATION", "SUBSTATION_NAME": "New Hope", "wmType": "SECONDARY OVERHEAD", "WKT": "LINESTRING (-79.06612203576465 36.0030453654353, -79.06581598894432 36.00292035406486)" }, "geometry": { "type": "LineString", "coordinates": [ [ -79.06612203576465, 36.003045365435298 ], [ -79.065815988944323, 36.002920354064862 ] ] } },
{ "type": "Feature", "properties": { "FEEDER_NAME": "BLACKWOOD STATION", "SUBSTATION_NAME": "New Hope", "wmType": "SECONDARY OVERHEAD", "WKT": "LINESTRING (-79.06600061173452 36.005865518129575, -79.06547024591495 36.00597306542876)" }, "geometry": { "type": "LineString", "coordinates": [ [ -79.066000611734523, 36.005865518129575 ], [ -79.065470245914952, 36.005973065428762 ] ] } },
{ "type": "Feature", "properties": { "FEEDER_NAME": "BLACKWOOD STATION", "SUBSTATION_NAME": "New Hope", "wmType": "SECONDARY OVERHEAD", "WKT": "LINESTRING (-79.06547024591495 36.00597306542876, -79.06529994118368 36.00600576361619)" }, "geometry": { "type": "LineString", "coordinates": [ [ -79.065470245914952, 36.005973065428762 ], [ -79.065299941183682, 36.006005763616187 ] ] } },
{ "type": "Feature", "properties": { "FEEDER_NAME": "BLACKWOOD STATION", "SUBSTATION_NAME": "New Hope", "wmType": "SECONDARY OVERHEAD", "WKT": "LINESTRING (-79.06529994118368 36.00600576361619, -79.06520044064996 36.00601830385123)" }, "geometry": { "type": "LineString", "coordinates": [ [ -79.065299941183682, 36.006005763616187 ], [ -79.06520044064996, 36.006018303851228 ] ] } },
{ "type": "Feature", "properties": { "FEEDER_NAME": "BLACKWOOD STATION", "SUBSTATION_NAME": "New Hope", "wmType": "SECONDARY OVERHEAD", "WKT": "LINESTRING (-79.07737572949023 35.98763283810447, -79.07754463919358 35.98746448248458)" }, "geometry": { "type": "LineString", "coordinates": [ [ -79.077375729490228, 35.987632838104467 ], [ -79.077544639193576, 35.987464482484583 ] ] } }
]
}
