{
"type": "FeatureCollection",
"name": "Red_Mountain_Red_Mountain_overhead",
"crs": { "type": "name", "properties": { "name": "urn:ogc:def:crs:OGC:1.3:CRS84" } },
"features": [
{ "type": "Feature", "properties": { "FEEDER_NAME": "Red Mountain", "SUBSTATION_NAME": "Red Mountain", "wmType": "PRIMARY OVERHEAD", "WKT": "LINESTRING (-78.8910003471853 36.260429501947016, -78.89098337016785 36.260468914849945)" }, "geometry": { "type": "LineString", "coordinates": [ [ -78.891000347185297, 36.260429501947016 ], [ -78.890983370167845, 36.260468914849945 ] ] } },
{ "type": "Feature", "properties": { "FEEDER_NAME": "Red Mountain", "SUBSTATION_NAME": "Red Mountain", "wmType": "PRIMARY OVERHEAD", "WKT": "LINESTRING (-78.8910003471853 36.260429501947016, -78.8908623734821 36.26061410375226)" }, "geometry": { "type": "LineString", "coordinates": [ [ -78.891000347185297, 36.260429501947016 ], [ -78.890862373482094, 36.26061410375226 ] ] } },
{ "type": "Feature", "properties": { "FEEDER_NAME": "Red Mountain", "SUBSTATION_NAME": "Red Mountain", "wmType": "PRIMARY OVERHEAD", "WKT": "LINESTRING (-78.8910042685754 36.26040807740752, -78.8910003471853 36.260429501947016)" }, "geometry": { "type": "LineString", "coordinates": [ [ -78.891004268575401, 36.260408077407519 ], [ -78.891000347185297, 36.260429501947016 ] ] } },
{ "type": "Feature", "properties": { "FEEDER_NAME": "Red Mountain", "SUBSTATION_NAME": "Red Mountain", "wmType": "PRIMARY OVERHEAD", "WKT": "LINESTRING (-78.8910003471853 36.260429501947016, -78.89099084725372 36.26047091849297)" }, "geometry": { "type": "LineString", "coordinates": [ [ -78.891000347185297, 36.260429501947016 ], [ -78.890990847253718, 36.26047091849297 ] ] } },
{ "type": "Feature", "properties": { "FEEDER_NAME": "Red Mountain", "SUBSTATION_NAME": "Red Mountain", "wmType": "PRIMARY OVERHEAD", "WKT": "LINESTRING (-78.8910003471853 36.260429501947016, -78.89100329479835 36.26046480881396)" }, "geometry": { "type": "LineString", "coordinates": [ [ -78.891000347185297, 36.260429501947016 ], [ -78.891003294798352, 36.260464808813957 ] ] } }
]
}
