{
"type": "FeatureCollection",
"name": "W__Hillsborough_W__Hillsborough_overhead",
"crs": { "type": "name", "properties": { "name": "urn:ogc:def:crs:OGC:1.3:CRS84" } },
"features": [
{ "type": "Feature", "properties": { "FEEDER_NAME": "W. Hillsborough", "SUBSTATION_NAME": "W. Hillsborough", "wmType": "PRIMARY OVERHEAD", "WKT": "LINESTRING (-79.13035989580776 36.06863342899626, -79.13042027614956 36.06865159143812)" }, "geometry": { "type": "LineString", "coordinates": [ [ -79.130359895807757, 36.068633428996257 ], [ -79.130420276149565, 36.068651591438119 ] ] } },
{ "type": "Feature", "properties": { "FEEDER_NAME": "W. Hillsborough", "SUBSTATION_NAME": "W. Hillsborough", "wmType": "PRIMARY OVERHEAD", "WKT": "LINESTRING (-79.13042027614956 36.06865159143812, -79.13047365845544 36.06866764969458)" }, "geometry": { "type": "LineString", "coordinates": [ [ -79.130420276149565, 36.068651591438119 ], [ -79.130473658455443, 36.068667649694582 ] ] } },
{ "type": "Feature", "properties": { "FEEDER_NAME": "W. Hillsborough", "SUBSTATION_NAME": "W. Hillsborough", "wmType": "PRIMARY OVERHEAD", "WKT": "LINESTRING (-79.130480054786 36.068660113847145, -79.1305043415554 36.068631502158105)" }, "geometry": { "type": "LineString", "coordinates": [ [ -79.130480054786005, 36.068660113847145 ], [ -79.130504341555394, 36.068631502158105 ] ] } },
{ "type": "Feature", "properties": { "FEEDER_NAME": "W. Hillsborough", "SUBSTATION_NAME": "W. Hillsborough", "wmType": "PRIMARY OVERHEAD", "WKT": "LINESTRING (-79.13047365845544 36.06866764969458, -79.13042533799938 36.06869128779541)" }, "geometry": { "type": "LineString", "coordinates": [ [ -79.130473658455443, 36.068667649694582 ], [ -79.130425337999384, 36.06869128779541 ] ] } },
{ "type": "Feature", "properties": { "FEEDER_NAME": "W. Hillsborough", "SUBSTATION_NAME": "W. Hillsborough", "wmType": "PRIMARY OVERHEAD", "WKT": "LINESTRING (-79.13047365845544 36.06866764969458, -79.13042278364338 36.06868302788269)" }, "geometry": { "type": "LineString", "coordinates": [ [ -79.130473658455443, 36.068667649694582 ], [ -79.130422783643382, 36.068683027882692 ] ] } },
{ "type": "Feature", "properties": { "FEEDER_NAME": "W. Hillsborough", "SUBSTATION_NAME": "W. Hillsborough", "wmType": "PRIMARY OVERHEAD", "WKT": "LINESTRING (-79.130480054786 36.068660113847145, -79.13051231662816 36.06863780328004)" }, "geometry": { "type": "LineString", "coordinates": [ [ -79.130480054786005, 36.068660113847145 ], [ -79.130512316628156, 36.068637803280041 ] ] } },
{ "type": "Feature", "properties": { "FEEDER_NAME": "W. Hillsborough", "SUBSTATION_NAME": "W. Hillsborough", "wmType": "PRIMARY OVERHEAD", "WKT": "LINESTRING (-79.13042027614956 36.06865159143812, -79.130480054786 36.068660113847145)" }, "geometry": { "type": "LineString", "coordinates": [ [ -79.130420276149565, 36.068651591438119 ], [ -79.130480054786005, 36.068660113847145 ] ] } },
{ "type": "Feature", "properties": { "FEEDER_NAME": "W. Hillsborough", "SUBSTATION_NAME": "W. Hillsborough", "wmType": "PRIMARY OVERHEAD", "WKT": "LINESTRING (-79.130480054786 36.068660113847145, -79.13050812743863 36.068669508232624)" }, "geometry": { "type": "LineString", "coordinates": [ [ -79.130480054786005, 36.068660113847145 ], [ -79.130508127438631, 36.068669508232624 ] ] } }
]
}
