{
"type": "FeatureCollection",
"name": "Westbrook_Damascus_Church_Rd_overhead",
"crs": { "type": "name", "properties": { "name": "urn:ogc:def:crs:OGC:1.3:CRS84" } },
"features": [
{ "type": "Feature", "properties": { "FEEDER_NAME": "Damascus Church Rd. **", "SUBSTATION_NAME": "Westbrook", "wmType": "SECONDARY OVERHEAD", "WKT": "LINESTRING (-79.11895474346579 35.868067248154205, -79.11898621904542 35.868065546408346, -79.11938617103604 35.868375618711184)" }, "geometry": { "type": "LineString", "coordinates": [ [ -79.118954743465792, 35.868067248154205 ], [ -79.118986219045425, 35.868065546408346 ], [ -79.119386171036041, 35.868375618711184 ] ] } },
{ "type": "Feature", "properties": { "FEEDER_NAME": "Damascus Church Rd. **", "SUBSTATION_NAME": "Westbrook", "wmType": "SECONDARY OVERHEAD", "WKT": "LINESTRING (-79.11675284896654 35.86942380364491, -79.11663473896635 35.86922425067961)" }, "geometry": { "type": "LineString", "coordinates": [ [ -79.116752848966541, 35.869423803644906 ], [ -79.116634738966354, 35.869224250679608 ] ] } },
{ "type": "Feature", "properties": { "FEEDER_NAME": "Damascus Church Rd. **", "SUBSTATION_NAME": "Westbrook", "wmType": "PRIMARY OVERHEAD", "WKT": "LINESTRING (-79.12081644303302 35.874489559213, -79.12085515102738 35.87447797592068)" }, "geometry": { "type": "LineString", "coordinates": [ [ -79.120816443033021, 35.874489559213004 ], [ -79.120855151027385, 35.874477975920684 ] ] } },
{ "type": "Feature", "properties": { "FEEDER_NAME": "Damascus Church Rd. **", "SUBSTATION_NAME": "Westbrook", "wmType": "PRIMARY OVERHEAD", "WKT": "LINESTRING (-79.10377691377222 35.87306013008763, -79.10310971040595 35.87232251951629)" }, "geometry": { "type": "LineString", "coordinates": [ [ -79.103776913772222, 35.87306013008763 ], [ -79.103109710405946, 35.872322519516288 ] ] } },
{ "type": "Feature", "properties": { "FEEDER_NAME": "Damascus Church Rd. **", "SUBSTATION_NAME": "Westbrook", "wmType": "PRIMARY OVERHEAD", "WKT": "LINESTRING (-79.10377691377222 35.87306013008763, -79.10402457669036 35.87254564025725)" }, "geometry": { "type": "LineString", "coordinates": [ [ -79.103776913772222, 35.87306013008763 ], [ -79.104024576690364, 35.87254564025725 ] ] } },
{ "type": "Feature", "properties": { "FEEDER_NAME": "Damascus Church Rd. **", "SUBSTATION_NAME": "Westbrook", "wmType": "PRIMARY OVERHEAD", "WKT": "LINESTRING (-79.09757854051658 35.87602278659313, -79.09753039660917 35.87603271431961)" }, "geometry": { "type": "LineString", "coordinates": [ [ -79.097578540516579, 35.876022786593133 ], [ -79.097530396609173, 35.876032714319606 ] ] } },
{ "type": "Feature", "properties": { "FEEDER_NAME": "Damascus Church Rd. **", "SUBSTATION_NAME": "Westbrook", "wmType": "SECONDARY OVERHEAD", "WKT": "LINESTRING (-79.11513011123853 35.88232949702363, -79.11512310582776 35.8823261714832, -79.11488931689016 35.88235408202266)" }, "geometry": { "type": "LineString", "coordinates": [ [ -79.115130111238528, 35.882329497023633 ], [ -79.115123105827763, 35.8823261714832 ], [ -79.114889316890157, 35.882354082022658 ] ] } },
{ "type": "Feature", "properties": { "FEEDER_NAME": "Damascus Church Rd. **", "SUBSTATION_NAME": "Westbrook", "wmType": "SECONDARY OVERHEAD", "WKT": "LINESTRING (-79.09824555606761 35.875872857400616, -79.09801451557367 35.875742084101255)" }, "geometry": { "type": "LineString", "coordinates": [ [ -79.09824555606761, 35.875872857400616 ], [ -79.098014515573666, 35.875742084101255 ] ] } },
{ "type": "Feature", "properties": { "FEEDER_NAME": "Damascus Church Rd. **", "SUBSTATION_NAME": "Westbrook", "wmType": "SECONDARY OVERHEAD", "WKT": "LINESTRING (-79.09801451557367 35.875742084101255, -79.0978523706054 35.87539021403871)" }, "geometry": { "type": "LineString", "coordinates": [ [ -79.098014515573666, 35.875742084101255 ], [ -79.097852370605395, 35.87539021403871 ] ] } },
{ "type": "Feature", "properties": { "FEEDER_NAME": "Damascus Church Rd. **", "SUBSTATION_NAME": "Westbrook", "wmType": "SECONDARY OVERHEAD", "WKT": "LINESTRING (-79.09801451557367 35.875742084101255, -79.0977494870151 35.87555409241677)" }, "geometry": { "type": "LineString", "coordinates": [ [ -79.098014515573666, 35.875742084101255 ], [ -79.097749487015093, 35.87555409241677 ] ] } },
{ "type": "Feature", "properties": { "FEEDER_NAME": "Damascus Church Rd. **", "SUBSTATION_NAME": "Westbrook", "wmType": "SECONDARY OVERHEAD", "WKT": "LINESTRING (-79.09874908353983 35.87576874374681, -79.09921948779214 35.87560267787268)" }, "geometry": { "type": "LineString", "coordinates": [ [ -79.098749083539829, 35.875768743746811 ], [ -79.099219487792141, 35.875602677872678 ] ] } },
{ "type": "Feature", "properties": { "FEEDER_NAME": "Damascus Church Rd. **", "SUBSTATION_NAME": "Westbrook", "wmType": "SECONDARY OVERHEAD", "WKT": "LINESTRING (-79.09874908353983 35.87576874374681, -79.09900694147625 35.8752774156584)" }, "geometry": { "type": "LineString", "coordinates": [ [ -79.098749083539829, 35.875768743746811 ], [ -79.099006941476247, 35.875277415658402 ] ] } },
{ "type": "Feature", "properties": { "FEEDER_NAME": "Damascus Church Rd. **", "SUBSTATION_NAME": "Westbrook", "wmType": "SECONDARY OVERHEAD", "WKT": "LINESTRING (-79.09946518220818 35.87562541621527, -79.09960886652917 35.875328346474234)" }, "geometry": { "type": "LineString", "coordinates": [ [ -79.099465182208178, 35.875625416215271 ], [ -79.099608866529167, 35.875328346474234 ] ] } },
{ "type": "Feature", "properties": { "FEEDER_NAME": "Damascus Church Rd. **", "SUBSTATION_NAME": "Westbrook", "wmType": "SECONDARY OVERHEAD", "WKT": "LINESTRING (-79.09946518220818 35.87562541621527, -79.09948767485508 35.875360649354874)" }, "geometry": { "type": "LineString", "coordinates": [ [ -79.099465182208178, 35.875625416215271 ], [ -79.099487674855084, 35.875360649354874 ] ] } },
{ "type": "Feature", "properties": { "FEEDER_NAME": "Damascus Church Rd. **", "SUBSTATION_NAME": "Westbrook", "wmType": "SECONDARY OVERHEAD", "WKT": "LINESTRING (-79.10089372097548 35.8722262420336, -79.10117322089694 35.87259485224362)" }, "geometry": { "type": "LineString", "coordinates": [ [ -79.100893720975478, 35.872226242033598 ], [ -79.101173220896939, 35.872594852243623 ] ] } },
{ "type": "Feature", "properties": { "FEEDER_NAME": "Damascus Church Rd. **", "SUBSTATION_NAME": "Westbrook", "wmType": "SECONDARY OVERHEAD", "WKT": "LINESTRING (-79.10117322089694 35.87259485224362, -79.10141001986459 35.87247375222804)" }, "geometry": { "type": "LineString", "coordinates": [ [ -79.101173220896939, 35.872594852243623 ], [ -79.101410019864588, 35.872473752228039 ] ] } },
{ "type": "Feature", "properties": { "FEEDER_NAME": "Damascus Church Rd. **", "SUBSTATION_NAME": "Westbrook", "wmType": "SECONDARY OVERHEAD", "WKT": "LINESTRING (-79.10099271787979 35.875114251285915, -79.10033666824047 35.8750616620385)" }, "geometry": { "type": "LineString", "coordinates": [ [ -79.100992717879791, 35.875114251285915 ], [ -79.100336668240473, 35.875061662038497 ] ] } },
{ "type": "Feature", "properties": { "FEEDER_NAME": "Damascus Church Rd. **", "SUBSTATION_NAME": "Westbrook", "wmType": "SECONDARY OVERHEAD", "WKT": "LINESTRING (-79.10033666824047 35.8750616620385, -79.10031953657554 35.874611435178075)" }, "geometry": { "type": "LineString", "coordinates": [ [ -79.100336668240473, 35.875061662038497 ], [ -79.10031953657554, 35.874611435178075 ] ] } },
{ "type": "Feature", "properties": { "FEEDER_NAME": "Damascus Church Rd. **", "SUBSTATION_NAME": "Westbrook", "wmType": "SECONDARY OVERHEAD", "WKT": "LINESTRING (-79.10041022164852 35.8756340381007, -79.10046285731015 35.87580627199983)" }, "geometry": { "type": "LineString", "coordinates": [ [ -79.100410221648517, 35.875634038100699 ], [ -79.100462857310148, 35.875806271999828 ] ] } },
{ "type": "Feature", "properties": { "FEEDER_NAME": "Damascus Church Rd. **", "SUBSTATION_NAME": "Westbrook", "wmType": "SECONDARY OVERHEAD", "WKT": "LINESTRING (-79.10046285731015 35.87580627199983, -79.10058576775928 35.876219424230065)" }, "geometry": { "type": "LineString", "coordinates": [ [ -79.100462857310148, 35.875806271999828 ], [ -79.100585767759284, 35.876219424230065 ] ] } },
{ "type": "Feature", "properties": { "FEEDER_NAME": "Damascus Church Rd. **", "SUBSTATION_NAME": "Westbrook", "wmType": "SECONDARY OVERHEAD", "WKT": "LINESTRING (-79.10058576775928 35.876219424230065, -79.10048253659872 35.87610735607509)" }, "geometry": { "type": "LineString", "coordinates": [ [ -79.100585767759284, 35.876219424230065 ], [ -79.100482536598719, 35.876107356075089 ] ] } },
{ "type": "Feature", "properties": { "FEEDER_NAME": "Damascus Church Rd. **", "SUBSTATION_NAME": "Westbrook", "wmType": "SECONDARY OVERHEAD", "WKT": "LINESTRING (-79.10200794994438 35.87506038570784, -79.10194293902853 35.874944958216204)" }, "geometry": { "type": "LineString", "coordinates": [ [ -79.10200794994438, 35.87506038570784 ], [ -79.101942939028532, 35.874944958216204 ] ] } },
{ "type": "Feature", "properties": { "FEEDER_NAME": "Damascus Church Rd. **", "SUBSTATION_NAME": "Westbrook", "wmType": "SECONDARY OVERHEAD", "WKT": "LINESTRING (-79.10178169660182 35.8749016477042, -79.10151268835952 35.87526258161706)" }, "geometry": { "type": "LineString", "coordinates": [ [ -79.101781696601819, 35.874901647704199 ], [ -79.10151268835952, 35.875262581617058 ] ] } },
{ "type": "Feature", "properties": { "FEEDER_NAME": "Damascus Church Rd. **", "SUBSTATION_NAME": "Westbrook", "wmType": "SECONDARY OVERHEAD", "WKT": "LINESTRING (-79.10151268835952 35.87526258161706, -79.10158220409018 35.87543537784911)" }, "geometry": { "type": "LineString", "coordinates": [ [ -79.10151268835952, 35.875262581617058 ], [ -79.101582204090178, 35.875435377849108 ] ] } },
{ "type": "Feature", "properties": { "FEEDER_NAME": "Damascus Church Rd. **", "SUBSTATION_NAME": "Westbrook", "wmType": "SECONDARY OVERHEAD", "WKT": "LINESTRING (-79.1018070903507 35.873918619165316, -79.10190806495416 35.87379817953828)" }, "geometry": { "type": "LineString", "coordinates": [ [ -79.101807090350704, 35.873918619165316 ], [ -79.101908064954159, 35.873798179538277 ] ] } },
{ "type": "Feature", "properties": { "FEEDER_NAME": "Damascus Church Rd. **", "SUBSTATION_NAME": "Westbrook", "wmType": "SECONDARY OVERHEAD", "WKT": "LINESTRING (-79.1018070903507 35.873918619165316, -79.10143572261578 35.87362326208369)" }, "geometry": { "type": "LineString", "coordinates": [ [ -79.101807090350704, 35.873918619165316 ], [ -79.101435722615776, 35.87362326208369 ] ] } },
{ "type": "Feature", "properties": { "FEEDER_NAME": "Damascus Church Rd. **", "SUBSTATION_NAME": "Westbrook", "wmType": "SECONDARY OVERHEAD", "WKT": "LINESTRING (-79.1018070903507 35.873918619165316, -79.10174258661372 35.87358764609831)" }, "geometry": { "type": "LineString", "coordinates": [ [ -79.101807090350704, 35.873918619165316 ], [ -79.101742586613724, 35.873587646098308 ] ] } },
{ "type": "Feature", "properties": { "FEEDER_NAME": "Damascus Church Rd. **", "SUBSTATION_NAME": "Westbrook", "wmType": "SECONDARY OVERHEAD", "WKT": "LINESTRING (-79.10237000044155 35.874394981475824, -79.10217718326169 35.87422393748805)" }, "geometry": { "type": "LineString", "coordinates": [ [ -79.102370000441553, 35.874394981475824 ], [ -79.102177183261688, 35.874223937488047 ] ] } },
{ "type": "Feature", "properties": { "FEEDER_NAME": "Damascus Church Rd. **", "SUBSTATION_NAME": "Westbrook", "wmType": "SECONDARY OVERHEAD", "WKT": "LINESTRING (-79.10217718326169 35.87422393748805, -79.10191548802015 35.87433115964124)" }, "geometry": { "type": "LineString", "coordinates": [ [ -79.102177183261688, 35.874223937488047 ], [ -79.101915488020154, 35.874331159641237 ] ] } },
{ "type": "Feature", "properties": { "FEEDER_NAME": "Damascus Church Rd. **", "SUBSTATION_NAME": "Westbrook", "wmType": "SECONDARY OVERHEAD", "WKT": "LINESTRING (-79.10191548802015 35.87433115964124, -79.10179248013898 35.87420856816527)" }, "geometry": { "type": "LineString", "coordinates": [ [ -79.101915488020154, 35.874331159641237 ], [ -79.101792480138982, 35.874208568165272 ] ] } },
{ "type": "Feature", "properties": { "FEEDER_NAME": "Damascus Church Rd. **", "SUBSTATION_NAME": "Westbrook", "wmType": "SECONDARY OVERHEAD", "WKT": "LINESTRING (-79.10191548802015 35.87433115964124, -79.10179602808466 35.87434991211262)" }, "geometry": { "type": "LineString", "coordinates": [ [ -79.101915488020154, 35.874331159641237 ], [ -79.101796028084664, 35.874349912112621 ] ] } },
{ "type": "Feature", "properties": { "FEEDER_NAME": "Damascus Church Rd. **", "SUBSTATION_NAME": "Westbrook", "wmType": "SECONDARY OVERHEAD", "WKT": "LINESTRING (-79.1040295089311 35.87561606022414, -79.10428731280219 35.87578844720196)" }, "geometry": { "type": "LineString", "coordinates": [ [ -79.104029508931106, 35.875616060224139 ], [ -79.104287312802185, 35.875788447201963 ] ] } },
{ "type": "Feature", "properties": { "FEEDER_NAME": "Damascus Church Rd. **", "SUBSTATION_NAME": "Westbrook", "wmType": "SECONDARY OVERHEAD", "WKT": "LINESTRING (-79.10312553822013 35.87488626100038, -79.10328356200401 35.87513917319179)" }, "geometry": { "type": "LineString", "coordinates": [ [ -79.103125538220127, 35.874886261000377 ], [ -79.103283562004009, 35.875139173191791 ] ] } },
{ "type": "Feature", "properties": { "FEEDER_NAME": "Damascus Church Rd. **", "SUBSTATION_NAME": "Westbrook", "wmType": "SECONDARY OVERHEAD", "WKT": "LINESTRING (-79.10328356200401 35.87513917319179, -79.10341191041849 35.87528610941543)" }, "geometry": { "type": "LineString", "coordinates": [ [ -79.103283562004009, 35.875139173191791 ], [ -79.103411910418487, 35.875286109415427 ] ] } },
{ "type": "Feature", "properties": { "FEEDER_NAME": "Damascus Church Rd. **", "SUBSTATION_NAME": "Westbrook", "wmType": "SECONDARY OVERHEAD", "WKT": "LINESTRING (-79.10260334647651 35.87381331015952, -79.10227320402936 35.87323898279944)" }, "geometry": { "type": "LineString", "coordinates": [ [ -79.102603346476513, 35.87381331015952 ], [ -79.102273204029359, 35.873238982799442 ] ] } },
{ "type": "Feature", "properties": { "FEEDER_NAME": "Damascus Church Rd. **", "SUBSTATION_NAME": "Westbrook", "wmType": "SECONDARY OVERHEAD", "WKT": "LINESTRING (-79.10227320402936 35.87323898279944, -79.10225282938502 35.87302669236323)" }, "geometry": { "type": "LineString", "coordinates": [ [ -79.102273204029359, 35.873238982799442 ], [ -79.102252829385023, 35.873026692363233 ] ] } },
{ "type": "Feature", "properties": { "FEEDER_NAME": "Damascus Church Rd. **", "SUBSTATION_NAME": "Westbrook", "wmType": "SECONDARY OVERHEAD", "WKT": "LINESTRING (-79.11296672959203 35.86422262177473, -79.11318165147489 35.864441074187006)" }, "geometry": { "type": "LineString", "coordinates": [ [ -79.112966729592031, 35.864222621774729 ], [ -79.113181651474889, 35.864441074187006 ] ] } },
{ "type": "Feature", "properties": { "FEEDER_NAME": "Damascus Church Rd. **", "SUBSTATION_NAME": "Westbrook", "wmType": "SECONDARY OVERHEAD", "WKT": "LINESTRING (-79.11318165147489 35.864441074187006, -79.11326522015968 35.86442368768711)" }, "geometry": { "type": "LineString", "coordinates": [ [ -79.113181651474889, 35.864441074187006 ], [ -79.113265220159676, 35.864423687687108 ] ] } },
{ "type": "Feature", "properties": { "FEEDER_NAME": "Damascus Church Rd. **", "SUBSTATION_NAME": "Westbrook", "wmType": "SECONDARY OVERHEAD", "WKT": "LINESTRING (-79.11296672959203 35.86422262177473, -79.11334562371937 35.86392285047659)" }, "geometry": { "type": "LineString", "coordinates": [ [ -79.112966729592031, 35.864222621774729 ], [ -79.113345623719368, 35.863922850476591 ] ] } },
{ "type": "Feature", "properties": { "FEEDER_NAME": "Damascus Church Rd. **", "SUBSTATION_NAME": "Westbrook", "wmType": "SECONDARY OVERHEAD", "WKT": "LINESTRING (-79.11296672959203 35.86422262177473, -79.11307435476593 35.86401450498696)" }, "geometry": { "type": "LineString", "coordinates": [ [ -79.112966729592031, 35.864222621774729 ], [ -79.113074354765928, 35.864014504986962 ] ] } },
{ "type": "Feature", "properties": { "FEEDER_NAME": "Damascus Church Rd. **", "SUBSTATION_NAME": "Westbrook", "wmType": "SECONDARY OVERHEAD", "WKT": "LINESTRING (-79.1166537390141 35.86845124879588, -79.11677189581182 35.86842418184052)" }, "geometry": { "type": "LineString", "coordinates": [ [ -79.116653739014097, 35.868451248795878 ], [ -79.116771895811823, 35.868424181840517 ] ] } },
{ "type": "Feature", "properties": { "FEEDER_NAME": "Damascus Church Rd. **", "SUBSTATION_NAME": "Westbrook", "wmType": "SECONDARY OVERHEAD", "WKT": "LINESTRING (-79.12366849091839 35.87498861697799, -79.1235984254199 35.87493156175773)" }, "geometry": { "type": "LineString", "coordinates": [ [ -79.123668490918391, 35.874988616977987 ], [ -79.1235984254199, 35.874931561757727 ] ] } },
{ "type": "Feature", "properties": { "FEEDER_NAME": "Damascus Church Rd. **", "SUBSTATION_NAME": "Westbrook", "wmType": "SECONDARY OVERHEAD", "WKT": "LINESTRING (-79.12366849091839 35.87498861697799, -79.12391148088989 35.87465343000568)" }, "geometry": { "type": "LineString", "coordinates": [ [ -79.123668490918391, 35.874988616977987 ], [ -79.123911480889888, 35.874653430005679 ] ] } },
{ "type": "Feature", "properties": { "FEEDER_NAME": "Damascus Church Rd. **", "SUBSTATION_NAME": "Westbrook", "wmType": "SECONDARY OVERHEAD", "WKT": "LINESTRING (-79.12391148088989 35.87465343000568, -79.12364363103589 35.87438194722144)" }, "geometry": { "type": "LineString", "coordinates": [ [ -79.123911480889888, 35.874653430005679 ], [ -79.12364363103589, 35.874381947221437 ] ] } },
{ "type": "Feature", "properties": { "FEEDER_NAME": "Damascus Church Rd. **", "SUBSTATION_NAME": "Westbrook", "wmType": "SECONDARY OVERHEAD", "WKT": "LINESTRING (-79.12391148088989 35.87465343000568, -79.12375082022224 35.874262691865404)" }, "geometry": { "type": "LineString", "coordinates": [ [ -79.123911480889888, 35.874653430005679 ], [ -79.123750820222241, 35.874262691865404 ] ] } },
{ "type": "Feature", "properties": { "FEEDER_NAME": "Damascus Church Rd. **", "SUBSTATION_NAME": "Westbrook", "wmType": "SECONDARY OVERHEAD", "WKT": "LINESTRING (-79.1227230397721 35.876016644397396, -79.12247405089876 35.875986016528316)" }, "geometry": { "type": "LineString", "coordinates": [ [ -79.122723039772097, 35.876016644397396 ], [ -79.122474050898759, 35.875986016528316 ] ] } },
{ "type": "Feature", "properties": { "FEEDER_NAME": "Damascus Church Rd. **", "SUBSTATION_NAME": "Westbrook", "wmType": "SECONDARY OVERHEAD", "WKT": "LINESTRING (-79.12247405089876 35.875986016528316, -79.12232919904473 35.87602410092386)" }, "geometry": { "type": "LineString", "coordinates": [ [ -79.122474050898759, 35.875986016528316 ], [ -79.122329199044728, 35.876024100923857 ] ] } },
{ "type": "Feature", "properties": { "FEEDER_NAME": "Damascus Church Rd. **", "SUBSTATION_NAME": "Westbrook", "wmType": "SECONDARY OVERHEAD", "WKT": "LINESTRING (-79.12232919904473 35.87602410092386, -79.12220247947566 35.87607336851879)" }, "geometry": { "type": "LineString", "coordinates": [ [ -79.122329199044728, 35.876024100923857 ], [ -79.122202479475661, 35.876073368518789 ] ] } },
{ "type": "Feature", "properties": { "FEEDER_NAME": "Damascus Church Rd. **", "SUBSTATION_NAME": "Westbrook", "wmType": "SECONDARY OVERHEAD", "WKT": "LINESTRING (-79.12254438634498 35.87468915129622, -79.12303675128734 35.87451526153731)" }, "geometry": { "type": "LineString", "coordinates": [ [ -79.122544386344984, 35.874689151296216 ], [ -79.123036751287344, 35.874515261537312 ] ] } },
{ "type": "Feature", "properties": { "FEEDER_NAME": "Damascus Church Rd. **", "SUBSTATION_NAME": "Westbrook", "wmType": "SECONDARY OVERHEAD", "WKT": "LINESTRING (-79.12303675128734 35.87451526153731, -79.1233947516297 35.87449026153261)" }, "geometry": { "type": "LineString", "coordinates": [ [ -79.123036751287344, 35.874515261537312 ], [ -79.123394751629704, 35.874490261532607 ] ] } },
{ "type": "Feature", "properties": { "FEEDER_NAME": "Damascus Church Rd. **", "SUBSTATION_NAME": "Westbrook", "wmType": "SECONDARY OVERHEAD", "WKT": "LINESTRING (-79.11814301927552 35.872786981470625, -79.11839378840865 35.87265588801519)" }, "geometry": { "type": "LineString", "coordinates": [ [ -79.118143019275522, 35.872786981470625 ], [ -79.118393788408653, 35.872655888015188 ] ] } },
{ "type": "Feature", "properties": { "FEEDER_NAME": "Damascus Church Rd. **", "SUBSTATION_NAME": "Westbrook", "wmType": "SECONDARY OVERHEAD", "WKT": "LINESTRING (-79.11770102961697 35.872192911815894, -79.11804843681827 35.87227548719675)" }, "geometry": { "type": "LineString", "coordinates": [ [ -79.117701029616967, 35.872192911815894 ], [ -79.11804843681827, 35.872275487196752 ] ] } },
{ "type": "Feature", "properties": { "FEEDER_NAME": "Damascus Church Rd. **", "SUBSTATION_NAME": "Westbrook", "wmType": "SECONDARY OVERHEAD", "WKT": "LINESTRING (-79.11804843681827 35.87227548719675, -79.11818550840256 35.872159778734584)" }, "geometry": { "type": "LineString", "coordinates": [ [ -79.11804843681827, 35.872275487196752 ], [ -79.118185508402561, 35.872159778734584 ] ] } },
{ "type": "Feature", "properties": { "FEEDER_NAME": "Damascus Church Rd. **", "SUBSTATION_NAME": "Westbrook", "wmType": "SECONDARY OVERHEAD", "WKT": "LINESTRING (-79.11818550840256 35.872159778734584, -79.11829167867053 35.87207552987035)" }, "geometry": { "type": "LineString", "coordinates": [ [ -79.118185508402561, 35.872159778734584 ], [ -79.118291678670531, 35.872075529870351 ] ] } },
{ "type": "Feature", "properties": { "FEEDER_NAME": "Damascus Church Rd. **", "SUBSTATION_NAME": "Westbrook", "wmType": "SECONDARY OVERHEAD", "WKT": "LINESTRING (-79.11716268308582 35.87148327437601, -79.11713954136877 35.871503309423844, -79.11700857245886 35.87152363363059)" }, "geometry": { "type": "LineString", "coordinates": [ [ -79.117162683085823, 35.871483274376011 ], [ -79.117139541368772, 35.871503309423844 ], [ -79.117008572458857, 35.871523633630588 ] ] } },
{ "type": "Feature", "properties": { "FEEDER_NAME": "Damascus Church Rd. **", "SUBSTATION_NAME": "Westbrook", "wmType": "SECONDARY OVERHEAD", "WKT": "LINESTRING (-79.11690397657678 35.870090381630895, -79.11721962237621 35.869783516607434)" }, "geometry": { "type": "LineString", "coordinates": [ [ -79.116903976576779, 35.870090381630895 ], [ -79.117219622376211, 35.869783516607434 ] ] } },
{ "type": "Feature", "properties": { "FEEDER_NAME": "Damascus Church Rd. **", "SUBSTATION_NAME": "Westbrook", "wmType": "SECONDARY OVERHEAD", "WKT": "LINESTRING (-79.11628586882766 35.869409991857, -79.11611284354366 35.869518781580254)" }, "geometry": { "type": "LineString", "coordinates": [ [ -79.11628586882766, 35.869409991856998 ], [ -79.116112843543661, 35.869518781580254 ] ] } },
{ "type": "Feature", "properties": { "FEEDER_NAME": "Damascus Church Rd. **", "SUBSTATION_NAME": "Westbrook", "wmType": "SECONDARY OVERHEAD", "WKT": "LINESTRING (-79.11675284896654 35.86942380364491, -79.11697356658846 35.86927366714465)" }, "geometry": { "type": "LineString", "coordinates": [ [ -79.116752848966541, 35.869423803644906 ], [ -79.116973566588456, 35.869273667144647 ] ] } },
{ "type": "Feature", "properties": { "FEEDER_NAME": "Damascus Church Rd. **", "SUBSTATION_NAME": "Westbrook", "wmType": "SECONDARY OVERHEAD", "WKT": "LINESTRING (-79.112251047286 35.86627674978465, -79.11207276492911 35.86604960865681)" }, "geometry": { "type": "LineString", "coordinates": [ [ -79.112251047285994, 35.866276749784653 ], [ -79.11207276492911, 35.866049608656809 ] ] } },
{ "type": "Feature", "properties": { "FEEDER_NAME": "Damascus Church Rd. **", "SUBSTATION_NAME": "Westbrook", "wmType": "SECONDARY OVERHEAD", "WKT": "LINESTRING (-79.10740682603138 35.8696718676507, -79.10723127906067 35.86959380858251)" }, "geometry": { "type": "LineString", "coordinates": [ [ -79.107406826031379, 35.869671867650702 ], [ -79.10723127906067, 35.869593808582508 ] ] } },
{ "type": "Feature", "properties": { "FEEDER_NAME": "Damascus Church Rd. **", "SUBSTATION_NAME": "Westbrook", "wmType": "SECONDARY OVERHEAD", "WKT": "LINESTRING (-79.102032644307 35.86866144817673, -79.10211168273904 35.868734998872)" }, "geometry": { "type": "LineString", "coordinates": [ [ -79.102032644307002, 35.868661448176731 ], [ -79.102111682739036, 35.868734998872 ] ] } },
{ "type": "Feature", "properties": { "FEEDER_NAME": "Damascus Church Rd. **", "SUBSTATION_NAME": "Westbrook", "wmType": "SECONDARY OVERHEAD", "WKT": "LINESTRING (-79.10211168273904 35.868734998872, -79.10231669690872 35.86871331712925)" }, "geometry": { "type": "LineString", "coordinates": [ [ -79.102111682739036, 35.868734998872 ], [ -79.102316696908716, 35.868713317129249 ] ] } },
{ "type": "Feature", "properties": { "FEEDER_NAME": "Damascus Church Rd. **", "SUBSTATION_NAME": "Westbrook", "wmType": "SECONDARY OVERHEAD", "WKT": "LINESTRING (-79.10231669690872 35.86871331712925, -79.10234862811268 35.86870367779448)" }, "geometry": { "type": "LineString", "coordinates": [ [ -79.102316696908716, 35.868713317129249 ], [ -79.102348628112679, 35.868703677794478 ] ] } },
{ "type": "Feature", "properties": { "FEEDER_NAME": "Damascus Church Rd. **", "SUBSTATION_NAME": "Westbrook", "wmType": "SECONDARY OVERHEAD", "WKT": "LINESTRING (-79.10511579481553 35.871304474456416, -79.1051232708655 35.87111054177905)" }, "geometry": { "type": "LineString", "coordinates": [ [ -79.105115794815532, 35.871304474456416 ], [ -79.105123270865505, 35.871110541779053 ] ] } },
{ "type": "Feature", "properties": { "FEEDER_NAME": "Damascus Church Rd. **", "SUBSTATION_NAME": "Westbrook", "wmType": "SECONDARY OVERHEAD", "WKT": "LINESTRING (-79.1051232708655 35.87111054177905, -79.1048845909822 35.870969611099)" }, "geometry": { "type": "LineString", "coordinates": [ [ -79.105123270865505, 35.871110541779053 ], [ -79.104884590982195, 35.870969611099 ] ] } },
{ "type": "Feature", "properties": { "FEEDER_NAME": "Damascus Church Rd. **", "SUBSTATION_NAME": "Westbrook", "wmType": "SECONDARY OVERHEAD", "WKT": "LINESTRING (-79.10511579481553 35.871304474456416, -79.1052050263533 35.87147826856146)" }, "geometry": { "type": "LineString", "coordinates": [ [ -79.105115794815532, 35.871304474456416 ], [ -79.105205026353303, 35.871478268561461 ] ] } },
{ "type": "Feature", "properties": { "FEEDER_NAME": "Damascus Church Rd. **", "SUBSTATION_NAME": "Westbrook", "wmType": "SECONDARY OVERHEAD", "WKT": "LINESTRING (-79.1052050263533 35.87147826856146, -79.10527869535167 35.87162246149218)" }, "geometry": { "type": "LineString", "coordinates": [ [ -79.105205026353303, 35.871478268561461 ], [ -79.105278695351672, 35.87162246149218 ] ] } },
{ "type": "Feature", "properties": { "FEEDER_NAME": "Damascus Church Rd. **", "SUBSTATION_NAME": "Westbrook", "wmType": "SECONDARY OVERHEAD", "WKT": "LINESTRING (-79.10527869535167 35.87162246149218, -79.10548673886453 35.87186519985237)" }, "geometry": { "type": "LineString", "coordinates": [ [ -79.105278695351672, 35.87162246149218 ], [ -79.105486738864528, 35.871865199852373 ] ] } },
{ "type": "Feature", "properties": { "FEEDER_NAME": "Damascus Church Rd. **", "SUBSTATION_NAME": "Westbrook", "wmType": "SECONDARY OVERHEAD", "WKT": "LINESTRING (-79.10506481686062 35.87316526280325, -79.10498427943956 35.87339829600969)" }, "geometry": { "type": "LineString", "coordinates": [ [ -79.105064816860619, 35.873165262803248 ], [ -79.104984279439563, 35.87339829600969 ] ] } },
{ "type": "Feature", "properties": { "FEEDER_NAME": "Damascus Church Rd. **", "SUBSTATION_NAME": "Westbrook", "wmType": "SECONDARY OVERHEAD", "WKT": "LINESTRING (-79.10498427943956 35.87339829600969, -79.10501036462452 35.87347350453233)" }, "geometry": { "type": "LineString", "coordinates": [ [ -79.104984279439563, 35.87339829600969 ], [ -79.105010364624519, 35.873473504532328 ] ] } },
{ "type": "Feature", "properties": { "FEEDER_NAME": "Damascus Church Rd. **", "SUBSTATION_NAME": "Westbrook", "wmType": "SECONDARY OVERHEAD", "WKT": "LINESTRING (-79.10569555443743 35.87372061662621, -79.10564669338257 35.87342165215533)" }, "geometry": { "type": "LineString", "coordinates": [ [ -79.105695554437432, 35.873720616626208 ], [ -79.105646693382567, 35.873421652155329 ] ] } },
{ "type": "Feature", "properties": { "FEEDER_NAME": "Damascus Church Rd. **", "SUBSTATION_NAME": "Westbrook", "wmType": "SECONDARY OVERHEAD", "WKT": "LINESTRING (-79.10564669338257 35.87342165215533, -79.10557250516719 35.87315559945568)" }, "geometry": { "type": "LineString", "coordinates": [ [ -79.105646693382567, 35.873421652155329 ], [ -79.105572505167189, 35.873155599455679 ] ] } },
{ "type": "Feature", "properties": { "FEEDER_NAME": "Damascus Church Rd. **", "SUBSTATION_NAME": "Westbrook", "wmType": "SECONDARY OVERHEAD", "WKT": "LINESTRING (-79.10569555443743 35.87372061662621, -79.1053950216045 35.87398798772471)" }, "geometry": { "type": "LineString", "coordinates": [ [ -79.105695554437432, 35.873720616626208 ], [ -79.105395021604494, 35.873987987724711 ] ] } },
{ "type": "Feature", "properties": { "FEEDER_NAME": "Damascus Church Rd. **", "SUBSTATION_NAME": "Westbrook", "wmType": "SECONDARY OVERHEAD", "WKT": "LINESTRING (-79.1053950216045 35.87398798772471, -79.10533000044303 35.87395099984453)" }, "geometry": { "type": "LineString", "coordinates": [ [ -79.105395021604494, 35.873987987724711 ], [ -79.105330000443033, 35.873950999844531 ] ] } },
{ "type": "Feature", "properties": { "FEEDER_NAME": "Damascus Church Rd. **", "SUBSTATION_NAME": "Westbrook", "wmType": "SECONDARY OVERHEAD", "WKT": "LINESTRING (-79.1053950216045 35.87398798772471, -79.10524001177815 35.873874991209924)" }, "geometry": { "type": "LineString", "coordinates": [ [ -79.105395021604494, 35.873987987724711 ], [ -79.10524001177815, 35.873874991209924 ] ] } },
{ "type": "Feature", "properties": { "FEEDER_NAME": "Damascus Church Rd. **", "SUBSTATION_NAME": "Westbrook", "wmType": "SECONDARY OVERHEAD", "WKT": "LINESTRING (-79.11510397864814 35.88287170974174, -79.11556995024641 35.882956987560206)" }, "geometry": { "type": "LineString", "coordinates": [ [ -79.115103978648136, 35.882871709741742 ], [ -79.11556995024641, 35.882956987560206 ] ] } },
{ "type": "Feature", "properties": { "FEEDER_NAME": "Damascus Church Rd. **", "SUBSTATION_NAME": "Westbrook", "wmType": "SECONDARY OVERHEAD", "WKT": "LINESTRING (-79.1161307338614 35.889125290597065, -79.11619945005769 35.88930281392297)" }, "geometry": { "type": "LineString", "coordinates": [ [ -79.116130733861397, 35.889125290597065 ], [ -79.116199450057692, 35.889302813922967 ] ] } },
{ "type": "Feature", "properties": { "FEEDER_NAME": "Damascus Church Rd. **", "SUBSTATION_NAME": "Westbrook", "wmType": "SECONDARY OVERHEAD", "WKT": "LINESTRING (-79.11601290036535 35.88974344640618, -79.11639822583352 35.88965010922949)" }, "geometry": { "type": "LineString", "coordinates": [ [ -79.116012900365348, 35.889743446406179 ], [ -79.116398225833521, 35.889650109229493 ] ] } },
{ "type": "Feature", "properties": { "FEEDER_NAME": "Damascus Church Rd. **", "SUBSTATION_NAME": "Westbrook", "wmType": "SECONDARY OVERHEAD", "WKT": "LINESTRING (-79.112251047286 35.86627674978465, -79.11206217238058 35.8660567297866)" }, "geometry": { "type": "LineString", "coordinates": [ [ -79.112251047285994, 35.866276749784653 ], [ -79.112062172380575, 35.8660567297866 ] ] } },
{ "type": "Feature", "properties": { "FEEDER_NAME": "Damascus Church Rd. **", "SUBSTATION_NAME": "Westbrook", "wmType": "PRIMARY OVERHEAD", "WKT": "LINESTRING (-79.1148860189639 35.882358956722534, -79.11498619523852 35.882346866765666)" }, "geometry": { "type": "LineString", "coordinates": [ [ -79.114886018963901, 35.882358956722534 ], [ -79.114986195238515, 35.882346866765666 ] ] } },
{ "type": "Feature", "properties": { "FEEDER_NAME": "Damascus Church Rd. **", "SUBSTATION_NAME": "Westbrook", "wmType": "PRIMARY OVERHEAD", "WKT": "LINESTRING (-79.11498619523852 35.882346866765666, -79.11513011123853 35.88232949702363)" }, "geometry": { "type": "LineString", "coordinates": [ [ -79.114986195238515, 35.882346866765666 ], [ -79.115130111238528, 35.882329497023633 ] ] } },
{ "type": "Feature", "properties": { "FEEDER_NAME": "Damascus Church Rd. **", "SUBSTATION_NAME": "Westbrook", "wmType": "PRIMARY OVERHEAD", "WKT": "LINESTRING (-79.10041022164852 35.8756340381007, -79.10047846131083 35.87557314588208)" }, "geometry": { "type": "LineString", "coordinates": [ [ -79.100410221648517, 35.875634038100699 ], [ -79.100478461310828, 35.875573145882079 ] ] } },
{ "type": "Feature", "properties": { "FEEDER_NAME": "Damascus Church Rd. **", "SUBSTATION_NAME": "Westbrook", "wmType": "PRIMARY OVERHEAD", "WKT": "LINESTRING (-79.10047846131083 35.87557314588208, -79.10099271787979 35.875114251285915)" }, "geometry": { "type": "LineString", "coordinates": [ [ -79.100478461310828, 35.875573145882079 ], [ -79.100992717879791, 35.875114251285915 ] ] } },
{ "type": "Feature", "properties": { "FEEDER_NAME": "Damascus Church Rd. **", "SUBSTATION_NAME": "Westbrook", "wmType": "PRIMARY OVERHEAD", "WKT": "LINESTRING (-79.10178169660182 35.8749016477042, -79.10185839596981 35.87495545976276)" }, "geometry": { "type": "LineString", "coordinates": [ [ -79.101781696601819, 35.874901647704199 ], [ -79.101858395969813, 35.874955459762759 ] ] } },
{ "type": "Feature", "properties": { "FEEDER_NAME": "Damascus Church Rd. **", "SUBSTATION_NAME": "Westbrook", "wmType": "PRIMARY OVERHEAD", "WKT": "LINESTRING (-79.10185839596981 35.87495545976276, -79.10200794994438 35.87506038570784)" }, "geometry": { "type": "LineString", "coordinates": [ [ -79.101858395969813, 35.874955459762759 ], [ -79.10200794994438, 35.87506038570784 ] ] } },
{ "type": "Feature", "properties": { "FEEDER_NAME": "Damascus Church Rd. **", "SUBSTATION_NAME": "Westbrook", "wmType": "PRIMARY OVERHEAD", "WKT": "LINESTRING (-79.10237000044155 35.874394981475824, -79.10229980579498 35.87433557972576)" }, "geometry": { "type": "LineString", "coordinates": [ [ -79.102370000441553, 35.874394981475824 ], [ -79.102299805794985, 35.874335579725759 ] ] } },
{ "type": "Feature", "properties": { "FEEDER_NAME": "Damascus Church Rd. **", "SUBSTATION_NAME": "Westbrook", "wmType": "PRIMARY OVERHEAD", "WKT": "LINESTRING (-79.10229980579498 35.87433557972576, -79.1018070903507 35.873918619165316)" }, "geometry": { "type": "LineString", "coordinates": [ [ -79.102299805794985, 35.874335579725759 ], [ -79.101807090350704, 35.873918619165316 ] ] } },
{ "type": "Feature", "properties": { "FEEDER_NAME": "Damascus Church Rd. **", "SUBSTATION_NAME": "Westbrook", "wmType": "PRIMARY OVERHEAD", "WKT": "LINESTRING (-79.10274558063861 35.87415439494205, -79.10278499372913 35.87423031194015)" }, "geometry": { "type": "LineString", "coordinates": [ [ -79.102745580638612, 35.874154394942053 ], [ -79.102784993729131, 35.874230311940153 ] ] } },
{ "type": "Feature", "properties": { "FEEDER_NAME": "Damascus Church Rd. **", "SUBSTATION_NAME": "Westbrook", "wmType": "PRIMARY OVERHEAD", "WKT": "LINESTRING (-79.10278499372913 35.87423031194015, -79.10312553822013 35.87488626100038)" }, "geometry": { "type": "LineString", "coordinates": [ [ -79.102784993729131, 35.874230311940153 ], [ -79.103125538220127, 35.874886261000377 ] ] } },
{ "type": "Feature", "properties": { "FEEDER_NAME": "Damascus Church Rd. **", "SUBSTATION_NAME": "Westbrook", "wmType": "PRIMARY OVERHEAD", "WKT": "LINESTRING (-79.10287268675256 35.87395994986981, -79.10278851947345 35.87391412586862)" }, "geometry": { "type": "LineString", "coordinates": [ [ -79.102872686752562, 35.873959949869807 ], [ -79.102788519473449, 35.873914125868623 ] ] } },
{ "type": "Feature", "properties": { "FEEDER_NAME": "Damascus Church Rd. **", "SUBSTATION_NAME": "Westbrook", "wmType": "PRIMARY OVERHEAD", "WKT": "LINESTRING (-79.10278851947345 35.87391412586862, -79.10260334647651 35.87381331015952)" }, "geometry": { "type": "LineString", "coordinates": [ [ -79.102788519473449, 35.873914125868623 ], [ -79.102603346476513, 35.87381331015952 ] ] } },
{ "type": "Feature", "properties": { "FEEDER_NAME": "Damascus Church Rd. **", "SUBSTATION_NAME": "Westbrook", "wmType": "PRIMARY OVERHEAD", "WKT": "LINESTRING (-79.10287268675256 35.87395994986981, -79.10297146878126 35.873978079386696)" }, "geometry": { "type": "LineString", "coordinates": [ [ -79.102872686752562, 35.873959949869807 ], [ -79.102971468781263, 35.873978079386696 ] ] } },
{ "type": "Feature", "properties": { "FEEDER_NAME": "Damascus Church Rd. **", "SUBSTATION_NAME": "Westbrook", "wmType": "PRIMARY OVERHEAD", "WKT": "LINESTRING (-79.10297146878126 35.873978079386696, -79.10326591104352 35.87403211665459)" }, "geometry": { "type": "LineString", "coordinates": [ [ -79.102971468781263, 35.873978079386696 ], [ -79.103265911043522, 35.87403211665459 ] ] } },
{ "type": "Feature", "properties": { "FEEDER_NAME": "Damascus Church Rd. **", "SUBSTATION_NAME": "Westbrook", "wmType": "PRIMARY OVERHEAD", "WKT": "LINESTRING (-79.10376571175317 35.87321825736083, -79.10379246014776 35.87329774592961)" }, "geometry": { "type": "LineString", "coordinates": [ [ -79.103765711753169, 35.873218257360833 ], [ -79.103792460147758, 35.873297745929612 ] ] } },
{ "type": "Feature", "properties": { "FEEDER_NAME": "Damascus Church Rd. **", "SUBSTATION_NAME": "Westbrook", "wmType": "PRIMARY OVERHEAD", "WKT": "LINESTRING (-79.10379246014776 35.87329774592961, -79.10397177423592 35.873830606656604)" }, "geometry": { "type": "LineString", "coordinates": [ [ -79.103792460147758, 35.873297745929612 ], [ -79.103971774235916, 35.873830606656604 ] ] } },
{ "type": "Feature", "properties": { "FEEDER_NAME": "Damascus Church Rd. **", "SUBSTATION_NAME": "Westbrook", "wmType": "PRIMARY OVERHEAD", "WKT": "LINESTRING (-79.112251047286 35.86627674978465, -79.11228052050842 35.8661979024305)" }, "geometry": { "type": "LineString", "coordinates": [ [ -79.112251047285994, 35.866276749784653 ], [ -79.112280520508421, 35.8661979024305 ] ] } },
{ "type": "Feature", "properties": { "FEEDER_NAME": "Damascus Church Rd. **", "SUBSTATION_NAME": "Westbrook", "wmType": "PRIMARY OVERHEAD", "WKT": "LINESTRING (-79.11228052050842 35.8661979024305, -79.11247146290995 35.865687075040434)" }, "geometry": { "type": "LineString", "coordinates": [ [ -79.112280520508421, 35.8661979024305 ], [ -79.112471462909951, 35.865687075040434 ] ] } },
{ "type": "Feature", "properties": { "FEEDER_NAME": "Damascus Church Rd. **", "SUBSTATION_NAME": "Westbrook", "wmType": "PRIMARY OVERHEAD", "WKT": "LINESTRING (-79.11445155666779 35.867583177658325, -79.11446863832437 35.867501942132)" }, "geometry": { "type": "LineString", "coordinates": [ [ -79.114451556667788, 35.867583177658325 ], [ -79.114468638324368, 35.867501942132002 ] ] } },
{ "type": "Feature", "properties": { "FEEDER_NAME": "Damascus Church Rd. **", "SUBSTATION_NAME": "Westbrook", "wmType": "PRIMARY OVERHEAD", "WKT": "LINESTRING (-79.11446863832437 35.867501942132, -79.11459216201028 35.86691450975172)" }, "geometry": { "type": "LineString", "coordinates": [ [ -79.114468638324368, 35.867501942132002 ], [ -79.114592162010283, 35.866914509751723 ] ] } },
{ "type": "Feature", "properties": { "FEEDER_NAME": "Damascus Church Rd. **", "SUBSTATION_NAME": "Westbrook", "wmType": "PRIMARY OVERHEAD", "WKT": "LINESTRING (-79.11627914614787 35.86893678987796, -79.11630290181054 35.86885667351366)" }, "geometry": { "type": "LineString", "coordinates": [ [ -79.116279146147875, 35.868936789877957 ], [ -79.116302901810542, 35.868856673513662 ] ] } },
{ "type": "Feature", "properties": { "FEEDER_NAME": "Damascus Church Rd. **", "SUBSTATION_NAME": "Westbrook", "wmType": "PRIMARY OVERHEAD", "WKT": "LINESTRING (-79.11630290181054 35.86885667351366, -79.11637037327782 35.86862912399625)" }, "geometry": { "type": "LineString", "coordinates": [ [ -79.116302901810542, 35.868856673513662 ], [ -79.116370373277817, 35.86862912399625 ] ] } },
{ "type": "Feature", "properties": { "FEEDER_NAME": "Damascus Church Rd. **", "SUBSTATION_NAME": "Westbrook", "wmType": "PRIMARY OVERHEAD", "WKT": "LINESTRING (-79.11814301927552 35.872786981470625, -79.11810044402888 35.87286175888691)" }, "geometry": { "type": "LineString", "coordinates": [ [ -79.118143019275522, 35.872786981470625 ], [ -79.118100444028883, 35.872861758886913 ] ] } },
{ "type": "Feature", "properties": { "FEEDER_NAME": "Damascus Church Rd. **", "SUBSTATION_NAME": "Westbrook", "wmType": "PRIMARY OVERHEAD", "WKT": "LINESTRING (-79.11810044402888 35.87286175888691, -79.11795000459941 35.87312598269069)" }, "geometry": { "type": "LineString", "coordinates": [ [ -79.118100444028883, 35.872861758886913 ], [ -79.117950004599408, 35.873125982690688 ] ] } },
{ "type": "Feature", "properties": { "FEEDER_NAME": "Damascus Church Rd. **", "SUBSTATION_NAME": "Westbrook", "wmType": "PRIMARY OVERHEAD", "WKT": "LINESTRING (-79.11870715750528 35.87348801766284, -79.11861325276801 35.873518857392924)" }, "geometry": { "type": "LineString", "coordinates": [ [ -79.118707157505284, 35.873488017662837 ], [ -79.118613252768014, 35.873518857392924 ] ] } },
{ "type": "Feature", "properties": { "FEEDER_NAME": "Damascus Church Rd. **", "SUBSTATION_NAME": "Westbrook", "wmType": "PRIMARY OVERHEAD", "WKT": "LINESTRING (-79.11861325276801 35.873518857392924, -79.11808402531874 35.873692658692164)" }, "geometry": { "type": "LineString", "coordinates": [ [ -79.118613252768014, 35.873518857392924 ], [ -79.118084025318737, 35.873692658692164 ] ] } },
{ "type": "Feature", "properties": { "FEEDER_NAME": "Damascus Church Rd. **", "SUBSTATION_NAME": "Westbrook", "wmType": "PRIMARY OVERHEAD", "WKT": "LINESTRING (-79.11892192874052 35.87380629361036, -79.11888302667616 35.87388238541423)" }, "geometry": { "type": "LineString", "coordinates": [ [ -79.118921928740519, 35.873806293610357 ], [ -79.118883026676158, 35.873882385414227 ] ] } },
{ "type": "Feature", "properties": { "FEEDER_NAME": "Damascus Church Rd. **", "SUBSTATION_NAME": "Westbrook", "wmType": "PRIMARY OVERHEAD", "WKT": "LINESTRING (-79.11888302667616 35.87388238541423, -79.11879722986443 35.874050202864304)" }, "geometry": { "type": "LineString", "coordinates": [ [ -79.118883026676158, 35.873882385414227 ], [ -79.118797229864427, 35.874050202864304 ] ] } },
{ "type": "Feature", "properties": { "FEEDER_NAME": "Damascus Church Rd. **", "SUBSTATION_NAME": "Westbrook", "wmType": "PRIMARY OVERHEAD", "WKT": "LINESTRING (-79.12324853102012 35.87557169792059, -79.12329974097972 35.87550059732637)" }, "geometry": { "type": "LineString", "coordinates": [ [ -79.123248531020124, 35.875571697920591 ], [ -79.123299740979718, 35.875500597326372 ] ] } },
{ "type": "Feature", "properties": { "FEEDER_NAME": "Damascus Church Rd. **", "SUBSTATION_NAME": "Westbrook", "wmType": "PRIMARY OVERHEAD", "WKT": "LINESTRING (-79.12329974097972 35.87550059732637, -79.12366849091839 35.87498861697799)" }, "geometry": { "type": "LineString", "coordinates": [ [ -79.123299740979718, 35.875500597326372 ], [ -79.123668490918391, 35.874988616977987 ] ] } },
{ "type": "Feature", "properties": { "FEEDER_NAME": "Damascus Church Rd. **", "SUBSTATION_NAME": "Westbrook", "wmType": "PRIMARY OVERHEAD", "WKT": "LINESTRING (-79.12329974097972 35.87550059732637, -79.12331124268867 35.87551044355871, -79.12332059205144 35.87552169859489, -79.1233275330994 35.87553405429359, -79.12333187579878 35.87554717237925, -79.12333350125338 35.87556069370355, -79.12333236495996 35.87557424807802, -79.12332849802675 35.87558746440912, -79.1233220063219 35.875599980858205, -79.1233130675752 35.87561145474794, -79.12330192651223 35.87562157194418, -79.12328888815429 35.87563005545646, -79.12327430946755 35.87563667302158, -79.1232585895899 35.87564124346249, -79.12324215890325 35.87564364164875, -79.12322546725038 35.8756438019223, -79.12320897161888 35.87564171989514, -79.12319312362962 35.87563745256944, -79.12317835717197 35.875631116776944)" }, "geometry": { "type": "LineString", "coordinates": [ [ -79.123299740979718, 35.875500597326372 ], [ -79.123311242688672, 35.87551044355871 ], [ -79.123320592051442, 35.875521698594888 ], [ -79.123327533099399, 35.875534054293588 ], [ -79.123331875798783, 35.87554717237925 ], [ -79.123333501253384, 35.875560693703548 ], [ -79.123332364959964, 35.875574248078017 ], [ -79.123328498026751, 35.875587464409122 ], [ -79.123322006321899, 35.875599980858205 ], [ -79.123313067575197, 35.87561145474794 ], [ -79.123301926512227, 35.87562157194418 ], [ -79.123288888154292, 35.875630055456462 ], [ -79.123274309467547, 35.875636673021582 ], [ -79.123258589589895, 35.875641243462489 ], [ -79.123242158903253, 35.87564364164875 ], [ -79.123225467250379, 35.875643801922301 ], [ -79.12320897161888, 35.875641719895143 ], [ -79.123193123629619, 35.875637452569443 ], [ -79.123178357171966, 35.875631116776944 ] ] } },
{ "type": "Feature", "properties": { "FEEDER_NAME": "Damascus Church Rd. **", "SUBSTATION_NAME": "Westbrook", "wmType": "PRIMARY OVERHEAD", "WKT": "LINESTRING (-79.12317835717197 35.875631116776944, -79.1227230397721 35.876016644397396)" }, "geometry": { "type": "LineString", "coordinates": [ [ -79.123178357171966, 35.875631116776944 ], [ -79.122723039772097, 35.876016644397396 ] ] } },
{ "type": "Feature", "properties": { "FEEDER_NAME": "Damascus Church Rd. **", "SUBSTATION_NAME": "Westbrook", "wmType": "PRIMARY OVERHEAD", "WKT": "LINESTRING (-79.10374665537286 35.87308440661928, -79.10377691377222 35.87306013008763)" }, "geometry": { "type": "LineString", "coordinates": [ [ -79.103746655372859, 35.873084406619277 ], [ -79.103776913772222, 35.87306013008763 ] ] } },
{ "type": "Feature", "properties": { "FEEDER_NAME": "Damascus Church Rd. **", "SUBSTATION_NAME": "Westbrook", "wmType": "PRIMARY OVERHEAD", "WKT": "LINESTRING (-79.11595600328769 35.89087508152078, -79.11597665453911 35.8908591258336)" }, "geometry": { "type": "LineString", "coordinates": [ [ -79.115956003287693, 35.890875081520782 ], [ -79.115976654539111, 35.8908591258336 ] ] } },
{ "type": "Feature", "properties": { "FEEDER_NAME": "Damascus Church Rd. **", "SUBSTATION_NAME": "Westbrook", "wmType": "SECONDARY OVERHEAD", "WKT": "LINESTRING (-79.11588962562038 35.888957342593095, -79.1161307338614 35.889125290597065)" }, "geometry": { "type": "LineString", "coordinates": [ [ -79.115889625620383, 35.888957342593095 ], [ -79.116130733861397, 35.889125290597065 ] ] } },
{ "type": "Feature", "properties": { "FEEDER_NAME": "Damascus Church Rd. **", "SUBSTATION_NAME": "Westbrook", "wmType": "SECONDARY OVERHEAD", "WKT": "LINESTRING (-79.11721962237621 35.869783516607434, -79.11728973974091 35.86961625137433)" }, "geometry": { "type": "LineString", "coordinates": [ [ -79.117219622376211, 35.869783516607434 ], [ -79.117289739740912, 35.869616251374332 ] ] } },
{ "type": "Feature", "properties": { "FEEDER_NAME": "Damascus Church Rd. **", "SUBSTATION_NAME": "Westbrook", "wmType": "SECONDARY OVERHEAD", "WKT": "LINESTRING (-79.1161307338614 35.889125290597065, -79.11629673509886 35.88901229021593)" }, "geometry": { "type": "LineString", "coordinates": [ [ -79.116130733861397, 35.889125290597065 ], [ -79.116296735098857, 35.889012290215931 ] ] } },
{ "type": "Feature", "properties": { "FEEDER_NAME": "Damascus Church Rd. **", "SUBSTATION_NAME": "Westbrook", "wmType": "SECONDARY OVERHEAD", "WKT": "LINESTRING (-79.11488931689016 35.88235408202266, -79.11471632287686 35.88195665155484)" }, "geometry": { "type": "LineString", "coordinates": [ [ -79.114889316890157, 35.882354082022658 ], [ -79.114716322876859, 35.881956651554837 ] ] } },
{ "type": "Feature", "properties": { "FEEDER_NAME": "Damascus Church Rd. **", "SUBSTATION_NAME": "Westbrook", "wmType": "SECONDARY OVERHEAD", "WKT": "LINESTRING (-79.11650511078018 35.868278093754114, -79.1166537390141 35.86845124879588)" }, "geometry": { "type": "LineString", "coordinates": [ [ -79.116505110780182, 35.868278093754114 ], [ -79.116653739014097, 35.868451248795878 ] ] } },
{ "type": "Feature", "properties": { "FEEDER_NAME": "Damascus Church Rd. **", "SUBSTATION_NAME": "Westbrook", "wmType": "PRIMARY OVERHEAD", "WKT": "LINESTRING (-79.10438369537391 35.87268909596121, -79.10361971083724 35.873186256806186)" }, "geometry": { "type": "LineString", "coordinates": [ [ -79.104383695373912, 35.872689095961213 ], [ -79.103619710837236, 35.873186256806186 ] ] } },
{ "type": "Feature", "properties": { "FEEDER_NAME": "Damascus Church Rd. **", "SUBSTATION_NAME": "Westbrook", "wmType": "PRIMARY OVERHEAD", "WKT": "LINESTRING (-79.11597665453911 35.8908591258336, -79.11612776586409 35.89075127917916)" }, "geometry": { "type": "LineString", "coordinates": [ [ -79.115976654539111, 35.8908591258336 ], [ -79.116127765864093, 35.890751279179163 ] ] } },
{ "type": "Feature", "properties": { "FEEDER_NAME": "Damascus Church Rd. **", "SUBSTATION_NAME": "Westbrook", "wmType": "PRIMARY OVERHEAD", "WKT": "LINESTRING (-79.11612776586409 35.89075127917916, -79.1162707603718 35.89059828895625)" }, "geometry": { "type": "LineString", "coordinates": [ [ -79.116127765864093, 35.890751279179163 ], [ -79.116270760371805, 35.890598288956248 ] ] } },
{ "type": "Feature", "properties": { "FEEDER_NAME": "Damascus Church Rd. **", "SUBSTATION_NAME": "Westbrook", "wmType": "PRIMARY OVERHEAD", "WKT": "LINESTRING (-79.1162707603718 35.89059828895625, -79.11636335813263 35.89073299875298)" }, "geometry": { "type": "LineString", "coordinates": [ [ -79.116270760371805, 35.890598288956248 ], [ -79.116363358132631, 35.890732998752981 ] ] } },
{ "type": "Feature", "properties": { "FEEDER_NAME": "Damascus Church Rd. **", "SUBSTATION_NAME": "Westbrook", "wmType": "PRIMARY OVERHEAD", "WKT": "LINESTRING (-79.1162707603718 35.89059828895625, -79.11601290036535 35.88974344640618)" }, "geometry": { "type": "LineString", "coordinates": [ [ -79.116270760371805, 35.890598288956248 ], [ -79.116012900365348, 35.889743446406179 ] ] } },
{ "type": "Feature", "properties": { "FEEDER_NAME": "Damascus Church Rd. **", "SUBSTATION_NAME": "Westbrook", "wmType": "PRIMARY OVERHEAD", "WKT": "LINESTRING (-79.11601290036535 35.88974344640618, -79.11588962562038 35.888957342593095)" }, "geometry": { "type": "LineString", "coordinates": [ [ -79.116012900365348, 35.889743446406179 ], [ -79.115889625620383, 35.888957342593095 ] ] } },
{ "type": "Feature", "properties": { "FEEDER_NAME": "Damascus Church Rd. **", "SUBSTATION_NAME": "Westbrook", "wmType": "PRIMARY OVERHEAD", "WKT": "LINESTRING (-79.11588962562038 35.888957342593095, -79.11578092426394 35.88814990139878)" }, "geometry": { "type": "LineString", "coordinates": [ [ -79.115889625620383, 35.888957342593095 ], [ -79.115780924263944, 35.888149901398783 ] ] } },
{ "type": "Feature", "properties": { "FEEDER_NAME": "Damascus Church Rd. **", "SUBSTATION_NAME": "Westbrook", "wmType": "PRIMARY OVERHEAD", "WKT": "LINESTRING (-79.11578092426394 35.88814990139878, -79.1157311337283 35.887535818087656)" }, "geometry": { "type": "LineString", "coordinates": [ [ -79.115780924263944, 35.888149901398783 ], [ -79.115731133728303, 35.887535818087656 ] ] } },
{ "type": "Feature", "properties": { "FEEDER_NAME": "Damascus Church Rd. **", "SUBSTATION_NAME": "Westbrook", "wmType": "PRIMARY OVERHEAD", "WKT": "LINESTRING (-79.1157311337283 35.887535818087656, -79.11555458402728 35.88644034105128)" }, "geometry": { "type": "LineString", "coordinates": [ [ -79.115731133728303, 35.887535818087656 ], [ -79.115554584027279, 35.886440341051276 ] ] } },
{ "type": "Feature", "properties": { "FEEDER_NAME": "Damascus Church Rd. **", "SUBSTATION_NAME": "Westbrook", "wmType": "PRIMARY OVERHEAD", "WKT": "LINESTRING (-79.11555458402728 35.88644034105128, -79.1155152527997 35.88570769969034)" }, "geometry": { "type": "LineString", "coordinates": [ [ -79.115554584027279, 35.886440341051276 ], [ -79.115515252799696, 35.885707699690343 ] ] } },
{ "type": "Feature", "properties": { "FEEDER_NAME": "Damascus Church Rd. **", "SUBSTATION_NAME": "Westbrook", "wmType": "PRIMARY OVERHEAD", "WKT": "LINESTRING (-79.1155152527997 35.88570769969034, -79.11543480149035 35.88504303520609)" }, "geometry": { "type": "LineString", "coordinates": [ [ -79.115515252799696, 35.885707699690343 ], [ -79.115434801490352, 35.885043035206088 ] ] } },
{ "type": "Feature", "properties": { "FEEDER_NAME": "Damascus Church Rd. **", "SUBSTATION_NAME": "Westbrook", "wmType": "PRIMARY OVERHEAD", "WKT": "LINESTRING (-79.11543480149035 35.88504303520609, -79.11528853218 35.883959566074765)" }, "geometry": { "type": "LineString", "coordinates": [ [ -79.115434801490352, 35.885043035206088 ], [ -79.115288532180003, 35.883959566074765 ] ] } },
{ "type": "Feature", "properties": { "FEEDER_NAME": "Damascus Church Rd. **", "SUBSTATION_NAME": "Westbrook", "wmType": "PRIMARY OVERHEAD", "WKT": "LINESTRING (-79.11528853218 35.883959566074765, -79.11525536667818 35.88328653274065)" }, "geometry": { "type": "LineString", "coordinates": [ [ -79.115288532180003, 35.883959566074765 ], [ -79.115255366678184, 35.883286532740648 ] ] } },
{ "type": "Feature", "properties": { "FEEDER_NAME": "Damascus Church Rd. **", "SUBSTATION_NAME": "Westbrook", "wmType": "PRIMARY OVERHEAD", "WKT": "LINESTRING (-79.11525536667818 35.88328653274065, -79.11510397864814 35.88287170974174)" }, "geometry": { "type": "LineString", "coordinates": [ [ -79.115255366678184, 35.883286532740648 ], [ -79.115103978648136, 35.882871709741742 ] ] } },
{ "type": "Feature", "properties": { "FEEDER_NAME": "Damascus Church Rd. **", "SUBSTATION_NAME": "Westbrook", "wmType": "PRIMARY OVERHEAD", "WKT": "LINESTRING (-79.11510397864814 35.88287170974174, -79.1148860189639 35.882358956722534)" }, "geometry": { "type": "LineString", "coordinates": [ [ -79.115103978648136, 35.882871709741742 ], [ -79.114886018963901, 35.882358956722534 ] ] } },
{ "type": "Feature", "properties": { "FEEDER_NAME": "Damascus Church Rd. **", "SUBSTATION_NAME": "Westbrook", "wmType": "PRIMARY OVERHEAD", "WKT": "LINESTRING (-79.1148860189639 35.882358956722534, -79.11469457105352 35.881947990566516)" }, "geometry": { "type": "LineString", "coordinates": [ [ -79.114886018963901, 35.882358956722534 ], [ -79.114694571053519, 35.881947990566516 ] ] } },
{ "type": "Feature", "properties": { "FEEDER_NAME": "Damascus Church Rd. **", "SUBSTATION_NAME": "Westbrook", "wmType": "PRIMARY OVERHEAD", "WKT": "LINESTRING (-79.11469457105352 35.881947990566516, -79.11449921963333 35.881496917497415)" }, "geometry": { "type": "LineString", "coordinates": [ [ -79.114694571053519, 35.881947990566516 ], [ -79.114499219633331, 35.881496917497415 ] ] } },
{ "type": "Feature", "properties": { "FEEDER_NAME": "Damascus Church Rd. **", "SUBSTATION_NAME": "Westbrook", "wmType": "PRIMARY OVERHEAD", "WKT": "LINESTRING (-79.11449921963333 35.881496917497415, -79.11441128390379 35.88128329515057)" }, "geometry": { "type": "LineString", "coordinates": [ [ -79.114499219633331, 35.881496917497415 ], [ -79.114411283903792, 35.881283295150567 ] ] } },
{ "type": "Feature", "properties": { "FEEDER_NAME": "Damascus Church Rd. **", "SUBSTATION_NAME": "Westbrook", "wmType": "PRIMARY OVERHEAD", "WKT": "LINESTRING (-79.11441128390379 35.88128329515057, -79.11418504520816 35.88066302262497)" }, "geometry": { "type": "LineString", "coordinates": [ [ -79.114411283903792, 35.881283295150567 ], [ -79.11418504520816, 35.880663022624972 ] ] } },
{ "type": "Feature", "properties": { "FEEDER_NAME": "Damascus Church Rd. **", "SUBSTATION_NAME": "Westbrook", "wmType": "PRIMARY OVERHEAD", "WKT": "LINESTRING (-79.11418504520816 35.88066302262497, -79.11370668585009 35.88021295536289)" }, "geometry": { "type": "LineString", "coordinates": [ [ -79.11418504520816, 35.880663022624972 ], [ -79.11370668585009, 35.880212955362893 ] ] } },
{ "type": "Feature", "properties": { "FEEDER_NAME": "Damascus Church Rd. **", "SUBSTATION_NAME": "Westbrook", "wmType": "PRIMARY OVERHEAD", "WKT": "LINESTRING (-79.11370668585009 35.88021295536289, -79.11301863068363 35.87966157112434)" }, "geometry": { "type": "LineString", "coordinates": [ [ -79.11370668585009, 35.880212955362893 ], [ -79.113018630683626, 35.879661571124338 ] ] } },
{ "type": "Feature", "properties": { "FEEDER_NAME": "Damascus Church Rd. **", "SUBSTATION_NAME": "Westbrook", "wmType": "PRIMARY OVERHEAD", "WKT": "LINESTRING (-79.11301863068363 35.87966157112434, -79.11200788998859 35.87890075661219)" }, "geometry": { "type": "LineString", "coordinates": [ [ -79.113018630683626, 35.879661571124338 ], [ -79.11200788998859, 35.87890075661219 ] ] } },
{ "type": "Feature", "properties": { "FEEDER_NAME": "Damascus Church Rd. **", "SUBSTATION_NAME": "Westbrook", "wmType": "PRIMARY OVERHEAD", "WKT": "LINESTRING (-79.11200788998859 35.87890075661219, -79.11137712703814 35.878339640057995)" }, "geometry": { "type": "LineString", "coordinates": [ [ -79.11200788998859, 35.87890075661219 ], [ -79.111377127038139, 35.878339640057995 ] ] } },
{ "type": "Feature", "properties": { "FEEDER_NAME": "Damascus Church Rd. **", "SUBSTATION_NAME": "Westbrook", "wmType": "PRIMARY OVERHEAD", "WKT": "LINESTRING (-79.11137712703814 35.878339640057995, -79.11059031632432 35.87770047544432)" }, "geometry": { "type": "LineString", "coordinates": [ [ -79.111377127038139, 35.878339640057995 ], [ -79.11059031632432, 35.877700475444321 ] ] } },
{ "type": "Feature", "properties": { "FEEDER_NAME": "Damascus Church Rd. **", "SUBSTATION_NAME": "Westbrook", "wmType": "PRIMARY OVERHEAD", "WKT": "LINESTRING (-79.11059031632432 35.87770047544432, -79.10992803685988 35.87713295157228)" }, "geometry": { "type": "LineString", "coordinates": [ [ -79.11059031632432, 35.877700475444321 ], [ -79.109928036859884, 35.877132951572278 ] ] } },
{ "type": "Feature", "properties": { "FEEDER_NAME": "Damascus Church Rd. **", "SUBSTATION_NAME": "Westbrook", "wmType": "PRIMARY OVERHEAD", "WKT": "LINESTRING (-79.10992803685988 35.87713295157228, -79.10913231350634 35.87652584507954)" }, "geometry": { "type": "LineString", "coordinates": [ [ -79.109928036859884, 35.877132951572278 ], [ -79.109132313506336, 35.876525845079541 ] ] } },
{ "type": "Feature", "properties": { "FEEDER_NAME": "Damascus Church Rd. **", "SUBSTATION_NAME": "Westbrook", "wmType": "PRIMARY OVERHEAD", "WKT": "LINESTRING (-79.10913231350634 35.87652584507954, -79.10839549812695 35.87583802410967)" }, "geometry": { "type": "LineString", "coordinates": [ [ -79.109132313506336, 35.876525845079541 ], [ -79.108395498126953, 35.875838024109669 ] ] } },
{ "type": "Feature", "properties": { "FEEDER_NAME": "Damascus Church Rd. **", "SUBSTATION_NAME": "Westbrook", "wmType": "PRIMARY OVERHEAD", "WKT": "LINESTRING (-79.10839549812695 35.87583802410967, -79.10748062052579 35.875059970829426)" }, "geometry": { "type": "LineString", "coordinates": [ [ -79.108395498126953, 35.875838024109669 ], [ -79.107480620525791, 35.875059970829426 ] ] } },
{ "type": "Feature", "properties": { "FEEDER_NAME": "Damascus Church Rd. **", "SUBSTATION_NAME": "Westbrook", "wmType": "PRIMARY OVERHEAD", "WKT": "LINESTRING (-79.10748062052579 35.875059970829426, -79.10684230112413 35.87465965837947)" }, "geometry": { "type": "LineString", "coordinates": [ [ -79.107480620525791, 35.875059970829426 ], [ -79.106842301124132, 35.874659658379471 ] ] } },
{ "type": "Feature", "properties": { "FEEDER_NAME": "Damascus Church Rd. **", "SUBSTATION_NAME": "Westbrook", "wmType": "PRIMARY OVERHEAD", "WKT": "LINESTRING (-79.10684230112413 35.87465965837947, -79.10658902211456 35.87443911462046)" }, "geometry": { "type": "LineString", "coordinates": [ [ -79.106842301124132, 35.874659658379471 ], [ -79.106589022114562, 35.874439114620458 ] ] } },
{ "type": "Feature", "properties": { "FEEDER_NAME": "Damascus Church Rd. **", "SUBSTATION_NAME": "Westbrook", "wmType": "PRIMARY OVERHEAD", "WKT": "LINESTRING (-79.10658902211456 35.87443911462046, -79.10636487408395 35.87424392775116)" }, "geometry": { "type": "LineString", "coordinates": [ [ -79.106589022114562, 35.874439114620458 ], [ -79.106364874083951, 35.874243927751159 ] ] } },
{ "type": "Feature", "properties": { "FEEDER_NAME": "Damascus Church Rd. **", "SUBSTATION_NAME": "Westbrook", "wmType": "PRIMARY OVERHEAD", "WKT": "LINESTRING (-79.10636487408395 35.87424392775116, -79.10569555443743 35.87372061662621)" }, "geometry": { "type": "LineString", "coordinates": [ [ -79.106364874083951, 35.874243927751159 ], [ -79.105695554437432, 35.873720616626208 ] ] } },
{ "type": "Feature", "properties": { "FEEDER_NAME": "Damascus Church Rd. **", "SUBSTATION_NAME": "Westbrook", "wmType": "PRIMARY OVERHEAD", "WKT": "LINESTRING (-79.10569555443743 35.87372061662621, -79.10506481686062 35.87316526280325)" }, "geometry": { "type": "LineString", "coordinates": [ [ -79.105695554437432, 35.873720616626208 ], [ -79.105064816860619, 35.873165262803248 ] ] } },
{ "type": "Feature", "properties": { "FEEDER_NAME": "Damascus Church Rd. **", "SUBSTATION_NAME": "Westbrook", "wmType": "PRIMARY OVERHEAD", "WKT": "LINESTRING (-79.10506481686062 35.87316526280325, -79.10438369537391 35.87268909596121)" }, "geometry": { "type": "LineString", "coordinates": [ [ -79.105064816860619, 35.873165262803248 ], [ -79.104383695373912, 35.872689095961213 ] ] } },
{ "type": "Feature", "properties": { "FEEDER_NAME": "Damascus Church Rd. **", "SUBSTATION_NAME": "Westbrook", "wmType": "PRIMARY OVERHEAD", "WKT": "LINESTRING (-79.10361971083724 35.873186256806186, -79.10287268675256 35.87395994986981)" }, "geometry": { "type": "LineString", "coordinates": [ [ -79.103619710837236, 35.873186256806186 ], [ -79.102872686752562, 35.873959949869807 ] ] } },
{ "type": "Feature", "properties": { "FEEDER_NAME": "Damascus Church Rd. **", "SUBSTATION_NAME": "Westbrook", "wmType": "PRIMARY OVERHEAD", "WKT": "LINESTRING (-79.10287268675256 35.87395994986981, -79.10237000044155 35.874394981475824)" }, "geometry": { "type": "LineString", "coordinates": [ [ -79.102872686752562, 35.873959949869807 ], [ -79.102370000441553, 35.874394981475824 ] ] } },
{ "type": "Feature", "properties": { "FEEDER_NAME": "Damascus Church Rd. **", "SUBSTATION_NAME": "Westbrook", "wmType": "PRIMARY OVERHEAD", "WKT": "LINESTRING (-79.10237000044155 35.874394981475824, -79.10178169660182 35.8749016477042)" }, "geometry": { "type": "LineString", "coordinates": [ [ -79.102370000441553, 35.874394981475824 ], [ -79.101781696601819, 35.874901647704199 ] ] } },
{ "type": "Feature", "properties": { "FEEDER_NAME": "Damascus Church Rd. **", "SUBSTATION_NAME": "Westbrook", "wmType": "PRIMARY OVERHEAD", "WKT": "LINESTRING (-79.10178169660182 35.8749016477042, -79.10090024742937 35.87553344269615)" }, "geometry": { "type": "LineString", "coordinates": [ [ -79.101781696601819, 35.874901647704199 ], [ -79.100900247429365, 35.875533442696153 ] ] } },
{ "type": "Feature", "properties": { "FEEDER_NAME": "Damascus Church Rd. **", "SUBSTATION_NAME": "Westbrook", "wmType": "PRIMARY OVERHEAD", "WKT": "LINESTRING (-79.10090024742937 35.87553344269615, -79.1008032948152 35.87563357597911)" }, "geometry": { "type": "LineString", "coordinates": [ [ -79.100900247429365, 35.875533442696153 ], [ -79.100803294815194, 35.875633575979109 ] ] } },
{ "type": "Feature", "properties": { "FEEDER_NAME": "Damascus Church Rd. **", "SUBSTATION_NAME": "Westbrook", "wmType": "PRIMARY OVERHEAD", "WKT": "LINESTRING (-79.1008032948152 35.87563357597911, -79.10041022164852 35.8756340381007)" }, "geometry": { "type": "LineString", "coordinates": [ [ -79.100803294815194, 35.875633575979109 ], [ -79.100410221648517, 35.875634038100699 ] ] } },
{ "type": "Feature", "properties": { "FEEDER_NAME": "Damascus Church Rd. **", "SUBSTATION_NAME": "Westbrook", "wmType": "PRIMARY OVERHEAD", "WKT": "LINESTRING (-79.10041022164852 35.8756340381007, -79.09946518220818 35.87562541621527)" }, "geometry": { "type": "LineString", "coordinates": [ [ -79.100410221648517, 35.875634038100699 ], [ -79.099465182208178, 35.875625416215271 ] ] } },
{ "type": "Feature", "properties": { "FEEDER_NAME": "Damascus Church Rd. **", "SUBSTATION_NAME": "Westbrook", "wmType": "PRIMARY OVERHEAD", "WKT": "LINESTRING (-79.09946518220818 35.87562541621527, -79.09874908353983 35.87576874374681)" }, "geometry": { "type": "LineString", "coordinates": [ [ -79.099465182208178, 35.875625416215271 ], [ -79.098749083539829, 35.875768743746811 ] ] } },
{ "type": "Feature", "properties": { "FEEDER_NAME": "Damascus Church Rd. **", "SUBSTATION_NAME": "Westbrook", "wmType": "PRIMARY OVERHEAD", "WKT": "LINESTRING (-79.09874908353983 35.87576874374681, -79.09824555606761 35.875872857400616)" }, "geometry": { "type": "LineString", "coordinates": [ [ -79.098749083539829, 35.875768743746811 ], [ -79.09824555606761, 35.875872857400616 ] ] } },
{ "type": "Feature", "properties": { "FEEDER_NAME": "Damascus Church Rd. **", "SUBSTATION_NAME": "Westbrook", "wmType": "PRIMARY OVERHEAD", "WKT": "LINESTRING (-79.09824555606761 35.875872857400616, -79.09757854051658 35.87602278659313)" }, "geometry": { "type": "LineString", "coordinates": [ [ -79.09824555606761, 35.875872857400616 ], [ -79.097578540516579, 35.876022786593133 ] ] } },
{ "type": "Feature", "properties": { "FEEDER_NAME": "Damascus Church Rd. **", "SUBSTATION_NAME": "Westbrook", "wmType": "PRIMARY OVERHEAD", "WKT": "LINESTRING (-79.09874908353983 35.87576874374681, -79.0989828186932 35.875920392415026)" }, "geometry": { "type": "LineString", "coordinates": [ [ -79.098749083539829, 35.875768743746811 ], [ -79.098982818693202, 35.875920392415026 ] ] } },
{ "type": "Feature", "properties": { "FEEDER_NAME": "Damascus Church Rd. **", "SUBSTATION_NAME": "Westbrook", "wmType": "PRIMARY OVERHEAD", "WKT": "LINESTRING (-79.10099271787979 35.875114251285915, -79.10099299335002 35.874227203190806)" }, "geometry": { "type": "LineString", "coordinates": [ [ -79.100992717879791, 35.875114251285915 ], [ -79.100992993350019, 35.874227203190806 ] ] } },
{ "type": "Feature", "properties": { "FEEDER_NAME": "Damascus Church Rd. **", "SUBSTATION_NAME": "Westbrook", "wmType": "PRIMARY OVERHEAD", "WKT": "LINESTRING (-79.10099299335002 35.874227203190806, -79.10099242036542 35.87333735423018)" }, "geometry": { "type": "LineString", "coordinates": [ [ -79.100992993350019, 35.874227203190806 ], [ -79.100992420365415, 35.873337354230181 ] ] } },
{ "type": "Feature", "properties": { "FEEDER_NAME": "Damascus Church Rd. **", "SUBSTATION_NAME": "Westbrook", "wmType": "PRIMARY OVERHEAD", "WKT": "LINESTRING (-79.10099242036542 35.87333735423018, -79.10089372097548 35.8722262420336)" }, "geometry": { "type": "LineString", "coordinates": [ [ -79.100992420365415, 35.873337354230181 ], [ -79.100893720975478, 35.872226242033598 ] ] } },
{ "type": "Feature", "properties": { "FEEDER_NAME": "Damascus Church Rd. **", "SUBSTATION_NAME": "Westbrook", "wmType": "PRIMARY OVERHEAD", "WKT": "LINESTRING (-79.10178169660182 35.8749016477042, -79.10203594189443 35.87522838176333)" }, "geometry": { "type": "LineString", "coordinates": [ [ -79.101781696601819, 35.874901647704199 ], [ -79.102035941894428, 35.875228381763328 ] ] } },
{ "type": "Feature", "properties": { "FEEDER_NAME": "Damascus Church Rd. **", "SUBSTATION_NAME": "Westbrook", "wmType": "PRIMARY OVERHEAD", "WKT": "LINESTRING (-79.10287268675256 35.87395994986981, -79.10274558063861 35.87415439494205)" }, "geometry": { "type": "LineString", "coordinates": [ [ -79.102872686752562, 35.873959949869807 ], [ -79.102745580638612, 35.874154394942053 ] ] } },
{ "type": "Feature", "properties": { "FEEDER_NAME": "Damascus Church Rd. **", "SUBSTATION_NAME": "Westbrook", "wmType": "PRIMARY OVERHEAD", "WKT": "LINESTRING (-79.10312553822013 35.87488626100038, -79.10404356922342 35.87526371806062)" }, "geometry": { "type": "LineString", "coordinates": [ [ -79.103125538220127, 35.874886261000377 ], [ -79.104043569223421, 35.875263718060623 ] ] } },
{ "type": "Feature", "properties": { "FEEDER_NAME": "Damascus Church Rd. **", "SUBSTATION_NAME": "Westbrook", "wmType": "PRIMARY OVERHEAD", "WKT": "LINESTRING (-79.10404356922342 35.87526371806062, -79.1040295089311 35.87561606022414)" }, "geometry": { "type": "LineString", "coordinates": [ [ -79.104043569223421, 35.875263718060623 ], [ -79.104029508931106, 35.875616060224139 ] ] } },
{ "type": "Feature", "properties": { "FEEDER_NAME": "Damascus Church Rd. **", "SUBSTATION_NAME": "Westbrook", "wmType": "PRIMARY OVERHEAD", "WKT": "LINESTRING (-79.10397177423592 35.873830606656604, -79.10463671311989 35.87454326027312)" }, "geometry": { "type": "LineString", "coordinates": [ [ -79.103971774235916, 35.873830606656604 ], [ -79.104636713119888, 35.874543260273121 ] ] } },
{ "type": "Feature", "properties": { "FEEDER_NAME": "Damascus Church Rd. **", "SUBSTATION_NAME": "Westbrook", "wmType": "PRIMARY OVERHEAD", "WKT": "LINESTRING (-79.10402457669036 35.87254564025725, -79.1042121788798 35.872163623354155)" }, "geometry": { "type": "LineString", "coordinates": [ [ -79.104024576690364, 35.87254564025725 ], [ -79.104212178879806, 35.872163623354155 ] ] } },
{ "type": "Feature", "properties": { "FEEDER_NAME": "Damascus Church Rd. **", "SUBSTATION_NAME": "Westbrook", "wmType": "PRIMARY OVERHEAD", "WKT": "LINESTRING (-79.1042121788798 35.872163623354155, -79.10511579481553 35.871304474456416)" }, "geometry": { "type": "LineString", "coordinates": [ [ -79.104212178879806, 35.872163623354155 ], [ -79.105115794815532, 35.871304474456416 ] ] } },
{ "type": "Feature", "properties": { "FEEDER_NAME": "Damascus Church Rd. **", "SUBSTATION_NAME": "Westbrook", "wmType": "PRIMARY OVERHEAD", "WKT": "LINESTRING (-79.10511579481553 35.871304474456416, -79.10571067397873 35.87093264697424)" }, "geometry": { "type": "LineString", "coordinates": [ [ -79.105115794815532, 35.871304474456416 ], [ -79.105710673978734, 35.870932646974239 ] ] } },
{ "type": "Feature", "properties": { "FEEDER_NAME": "Damascus Church Rd. **", "SUBSTATION_NAME": "Westbrook", "wmType": "PRIMARY OVERHEAD", "WKT": "LINESTRING (-79.10571067397873 35.87093264697424, -79.10629678318344 35.870517279794335)" }, "geometry": { "type": "LineString", "coordinates": [ [ -79.105710673978734, 35.870932646974239 ], [ -79.106296783183438, 35.870517279794335 ] ] } },
{ "type": "Feature", "properties": { "FEEDER_NAME": "Damascus Church Rd. **", "SUBSTATION_NAME": "Westbrook", "wmType": "PRIMARY OVERHEAD", "WKT": "LINESTRING (-79.10629678318344 35.870517279794335, -79.10740682603138 35.8696718676507)" }, "geometry": { "type": "LineString", "coordinates": [ [ -79.106296783183438, 35.870517279794335 ], [ -79.107406826031379, 35.869671867650702 ] ] } },
{ "type": "Feature", "properties": { "FEEDER_NAME": "Damascus Church Rd. **", "SUBSTATION_NAME": "Westbrook", "wmType": "PRIMARY OVERHEAD", "WKT": "LINESTRING (-79.10740682603138 35.8696718676507, -79.10809732168615 35.86916239051943)" }, "geometry": { "type": "LineString", "coordinates": [ [ -79.107406826031379, 35.869671867650702 ], [ -79.108097321686145, 35.869162390519428 ] ] } },
{ "type": "Feature", "properties": { "FEEDER_NAME": "Damascus Church Rd. **", "SUBSTATION_NAME": "Westbrook", "wmType": "PRIMARY OVERHEAD", "WKT": "LINESTRING (-79.10809732168615 35.86916239051943, -79.10910373164053 35.86840804223956)" }, "geometry": { "type": "LineString", "coordinates": [ [ -79.108097321686145, 35.869162390519428 ], [ -79.109103731640531, 35.868408042239558 ] ] } },
{ "type": "Feature", "properties": { "FEEDER_NAME": "Damascus Church Rd. **", "SUBSTATION_NAME": "Westbrook", "wmType": "PRIMARY OVERHEAD", "WKT": "LINESTRING (-79.10910373164053 35.86840804223956, -79.1103043700452 35.86758579036312)" }, "geometry": { "type": "LineString", "coordinates": [ [ -79.109103731640531, 35.868408042239558 ], [ -79.110304370045199, 35.867585790363123 ] ] } },
{ "type": "Feature", "properties": { "FEEDER_NAME": "Damascus Church Rd. **", "SUBSTATION_NAME": "Westbrook", "wmType": "PRIMARY OVERHEAD", "WKT": "LINESTRING (-79.1103043700452 35.86758579036312, -79.11113972037795 35.867050148876395)" }, "geometry": { "type": "LineString", "coordinates": [ [ -79.110304370045199, 35.867585790363123 ], [ -79.111139720377949, 35.867050148876395 ] ] } },
{ "type": "Feature", "properties": { "FEEDER_NAME": "Damascus Church Rd. **", "SUBSTATION_NAME": "Westbrook", "wmType": "PRIMARY OVERHEAD", "WKT": "LINESTRING (-79.11113972037795 35.867050148876395, -79.112042450916 35.866410208611434)" }, "geometry": { "type": "LineString", "coordinates": [ [ -79.111139720377949, 35.867050148876395 ], [ -79.112042450915993, 35.866410208611434 ] ] } },
{ "type": "Feature", "properties": { "FEEDER_NAME": "Damascus Church Rd. **", "SUBSTATION_NAME": "Westbrook", "wmType": "PRIMARY OVERHEAD", "WKT": "LINESTRING (-79.112042450916 35.866410208611434, -79.112251047286 35.86627674978465)" }, "geometry": { "type": "LineString", "coordinates": [ [ -79.112042450915993, 35.866410208611434 ], [ -79.112251047285994, 35.866276749784653 ] ] } },
{ "type": "Feature", "properties": { "FEEDER_NAME": "Damascus Church Rd. **", "SUBSTATION_NAME": "Westbrook", "wmType": "PRIMARY OVERHEAD", "WKT": "LINESTRING (-79.11247146290995 35.865687075040434, -79.1126866320773 35.86506468587634)" }, "geometry": { "type": "LineString", "coordinates": [ [ -79.112471462909951, 35.865687075040434 ], [ -79.112686632077299, 35.865064685876341 ] ] } },
{ "type": "Feature", "properties": { "FEEDER_NAME": "Damascus Church Rd. **", "SUBSTATION_NAME": "Westbrook", "wmType": "PRIMARY OVERHEAD", "WKT": "LINESTRING (-79.1126866320773 35.86506468587634, -79.11296672959203 35.86422262177473)" }, "geometry": { "type": "LineString", "coordinates": [ [ -79.112686632077299, 35.865064685876341 ], [ -79.112966729592031, 35.864222621774729 ] ] } },
{ "type": "Feature", "properties": { "FEEDER_NAME": "Damascus Church Rd. **", "SUBSTATION_NAME": "Westbrook", "wmType": "PRIMARY OVERHEAD", "WKT": "LINESTRING (-79.112251047286 35.86627674978465, -79.11282478339335 35.866595502182506)" }, "geometry": { "type": "LineString", "coordinates": [ [ -79.112251047285994, 35.866276749784653 ], [ -79.11282478339335, 35.866595502182506 ] ] } },
{ "type": "Feature", "properties": { "FEEDER_NAME": "Damascus Church Rd. **", "SUBSTATION_NAME": "Westbrook", "wmType": "PRIMARY OVERHEAD", "WKT": "LINESTRING (-79.11282478339335 35.866595502182506, -79.11347798469171 35.86699450694532)" }, "geometry": { "type": "LineString", "coordinates": [ [ -79.11282478339335, 35.866595502182506 ], [ -79.113477984691713, 35.866994506945318 ] ] } },
{ "type": "Feature", "properties": { "FEEDER_NAME": "Damascus Church Rd. **", "SUBSTATION_NAME": "Westbrook", "wmType": "PRIMARY OVERHEAD", "WKT": "LINESTRING (-79.11347798469171 35.86699450694532, -79.11404372470635 35.86733279342319)" }, "geometry": { "type": "LineString", "coordinates": [ [ -79.113477984691713, 35.866994506945318 ], [ -79.114043724706349, 35.867332793423188 ] ] } },
{ "type": "Feature", "properties": { "FEEDER_NAME": "Damascus Church Rd. **", "SUBSTATION_NAME": "Westbrook", "wmType": "PRIMARY OVERHEAD", "WKT": "LINESTRING (-79.11404372470635 35.86733279342319, -79.11445155666779 35.867583177658325)" }, "geometry": { "type": "LineString", "coordinates": [ [ -79.114043724706349, 35.867332793423188 ], [ -79.114451556667788, 35.867583177658325 ] ] } },
{ "type": "Feature", "properties": { "FEEDER_NAME": "Damascus Church Rd. **", "SUBSTATION_NAME": "Westbrook", "wmType": "PRIMARY OVERHEAD", "WKT": "LINESTRING (-79.11445155666779 35.867583177658325, -79.11500762589625 35.867926250164146)" }, "geometry": { "type": "LineString", "coordinates": [ [ -79.114451556667788, 35.867583177658325 ], [ -79.115007625896254, 35.867926250164146 ] ] } },
{ "type": "Feature", "properties": { "FEEDER_NAME": "Damascus Church Rd. **", "SUBSTATION_NAME": "Westbrook", "wmType": "PRIMARY OVERHEAD", "WKT": "LINESTRING (-79.11500762589625 35.867926250164146, -79.11567644242588 35.86841975928054)" }, "geometry": { "type": "LineString", "coordinates": [ [ -79.115007625896254, 35.867926250164146 ], [ -79.11567644242588, 35.868419759280542 ] ] } },
{ "type": "Feature", "properties": { "FEEDER_NAME": "Damascus Church Rd. **", "SUBSTATION_NAME": "Westbrook", "wmType": "PRIMARY OVERHEAD", "WKT": "LINESTRING (-79.11567644242588 35.86841975928054, -79.11627914614787 35.86893678987796)" }, "geometry": { "type": "LineString", "coordinates": [ [ -79.11567644242588, 35.868419759280542 ], [ -79.116279146147875, 35.868936789877957 ] ] } },
{ "type": "Feature", "properties": { "FEEDER_NAME": "Damascus Church Rd. **", "SUBSTATION_NAME": "Westbrook", "wmType": "PRIMARY OVERHEAD", "WKT": "LINESTRING (-79.11637037327782 35.86862912399625, -79.11650511078018 35.868278093754114)" }, "geometry": { "type": "LineString", "coordinates": [ [ -79.116370373277817, 35.86862912399625 ], [ -79.116505110780182, 35.868278093754114 ] ] } },
{ "type": "Feature", "properties": { "FEEDER_NAME": "Damascus Church Rd. **", "SUBSTATION_NAME": "Westbrook", "wmType": "PRIMARY OVERHEAD", "WKT": "LINESTRING (-79.11650511078018 35.868278093754114, -79.11678755240993 35.86746651383506)" }, "geometry": { "type": "LineString", "coordinates": [ [ -79.116505110780182, 35.868278093754114 ], [ -79.116787552409932, 35.867466513835062 ] ] } },
{ "type": "Feature", "properties": { "FEEDER_NAME": "Damascus Church Rd. **", "SUBSTATION_NAME": "Westbrook", "wmType": "PRIMARY OVERHEAD", "WKT": "LINESTRING (-79.11678755240993 35.86746651383506, -79.11810326467558 35.867792045510164)" }, "geometry": { "type": "LineString", "coordinates": [ [ -79.116787552409932, 35.867466513835062 ], [ -79.118103264675582, 35.867792045510164 ] ] } },
{ "type": "Feature", "properties": { "FEEDER_NAME": "Damascus Church Rd. **", "SUBSTATION_NAME": "Westbrook", "wmType": "PRIMARY OVERHEAD", "WKT": "LINESTRING (-79.11810326467558 35.867792045510164, -79.11895474346579 35.868067248154205)" }, "geometry": { "type": "LineString", "coordinates": [ [ -79.118103264675582, 35.867792045510164 ], [ -79.118954743465792, 35.868067248154205 ] ] } },
{ "type": "Feature", "properties": { "FEEDER_NAME": "Damascus Church Rd. **", "SUBSTATION_NAME": "Westbrook", "wmType": "PRIMARY OVERHEAD", "WKT": "LINESTRING (-79.11895474346579 35.868067248154205, -79.1193937439578 35.86840624886452)" }, "geometry": { "type": "LineString", "coordinates": [ [ -79.118954743465792, 35.868067248154205 ], [ -79.119393743957801, 35.868406248864517 ] ] } },
{ "type": "Feature", "properties": { "FEEDER_NAME": "Damascus Church Rd. **", "SUBSTATION_NAME": "Westbrook", "wmType": "PRIMARY OVERHEAD", "WKT": "LINESTRING (-79.11627914614787 35.86893678987796, -79.1152553812898 35.86902902447363)" }, "geometry": { "type": "LineString", "coordinates": [ [ -79.116279146147875, 35.868936789877957 ], [ -79.115255381289799, 35.869029024473633 ] ] } },
{ "type": "Feature", "properties": { "FEEDER_NAME": "Damascus Church Rd. **", "SUBSTATION_NAME": "Westbrook", "wmType": "PRIMARY OVERHEAD", "WKT": "LINESTRING (-79.11627914614787 35.86893678987796, -79.11675284896654 35.86942380364491)" }, "geometry": { "type": "LineString", "coordinates": [ [ -79.116279146147875, 35.868936789877957 ], [ -79.116752848966541, 35.869423803644906 ] ] } },
{ "type": "Feature", "properties": { "FEEDER_NAME": "Damascus Church Rd. **", "SUBSTATION_NAME": "Westbrook", "wmType": "PRIMARY OVERHEAD", "WKT": "LINESTRING (-79.11675284896654 35.86942380364491, -79.11690397657678 35.870090381630895)" }, "geometry": { "type": "LineString", "coordinates": [ [ -79.116752848966541, 35.869423803644906 ], [ -79.116903976576779, 35.870090381630895 ] ] } },
{ "type": "Feature", "properties": { "FEEDER_NAME": "Damascus Church Rd. **", "SUBSTATION_NAME": "Westbrook", "wmType": "PRIMARY OVERHEAD", "WKT": "LINESTRING (-79.11690397657678 35.870090381630895, -79.11705797127617 35.8709639861408)" }, "geometry": { "type": "LineString", "coordinates": [ [ -79.116903976576779, 35.870090381630895 ], [ -79.117057971276168, 35.870963986140801 ] ] } },
{ "type": "Feature", "properties": { "FEEDER_NAME": "Damascus Church Rd. **", "SUBSTATION_NAME": "Westbrook", "wmType": "PRIMARY OVERHEAD", "WKT": "LINESTRING (-79.11705797127617 35.8709639861408, -79.11716268308582 35.87148327437601)" }, "geometry": { "type": "LineString", "coordinates": [ [ -79.117057971276168, 35.870963986140801 ], [ -79.117162683085823, 35.871483274376011 ] ] } },
{ "type": "Feature", "properties": { "FEEDER_NAME": "Damascus Church Rd. **", "SUBSTATION_NAME": "Westbrook", "wmType": "PRIMARY OVERHEAD", "WKT": "LINESTRING (-79.11716268308582 35.87148327437601, -79.11697678167027 35.871513563077336)" }, "geometry": { "type": "LineString", "coordinates": [ [ -79.117162683085823, 35.871483274376011 ], [ -79.116976781670274, 35.871513563077336 ] ] } },
{ "type": "Feature", "properties": { "FEEDER_NAME": "Damascus Church Rd. **", "SUBSTATION_NAME": "Westbrook", "wmType": "PRIMARY OVERHEAD", "WKT": "LINESTRING (-79.11716268308582 35.87148327437601, -79.11770102961697 35.872192911815894)" }, "geometry": { "type": "LineString", "coordinates": [ [ -79.117162683085823, 35.871483274376011 ], [ -79.117701029616967, 35.872192911815894 ] ] } },
{ "type": "Feature", "properties": { "FEEDER_NAME": "Damascus Church Rd. **", "SUBSTATION_NAME": "Westbrook", "wmType": "PRIMARY OVERHEAD", "WKT": "LINESTRING (-79.11770102961697 35.872192911815894, -79.11814301927552 35.872786981470625)" }, "geometry": { "type": "LineString", "coordinates": [ [ -79.117701029616967, 35.872192911815894 ], [ -79.118143019275522, 35.872786981470625 ] ] } },
{ "type": "Feature", "properties": { "FEEDER_NAME": "Damascus Church Rd. **", "SUBSTATION_NAME": "Westbrook", "wmType": "PRIMARY OVERHEAD", "WKT": "LINESTRING (-79.11814301927552 35.872786981470625, -79.11848389261671 35.87322227731586)" }, "geometry": { "type": "LineString", "coordinates": [ [ -79.118143019275522, 35.872786981470625 ], [ -79.118483892616709, 35.873222277315861 ] ] } },
{ "type": "Feature", "properties": { "FEEDER_NAME": "Damascus Church Rd. **", "SUBSTATION_NAME": "Westbrook", "wmType": "PRIMARY OVERHEAD", "WKT": "LINESTRING (-79.11848389261671 35.87322227731586, -79.11870715750528 35.87348801766284)" }, "geometry": { "type": "LineString", "coordinates": [ [ -79.118483892616709, 35.873222277315861 ], [ -79.118707157505284, 35.873488017662837 ] ] } },
{ "type": "Feature", "properties": { "FEEDER_NAME": "Damascus Church Rd. **", "SUBSTATION_NAME": "Westbrook", "wmType": "PRIMARY OVERHEAD", "WKT": "LINESTRING (-79.11808402531874 35.873692658692164, -79.11761233054101 35.874190167238865)" }, "geometry": { "type": "LineString", "coordinates": [ [ -79.118084025318737, 35.873692658692164 ], [ -79.117612330541007, 35.874190167238865 ] ] } },
{ "type": "Feature", "properties": { "FEEDER_NAME": "Damascus Church Rd. **", "SUBSTATION_NAME": "Westbrook", "wmType": "PRIMARY OVERHEAD", "WKT": "LINESTRING (-79.11870715750528 35.87348801766284, -79.11892192874052 35.87380629361036)" }, "geometry": { "type": "LineString", "coordinates": [ [ -79.118707157505284, 35.873488017662837 ], [ -79.118921928740519, 35.873806293610357 ] ] } },
{ "type": "Feature", "properties": { "FEEDER_NAME": "Damascus Church Rd. **", "SUBSTATION_NAME": "Westbrook", "wmType": "PRIMARY OVERHEAD", "WKT": "LINESTRING (-79.11892192874052 35.87380629361036, -79.11955150427617 35.87442006501538)" }, "geometry": { "type": "LineString", "coordinates": [ [ -79.118921928740519, 35.873806293610357 ], [ -79.119551504276174, 35.874420065015379 ] ] } },
{ "type": "Feature", "properties": { "FEEDER_NAME": "Damascus Church Rd. **", "SUBSTATION_NAME": "Westbrook", "wmType": "PRIMARY OVERHEAD", "WKT": "LINESTRING (-79.11955150427617 35.87442006501538, -79.11997582077531 35.874551706348846)" }, "geometry": { "type": "LineString", "coordinates": [ [ -79.119551504276174, 35.874420065015379 ], [ -79.119975820775309, 35.874551706348846 ] ] } },
{ "type": "Feature", "properties": { "FEEDER_NAME": "Damascus Church Rd. **", "SUBSTATION_NAME": "Westbrook", "wmType": "PRIMARY OVERHEAD", "WKT": "LINESTRING (-79.11997582077531 35.874551706348846, -79.12081644303302 35.874489559213)" }, "geometry": { "type": "LineString", "coordinates": [ [ -79.119975820775309, 35.874551706348846 ], [ -79.120816443033021, 35.874489559213004 ] ] } },
{ "type": "Feature", "properties": { "FEEDER_NAME": "Damascus Church Rd. **", "SUBSTATION_NAME": "Westbrook", "wmType": "PRIMARY OVERHEAD", "WKT": "LINESTRING (-79.12085515102738 35.87447797592068, -79.12093139253729 35.87445516017369)" }, "geometry": { "type": "LineString", "coordinates": [ [ -79.120855151027385, 35.874477975920684 ], [ -79.120931392537287, 35.874455160173689 ] ] } },
{ "type": "Feature", "properties": { "FEEDER_NAME": "Damascus Church Rd. **", "SUBSTATION_NAME": "Westbrook", "wmType": "PRIMARY OVERHEAD", "WKT": "LINESTRING (-79.12093139253729 35.87445516017369, -79.12130576264188 35.87382724233252)" }, "geometry": { "type": "LineString", "coordinates": [ [ -79.120931392537287, 35.874455160173689 ], [ -79.121305762641882, 35.873827242332517 ] ] } },
{ "type": "Feature", "properties": { "FEEDER_NAME": "Damascus Church Rd. **", "SUBSTATION_NAME": "Westbrook", "wmType": "PRIMARY OVERHEAD", "WKT": "LINESTRING (-79.12081644303302 35.874489559213, -79.12254438634498 35.87468915129622)" }, "geometry": { "type": "LineString", "coordinates": [ [ -79.120816443033021, 35.874489559213004 ], [ -79.122544386344984, 35.874689151296216 ] ] } },
{ "type": "Feature", "properties": { "FEEDER_NAME": "Damascus Church Rd. **", "SUBSTATION_NAME": "Westbrook", "wmType": "PRIMARY OVERHEAD", "WKT": "LINESTRING (-79.12254438634498 35.87468915129622, -79.12293705701514 35.87518193584023)" }, "geometry": { "type": "LineString", "coordinates": [ [ -79.122544386344984, 35.874689151296216 ], [ -79.122937057015136, 35.875181935840232 ] ] } },
{ "type": "Feature", "properties": { "FEEDER_NAME": "Damascus Church Rd. **", "SUBSTATION_NAME": "Westbrook", "wmType": "PRIMARY OVERHEAD", "WKT": "LINESTRING (-79.12293705701514 35.87518193584023, -79.12324853102012 35.87557169792059)" }, "geometry": { "type": "LineString", "coordinates": [ [ -79.122937057015136, 35.875181935840232 ], [ -79.123248531020124, 35.875571697920591 ] ] } },
{ "type": "Feature", "properties": { "FEEDER_NAME": "Damascus Church Rd. **", "SUBSTATION_NAME": "Westbrook", "wmType": "PRIMARY OVERHEAD", "WKT": "LINESTRING (-79.12324853102012 35.87557169792059, -79.1238881133559 35.876363730918364)" }, "geometry": { "type": "LineString", "coordinates": [ [ -79.123248531020124, 35.875571697920591 ], [ -79.123888113355903, 35.876363730918364 ] ] } },
{ "type": "Feature", "properties": { "FEEDER_NAME": "Damascus Church Rd. **", "SUBSTATION_NAME": "Westbrook", "wmType": "PRIMARY OVERHEAD", "WKT": "LINESTRING (-79.1238881133559 35.876363730918364, -79.12409602844788 35.8769240613969)" }, "geometry": { "type": "LineString", "coordinates": [ [ -79.123888113355903, 35.876363730918364 ], [ -79.12409602844788, 35.876924061396899 ] ] } },
{ "type": "Feature", "properties": { "FEEDER_NAME": "Damascus Church Rd. **", "SUBSTATION_NAME": "Westbrook", "wmType": "PRIMARY OVERHEAD", "WKT": "LINESTRING (-79.11675284896654 35.86942380364491, -79.11628586882766 35.869409991857)" }, "geometry": { "type": "LineString", "coordinates": [ [ -79.116752848966541, 35.869423803644906 ], [ -79.11628586882766, 35.869409991856998 ] ] } },
{ "type": "Feature", "properties": { "FEEDER_NAME": "Damascus Church Rd. **", "SUBSTATION_NAME": "Westbrook", "wmType": "PRIMARY OVERHEAD", "WKT": "LINESTRING (-79.10571067397873 35.87093264697424, -79.10589892233844 35.871068635562104)" }, "geometry": { "type": "LineString", "coordinates": [ [ -79.105710673978734, 35.870932646974239 ], [ -79.10589892233844, 35.871068635562104 ] ] } },
{ "type": "Feature", "properties": { "FEEDER_NAME": "Damascus Church Rd. **", "SUBSTATION_NAME": "Westbrook", "wmType": "PRIMARY OVERHEAD", "WKT": "LINESTRING (-79.1042121788798 35.872163623354155, -79.1044949421888 35.87085949018184)" }, "geometry": { "type": "LineString", "coordinates": [ [ -79.104212178879806, 35.872163623354155 ], [ -79.104494942188794, 35.870859490181843 ] ] } },
{ "type": "Feature", "properties": { "FEEDER_NAME": "Damascus Church Rd. **", "SUBSTATION_NAME": "Westbrook", "wmType": "PRIMARY OVERHEAD", "WKT": "LINESTRING (-79.10361971083724 35.873186256806186, -79.10376571175317 35.87321825736083)" }, "geometry": { "type": "LineString", "coordinates": [ [ -79.103619710837236, 35.873186256806186 ], [ -79.103765711753169, 35.873218257360833 ] ] } },
{ "type": "Feature", "properties": { "FEEDER_NAME": "Damascus Church Rd. **", "SUBSTATION_NAME": "Westbrook", "wmType": "PRIMARY OVERHEAD", "WKT": "LINESTRING (-79.10361971083724 35.873186256806186, -79.10374665537286 35.87308440661928)" }, "geometry": { "type": "LineString", "coordinates": [ [ -79.103619710837236, 35.873186256806186 ], [ -79.103746655372859, 35.873084406619277 ] ] } },
{ "type": "Feature", "properties": { "FEEDER_NAME": "Damascus Church Rd. **", "SUBSTATION_NAME": "Westbrook", "wmType": "PRIMARY OVERHEAD", "WKT": "LINESTRING (-79.10361971083724 35.873186256806186, -79.10330639248426 35.87304735409753)" }, "geometry": { "type": "LineString", "coordinates": [ [ -79.103619710837236, 35.873186256806186 ], [ -79.103306392484257, 35.87304735409753 ] ] } }
]
}
