{
"type": "FeatureCollection",
"name": "Willardsville_Willardsville_overhead",
"crs": { "type": "name", "properties": { "name": "urn:ogc:def:crs:OGC:1.3:CRS84" } },
"features": [
{ "type": "Feature", "properties": { "FEEDER_NAME": "Willardsville", "SUBSTATION_NAME": "Willardsville", "wmType": "PRIMARY OVERHEAD", "WKT": "LINESTRING (-78.94331483485573 36.124740144126655, -78.94331068200384 36.12473290896737)" }, "geometry": { "type": "LineString", "coordinates": [ [ -78.943314834855727, 36.124740144126655 ], [ -78.94331068200384, 36.124732908967367 ] ] } },
{ "type": "Feature", "properties": { "FEEDER_NAME": "Willardsville", "SUBSTATION_NAME": "Willardsville", "wmType": "PRIMARY OVERHEAD", "WKT": "LINESTRING (-78.94341349228594 36.124737218450726, -78.94337366916517 36.124738717691514)" }, "geometry": { "type": "LineString", "coordinates": [ [ -78.943413492285941, 36.124737218450726 ], [ -78.943373669165169, 36.124738717691514 ] ] } },
{ "type": "Feature", "properties": { "FEEDER_NAME": "Willardsville", "SUBSTATION_NAME": "Willardsville", "wmType": "PRIMARY OVERHEAD", "WKT": "LINESTRING (-78.94337366916517 36.124738717691514, -78.94333414598358 36.12474020444105)" }, "geometry": { "type": "LineString", "coordinates": [ [ -78.943373669165169, 36.124738717691514 ], [ -78.943334145983584, 36.124740204441053 ] ] } },
{ "type": "Feature", "properties": { "FEEDER_NAME": "Willardsville", "SUBSTATION_NAME": "Willardsville", "wmType": "PRIMARY OVERHEAD", "WKT": "LINESTRING (-78.94333414598358 36.12474020444105, -78.94331483485573 36.124740144126655)" }, "geometry": { "type": "LineString", "coordinates": [ [ -78.943334145983584, 36.124740204441053 ], [ -78.943314834855727, 36.124740144126655 ] ] } },
{ "type": "Feature", "properties": { "FEEDER_NAME": "Willardsville", "SUBSTATION_NAME": "Willardsville", "wmType": "PRIMARY OVERHEAD", "WKT": "LINESTRING (-78.94331483485573 36.124740144126655, -78.94308443713432 36.124804649631294)" }, "geometry": { "type": "LineString", "coordinates": [ [ -78.943314834855727, 36.124740144126655 ], [ -78.943084437134317, 36.124804649631294 ] ] } },
{ "type": "Feature", "properties": { "FEEDER_NAME": "Willardsville", "SUBSTATION_NAME": "Willardsville", "wmType": "PRIMARY OVERHEAD", "WKT": "LINESTRING (-78.94331483485573 36.124740144126655, -78.94328918232105 36.12473623804504)" }, "geometry": { "type": "LineString", "coordinates": [ [ -78.943314834855727, 36.124740144126655 ], [ -78.943289182321053, 36.124736238045038 ] ] } },
{ "type": "Feature", "properties": { "FEEDER_NAME": "Willardsville", "SUBSTATION_NAME": "Willardsville", "wmType": "PRIMARY OVERHEAD", "WKT": "LINESTRING (-78.94331483485573 36.124740144126655, -78.9433224285549 36.124759273450465)" }, "geometry": { "type": "LineString", "coordinates": [ [ -78.943314834855727, 36.124740144126655 ], [ -78.943322428554893, 36.124759273450465 ] ] } },
{ "type": "Feature", "properties": { "FEEDER_NAME": "Willardsville", "SUBSTATION_NAME": "Willardsville", "wmType": "PRIMARY OVERHEAD", "WKT": "LINESTRING (-78.94331483485573 36.124740144126655, -78.94329682250415 36.12475086937587)" }, "geometry": { "type": "LineString", "coordinates": [ [ -78.943314834855727, 36.124740144126655 ], [ -78.943296822504152, 36.124750869375873 ] ] } }
]
}
