{
"type": "FeatureCollection",
"name": "Willardsville_Fox_Run_overhead",
"crs": { "type": "name", "properties": { "name": "urn:ogc:def:crs:OGC:1.3:CRS84" } },
"features": [
{ "type": "Feature", "properties": { "FEEDER_NAME": "Fox Run", "SUBSTATION_NAME": "Willardsville", "wmType": "PRIMARY OVERHEAD", "WKT": "LINESTRING (-78.96344491247231 36.141886793894365, -78.96343330662076 36.14183887713933)" }, "geometry": { "type": "LineString", "coordinates": [ [ -78.963444912472312, 36.141886793894365 ], [ -78.963433306620757, 36.141838877139328 ] ] } },
{ "type": "Feature", "properties": { "FEEDER_NAME": "Fox Run", "SUBSTATION_NAME": "Willardsville", "wmType": "PRIMARY OVERHEAD", "WKT": "LINESTRING (-78.95771391152445 36.14205218079772, -78.95781549331433 36.14205065043617)" }, "geometry": { "type": "LineString", "coordinates": [ [ -78.957713911524451, 36.14205218079772 ], [ -78.957815493314328, 36.142050650436168 ] ] } },
{ "type": "Feature", "properties": { "FEEDER_NAME": "Fox Run", "SUBSTATION_NAME": "Willardsville", "wmType": "PRIMARY OVERHEAD", "WKT": "LINESTRING (-78.95781549331433 36.14205065043617, -78.95835029764105 36.14204259195859)" }, "geometry": { "type": "LineString", "coordinates": [ [ -78.957815493314328, 36.142050650436168 ], [ -78.958350297641047, 36.142042591958592 ] ] } },
{ "type": "Feature", "properties": { "FEEDER_NAME": "Fox Run", "SUBSTATION_NAME": "Willardsville", "wmType": "PRIMARY OVERHEAD", "WKT": "LINESTRING (-78.97018941683113 36.141321548670945, -78.97017040944846 36.141240595663085)" }, "geometry": { "type": "LineString", "coordinates": [ [ -78.970189416831133, 36.141321548670945 ], [ -78.970170409448457, 36.141240595663085 ] ] } },
{ "type": "Feature", "properties": { "FEEDER_NAME": "Fox Run", "SUBSTATION_NAME": "Willardsville", "wmType": "PRIMARY OVERHEAD", "WKT": "LINESTRING (-78.97017040944846 36.141240595663085, -78.96999016069513 36.14047292119237)" }, "geometry": { "type": "LineString", "coordinates": [ [ -78.970170409448457, 36.141240595663085 ], [ -78.969990160695133, 36.140472921192369 ] ] } },
{ "type": "Feature", "properties": { "FEEDER_NAME": "Fox Run", "SUBSTATION_NAME": "Willardsville", "wmType": "PRIMARY OVERHEAD", "WKT": "LINESTRING (-78.94562271193873 36.12756988404324, -78.94572247104021 36.12755434796776)" }, "geometry": { "type": "LineString", "coordinates": [ [ -78.945622711938725, 36.12756988404324 ], [ -78.945722471040213, 36.127554347967759 ] ] } },
{ "type": "Feature", "properties": { "FEEDER_NAME": "Fox Run", "SUBSTATION_NAME": "Willardsville", "wmType": "PRIMARY OVERHEAD", "WKT": "LINESTRING (-78.94572247104021 36.12755434796776, -78.94625546181155 36.12747133893499)" }, "geometry": { "type": "LineString", "coordinates": [ [ -78.945722471040213, 36.127554347967759 ], [ -78.946255461811546, 36.127471338934988 ] ] } },
{ "type": "Feature", "properties": { "FEEDER_NAME": "Fox Run", "SUBSTATION_NAME": "Willardsville", "wmType": "PRIMARY OVERHEAD", "WKT": "LINESTRING (-78.94492539563159 36.12598305002727, -78.94502603640125 36.12597187953894)" }, "geometry": { "type": "LineString", "coordinates": [ [ -78.944925395631586, 36.125983050027273 ], [ -78.945026036401245, 36.125971879538938 ] ] } },
{ "type": "Feature", "properties": { "FEEDER_NAME": "Fox Run", "SUBSTATION_NAME": "Willardsville", "wmType": "PRIMARY OVERHEAD", "WKT": "LINESTRING (-78.94502603640125 36.12597187953894, -78.9456914630583 36.125898022092876)" }, "geometry": { "type": "LineString", "coordinates": [ [ -78.945026036401245, 36.125971879538938 ], [ -78.945691463058296, 36.125898022092876 ] ] } },
{ "type": "Feature", "properties": { "FEEDER_NAME": "Fox Run", "SUBSTATION_NAME": "Willardsville", "wmType": "PRIMARY OVERHEAD", "WKT": "LINESTRING (-78.95324409764993 36.14094491886633, -78.95330853387222 36.140986878989374)" }, "geometry": { "type": "LineString", "coordinates": [ [ -78.953244097649929, 36.140944918866332 ], [ -78.953308533872217, 36.140986878989374 ] ] } },
{ "type": "Feature", "properties": { "FEEDER_NAME": "Fox Run", "SUBSTATION_NAME": "Willardsville", "wmType": "PRIMARY OVERHEAD", "WKT": "LINESTRING (-78.96370647695692 36.145834796130806, -78.96376972513798 36.14587583196049)" }, "geometry": { "type": "LineString", "coordinates": [ [ -78.963706476956915, 36.145834796130806 ], [ -78.963769725137979, 36.145875831960488 ] ] } },
{ "type": "Feature", "properties": { "FEEDER_NAME": "Fox Run", "SUBSTATION_NAME": "Willardsville", "wmType": "PRIMARY OVERHEAD", "WKT": "LINESTRING (-78.96708241097835 36.14091313653855, -78.96707300929754 36.140958607716584)" }, "geometry": { "type": "LineString", "coordinates": [ [ -78.96708241097835, 36.140913136538551 ], [ -78.967073009297536, 36.140958607716584 ] ] } },
{ "type": "Feature", "properties": { "FEEDER_NAME": "Fox Run", "SUBSTATION_NAME": "Willardsville", "wmType": "PRIMARY OVERHEAD", "WKT": "LINESTRING (-78.96708241097835 36.14091313653855, -78.96711146227692 36.14084551957883)" }, "geometry": { "type": "LineString", "coordinates": [ [ -78.96708241097835, 36.140913136538551 ], [ -78.967111462276918, 36.140845519578832 ] ] } },
{ "type": "Feature", "properties": { "FEEDER_NAME": "Fox Run", "SUBSTATION_NAME": "Willardsville", "wmType": "PRIMARY OVERHEAD", "WKT": "LINESTRING (-78.9467996387578 36.13039932654849, -78.94683647837415 36.130396206302166)" }, "geometry": { "type": "LineString", "coordinates": [ [ -78.946799638757795, 36.130399326548492 ], [ -78.946836478374152, 36.130396206302166 ] ] } },
{ "type": "Feature", "properties": { "FEEDER_NAME": "Fox Run", "SUBSTATION_NAME": "Willardsville", "wmType": "PRIMARY OVERHEAD", "WKT": "LINESTRING (-78.94766876743492 36.132952623695076, -78.94769197582791 36.13296088971407)" }, "geometry": { "type": "LineString", "coordinates": [ [ -78.947668767434919, 36.132952623695076 ], [ -78.947691975827908, 36.13296088971407 ] ] } },
{ "type": "Feature", "properties": { "FEEDER_NAME": "Fox Run", "SUBSTATION_NAME": "Willardsville", "wmType": "PRIMARY OVERHEAD", "WKT": "LINESTRING (-78.95253305920697 36.1396371904683, -78.95256653575707 36.13963876706356)" }, "geometry": { "type": "LineString", "coordinates": [ [ -78.952533059206971, 36.139637190468299 ], [ -78.952566535757072, 36.139638767063559 ] ] } },
{ "type": "Feature", "properties": { "FEEDER_NAME": "Fox Run", "SUBSTATION_NAME": "Willardsville", "wmType": "PRIMARY OVERHEAD", "WKT": "LINESTRING (-78.94645247435164 36.12962904912583, -78.94646090709239 36.12960276502698)" }, "geometry": { "type": "LineString", "coordinates": [ [ -78.946452474351645, 36.129629049125832 ], [ -78.946460907092387, 36.129602765026981 ] ] } },
{ "type": "Feature", "properties": { "FEEDER_NAME": "Fox Run", "SUBSTATION_NAME": "Willardsville", "wmType": "PRIMARY OVERHEAD", "WKT": "LINESTRING (-78.94747776968357 36.13173724431294, -78.94757912243828 36.1317316659445)" }, "geometry": { "type": "LineString", "coordinates": [ [ -78.947477769683573, 36.131737244312937 ], [ -78.947579122438285, 36.1317316659445 ] ] } },
{ "type": "Feature", "properties": { "FEEDER_NAME": "Fox Run", "SUBSTATION_NAME": "Willardsville", "wmType": "PRIMARY OVERHEAD", "WKT": "LINESTRING (-78.94757912243828 36.1317316659445, -78.9482686778704 36.13169371239861)" }, "geometry": { "type": "LineString", "coordinates": [ [ -78.947579122438285, 36.1317316659445 ], [ -78.948268677870402, 36.131693712398608 ] ] } },
{ "type": "Feature", "properties": { "FEEDER_NAME": "Fox Run", "SUBSTATION_NAME": "Willardsville", "wmType": "PRIMARY OVERHEAD", "WKT": "LINESTRING (-78.95886822238393 36.144211150225644, -78.95883916270196 36.144290115063825)" }, "geometry": { "type": "LineString", "coordinates": [ [ -78.958868222383927, 36.144211150225644 ], [ -78.958839162701963, 36.144290115063825 ] ] } },
{ "type": "Feature", "properties": { "FEEDER_NAME": "Fox Run", "SUBSTATION_NAME": "Willardsville", "wmType": "PRIMARY OVERHEAD", "WKT": "LINESTRING (-78.95883916270196 36.144290115063825, -78.95858584134994 36.144978473293854)" }, "geometry": { "type": "LineString", "coordinates": [ [ -78.958839162701963, 36.144290115063825 ], [ -78.958585841349944, 36.144978473293854 ] ] } },
{ "type": "Feature", "properties": { "FEEDER_NAME": "Fox Run", "SUBSTATION_NAME": "Willardsville", "wmType": "PRIMARY OVERHEAD", "WKT": "LINESTRING (-78.96119770695296 36.14197839856601, -78.96126444708224 36.14191626536436)" }, "geometry": { "type": "LineString", "coordinates": [ [ -78.961197706952959, 36.14197839856601 ], [ -78.961264447082243, 36.141916265364358 ] ] } },
{ "type": "Feature", "properties": { "FEEDER_NAME": "Fox Run", "SUBSTATION_NAME": "Willardsville", "wmType": "PRIMARY OVERHEAD", "WKT": "LINESTRING (-78.96126444708224 36.14191626536436, -78.96147753348615 36.14171788697789)" }, "geometry": { "type": "LineString", "coordinates": [ [ -78.961264447082243, 36.141916265364358 ], [ -78.961477533486146, 36.141717886977887 ] ] } },
{ "type": "Feature", "properties": { "FEEDER_NAME": "Fox Run", "SUBSTATION_NAME": "Willardsville", "wmType": "PRIMARY OVERHEAD", "WKT": "LINESTRING (-78.96503232702526 36.14149425608934, -78.96500034496958 36.14141603828074)" }, "geometry": { "type": "LineString", "coordinates": [ [ -78.965032327025256, 36.141494256089338 ], [ -78.965000344969582, 36.141416038280738 ] ] } },
{ "type": "Feature", "properties": { "FEEDER_NAME": "Fox Run", "SUBSTATION_NAME": "Willardsville", "wmType": "PRIMARY OVERHEAD", "WKT": "LINESTRING (-78.96500034496958 36.14141603828074, -78.96473526646109 36.140767719923666)" }, "geometry": { "type": "LineString", "coordinates": [ [ -78.965000344969582, 36.141416038280738 ], [ -78.964735266461091, 36.140767719923666 ] ] } },
{ "type": "Feature", "properties": { "FEEDER_NAME": "Fox Run", "SUBSTATION_NAME": "Willardsville", "wmType": "PRIMARY OVERHEAD", "WKT": "LINESTRING (-78.97347662833569 36.141917589893716, -78.97337799983089 36.14193737005406)" }, "geometry": { "type": "LineString", "coordinates": [ [ -78.973476628335689, 36.141917589893716 ], [ -78.973377999830888, 36.141937370054059 ] ] } },
{ "type": "Feature", "properties": { "FEEDER_NAME": "Fox Run", "SUBSTATION_NAME": "Willardsville", "wmType": "PRIMARY OVERHEAD", "WKT": "LINESTRING (-78.97337799983089 36.14193737005406, -78.97248112946922 36.14211723604354)" }, "geometry": { "type": "LineString", "coordinates": [ [ -78.973377999830888, 36.141937370054059 ], [ -78.972481129469216, 36.142117236043539 ] ] } },
{ "type": "Feature", "properties": { "FEEDER_NAME": "Fox Run", "SUBSTATION_NAME": "Willardsville", "wmType": "PRIMARY OVERHEAD", "WKT": "LINESTRING (-78.9736209707878 36.140869588365895, -78.973594252025 36.14079008156996)" }, "geometry": { "type": "LineString", "coordinates": [ [ -78.973620970787806, 36.140869588365895 ], [ -78.973594252024995, 36.140790081569961 ] ] } },
{ "type": "Feature", "properties": { "FEEDER_NAME": "Fox Run", "SUBSTATION_NAME": "Willardsville", "wmType": "PRIMARY OVERHEAD", "WKT": "LINESTRING (-78.973594252025 36.14079008156996, -78.97333356399008 36.140014327682934)" }, "geometry": { "type": "LineString", "coordinates": [ [ -78.973594252024995, 36.140790081569961 ], [ -78.973333563990082, 36.140014327682934 ] ] } },
{ "type": "Feature", "properties": { "FEEDER_NAME": "Fox Run", "SUBSTATION_NAME": "Willardsville", "wmType": "PRIMARY OVERHEAD", "WKT": "LINESTRING (-78.97018941683113 36.141321548670945, -78.97024182518035 36.14139214578279)" }, "geometry": { "type": "LineString", "coordinates": [ [ -78.970189416831133, 36.141321548670945 ], [ -78.970241825180352, 36.141392145782788 ] ] } },
{ "type": "Feature", "properties": { "FEEDER_NAME": "Fox Run", "SUBSTATION_NAME": "Willardsville", "wmType": "PRIMARY OVERHEAD", "WKT": "LINESTRING (-78.97024182518035 36.14139214578279, -78.97054740726774 36.14180377474249)" }, "geometry": { "type": "LineString", "coordinates": [ [ -78.970241825180352, 36.141392145782788 ], [ -78.970547407267745, 36.141803774742492 ] ] } },
{ "type": "Feature", "properties": { "FEEDER_NAME": "Fox Run", "SUBSTATION_NAME": "Willardsville", "wmType": "PRIMARY OVERHEAD", "WKT": "LINESTRING (-78.96779111554346 36.138132999760366, -78.96787429604751 36.13818031404819)" }, "geometry": { "type": "LineString", "coordinates": [ [ -78.967791115543463, 36.138132999760366 ], [ -78.967874296047512, 36.138180314048192 ] ] } },
{ "type": "Feature", "properties": { "FEEDER_NAME": "Fox Run", "SUBSTATION_NAME": "Willardsville", "wmType": "PRIMARY OVERHEAD", "WKT": "LINESTRING (-78.96787429604751 36.13818031404819, -78.9686891777937 36.138643831614765)" }, "geometry": { "type": "LineString", "coordinates": [ [ -78.967874296047512, 36.138180314048192 ], [ -78.968689177793706, 36.138643831614765 ] ] } },
{ "type": "Feature", "properties": { "FEEDER_NAME": "Fox Run", "SUBSTATION_NAME": "Willardsville", "wmType": "PRIMARY OVERHEAD", "WKT": "LINESTRING (-78.96503232702526 36.14149425608934, -78.96506773283768 36.14157149794303)" }, "geometry": { "type": "LineString", "coordinates": [ [ -78.965032327025256, 36.141494256089338 ], [ -78.965067732837682, 36.141571497943033 ] ] } },
{ "type": "Feature", "properties": { "FEEDER_NAME": "Fox Run", "SUBSTATION_NAME": "Willardsville", "wmType": "PRIMARY OVERHEAD", "WKT": "LINESTRING (-78.96506773283768 36.14157149794303, -78.96525096366288 36.14197123877369)" }, "geometry": { "type": "LineString", "coordinates": [ [ -78.965067732837682, 36.141571497943033 ], [ -78.965250963662882, 36.141971238773692 ] ] } },
{ "type": "Feature", "properties": { "FEEDER_NAME": "Fox Run", "SUBSTATION_NAME": "Willardsville", "wmType": "PRIMARY OVERHEAD", "WKT": "LINESTRING (-78.95878117566889 36.14204913828529, -78.95875779703161 36.141968941782636)" }, "geometry": { "type": "LineString", "coordinates": [ [ -78.958781175668889, 36.142049138285287 ], [ -78.958757797031609, 36.141968941782636 ] ] } },
{ "type": "Feature", "properties": { "FEEDER_NAME": "Fox Run", "SUBSTATION_NAME": "Willardsville", "wmType": "PRIMARY OVERHEAD", "WKT": "LINESTRING (-78.95875779703161 36.141968941782636, -78.95862749064904 36.141521952815545)" }, "geometry": { "type": "LineString", "coordinates": [ [ -78.958757797031609, 36.141968941782636 ], [ -78.958627490649036, 36.141521952815545 ] ] } },
{ "type": "Feature", "properties": { "FEEDER_NAME": "Fox Run", "SUBSTATION_NAME": "Willardsville", "wmType": "PRIMARY OVERHEAD", "WKT": "LINESTRING (-78.95781436587608 36.14390778228123, -78.95781518239212 36.143825377005)" }, "geometry": { "type": "LineString", "coordinates": [ [ -78.957814365876075, 36.143907782281232 ], [ -78.957815182392125, 36.143825377005001 ] ] } },
{ "type": "Feature", "properties": { "FEEDER_NAME": "Fox Run", "SUBSTATION_NAME": "Willardsville", "wmType": "PRIMARY OVERHEAD", "WKT": "LINESTRING (-78.95781518239212 36.143825377005, -78.95781636617177 36.14370578129312)" }, "geometry": { "type": "LineString", "coordinates": [ [ -78.957815182392125, 36.143825377005001 ], [ -78.95781636617177, 36.143705781293122 ] ] } },
{ "type": "Feature", "properties": { "FEEDER_NAME": "Fox Run", "SUBSTATION_NAME": "Willardsville", "wmType": "PRIMARY OVERHEAD", "WKT": "LINESTRING (-78.9433224285549 36.124759273450465, -78.94332864944624 36.1247749459383)" }, "geometry": { "type": "LineString", "coordinates": [ [ -78.943322428554893, 36.124759273450465 ], [ -78.943328649446244, 36.124774945938299 ] ] } },
{ "type": "Feature", "properties": { "FEEDER_NAME": "Fox Run", "SUBSTATION_NAME": "Willardsville", "wmType": "PRIMARY OVERHEAD", "WKT": "LINESTRING (-78.94332864944624 36.1247749459383, -78.9434178311863 36.1249729720076)" }, "geometry": { "type": "LineString", "coordinates": [ [ -78.943328649446244, 36.124774945938299 ], [ -78.943417831186295, 36.124972972007598 ] ] } },
{ "type": "Feature", "properties": { "FEEDER_NAME": "Fox Run", "SUBSTATION_NAME": "Willardsville", "wmType": "PRIMARY OVERHEAD", "WKT": "LINESTRING (-78.9434178311863 36.1249729720076, -78.94358724281597 36.12528912075091)" }, "geometry": { "type": "LineString", "coordinates": [ [ -78.943417831186295, 36.124972972007598 ], [ -78.943587242815966, 36.125289120750907 ] ] } },
{ "type": "Feature", "properties": { "FEEDER_NAME": "Fox Run", "SUBSTATION_NAME": "Willardsville", "wmType": "PRIMARY OVERHEAD", "WKT": "LINESTRING (-78.94358724281597 36.12528912075091, -78.94437805569461 36.12541238466685)" }, "geometry": { "type": "LineString", "coordinates": [ [ -78.943587242815966, 36.125289120750907 ], [ -78.944378055694614, 36.125412384666852 ] ] } },
{ "type": "Feature", "properties": { "FEEDER_NAME": "Fox Run", "SUBSTATION_NAME": "Willardsville", "wmType": "PRIMARY OVERHEAD", "WKT": "LINESTRING (-78.94437805569461 36.12541238466685, -78.9448064966948 36.12607656523089)" }, "geometry": { "type": "LineString", "coordinates": [ [ -78.944378055694614, 36.125412384666852 ], [ -78.944806496694795, 36.126076565230889 ] ] } },
{ "type": "Feature", "properties": { "FEEDER_NAME": "Fox Run", "SUBSTATION_NAME": "Willardsville", "wmType": "PRIMARY OVERHEAD", "WKT": "LINESTRING (-78.9448064966948 36.12607656523089, -78.9450206844211 36.126459730875084)" }, "geometry": { "type": "LineString", "coordinates": [ [ -78.944806496694795, 36.126076565230889 ], [ -78.945020684421095, 36.126459730875084 ] ] } },
{ "type": "Feature", "properties": { "FEEDER_NAME": "Fox Run", "SUBSTATION_NAME": "Willardsville", "wmType": "PRIMARY OVERHEAD", "WKT": "LINESTRING (-78.9450206844211 36.126459730875084, -78.94531337225135 36.127136617737385)" }, "geometry": { "type": "LineString", "coordinates": [ [ -78.945020684421095, 36.126459730875084 ], [ -78.945313372251348, 36.127136617737385 ] ] } },
{ "type": "Feature", "properties": { "FEEDER_NAME": "Fox Run", "SUBSTATION_NAME": "Willardsville", "wmType": "PRIMARY OVERHEAD", "WKT": "LINESTRING (-78.94531337225135 36.127136617737385, -78.94550076882877 36.12757130509722)" }, "geometry": { "type": "LineString", "coordinates": [ [ -78.945313372251348, 36.127136617737385 ], [ -78.945500768828765, 36.12757130509722 ] ] } },
{ "type": "Feature", "properties": { "FEEDER_NAME": "Fox Run", "SUBSTATION_NAME": "Willardsville", "wmType": "PRIMARY OVERHEAD", "WKT": "LINESTRING (-78.94550076882877 36.12757130509722, -78.94572504581163 36.128041043539206)" }, "geometry": { "type": "LineString", "coordinates": [ [ -78.945500768828765, 36.12757130509722 ], [ -78.945725045811628, 36.128041043539206 ] ] } },
{ "type": "Feature", "properties": { "FEEDER_NAME": "Fox Run", "SUBSTATION_NAME": "Willardsville", "wmType": "PRIMARY OVERHEAD", "WKT": "LINESTRING (-78.94572504581163 36.128041043539206, -78.94595485867143 36.12853920041038)" }, "geometry": { "type": "LineString", "coordinates": [ [ -78.945725045811628, 36.128041043539206 ], [ -78.945954858671428, 36.12853920041038 ] ] } },
{ "type": "Feature", "properties": { "FEEDER_NAME": "Fox Run", "SUBSTATION_NAME": "Willardsville", "wmType": "PRIMARY OVERHEAD", "WKT": "LINESTRING (-78.94595485867143 36.12853920041038, -78.94613893427038 36.12844643928191)" }, "geometry": { "type": "LineString", "coordinates": [ [ -78.945954858671428, 36.12853920041038 ], [ -78.94613893427038, 36.128446439281909 ] ] } },
{ "type": "Feature", "properties": { "FEEDER_NAME": "Fox Run", "SUBSTATION_NAME": "Willardsville", "wmType": "PRIMARY OVERHEAD", "WKT": "LINESTRING (-78.94595485867143 36.12853920041038, -78.94619096735649 36.12909443851439)" }, "geometry": { "type": "LineString", "coordinates": [ [ -78.945954858671428, 36.12853920041038 ], [ -78.946190967356486, 36.129094438514393 ] ] } },
{ "type": "Feature", "properties": { "FEEDER_NAME": "Fox Run", "SUBSTATION_NAME": "Willardsville", "wmType": "PRIMARY OVERHEAD", "WKT": "LINESTRING (-78.94619096735649 36.12909443851439, -78.94645247435164 36.12962904912583)" }, "geometry": { "type": "LineString", "coordinates": [ [ -78.946190967356486, 36.129094438514393 ], [ -78.946452474351645, 36.129629049125832 ] ] } },
{ "type": "Feature", "properties": { "FEEDER_NAME": "Fox Run", "SUBSTATION_NAME": "Willardsville", "wmType": "PRIMARY OVERHEAD", "WKT": "LINESTRING (-78.94645247435164 36.12962904912583, -78.94663158112512 36.13003151461896)" }, "geometry": { "type": "LineString", "coordinates": [ [ -78.946452474351645, 36.129629049125832 ], [ -78.946631581125118, 36.130031514618963 ] ] } },
{ "type": "Feature", "properties": { "FEEDER_NAME": "Fox Run", "SUBSTATION_NAME": "Willardsville", "wmType": "PRIMARY OVERHEAD", "WKT": "LINESTRING (-78.94663158112512 36.13003151461896, -78.9467996387578 36.13039932654849)" }, "geometry": { "type": "LineString", "coordinates": [ [ -78.946631581125118, 36.130031514618963 ], [ -78.946799638757795, 36.130399326548492 ] ] } },
{ "type": "Feature", "properties": { "FEEDER_NAME": "Fox Run", "SUBSTATION_NAME": "Willardsville", "wmType": "PRIMARY OVERHEAD", "WKT": "LINESTRING (-78.94683647837415 36.130396206302166, -78.9477623862386 36.13031777866845)" }, "geometry": { "type": "LineString", "coordinates": [ [ -78.946836478374152, 36.130396206302166 ], [ -78.947762386238594, 36.130317778668449 ] ] } },
{ "type": "Feature", "properties": { "FEEDER_NAME": "Fox Run", "SUBSTATION_NAME": "Willardsville", "wmType": "PRIMARY OVERHEAD", "WKT": "LINESTRING (-78.9477623862386 36.13031777866845, -78.94849675836852 36.129968213442005)" }, "geometry": { "type": "LineString", "coordinates": [ [ -78.947762386238594, 36.130317778668449 ], [ -78.94849675836852, 36.129968213442005 ] ] } },
{ "type": "Feature", "properties": { "FEEDER_NAME": "Fox Run", "SUBSTATION_NAME": "Willardsville", "wmType": "PRIMARY OVERHEAD", "WKT": "LINESTRING (-78.94849675836852 36.129968213442005, -78.9498769151966 36.13012063636571)" }, "geometry": { "type": "LineString", "coordinates": [ [ -78.94849675836852, 36.129968213442005 ], [ -78.949876915196597, 36.13012063636571 ] ] } },
{ "type": "Feature", "properties": { "FEEDER_NAME": "Fox Run", "SUBSTATION_NAME": "Willardsville", "wmType": "PRIMARY OVERHEAD", "WKT": "LINESTRING (-78.9498769151966 36.13012063636571, -78.95013801071133 36.13030072272582)" }, "geometry": { "type": "LineString", "coordinates": [ [ -78.949876915196597, 36.13012063636571 ], [ -78.950138010711328, 36.130300722725821 ] ] } },
{ "type": "Feature", "properties": { "FEEDER_NAME": "Fox Run", "SUBSTATION_NAME": "Willardsville", "wmType": "PRIMARY OVERHEAD", "WKT": "LINESTRING (-78.9467996387578 36.13039932654849, -78.94707204935163 36.13101631925844)" }, "geometry": { "type": "LineString", "coordinates": [ [ -78.946799638757795, 36.130399326548492 ], [ -78.947072049351632, 36.131016319258443 ] ] } },
{ "type": "Feature", "properties": { "FEEDER_NAME": "Fox Run", "SUBSTATION_NAME": "Willardsville", "wmType": "PRIMARY OVERHEAD", "WKT": "LINESTRING (-78.94707204935163 36.13101631925844, -78.94720444367967 36.13137273620303)" }, "geometry": { "type": "LineString", "coordinates": [ [ -78.947072049351632, 36.131016319258443 ], [ -78.947204443679666, 36.131372736203033 ] ] } },
{ "type": "Feature", "properties": { "FEEDER_NAME": "Fox Run", "SUBSTATION_NAME": "Willardsville", "wmType": "PRIMARY OVERHEAD", "WKT": "LINESTRING (-78.94720444367967 36.13137273620303, -78.94739779835726 36.13174793361168)" }, "geometry": { "type": "LineString", "coordinates": [ [ -78.947204443679666, 36.131372736203033 ], [ -78.947397798357258, 36.131747933611678 ] ] } },
{ "type": "Feature", "properties": { "FEEDER_NAME": "Fox Run", "SUBSTATION_NAME": "Willardsville", "wmType": "PRIMARY OVERHEAD", "WKT": "LINESTRING (-78.94739779835726 36.13174793361168, -78.94747776968357 36.13173724431294)" }, "geometry": { "type": "LineString", "coordinates": [ [ -78.947397798357258, 36.131747933611678 ], [ -78.947477769683573, 36.131737244312937 ] ] } },
{ "type": "Feature", "properties": { "FEEDER_NAME": "Fox Run", "SUBSTATION_NAME": "Willardsville", "wmType": "PRIMARY OVERHEAD", "WKT": "LINESTRING (-78.9482686778704 36.13169371239861, -78.94872838303525 36.13170264142121)" }, "geometry": { "type": "LineString", "coordinates": [ [ -78.948268677870402, 36.131693712398608 ], [ -78.948728383035245, 36.131702641421207 ] ] } },
{ "type": "Feature", "properties": { "FEEDER_NAME": "Fox Run", "SUBSTATION_NAME": "Willardsville", "wmType": "PRIMARY OVERHEAD", "WKT": "LINESTRING (-78.94872838303525 36.13170264142121, -78.94947120041769 36.13172270068784)" }, "geometry": { "type": "LineString", "coordinates": [ [ -78.948728383035245, 36.131702641421207 ], [ -78.94947120041769, 36.131722700687838 ] ] } },
{ "type": "Feature", "properties": { "FEEDER_NAME": "Fox Run", "SUBSTATION_NAME": "Willardsville", "wmType": "PRIMARY OVERHEAD", "WKT": "LINESTRING (-78.94739779835726 36.13174793361168, -78.94758216280029 36.13213324933346)" }, "geometry": { "type": "LineString", "coordinates": [ [ -78.947397798357258, 36.131747933611678 ], [ -78.947582162800288, 36.132133249333457 ] ] } },
{ "type": "Feature", "properties": { "FEEDER_NAME": "Fox Run", "SUBSTATION_NAME": "Willardsville", "wmType": "PRIMARY OVERHEAD", "WKT": "LINESTRING (-78.94758216280029 36.13213324933346, -78.94763239646633 36.132586971446585)" }, "geometry": { "type": "LineString", "coordinates": [ [ -78.947582162800288, 36.132133249333457 ], [ -78.947632396466332, 36.132586971446585 ] ] } },
{ "type": "Feature", "properties": { "FEEDER_NAME": "Fox Run", "SUBSTATION_NAME": "Willardsville", "wmType": "PRIMARY OVERHEAD", "WKT": "LINESTRING (-78.94763239646633 36.132586971446585, -78.94766876743492 36.132952623695076)" }, "geometry": { "type": "LineString", "coordinates": [ [ -78.947632396466332, 36.132586971446585 ], [ -78.947668767434919, 36.132952623695076 ] ] } },
{ "type": "Feature", "properties": { "FEEDER_NAME": "Fox Run", "SUBSTATION_NAME": "Willardsville", "wmType": "PRIMARY OVERHEAD", "WKT": "LINESTRING (-78.94769197582791 36.13296088971407, -78.94875876399811 36.1333408420833)" }, "geometry": { "type": "LineString", "coordinates": [ [ -78.947691975827908, 36.13296088971407 ], [ -78.948758763998114, 36.1333408420833 ] ] } },
{ "type": "Feature", "properties": { "FEEDER_NAME": "Fox Run", "SUBSTATION_NAME": "Willardsville", "wmType": "PRIMARY OVERHEAD", "WKT": "LINESTRING (-78.94766876743492 36.132952623695076, -78.94765149249335 36.13343352824796)" }, "geometry": { "type": "LineString", "coordinates": [ [ -78.947668767434919, 36.132952623695076 ], [ -78.94765149249335, 36.133433528247963 ] ] } },
{ "type": "Feature", "properties": { "FEEDER_NAME": "Fox Run", "SUBSTATION_NAME": "Willardsville", "wmType": "PRIMARY OVERHEAD", "WKT": "LINESTRING (-78.94765149249335 36.13343352824796, -78.94762114918015 36.13381652827762)" }, "geometry": { "type": "LineString", "coordinates": [ [ -78.94765149249335, 36.133433528247963 ], [ -78.947621149180151, 36.13381652827762 ] ] } },
{ "type": "Feature", "properties": { "FEEDER_NAME": "Fox Run", "SUBSTATION_NAME": "Willardsville", "wmType": "PRIMARY OVERHEAD", "WKT": "LINESTRING (-78.94762114918015 36.13381652827762, -78.94758130750881 36.134476358731725)" }, "geometry": { "type": "LineString", "coordinates": [ [ -78.947621149180151, 36.13381652827762 ], [ -78.947581307508813, 36.134476358731725 ] ] } },
{ "type": "Feature", "properties": { "FEEDER_NAME": "Fox Run", "SUBSTATION_NAME": "Willardsville", "wmType": "PRIMARY OVERHEAD", "WKT": "LINESTRING (-78.94758130750881 36.134476358731725, -78.94818225065788 36.13493515165996)" }, "geometry": { "type": "LineString", "coordinates": [ [ -78.947581307508813, 36.134476358731725 ], [ -78.948182250657879, 36.13493515165996 ] ] } },
{ "type": "Feature", "properties": { "FEEDER_NAME": "Fox Run", "SUBSTATION_NAME": "Willardsville", "wmType": "PRIMARY OVERHEAD", "WKT": "LINESTRING (-78.94818225065788 36.13493515165996, -78.94862961716701 36.135279421171525)" }, "geometry": { "type": "LineString", "coordinates": [ [ -78.948182250657879, 36.13493515165996 ], [ -78.948629617167015, 36.135279421171525 ] ] } },
{ "type": "Feature", "properties": { "FEEDER_NAME": "Fox Run", "SUBSTATION_NAME": "Willardsville", "wmType": "PRIMARY OVERHEAD", "WKT": "LINESTRING (-78.94862961716701 36.135279421171525, -78.94896823791076 36.13552136140239)" }, "geometry": { "type": "LineString", "coordinates": [ [ -78.948629617167015, 36.135279421171525 ], [ -78.948968237910762, 36.13552136140239 ] ] } },
{ "type": "Feature", "properties": { "FEEDER_NAME": "Fox Run", "SUBSTATION_NAME": "Willardsville", "wmType": "PRIMARY OVERHEAD", "WKT": "LINESTRING (-78.94896823791076 36.13552136140239, -78.94952260652448 36.1359320849117)" }, "geometry": { "type": "LineString", "coordinates": [ [ -78.948968237910762, 36.13552136140239 ], [ -78.949522606524482, 36.135932084911701 ] ] } },
{ "type": "Feature", "properties": { "FEEDER_NAME": "Fox Run", "SUBSTATION_NAME": "Willardsville", "wmType": "PRIMARY OVERHEAD", "WKT": "LINESTRING (-78.94952260652448 36.1359320849117, -78.95010212710172 36.136374081245165)" }, "geometry": { "type": "LineString", "coordinates": [ [ -78.949522606524482, 36.135932084911701 ], [ -78.950102127101715, 36.136374081245165 ] ] } },
{ "type": "Feature", "properties": { "FEEDER_NAME": "Fox Run", "SUBSTATION_NAME": "Willardsville", "wmType": "PRIMARY OVERHEAD", "WKT": "LINESTRING (-78.95010212710172 36.136374081245165, -78.9505626322472 36.1367235623853)" }, "geometry": { "type": "LineString", "coordinates": [ [ -78.950102127101715, 36.136374081245165 ], [ -78.950562632247198, 36.136723562385299 ] ] } },
{ "type": "Feature", "properties": { "FEEDER_NAME": "Fox Run", "SUBSTATION_NAME": "Willardsville", "wmType": "PRIMARY OVERHEAD", "WKT": "LINESTRING (-78.9505626322472 36.1367235623853, -78.95100039859106 36.13705666917358)" }, "geometry": { "type": "LineString", "coordinates": [ [ -78.950562632247198, 36.136723562385299 ], [ -78.951000398591063, 36.137056669173582 ] ] } },
{ "type": "Feature", "properties": { "FEEDER_NAME": "Fox Run", "SUBSTATION_NAME": "Willardsville", "wmType": "PRIMARY OVERHEAD", "WKT": "LINESTRING (-78.95100039859106 36.13705666917358, -78.95131337322891 36.13747367705084)" }, "geometry": { "type": "LineString", "coordinates": [ [ -78.951000398591063, 36.137056669173582 ], [ -78.951313373228913, 36.137473677050842 ] ] } },
{ "type": "Feature", "properties": { "FEEDER_NAME": "Fox Run", "SUBSTATION_NAME": "Willardsville", "wmType": "PRIMARY OVERHEAD", "WKT": "LINESTRING (-78.95131337322891 36.13747367705084, -78.95162787973804 36.13788170579867)" }, "geometry": { "type": "LineString", "coordinates": [ [ -78.951313373228913, 36.137473677050842 ], [ -78.951627879738041, 36.137881705798669 ] ] } },
{ "type": "Feature", "properties": { "FEEDER_NAME": "Fox Run", "SUBSTATION_NAME": "Willardsville", "wmType": "PRIMARY OVERHEAD", "WKT": "LINESTRING (-78.95162787973804 36.13788170579867, -78.95201175733645 36.13840571906717)" }, "geometry": { "type": "LineString", "coordinates": [ [ -78.951627879738041, 36.137881705798669 ], [ -78.95201175733645, 36.138405719067173 ] ] } },
{ "type": "Feature", "properties": { "FEEDER_NAME": "Fox Run", "SUBSTATION_NAME": "Willardsville", "wmType": "PRIMARY OVERHEAD", "WKT": "LINESTRING (-78.95201175733645 36.13840571906717, -78.9524029620713 36.138916082181396)" }, "geometry": { "type": "LineString", "coordinates": [ [ -78.95201175733645, 36.138405719067173 ], [ -78.952402962071304, 36.138916082181396 ] ] } },
{ "type": "Feature", "properties": { "FEEDER_NAME": "Fox Run", "SUBSTATION_NAME": "Willardsville", "wmType": "PRIMARY OVERHEAD", "WKT": "LINESTRING (-78.9524029620713 36.138916082181396, -78.95253305920697 36.1396371904683)" }, "geometry": { "type": "LineString", "coordinates": [ [ -78.952402962071304, 36.138916082181396 ], [ -78.952533059206971, 36.139637190468299 ] ] } },
{ "type": "Feature", "properties": { "FEEDER_NAME": "Fox Run", "SUBSTATION_NAME": "Willardsville", "wmType": "PRIMARY OVERHEAD", "WKT": "LINESTRING (-78.95253305920697 36.1396371904683, -78.95265320380548 36.14033879395595)" }, "geometry": { "type": "LineString", "coordinates": [ [ -78.952533059206971, 36.139637190468299 ], [ -78.952653203805482, 36.140338793955948 ] ] } },
{ "type": "Feature", "properties": { "FEEDER_NAME": "Fox Run", "SUBSTATION_NAME": "Willardsville", "wmType": "PRIMARY OVERHEAD", "WKT": "LINESTRING (-78.95265320380548 36.14033879395595, -78.95324409764993 36.14094491886633)" }, "geometry": { "type": "LineString", "coordinates": [ [ -78.952653203805482, 36.140338793955948 ], [ -78.953244097649929, 36.140944918866332 ] ] } },
{ "type": "Feature", "properties": { "FEEDER_NAME": "Fox Run", "SUBSTATION_NAME": "Willardsville", "wmType": "PRIMARY OVERHEAD", "WKT": "LINESTRING (-78.95330853387222 36.140986878989374, -78.95368205337228 36.14123010490649)" }, "geometry": { "type": "LineString", "coordinates": [ [ -78.953308533872217, 36.140986878989374 ], [ -78.953682053372276, 36.141230104906491 ] ] } },
{ "type": "Feature", "properties": { "FEEDER_NAME": "Fox Run", "SUBSTATION_NAME": "Willardsville", "wmType": "PRIMARY OVERHEAD", "WKT": "LINESTRING (-78.95368205337228 36.14123010490649, -78.9543338529829 36.14162631926447)" }, "geometry": { "type": "LineString", "coordinates": [ [ -78.953682053372276, 36.141230104906491 ], [ -78.954333852982899, 36.141626319264468 ] ] } },
{ "type": "Feature", "properties": { "FEEDER_NAME": "Fox Run", "SUBSTATION_NAME": "Willardsville", "wmType": "PRIMARY OVERHEAD", "WKT": "LINESTRING (-78.9543338529829 36.14162631926447, -78.95525889863268 36.14225100896678)" }, "geometry": { "type": "LineString", "coordinates": [ [ -78.954333852982899, 36.141626319264468 ], [ -78.955258898632678, 36.142251008966781 ] ] } },
{ "type": "Feature", "properties": { "FEEDER_NAME": "Fox Run", "SUBSTATION_NAME": "Willardsville", "wmType": "PRIMARY OVERHEAD", "WKT": "LINESTRING (-78.95525889863268 36.14225100896678, -78.95587590092194 36.14263942739269)" }, "geometry": { "type": "LineString", "coordinates": [ [ -78.955258898632678, 36.142251008966781 ], [ -78.955875900921939, 36.142639427392687 ] ] } },
{ "type": "Feature", "properties": { "FEEDER_NAME": "Fox Run", "SUBSTATION_NAME": "Willardsville", "wmType": "PRIMARY OVERHEAD", "WKT": "LINESTRING (-78.95587590092194 36.14263942739269, -78.95622404548007 36.142879311624846)" }, "geometry": { "type": "LineString", "coordinates": [ [ -78.955875900921939, 36.142639427392687 ], [ -78.95622404548007, 36.142879311624846 ] ] } },
{ "type": "Feature", "properties": { "FEEDER_NAME": "Fox Run", "SUBSTATION_NAME": "Willardsville", "wmType": "PRIMARY OVERHEAD", "WKT": "LINESTRING (-78.95622404548007 36.142879311624846, -78.95701016011157 36.143413116819254)" }, "geometry": { "type": "LineString", "coordinates": [ [ -78.95622404548007, 36.142879311624846 ], [ -78.957010160111565, 36.143413116819254 ] ] } },
{ "type": "Feature", "properties": { "FEEDER_NAME": "Fox Run", "SUBSTATION_NAME": "Willardsville", "wmType": "PRIMARY OVERHEAD", "WKT": "LINESTRING (-78.95701016011157 36.143413116819254, -78.95781436587608 36.14390778228123)" }, "geometry": { "type": "LineString", "coordinates": [ [ -78.957010160111565, 36.143413116819254 ], [ -78.957814365876075, 36.143907782281232 ] ] } },
{ "type": "Feature", "properties": { "FEEDER_NAME": "Fox Run", "SUBSTATION_NAME": "Willardsville", "wmType": "PRIMARY OVERHEAD", "WKT": "LINESTRING (-78.95781436587608 36.14390778228123, -78.95886822238393 36.144211150225644)" }, "geometry": { "type": "LineString", "coordinates": [ [ -78.957814365876075, 36.143907782281232 ], [ -78.958868222383927, 36.144211150225644 ] ] } },
{ "type": "Feature", "properties": { "FEEDER_NAME": "Fox Run", "SUBSTATION_NAME": "Willardsville", "wmType": "PRIMARY OVERHEAD", "WKT": "LINESTRING (-78.95858584134994 36.144978473293854, -78.95831951378076 36.145770533022194)" }, "geometry": { "type": "LineString", "coordinates": [ [ -78.958585841349944, 36.144978473293854 ], [ -78.958319513780765, 36.145770533022194 ] ] } },
{ "type": "Feature", "properties": { "FEEDER_NAME": "Fox Run", "SUBSTATION_NAME": "Willardsville", "wmType": "PRIMARY OVERHEAD", "WKT": "LINESTRING (-78.95831951378076 36.145770533022194, -78.95817998813375 36.14620867335844)" }, "geometry": { "type": "LineString", "coordinates": [ [ -78.958319513780765, 36.145770533022194 ], [ -78.95817998813375, 36.146208673358437 ] ] } },
{ "type": "Feature", "properties": { "FEEDER_NAME": "Fox Run", "SUBSTATION_NAME": "Willardsville", "wmType": "PRIMARY OVERHEAD", "WKT": "LINESTRING (-78.95817998813375 36.14620867335844, -78.9580631301321 36.14649464265689)" }, "geometry": { "type": "LineString", "coordinates": [ [ -78.95817998813375, 36.146208673358437 ], [ -78.958063130132103, 36.14649464265689 ] ] } },
{ "type": "Feature", "properties": { "FEEDER_NAME": "Fox Run", "SUBSTATION_NAME": "Willardsville", "wmType": "PRIMARY OVERHEAD", "WKT": "LINESTRING (-78.9580631301321 36.14649464265689, -78.95750501348294 36.147333329641306)" }, "geometry": { "type": "LineString", "coordinates": [ [ -78.958063130132103, 36.14649464265689 ], [ -78.957505013482944, 36.147333329641306 ] ] } },
{ "type": "Feature", "properties": { "FEEDER_NAME": "Fox Run", "SUBSTATION_NAME": "Willardsville", "wmType": "PRIMARY OVERHEAD", "WKT": "LINESTRING (-78.95750501348294 36.147333329641306, -78.95703240456025 36.148043955770426)" }, "geometry": { "type": "LineString", "coordinates": [ [ -78.957505013482944, 36.147333329641306 ], [ -78.957032404560252, 36.148043955770426 ] ] } },
{ "type": "Feature", "properties": { "FEEDER_NAME": "Fox Run", "SUBSTATION_NAME": "Willardsville", "wmType": "PRIMARY OVERHEAD", "WKT": "LINESTRING (-78.95817998813375 36.14620867335844, -78.95720717737719 36.14608976038343)" }, "geometry": { "type": "LineString", "coordinates": [ [ -78.95817998813375, 36.146208673358437 ], [ -78.957207177377185, 36.146089760383433 ] ] } },
{ "type": "Feature", "properties": { "FEEDER_NAME": "Fox Run", "SUBSTATION_NAME": "Willardsville", "wmType": "PRIMARY OVERHEAD", "WKT": "LINESTRING (-78.95720717737719 36.14608976038343, -78.9563105448223 36.14600300698751)" }, "geometry": { "type": "LineString", "coordinates": [ [ -78.957207177377185, 36.146089760383433 ], [ -78.956310544822301, 36.146003006987513 ] ] } },
{ "type": "Feature", "properties": { "FEEDER_NAME": "Fox Run", "SUBSTATION_NAME": "Willardsville", "wmType": "PRIMARY OVERHEAD", "WKT": "LINESTRING (-78.9563105448223 36.14600300698751, -78.95555264442913 36.145830239359526)" }, "geometry": { "type": "LineString", "coordinates": [ [ -78.956310544822301, 36.146003006987513 ], [ -78.955552644429133, 36.145830239359526 ] ] } },
{ "type": "Feature", "properties": { "FEEDER_NAME": "Fox Run", "SUBSTATION_NAME": "Willardsville", "wmType": "PRIMARY OVERHEAD", "WKT": "LINESTRING (-78.95886822238393 36.144211150225644, -78.95975320858149 36.14447366633307)" }, "geometry": { "type": "LineString", "coordinates": [ [ -78.958868222383927, 36.144211150225644 ], [ -78.959753208581489, 36.14447366633307 ] ] } },
{ "type": "Feature", "properties": { "FEEDER_NAME": "Fox Run", "SUBSTATION_NAME": "Willardsville", "wmType": "PRIMARY OVERHEAD", "WKT": "LINESTRING (-78.95975320858149 36.14447366633307, -78.96041691226446 36.14466891347163)" }, "geometry": { "type": "LineString", "coordinates": [ [ -78.959753208581489, 36.14447366633307 ], [ -78.960416912264463, 36.144668913471627 ] ] } },
{ "type": "Feature", "properties": { "FEEDER_NAME": "Fox Run", "SUBSTATION_NAME": "Willardsville", "wmType": "PRIMARY OVERHEAD", "WKT": "LINESTRING (-78.96041691226446 36.14466891347163, -78.9614666564212 36.14497415646932)" }, "geometry": { "type": "LineString", "coordinates": [ [ -78.960416912264463, 36.144668913471627 ], [ -78.961466656421194, 36.144974156469317 ] ] } },
{ "type": "Feature", "properties": { "FEEDER_NAME": "Fox Run", "SUBSTATION_NAME": "Willardsville", "wmType": "PRIMARY OVERHEAD", "WKT": "LINESTRING (-78.9614666564212 36.14497415646932, -78.9626089156919 36.14540113982325)" }, "geometry": { "type": "LineString", "coordinates": [ [ -78.961466656421194, 36.144974156469317 ], [ -78.962608915691902, 36.14540113982325 ] ] } },
{ "type": "Feature", "properties": { "FEEDER_NAME": "Fox Run", "SUBSTATION_NAME": "Willardsville", "wmType": "PRIMARY OVERHEAD", "WKT": "LINESTRING (-78.9626089156919 36.14540113982325, -78.96370647695692 36.145834796130806)" }, "geometry": { "type": "LineString", "coordinates": [ [ -78.962608915691902, 36.14540113982325 ], [ -78.963706476956915, 36.145834796130806 ] ] } },
{ "type": "Feature", "properties": { "FEEDER_NAME": "Fox Run", "SUBSTATION_NAME": "Willardsville", "wmType": "PRIMARY OVERHEAD", "WKT": "LINESTRING (-78.95587590092194 36.14263942739269, -78.95654384111248 36.14209368841502)" }, "geometry": { "type": "LineString", "coordinates": [ [ -78.955875900921939, 36.142639427392687 ], [ -78.956543841112477, 36.142093688415017 ] ] } },
{ "type": "Feature", "properties": { "FEEDER_NAME": "Fox Run", "SUBSTATION_NAME": "Willardsville", "wmType": "PRIMARY OVERHEAD", "WKT": "LINESTRING (-78.95654384111248 36.14209368841502, -78.9571539861228 36.14207720215424)" }, "geometry": { "type": "LineString", "coordinates": [ [ -78.956543841112477, 36.142093688415017 ], [ -78.957153986122805, 36.14207720215424 ] ] } },
{ "type": "Feature", "properties": { "FEEDER_NAME": "Fox Run", "SUBSTATION_NAME": "Willardsville", "wmType": "PRIMARY OVERHEAD", "WKT": "LINESTRING (-78.9571539861228 36.14207720215424, -78.95771391152445 36.14205218079772)" }, "geometry": { "type": "LineString", "coordinates": [ [ -78.957153986122805, 36.14207720215424 ], [ -78.957713911524451, 36.14205218079772 ] ] } },
{ "type": "Feature", "properties": { "FEEDER_NAME": "Fox Run", "SUBSTATION_NAME": "Willardsville", "wmType": "PRIMARY OVERHEAD", "WKT": "LINESTRING (-78.95835029764105 36.14204259195859, -78.95878117566889 36.14204913828529)" }, "geometry": { "type": "LineString", "coordinates": [ [ -78.958350297641047, 36.142042591958592 ], [ -78.958781175668889, 36.142049138285287 ] ] } },
{ "type": "Feature", "properties": { "FEEDER_NAME": "Fox Run", "SUBSTATION_NAME": "Willardsville", "wmType": "PRIMARY OVERHEAD", "WKT": "LINESTRING (-78.95878117566889 36.14204913828529, -78.95918986271158 36.1420736405882)" }, "geometry": { "type": "LineString", "coordinates": [ [ -78.958781175668889, 36.142049138285287 ], [ -78.959189862711582, 36.142073640588201 ] ] } },
{ "type": "Feature", "properties": { "FEEDER_NAME": "Fox Run", "SUBSTATION_NAME": "Willardsville", "wmType": "PRIMARY OVERHEAD", "WKT": "LINESTRING (-78.95918986271158 36.1420736405882, -78.95993451572559 36.1420051308587)" }, "geometry": { "type": "LineString", "coordinates": [ [ -78.959189862711582, 36.142073640588201 ], [ -78.959934515725593, 36.142005130858699 ] ] } },
{ "type": "Feature", "properties": { "FEEDER_NAME": "Fox Run", "SUBSTATION_NAME": "Willardsville", "wmType": "PRIMARY OVERHEAD", "WKT": "LINESTRING (-78.95993451572559 36.1420051308587, -78.9604182352287 36.14198908164108)" }, "geometry": { "type": "LineString", "coordinates": [ [ -78.959934515725593, 36.142005130858699 ], [ -78.960418235228701, 36.141989081641078 ] ] } },
{ "type": "Feature", "properties": { "FEEDER_NAME": "Fox Run", "SUBSTATION_NAME": "Willardsville", "wmType": "PRIMARY OVERHEAD", "WKT": "LINESTRING (-78.9604182352287 36.14198908164108, -78.96119770695296 36.14197839856601)" }, "geometry": { "type": "LineString", "coordinates": [ [ -78.960418235228701, 36.141989081641078 ], [ -78.961197706952959, 36.14197839856601 ] ] } },
{ "type": "Feature", "properties": { "FEEDER_NAME": "Fox Run", "SUBSTATION_NAME": "Willardsville", "wmType": "PRIMARY OVERHEAD", "WKT": "LINESTRING (-78.96119770695296 36.14197839856601, -78.96177729477496 36.14197871883387)" }, "geometry": { "type": "LineString", "coordinates": [ [ -78.961197706952959, 36.14197839856601 ], [ -78.961777294774961, 36.141978718833869 ] ] } },
{ "type": "Feature", "properties": { "FEEDER_NAME": "Fox Run", "SUBSTATION_NAME": "Willardsville", "wmType": "PRIMARY OVERHEAD", "WKT": "LINESTRING (-78.96177729477496 36.14197871883387, -78.9624278783106 36.14195290661177)" }, "geometry": { "type": "LineString", "coordinates": [ [ -78.961777294774961, 36.141978718833869 ], [ -78.962427878310606, 36.14195290661177 ] ] } },
{ "type": "Feature", "properties": { "FEEDER_NAME": "Fox Run", "SUBSTATION_NAME": "Willardsville", "wmType": "PRIMARY OVERHEAD", "WKT": "LINESTRING (-78.9624278783106 36.14195290661177, -78.9629497677815 36.141931612205816)" }, "geometry": { "type": "LineString", "coordinates": [ [ -78.962427878310606, 36.14195290661177 ], [ -78.962949767781495, 36.141931612205816 ] ] } },
{ "type": "Feature", "properties": { "FEEDER_NAME": "Fox Run", "SUBSTATION_NAME": "Willardsville", "wmType": "PRIMARY OVERHEAD", "WKT": "LINESTRING (-78.9629497677815 36.141931612205816, -78.96344491247231 36.141886793894365)" }, "geometry": { "type": "LineString", "coordinates": [ [ -78.962949767781495, 36.141931612205816 ], [ -78.963444912472312, 36.141886793894365 ] ] } },
{ "type": "Feature", "properties": { "FEEDER_NAME": "Fox Run", "SUBSTATION_NAME": "Willardsville", "wmType": "PRIMARY OVERHEAD", "WKT": "LINESTRING (-78.96344491247231 36.141886793894365, -78.96381579092008 36.14179197063766)" }, "geometry": { "type": "LineString", "coordinates": [ [ -78.963444912472312, 36.141886793894365 ], [ -78.96381579092008, 36.141791970637662 ] ] } },
{ "type": "Feature", "properties": { "FEEDER_NAME": "Fox Run", "SUBSTATION_NAME": "Willardsville", "wmType": "PRIMARY OVERHEAD", "WKT": "LINESTRING (-78.96381579092008 36.14179197063766, -78.96448513266702 36.14161600638481)" }, "geometry": { "type": "LineString", "coordinates": [ [ -78.96381579092008, 36.141791970637662 ], [ -78.964485132667022, 36.141616006384808 ] ] } },
{ "type": "Feature", "properties": { "FEEDER_NAME": "Fox Run", "SUBSTATION_NAME": "Willardsville", "wmType": "PRIMARY OVERHEAD", "WKT": "LINESTRING (-78.96448513266702 36.14161600638481, -78.96503232702526 36.14149425608934)" }, "geometry": { "type": "LineString", "coordinates": [ [ -78.964485132667022, 36.141616006384808 ], [ -78.965032327025256, 36.141494256089338 ] ] } },
{ "type": "Feature", "properties": { "FEEDER_NAME": "Fox Run", "SUBSTATION_NAME": "Willardsville", "wmType": "PRIMARY OVERHEAD", "WKT": "LINESTRING (-78.96473526646109 36.140767719923666, -78.96430879612049 36.14023156195627)" }, "geometry": { "type": "LineString", "coordinates": [ [ -78.964735266461091, 36.140767719923666 ], [ -78.964308796120491, 36.14023156195627 ] ] } },
{ "type": "Feature", "properties": { "FEEDER_NAME": "Fox Run", "SUBSTATION_NAME": "Willardsville", "wmType": "PRIMARY OVERHEAD", "WKT": "LINESTRING (-78.96430879612049 36.14023156195627, -78.96445130450934 36.139687932934415)" }, "geometry": { "type": "LineString", "coordinates": [ [ -78.964308796120491, 36.14023156195627 ], [ -78.964451304509339, 36.139687932934415 ] ] } },
{ "type": "Feature", "properties": { "FEEDER_NAME": "Fox Run", "SUBSTATION_NAME": "Willardsville", "wmType": "PRIMARY OVERHEAD", "WKT": "LINESTRING (-78.96445130450934 36.139687932934415, -78.96549488662869 36.139952595315954)" }, "geometry": { "type": "LineString", "coordinates": [ [ -78.964451304509339, 36.139687932934415 ], [ -78.96549488662869, 36.139952595315954 ] ] } },
{ "type": "Feature", "properties": { "FEEDER_NAME": "Fox Run", "SUBSTATION_NAME": "Willardsville", "wmType": "PRIMARY OVERHEAD", "WKT": "LINESTRING (-78.96445130450934 36.139687932934415, -78.964110324567 36.13966723153873)" }, "geometry": { "type": "LineString", "coordinates": [ [ -78.964451304509339, 36.139687932934415 ], [ -78.964110324567002, 36.139667231538731 ] ] } },
{ "type": "Feature", "properties": { "FEEDER_NAME": "Fox Run", "SUBSTATION_NAME": "Willardsville", "wmType": "PRIMARY OVERHEAD", "WKT": "LINESTRING (-78.964110324567 36.13966723153873, -78.96358502009038 36.13963477215161)" }, "geometry": { "type": "LineString", "coordinates": [ [ -78.964110324567002, 36.139667231538731 ], [ -78.963585020090377, 36.139634772151609 ] ] } },
{ "type": "Feature", "properties": { "FEEDER_NAME": "Fox Run", "SUBSTATION_NAME": "Willardsville", "wmType": "PRIMARY OVERHEAD", "WKT": "LINESTRING (-78.96358502009038 36.13963477215161, -78.96318812884937 36.13968626805778)" }, "geometry": { "type": "LineString", "coordinates": [ [ -78.963585020090377, 36.139634772151609 ], [ -78.963188128849367, 36.13968626805778 ] ] } },
{ "type": "Feature", "properties": { "FEEDER_NAME": "Fox Run", "SUBSTATION_NAME": "Willardsville", "wmType": "PRIMARY OVERHEAD", "WKT": "LINESTRING (-78.964110324567 36.13966723153873, -78.96445768057345 36.13912989781519)" }, "geometry": { "type": "LineString", "coordinates": [ [ -78.964110324567002, 36.139667231538731 ], [ -78.964457680573446, 36.139129897815188 ] ] } },
{ "type": "Feature", "properties": { "FEEDER_NAME": "Fox Run", "SUBSTATION_NAME": "Willardsville", "wmType": "PRIMARY OVERHEAD", "WKT": "LINESTRING (-78.96445768057345 36.13912989781519, -78.9641744192437 36.13847700853051)" }, "geometry": { "type": "LineString", "coordinates": [ [ -78.964457680573446, 36.139129897815188 ], [ -78.964174419243705, 36.138477008530508 ] ] } },
{ "type": "Feature", "properties": { "FEEDER_NAME": "Fox Run", "SUBSTATION_NAME": "Willardsville", "wmType": "PRIMARY OVERHEAD", "WKT": "LINESTRING (-78.9641744192437 36.13847700853051, -78.96448597533961 36.13786145877922)" }, "geometry": { "type": "LineString", "coordinates": [ [ -78.964174419243705, 36.138477008530508 ], [ -78.964485975339613, 36.13786145877922 ] ] } },
{ "type": "Feature", "properties": { "FEEDER_NAME": "Fox Run", "SUBSTATION_NAME": "Willardsville", "wmType": "PRIMARY OVERHEAD", "WKT": "LINESTRING (-78.96503232702526 36.14149425608934, -78.96552907092472 36.14134359065967)" }, "geometry": { "type": "LineString", "coordinates": [ [ -78.965032327025256, 36.141494256089338 ], [ -78.965529070924717, 36.141343590659673 ] ] } },
{ "type": "Feature", "properties": { "FEEDER_NAME": "Fox Run", "SUBSTATION_NAME": "Willardsville", "wmType": "PRIMARY OVERHEAD", "WKT": "LINESTRING (-78.96552907092472 36.14134359065967, -78.96625018384447 36.141173290946476)" }, "geometry": { "type": "LineString", "coordinates": [ [ -78.965529070924717, 36.141343590659673 ], [ -78.966250183844465, 36.141173290946476 ] ] } },
{ "type": "Feature", "properties": { "FEEDER_NAME": "Fox Run", "SUBSTATION_NAME": "Willardsville", "wmType": "PRIMARY OVERHEAD", "WKT": "LINESTRING (-78.96625018384447 36.141173290946476, -78.96708241097835 36.14091313653855)" }, "geometry": { "type": "LineString", "coordinates": [ [ -78.966250183844465, 36.141173290946476 ], [ -78.96708241097835, 36.140913136538551 ] ] } },
{ "type": "Feature", "properties": { "FEEDER_NAME": "Fox Run", "SUBSTATION_NAME": "Willardsville", "wmType": "PRIMARY OVERHEAD", "WKT": "LINESTRING (-78.96707300929754 36.140958607716584, -78.96694895175251 36.1415586274162)" }, "geometry": { "type": "LineString", "coordinates": [ [ -78.967073009297536, 36.140958607716584 ], [ -78.966948951752514, 36.141558627416202 ] ] } },
{ "type": "Feature", "properties": { "FEEDER_NAME": "Fox Run", "SUBSTATION_NAME": "Willardsville", "wmType": "PRIMARY OVERHEAD", "WKT": "LINESTRING (-78.96694895175251 36.1415586274162, -78.96659045772853 36.14234464321643)" }, "geometry": { "type": "LineString", "coordinates": [ [ -78.966948951752514, 36.141558627416202 ], [ -78.966590457728529, 36.142344643216433 ] ] } },
{ "type": "Feature", "properties": { "FEEDER_NAME": "Fox Run", "SUBSTATION_NAME": "Willardsville", "wmType": "PRIMARY OVERHEAD", "WKT": "LINESTRING (-78.96659045772853 36.14234464321643, -78.96628689024642 36.142963138188954)" }, "geometry": { "type": "LineString", "coordinates": [ [ -78.966590457728529, 36.142344643216433 ], [ -78.966286890246423, 36.142963138188954 ] ] } },
{ "type": "Feature", "properties": { "FEEDER_NAME": "Fox Run", "SUBSTATION_NAME": "Willardsville", "wmType": "PRIMARY OVERHEAD", "WKT": "LINESTRING (-78.96708241097835 36.14091313653855, -78.96808046966969 36.14117246350199)" }, "geometry": { "type": "LineString", "coordinates": [ [ -78.96708241097835, 36.140913136538551 ], [ -78.968080469669687, 36.141172463501988 ] ] } },
{ "type": "Feature", "properties": { "FEEDER_NAME": "Fox Run", "SUBSTATION_NAME": "Willardsville", "wmType": "PRIMARY OVERHEAD", "WKT": "LINESTRING (-78.96808046966969 36.14117246350199, -78.96944730630405 36.14151386959703)" }, "geometry": { "type": "LineString", "coordinates": [ [ -78.968080469669687, 36.141172463501988 ], [ -78.969447306304048, 36.141513869597027 ] ] } },
{ "type": "Feature", "properties": { "FEEDER_NAME": "Fox Run", "SUBSTATION_NAME": "Willardsville", "wmType": "PRIMARY OVERHEAD", "WKT": "LINESTRING (-78.96944730630405 36.14151386959703, -78.97018941683113 36.141321548670945)" }, "geometry": { "type": "LineString", "coordinates": [ [ -78.969447306304048, 36.141513869597027 ], [ -78.970189416831133, 36.141321548670945 ] ] } },
{ "type": "Feature", "properties": { "FEEDER_NAME": "Fox Run", "SUBSTATION_NAME": "Willardsville", "wmType": "PRIMARY OVERHEAD", "WKT": "LINESTRING (-78.97018941683113 36.141321548670945, -78.97063880142866 36.14127663511632)" }, "geometry": { "type": "LineString", "coordinates": [ [ -78.970189416831133, 36.141321548670945 ], [ -78.970638801428663, 36.14127663511632 ] ] } },
{ "type": "Feature", "properties": { "FEEDER_NAME": "Fox Run", "SUBSTATION_NAME": "Willardsville", "wmType": "PRIMARY OVERHEAD", "WKT": "LINESTRING (-78.97063880142866 36.14127663511632, -78.97107074977949 36.14112200410905)" }, "geometry": { "type": "LineString", "coordinates": [ [ -78.970638801428663, 36.14127663511632 ], [ -78.971070749779486, 36.14112200410905 ] ] } },
{ "type": "Feature", "properties": { "FEEDER_NAME": "Fox Run", "SUBSTATION_NAME": "Willardsville", "wmType": "PRIMARY OVERHEAD", "WKT": "LINESTRING (-78.97107074977949 36.14112200410905, -78.9719567442009 36.14075219956337)" }, "geometry": { "type": "LineString", "coordinates": [ [ -78.971070749779486, 36.14112200410905 ], [ -78.971956744200895, 36.140752199563373 ] ] } },
{ "type": "Feature", "properties": { "FEEDER_NAME": "Fox Run", "SUBSTATION_NAME": "Willardsville", "wmType": "PRIMARY OVERHEAD", "WKT": "LINESTRING (-78.9719567442009 36.14075219956337, -78.97279144375148 36.140821610610296)" }, "geometry": { "type": "LineString", "coordinates": [ [ -78.971956744200895, 36.140752199563373 ], [ -78.972791443751476, 36.140821610610296 ] ] } },
{ "type": "Feature", "properties": { "FEEDER_NAME": "Fox Run", "SUBSTATION_NAME": "Willardsville", "wmType": "PRIMARY OVERHEAD", "WKT": "LINESTRING (-78.97279144375148 36.140821610610296, -78.97325552814826 36.14085359893336)" }, "geometry": { "type": "LineString", "coordinates": [ [ -78.972791443751476, 36.140821610610296 ], [ -78.973255528148258, 36.140853598933361 ] ] } },
{ "type": "Feature", "properties": { "FEEDER_NAME": "Fox Run", "SUBSTATION_NAME": "Willardsville", "wmType": "PRIMARY OVERHEAD", "WKT": "LINESTRING (-78.9736209707878 36.140869588365895, -78.97417463941308 36.14090712866713)" }, "geometry": { "type": "LineString", "coordinates": [ [ -78.973620970787806, 36.140869588365895 ], [ -78.974174639413079, 36.140907128667131 ] ] } },
{ "type": "Feature", "properties": { "FEEDER_NAME": "Fox Run", "SUBSTATION_NAME": "Willardsville", "wmType": "PRIMARY OVERHEAD", "WKT": "LINESTRING (-78.97325552814826 36.14085359893336, -78.9736209707878 36.140869588365895)" }, "geometry": { "type": "LineString", "coordinates": [ [ -78.973255528148258, 36.140853598933361 ], [ -78.973620970787806, 36.140869588365895 ] ] } },
{ "type": "Feature", "properties": { "FEEDER_NAME": "Fox Run", "SUBSTATION_NAME": "Willardsville", "wmType": "PRIMARY OVERHEAD", "WKT": "LINESTRING (-78.9736209707878 36.140869588365895, -78.97347662833569 36.141917589893716)" }, "geometry": { "type": "LineString", "coordinates": [ [ -78.973620970787806, 36.140869588365895 ], [ -78.973476628335689, 36.141917589893716 ] ] } },
{ "type": "Feature", "properties": { "FEEDER_NAME": "Fox Run", "SUBSTATION_NAME": "Willardsville", "wmType": "PRIMARY OVERHEAD", "WKT": "LINESTRING (-78.97248112946922 36.14211723604354, -78.97169214479723 36.14269651879005)" }, "geometry": { "type": "LineString", "coordinates": [ [ -78.972481129469216, 36.142117236043539 ], [ -78.971692144797231, 36.142696518790054 ] ] } },
{ "type": "Feature", "properties": { "FEEDER_NAME": "Fox Run", "SUBSTATION_NAME": "Willardsville", "wmType": "PRIMARY OVERHEAD", "WKT": "LINESTRING (-78.97169214479723 36.14269651879005, -78.97162837479077 36.143750496567925)" }, "geometry": { "type": "LineString", "coordinates": [ [ -78.971692144797231, 36.142696518790054 ], [ -78.971628374790768, 36.143750496567925 ] ] } },
{ "type": "Feature", "properties": { "FEEDER_NAME": "Fox Run", "SUBSTATION_NAME": "Willardsville", "wmType": "PRIMARY OVERHEAD", "WKT": "LINESTRING (-78.97162837479077 36.143750496567925, -78.97159693142608 36.14455929159697)" }, "geometry": { "type": "LineString", "coordinates": [ [ -78.971628374790768, 36.143750496567925 ], [ -78.971596931426078, 36.14455929159697 ] ] } },
{ "type": "Feature", "properties": { "FEEDER_NAME": "Fox Run", "SUBSTATION_NAME": "Willardsville", "wmType": "PRIMARY OVERHEAD", "WKT": "LINESTRING (-78.97159693142608 36.14455929159697, -78.97174562369632 36.1442283772829)" }, "geometry": { "type": "LineString", "coordinates": [ [ -78.971596931426078, 36.14455929159697 ], [ -78.971745623696322, 36.1442283772829 ] ] } },
{ "type": "Feature", "properties": { "FEEDER_NAME": "Fox Run", "SUBSTATION_NAME": "Willardsville", "wmType": "PRIMARY OVERHEAD", "WKT": "LINESTRING (-78.97159693142608 36.14455929159697, -78.97177942286822 36.145002521006006)" }, "geometry": { "type": "LineString", "coordinates": [ [ -78.971596931426078, 36.14455929159697 ], [ -78.971779422868224, 36.145002521006006 ] ] } },
{ "type": "Feature", "properties": { "FEEDER_NAME": "Fox Run", "SUBSTATION_NAME": "Willardsville", "wmType": "PRIMARY OVERHEAD", "WKT": "LINESTRING (-78.97177942286822 36.145002521006006, -78.97144610873778 36.145069523108)" }, "geometry": { "type": "LineString", "coordinates": [ [ -78.971779422868224, 36.145002521006006 ], [ -78.97144610873778, 36.145069523107999 ] ] } },
{ "type": "Feature", "properties": { "FEEDER_NAME": "Fox Run", "SUBSTATION_NAME": "Willardsville", "wmType": "PRIMARY OVERHEAD", "WKT": "LINESTRING (-78.97162837479077 36.143750496567925, -78.97222161471586 36.14367904801365)" }, "geometry": { "type": "LineString", "coordinates": [ [ -78.971628374790768, 36.143750496567925 ], [ -78.972221614715863, 36.143679048013652 ] ] } },
{ "type": "Feature", "properties": { "FEEDER_NAME": "Fox Run", "SUBSTATION_NAME": "Willardsville", "wmType": "PRIMARY OVERHEAD", "WKT": "LINESTRING (-78.97169214479723 36.14269651879005, -78.97239028251747 36.14295708617739)" }, "geometry": { "type": "LineString", "coordinates": [ [ -78.971692144797231, 36.142696518790054 ], [ -78.972390282517466, 36.14295708617739 ] ] } },
{ "type": "Feature", "properties": { "FEEDER_NAME": "Fox Run", "SUBSTATION_NAME": "Willardsville", "wmType": "PRIMARY OVERHEAD", "WKT": "LINESTRING (-78.97054740726774 36.14180377474249, -78.97036851883026 36.142099821514755)" }, "geometry": { "type": "LineString", "coordinates": [ [ -78.970547407267745, 36.141803774742492 ], [ -78.970368518830256, 36.142099821514755 ] ] } },
{ "type": "Feature", "properties": { "FEEDER_NAME": "Fox Run", "SUBSTATION_NAME": "Willardsville", "wmType": "PRIMARY OVERHEAD", "WKT": "LINESTRING (-78.96999016069513 36.14047292119237, -78.9699939437655 36.140043962491866)" }, "geometry": { "type": "LineString", "coordinates": [ [ -78.969990160695133, 36.140472921192369 ], [ -78.969993943765502, 36.140043962491866 ] ] } },
{ "type": "Feature", "properties": { "FEEDER_NAME": "Fox Run", "SUBSTATION_NAME": "Willardsville", "wmType": "PRIMARY OVERHEAD", "WKT": "LINESTRING (-78.9699939437655 36.140043962491866, -78.96992835550076 36.139929811469855)" }, "geometry": { "type": "LineString", "coordinates": [ [ -78.969993943765502, 36.140043962491866 ], [ -78.969928355500755, 36.139929811469855 ] ] } },
{ "type": "Feature", "properties": { "FEEDER_NAME": "Fox Run", "SUBSTATION_NAME": "Willardsville", "wmType": "PRIMARY OVERHEAD", "WKT": "LINESTRING (-78.96992835550076 36.139929811469855, -78.9710078096611 36.13994770790707)" }, "geometry": { "type": "LineString", "coordinates": [ [ -78.969928355500755, 36.139929811469855 ], [ -78.971007809661103, 36.139947707907069 ] ] } },
{ "type": "Feature", "properties": { "FEEDER_NAME": "Fox Run", "SUBSTATION_NAME": "Willardsville", "wmType": "PRIMARY OVERHEAD", "WKT": "LINESTRING (-78.9710078096611 36.13994770790707, -78.97197841904051 36.13994793398867)" }, "geometry": { "type": "LineString", "coordinates": [ [ -78.971007809661103, 36.139947707907069 ], [ -78.971978419040511, 36.139947933988672 ] ] } },
{ "type": "Feature", "properties": { "FEEDER_NAME": "Fox Run", "SUBSTATION_NAME": "Willardsville", "wmType": "PRIMARY OVERHEAD", "WKT": "LINESTRING (-78.9710078096611 36.13994770790707, -78.97132481186905 36.13979194914322)" }, "geometry": { "type": "LineString", "coordinates": [ [ -78.971007809661103, 36.139947707907069 ], [ -78.971324811869053, 36.139791949143223 ] ] } },
{ "type": "Feature", "properties": { "FEEDER_NAME": "Fox Run", "SUBSTATION_NAME": "Willardsville", "wmType": "PRIMARY OVERHEAD", "WKT": "LINESTRING (-78.96992835550076 36.139929811469855, -78.96992696334851 36.13992976786925, -78.96868771065931 36.13989096149467)" }, "geometry": { "type": "LineString", "coordinates": [ [ -78.969928355500755, 36.139929811469855 ], [ -78.969926963348513, 36.139929767869248 ], [ -78.96868771065931, 36.139890961494672 ] ] } },
{ "type": "Feature", "properties": { "FEEDER_NAME": "Fox Run", "SUBSTATION_NAME": "Willardsville", "wmType": "PRIMARY OVERHEAD", "WKT": "LINESTRING (-78.96868771065931 36.13989096149467, -78.96760279344481 36.13990367198926)" }, "geometry": { "type": "LineString", "coordinates": [ [ -78.96868771065931, 36.139890961494672 ], [ -78.967602793444811, 36.139903671989259 ] ] } },
{ "type": "Feature", "properties": { "FEEDER_NAME": "Fox Run", "SUBSTATION_NAME": "Willardsville", "wmType": "PRIMARY OVERHEAD", "WKT": "LINESTRING (-78.96760279344481 36.13990367198926, -78.9674525800466 36.13995401029623)" }, "geometry": { "type": "LineString", "coordinates": [ [ -78.967602793444811, 36.139903671989259 ], [ -78.967452580046597, 36.139954010296229 ] ] } },
{ "type": "Feature", "properties": { "FEEDER_NAME": "Fox Run", "SUBSTATION_NAME": "Willardsville", "wmType": "PRIMARY OVERHEAD", "WKT": "LINESTRING (-78.9674525800466 36.13995401029623, -78.96736210193022 36.14026216354866)" }, "geometry": { "type": "LineString", "coordinates": [ [ -78.967452580046597, 36.139954010296229 ], [ -78.96736210193022, 36.140262163548662 ] ] } },
{ "type": "Feature", "properties": { "FEEDER_NAME": "Fox Run", "SUBSTATION_NAME": "Willardsville", "wmType": "PRIMARY OVERHEAD", "WKT": "LINESTRING (-78.96736210193022 36.14026216354866, -78.96711146227692 36.14084551957883)" }, "geometry": { "type": "LineString", "coordinates": [ [ -78.96736210193022, 36.140262163548662 ], [ -78.967111462276918, 36.140845519578832 ] ] } },
{ "type": "Feature", "properties": { "FEEDER_NAME": "Fox Run", "SUBSTATION_NAME": "Willardsville", "wmType": "PRIMARY OVERHEAD", "WKT": "LINESTRING (-78.9674525800466 36.13995401029623, -78.96736445295504 36.13914098047334)" }, "geometry": { "type": "LineString", "coordinates": [ [ -78.967452580046597, 36.139954010296229 ], [ -78.967364452955039, 36.139140980473343 ] ] } },
{ "type": "Feature", "properties": { "FEEDER_NAME": "Fox Run", "SUBSTATION_NAME": "Willardsville", "wmType": "PRIMARY OVERHEAD", "WKT": "LINESTRING (-78.96736445295504 36.13914098047334, -78.96748038151136 36.138533693726245)" }, "geometry": { "type": "LineString", "coordinates": [ [ -78.967364452955039, 36.139140980473343 ], [ -78.967480381511365, 36.138533693726245 ] ] } },
{ "type": "Feature", "properties": { "FEEDER_NAME": "Fox Run", "SUBSTATION_NAME": "Willardsville", "wmType": "PRIMARY OVERHEAD", "WKT": "LINESTRING (-78.96748038151136 36.138533693726245, -78.96763168821084 36.13803165154647)" }, "geometry": { "type": "LineString", "coordinates": [ [ -78.967480381511365, 36.138533693726245 ], [ -78.967631688210844, 36.13803165154647 ] ] } },
{ "type": "Feature", "properties": { "FEEDER_NAME": "Fox Run", "SUBSTATION_NAME": "Willardsville", "wmType": "PRIMARY OVERHEAD", "WKT": "LINESTRING (-78.96763168821084 36.13803165154647, -78.96779111554346 36.138132999760366)" }, "geometry": { "type": "LineString", "coordinates": [ [ -78.967631688210844, 36.13803165154647 ], [ -78.967791115543463, 36.138132999760366 ] ] } },
{ "type": "Feature", "properties": { "FEEDER_NAME": "Fox Run", "SUBSTATION_NAME": "Willardsville", "wmType": "PRIMARY OVERHEAD", "WKT": "LINESTRING (-78.9686891777937 36.138643831614765, -78.96948674782827 36.13859642883151)" }, "geometry": { "type": "LineString", "coordinates": [ [ -78.968689177793706, 36.138643831614765 ], [ -78.96948674782827, 36.138596428831512 ] ] } },
{ "type": "Feature", "properties": { "FEEDER_NAME": "Fox Run", "SUBSTATION_NAME": "Willardsville", "wmType": "PRIMARY OVERHEAD", "WKT": "LINESTRING (-78.96763168821084 36.13803165154647, -78.96855236990584 36.13767319784394)" }, "geometry": { "type": "LineString", "coordinates": [ [ -78.967631688210844, 36.13803165154647 ], [ -78.968552369905836, 36.137673197843938 ] ] } },
{ "type": "Feature", "properties": { "FEEDER_NAME": "Fox Run", "SUBSTATION_NAME": "Willardsville", "wmType": "PRIMARY OVERHEAD", "WKT": "LINESTRING (-78.96855236990584 36.13767319784394, -78.96846078676899 36.1374499870678)" }, "geometry": { "type": "LineString", "coordinates": [ [ -78.968552369905836, 36.137673197843938 ], [ -78.968460786768986, 36.137449987067797 ] ] } },
{ "type": "Feature", "properties": { "FEEDER_NAME": "Fox Run", "SUBSTATION_NAME": "Willardsville", "wmType": "PRIMARY OVERHEAD", "WKT": "LINESTRING (-78.96855236990584 36.13767319784394, -78.96888667179081 36.136819978951266)" }, "geometry": { "type": "LineString", "coordinates": [ [ -78.968552369905836, 36.137673197843938 ], [ -78.968886671790813, 36.136819978951266 ] ] } },
{ "type": "Feature", "properties": { "FEEDER_NAME": "Fox Run", "SUBSTATION_NAME": "Willardsville", "wmType": "PRIMARY OVERHEAD", "WKT": "LINESTRING (-78.96888667179081 36.136819978951266, -78.96907276769467 36.136874249860725)" }, "geometry": { "type": "LineString", "coordinates": [ [ -78.968886671790813, 36.136819978951266 ], [ -78.969072767694669, 36.136874249860725 ] ] } },
{ "type": "Feature", "properties": { "FEEDER_NAME": "Fox Run", "SUBSTATION_NAME": "Willardsville", "wmType": "PRIMARY OVERHEAD", "WKT": "LINESTRING (-78.96907276769467 36.136874249860725, -78.96962073543695 36.13702239185909)" }, "geometry": { "type": "LineString", "coordinates": [ [ -78.969072767694669, 36.136874249860725 ], [ -78.969620735436948, 36.137022391859091 ] ] } },
{ "type": "Feature", "properties": { "FEEDER_NAME": "Fox Run", "SUBSTATION_NAME": "Willardsville", "wmType": "PRIMARY OVERHEAD", "WKT": "LINESTRING (-78.96962073543695 36.13702239185909, -78.9701919221504 36.13711716407186)" }, "geometry": { "type": "LineString", "coordinates": [ [ -78.969620735436948, 36.137022391859091 ], [ -78.970191922150406, 36.13711716407186 ] ] } },
{ "type": "Feature", "properties": { "FEEDER_NAME": "Fox Run", "SUBSTATION_NAME": "Willardsville", "wmType": "PRIMARY OVERHEAD", "WKT": "LINESTRING (-78.9701919221504 36.13711716407186, -78.97095548360261 36.13714239889451)" }, "geometry": { "type": "LineString", "coordinates": [ [ -78.970191922150406, 36.13711716407186 ], [ -78.970955483602609, 36.137142398894511 ] ] } },
{ "type": "Feature", "properties": { "FEEDER_NAME": "Fox Run", "SUBSTATION_NAME": "Willardsville", "wmType": "PRIMARY OVERHEAD", "WKT": "LINESTRING (-78.96525096366288 36.14197123877369, -78.96501830902733 36.14255928062482)" }, "geometry": { "type": "LineString", "coordinates": [ [ -78.965250963662882, 36.141971238773692 ], [ -78.965018309027329, 36.142559280624823 ] ] } },
{ "type": "Feature", "properties": { "FEEDER_NAME": "Fox Run", "SUBSTATION_NAME": "Willardsville", "wmType": "PRIMARY OVERHEAD", "WKT": "LINESTRING (-78.96501830902733 36.14255928062482, -78.96445000069076 36.142948115117065)" }, "geometry": { "type": "LineString", "coordinates": [ [ -78.965018309027329, 36.142559280624823 ], [ -78.964450000690761, 36.142948115117065 ] ] } },
{ "type": "Feature", "properties": { "FEEDER_NAME": "Fox Run", "SUBSTATION_NAME": "Willardsville", "wmType": "PRIMARY OVERHEAD", "WKT": "LINESTRING (-78.96445000069076 36.142948115117065, -78.96393477104442 36.143211476053985)" }, "geometry": { "type": "LineString", "coordinates": [ [ -78.964450000690761, 36.142948115117065 ], [ -78.963934771044421, 36.143211476053985 ] ] } },
{ "type": "Feature", "properties": { "FEEDER_NAME": "Fox Run", "SUBSTATION_NAME": "Willardsville", "wmType": "PRIMARY OVERHEAD", "WKT": "LINESTRING (-78.96393477104442 36.143211476053985, -78.96308644767635 36.14363883575773)" }, "geometry": { "type": "LineString", "coordinates": [ [ -78.963934771044421, 36.143211476053985 ], [ -78.963086447676346, 36.143638835757727 ] ] } },
{ "type": "Feature", "properties": { "FEEDER_NAME": "Fox Run", "SUBSTATION_NAME": "Willardsville", "wmType": "PRIMARY OVERHEAD", "WKT": "LINESTRING (-78.96308644767635 36.14363883575773, -78.96243755083083 36.14394074457985)" }, "geometry": { "type": "LineString", "coordinates": [ [ -78.963086447676346, 36.143638835757727 ], [ -78.962437550830828, 36.143940744579851 ] ] } },
{ "type": "Feature", "properties": { "FEEDER_NAME": "Fox Run", "SUBSTATION_NAME": "Willardsville", "wmType": "PRIMARY OVERHEAD", "WKT": "LINESTRING (-78.96343330662076 36.14183887713933, -78.96340658049905 36.14172853295163)" }, "geometry": { "type": "LineString", "coordinates": [ [ -78.963433306620757, 36.141838877139328 ], [ -78.963406580499054, 36.141728532951632 ] ] } },
{ "type": "Feature", "properties": { "FEEDER_NAME": "Fox Run", "SUBSTATION_NAME": "Willardsville", "wmType": "PRIMARY OVERHEAD", "WKT": "LINESTRING (-78.96340658049905 36.14172853295163, -78.96293861473606 36.14114678608447)" }, "geometry": { "type": "LineString", "coordinates": [ [ -78.963406580499054, 36.141728532951632 ], [ -78.962938614736061, 36.14114678608447 ] ] } },
{ "type": "Feature", "properties": { "FEEDER_NAME": "Fox Run", "SUBSTATION_NAME": "Willardsville", "wmType": "PRIMARY OVERHEAD", "WKT": "LINESTRING (-78.9543338529829 36.14162631926447, -78.95466942376706 36.1412217958599)" }, "geometry": { "type": "LineString", "coordinates": [ [ -78.954333852982899, 36.141626319264468 ], [ -78.954669423767058, 36.141221795859899 ] ] } },
{ "type": "Feature", "properties": { "FEEDER_NAME": "Fox Run", "SUBSTATION_NAME": "Willardsville", "wmType": "PRIMARY OVERHEAD", "WKT": "LINESTRING (-78.95466942376706 36.1412217958599, -78.95474906557891 36.14112049137478)" }, "geometry": { "type": "LineString", "coordinates": [ [ -78.954669423767058, 36.141221795859899 ], [ -78.954749065578909, 36.141120491374778 ] ] } },
{ "type": "Feature", "properties": { "FEEDER_NAME": "Fox Run", "SUBSTATION_NAME": "Willardsville", "wmType": "PRIMARY OVERHEAD", "WKT": "LINESTRING (-78.9543338529829 36.14162631926447, -78.95399016888716 36.14220785777976)" }, "geometry": { "type": "LineString", "coordinates": [ [ -78.954333852982899, 36.141626319264468 ], [ -78.953990168887159, 36.142207857779759 ] ] } },
{ "type": "Feature", "properties": { "FEEDER_NAME": "Fox Run", "SUBSTATION_NAME": "Willardsville", "wmType": "PRIMARY OVERHEAD", "WKT": "LINESTRING (-78.95256653575707 36.13963876706356, -78.95290635653322 36.13965477328051)" }, "geometry": { "type": "LineString", "coordinates": [ [ -78.952566535757072, 36.139638767063559 ], [ -78.952906356533219, 36.139654773280512 ] ] } },
{ "type": "Feature", "properties": { "FEEDER_NAME": "Fox Run", "SUBSTATION_NAME": "Willardsville", "wmType": "PRIMARY OVERHEAD", "WKT": "LINESTRING (-78.95290635653322 36.13965477328051, -78.95332835831555 36.13960777321933)" }, "geometry": { "type": "LineString", "coordinates": [ [ -78.952906356533219, 36.139654773280512 ], [ -78.953328358315545, 36.139607773219332 ] ] } },
{ "type": "Feature", "properties": { "FEEDER_NAME": "Fox Run", "SUBSTATION_NAME": "Willardsville", "wmType": "PRIMARY OVERHEAD", "WKT": "LINESTRING (-78.94646090709239 36.12960276502698, -78.9465560680955 36.12930616618109)" }, "geometry": { "type": "LineString", "coordinates": [ [ -78.946460907092387, 36.129602765026981 ], [ -78.946556068095504, 36.129306166181088 ] ] } },
{ "type": "Feature", "properties": { "FEEDER_NAME": "Fox Run", "SUBSTATION_NAME": "Willardsville", "wmType": "PRIMARY OVERHEAD", "WKT": "LINESTRING (-78.9465560680955 36.12930616618109, -78.94727854799723 36.12922011622742)" }, "geometry": { "type": "LineString", "coordinates": [ [ -78.946556068095504, 36.129306166181088 ], [ -78.947278547997229, 36.129220116227422 ] ] } },
{ "type": "Feature", "properties": { "FEEDER_NAME": "Fox Run", "SUBSTATION_NAME": "Willardsville", "wmType": "PRIMARY OVERHEAD", "WKT": "LINESTRING (-78.94727854799723 36.12922011622742, -78.94795681998451 36.12905773299551)" }, "geometry": { "type": "LineString", "coordinates": [ [ -78.947278547997229, 36.129220116227422 ], [ -78.947956819984512, 36.129057732995513 ] ] } },
{ "type": "Feature", "properties": { "FEEDER_NAME": "Fox Run", "SUBSTATION_NAME": "Willardsville", "wmType": "PRIMARY OVERHEAD", "WKT": "LINESTRING (-78.94795681998451 36.12905773299551, -78.9488918551583 36.12894805703328)" }, "geometry": { "type": "LineString", "coordinates": [ [ -78.947956819984512, 36.129057732995513 ], [ -78.948891855158294, 36.128948057033277 ] ] } },
{ "type": "Feature", "properties": { "FEEDER_NAME": "Fox Run", "SUBSTATION_NAME": "Willardsville", "wmType": "PRIMARY OVERHEAD", "WKT": "LINESTRING (-78.9488918551583 36.12894805703328, -78.94980552827455 36.128882838753185)" }, "geometry": { "type": "LineString", "coordinates": [ [ -78.948891855158294, 36.128948057033277 ], [ -78.949805528274553, 36.128882838753185 ] ] } },
{ "type": "Feature", "properties": { "FEEDER_NAME": "Fox Run", "SUBSTATION_NAME": "Willardsville", "wmType": "PRIMARY OVERHEAD", "WKT": "LINESTRING (-78.94980552827455 36.128882838753185, -78.95058712651758 36.12890095693434)" }, "geometry": { "type": "LineString", "coordinates": [ [ -78.949805528274553, 36.128882838753185 ], [ -78.950587126517576, 36.128900956934338 ] ] } },
{ "type": "Feature", "properties": { "FEEDER_NAME": "Fox Run", "SUBSTATION_NAME": "Willardsville", "wmType": "PRIMARY OVERHEAD", "WKT": "LINESTRING (-78.95058712651758 36.12890095693434, -78.95088077919239 36.129047074308545)" }, "geometry": { "type": "LineString", "coordinates": [ [ -78.950587126517576, 36.128900956934338 ], [ -78.950880779192389, 36.129047074308545 ] ] } },
{ "type": "Feature", "properties": { "FEEDER_NAME": "Fox Run", "SUBSTATION_NAME": "Willardsville", "wmType": "PRIMARY OVERHEAD", "WKT": "LINESTRING (-78.94550076882877 36.12757130509722, -78.94562271193873 36.12756988404324)" }, "geometry": { "type": "LineString", "coordinates": [ [ -78.945500768828765, 36.12757130509722 ], [ -78.945622711938725, 36.12756988404324 ] ] } },
{ "type": "Feature", "properties": { "FEEDER_NAME": "Fox Run", "SUBSTATION_NAME": "Willardsville", "wmType": "PRIMARY OVERHEAD", "WKT": "LINESTRING (-78.94625546181155 36.12747133893499, -78.94671613820162 36.12728018883538)" }, "geometry": { "type": "LineString", "coordinates": [ [ -78.946255461811546, 36.127471338934988 ], [ -78.946716138201623, 36.127280188835378 ] ] } },
{ "type": "Feature", "properties": { "FEEDER_NAME": "Fox Run", "SUBSTATION_NAME": "Willardsville", "wmType": "PRIMARY OVERHEAD", "WKT": "LINESTRING (-78.94671613820162 36.12728018883538, -78.94700550452299 36.12709175580928)" }, "geometry": { "type": "LineString", "coordinates": [ [ -78.946716138201623, 36.127280188835378 ], [ -78.947005504522991, 36.127091755809282 ] ] } },
{ "type": "Feature", "properties": { "FEEDER_NAME": "Fox Run", "SUBSTATION_NAME": "Willardsville", "wmType": "PRIMARY OVERHEAD", "WKT": "LINESTRING (-78.94700550452299 36.12709175580928, -78.94761853802463 36.12691184155378)" }, "geometry": { "type": "LineString", "coordinates": [ [ -78.947005504522991, 36.127091755809282 ], [ -78.947618538024628, 36.126911841553778 ] ] } },
{ "type": "Feature", "properties": { "FEEDER_NAME": "Fox Run", "SUBSTATION_NAME": "Willardsville", "wmType": "PRIMARY OVERHEAD", "WKT": "LINESTRING (-78.94761853802463 36.12691184155378, -78.9488859285336 36.12653246718656)" }, "geometry": { "type": "LineString", "coordinates": [ [ -78.947618538024628, 36.126911841553778 ], [ -78.948885928533599, 36.126532467186557 ] ] } },
{ "type": "Feature", "properties": { "FEEDER_NAME": "Fox Run", "SUBSTATION_NAME": "Willardsville", "wmType": "PRIMARY OVERHEAD", "WKT": "LINESTRING (-78.9488859285336 36.12653246718656, -78.94998229160049 36.12619637858656)" }, "geometry": { "type": "LineString", "coordinates": [ [ -78.948885928533599, 36.126532467186557 ], [ -78.949982291600492, 36.126196378586563 ] ] } },
{ "type": "Feature", "properties": { "FEEDER_NAME": "Fox Run", "SUBSTATION_NAME": "Willardsville", "wmType": "PRIMARY OVERHEAD", "WKT": "LINESTRING (-78.94998229160049 36.12619637858656, -78.95022009509564 36.126728559543146)" }, "geometry": { "type": "LineString", "coordinates": [ [ -78.949982291600492, 36.126196378586563 ], [ -78.950220095095645, 36.126728559543146 ] ] } },
{ "type": "Feature", "properties": { "FEEDER_NAME": "Fox Run", "SUBSTATION_NAME": "Willardsville", "wmType": "PRIMARY OVERHEAD", "WKT": "LINESTRING (-78.95022009509564 36.126728559543146, -78.95039890707727 36.12712111274375)" }, "geometry": { "type": "LineString", "coordinates": [ [ -78.950220095095645, 36.126728559543146 ], [ -78.950398907077272, 36.127121112743751 ] ] } },
{ "type": "Feature", "properties": { "FEEDER_NAME": "Fox Run", "SUBSTATION_NAME": "Willardsville", "wmType": "PRIMARY OVERHEAD", "WKT": "LINESTRING (-78.95039890707727 36.12712111274375, -78.95068432352771 36.12774416969637)" }, "geometry": { "type": "LineString", "coordinates": [ [ -78.950398907077272, 36.127121112743751 ], [ -78.95068432352771, 36.127744169696371 ] ] } },
{ "type": "Feature", "properties": { "FEEDER_NAME": "Fox Run", "SUBSTATION_NAME": "Willardsville", "wmType": "PRIMARY OVERHEAD", "WKT": "LINESTRING (-78.95068432352771 36.12774416969637, -78.95133160061417 36.12787292809854)" }, "geometry": { "type": "LineString", "coordinates": [ [ -78.95068432352771, 36.127744169696371 ], [ -78.951331600614168, 36.12787292809854 ] ] } },
{ "type": "Feature", "properties": { "FEEDER_NAME": "Fox Run", "SUBSTATION_NAME": "Willardsville", "wmType": "PRIMARY OVERHEAD", "WKT": "LINESTRING (-78.95133160061417 36.12787292809854, -78.95209804331073 36.12802185140658)" }, "geometry": { "type": "LineString", "coordinates": [ [ -78.951331600614168, 36.12787292809854 ], [ -78.952098043310727, 36.128021851406579 ] ] } },
{ "type": "Feature", "properties": { "FEEDER_NAME": "Fox Run", "SUBSTATION_NAME": "Willardsville", "wmType": "PRIMARY OVERHEAD", "WKT": "LINESTRING (-78.95209804331073 36.12802185140658, -78.95266027423838 36.127424391818835)" }, "geometry": { "type": "LineString", "coordinates": [ [ -78.952098043310727, 36.128021851406579 ], [ -78.952660274238383, 36.127424391818835 ] ] } },
{ "type": "Feature", "properties": { "FEEDER_NAME": "Fox Run", "SUBSTATION_NAME": "Willardsville", "wmType": "PRIMARY OVERHEAD", "WKT": "LINESTRING (-78.95266027423838 36.127424391818835, -78.95308071417185 36.12713785534605)" }, "geometry": { "type": "LineString", "coordinates": [ [ -78.952660274238383, 36.127424391818835 ], [ -78.953080714171847, 36.127137855346049 ] ] } },
{ "type": "Feature", "properties": { "FEEDER_NAME": "Fox Run", "SUBSTATION_NAME": "Willardsville", "wmType": "PRIMARY OVERHEAD", "WKT": "LINESTRING (-78.95308071417185 36.12713785534605, -78.95362327103666 36.12675483717778)" }, "geometry": { "type": "LineString", "coordinates": [ [ -78.953080714171847, 36.127137855346049 ], [ -78.953623271036662, 36.126754837177778 ] ] } },
{ "type": "Feature", "properties": { "FEEDER_NAME": "Fox Run", "SUBSTATION_NAME": "Willardsville", "wmType": "PRIMARY OVERHEAD", "WKT": "LINESTRING (-78.95308071417185 36.12713785534605, -78.95239111538538 36.12673081948817)" }, "geometry": { "type": "LineString", "coordinates": [ [ -78.953080714171847, 36.127137855346049 ], [ -78.952391115385382, 36.126730819488174 ] ] } },
{ "type": "Feature", "properties": { "FEEDER_NAME": "Fox Run", "SUBSTATION_NAME": "Willardsville", "wmType": "PRIMARY OVERHEAD", "WKT": "LINESTRING (-78.95239111538538 36.12673081948817, -78.95143364904473 36.12669420767784)" }, "geometry": { "type": "LineString", "coordinates": [ [ -78.952391115385382, 36.126730819488174 ], [ -78.951433649044731, 36.126694207677843 ] ] } },
{ "type": "Feature", "properties": { "FEEDER_NAME": "Fox Run", "SUBSTATION_NAME": "Willardsville", "wmType": "PRIMARY OVERHEAD", "WKT": "LINESTRING (-78.94625546181155 36.12747133893499, -78.94607681304147 36.127011687242174)" }, "geometry": { "type": "LineString", "coordinates": [ [ -78.946255461811546, 36.127471338934988 ], [ -78.946076813041472, 36.127011687242174 ] ] } },
{ "type": "Feature", "properties": { "FEEDER_NAME": "Fox Run", "SUBSTATION_NAME": "Willardsville", "wmType": "PRIMARY OVERHEAD", "WKT": "LINESTRING (-78.9448064966948 36.12607656523089, -78.94492539563159 36.12598305002727)" }, "geometry": { "type": "LineString", "coordinates": [ [ -78.944806496694795, 36.126076565230889 ], [ -78.944925395631586, 36.125983050027273 ] ] } },
{ "type": "Feature", "properties": { "FEEDER_NAME": "Fox Run", "SUBSTATION_NAME": "Willardsville", "wmType": "PRIMARY OVERHEAD", "WKT": "LINESTRING (-78.9456914630583 36.125898022092876, -78.94692739588429 36.125771321340906)" }, "geometry": { "type": "LineString", "coordinates": [ [ -78.945691463058296, 36.125898022092876 ], [ -78.946927395884288, 36.125771321340906 ] ] } },
{ "type": "Feature", "properties": { "FEEDER_NAME": "Fox Run", "SUBSTATION_NAME": "Willardsville", "wmType": "PRIMARY OVERHEAD", "WKT": "LINESTRING (-78.94692739588429 36.125771321340906, -78.94798587910283 36.1256628790367)" }, "geometry": { "type": "LineString", "coordinates": [ [ -78.946927395884288, 36.125771321340906 ], [ -78.947985879102831, 36.125662879036703 ] ] } },
{ "type": "Feature", "properties": { "FEEDER_NAME": "Fox Run", "SUBSTATION_NAME": "Willardsville", "wmType": "PRIMARY OVERHEAD", "WKT": "LINESTRING (-78.94798587910283 36.1256628790367, -78.94869163792686 36.12546249580818)" }, "geometry": { "type": "LineString", "coordinates": [ [ -78.947985879102831, 36.125662879036703 ], [ -78.948691637926856, 36.125462495808179 ] ] } },
{ "type": "Feature", "properties": { "FEEDER_NAME": "Fox Run", "SUBSTATION_NAME": "Willardsville", "wmType": "PRIMARY OVERHEAD", "WKT": "LINESTRING (-78.94869163792686 36.12546249580818, -78.94925882269723 36.12545606235535)" }, "geometry": { "type": "LineString", "coordinates": [ [ -78.948691637926856, 36.125462495808179 ], [ -78.949258822697232, 36.125456062355347 ] ] } },
{ "type": "Feature", "properties": { "FEEDER_NAME": "Fox Run", "SUBSTATION_NAME": "Willardsville", "wmType": "PRIMARY OVERHEAD", "WKT": "LINESTRING (-78.94925882269723 36.12545606235535, -78.9497735205779 36.12545039511469)" }, "geometry": { "type": "LineString", "coordinates": [ [ -78.949258822697232, 36.125456062355347 ], [ -78.949773520577907, 36.12545039511469 ] ] } },
{ "type": "Feature", "properties": { "FEEDER_NAME": "Fox Run", "SUBSTATION_NAME": "Willardsville", "wmType": "PRIMARY OVERHEAD", "WKT": "LINESTRING (-78.9497735205779 36.12545039511469, -78.95080299621117 36.12543887933295)" }, "geometry": { "type": "LineString", "coordinates": [ [ -78.949773520577907, 36.12545039511469 ], [ -78.950802996211166, 36.125438879332947 ] ] } },
{ "type": "Feature", "properties": { "FEEDER_NAME": "Fox Run", "SUBSTATION_NAME": "Willardsville", "wmType": "PRIMARY OVERHEAD", "WKT": "LINESTRING (-78.95080299621117 36.12543887933295, -78.95183233157572 36.125427362945764)" }, "geometry": { "type": "LineString", "coordinates": [ [ -78.950802996211166, 36.125438879332947 ], [ -78.951832331575716, 36.125427362945764 ] ] } },
{ "type": "Feature", "properties": { "FEEDER_NAME": "Fox Run", "SUBSTATION_NAME": "Willardsville", "wmType": "PRIMARY OVERHEAD", "WKT": "LINESTRING (-78.95183233157572 36.125427362945764, -78.95286138666854 36.125415903581136)" }, "geometry": { "type": "LineString", "coordinates": [ [ -78.951832331575716, 36.125427362945764 ], [ -78.952861386668545, 36.125415903581136 ] ] } },
{ "type": "Feature", "properties": { "FEEDER_NAME": "Fox Run", "SUBSTATION_NAME": "Willardsville", "wmType": "PRIMARY OVERHEAD", "WKT": "LINESTRING (-78.95286138666854 36.125415903581136, -78.95365213752612 36.12540731957346)" }, "geometry": { "type": "LineString", "coordinates": [ [ -78.952861386668545, 36.125415903581136 ], [ -78.95365213752612, 36.125407319573462 ] ] } }
]
}
