{
"type": "FeatureCollection",
"name": "Substation",
"crs": { "type": "name", "properties": { "name": "urn:ogc:def:crs:OGC:1.3:CRS84" } },
"features": [
{ "type": "Feature", "properties": { "OBJECTID": "6", "Substation": "Buckhorn", "SubNumber": "9", "UplineSour": "Buckhorn" }, "geometry": { "type": "Polygon", "coordinates": [ [ [ -79.230770831969878, 36.07763169499961 ], [ -79.230744482619926, 36.077598112029399 ], [ -79.220652792557914, 36.079703218649193 ], [ -79.188337801706012, 36.078714017032858 ], [ -79.166850455592638, 36.075317433542331 ], [ -79.158293212991282, 36.071189602686161 ], [ -79.157280516701434, 36.044444036606812 ], [ -79.161307980563592, 36.039520586087043 ], [ -79.166443900686318, 36.038470444120307 ], [ -79.170843168928585, 36.036228822864778 ], [ -79.179837544641487, 36.016634638746929 ], [ -79.18938274096304, 36.01282868671737 ], [ -79.192150623393417, 36.007327828057512 ], [ -79.192178928802363, 36.003810470302014 ], [ -79.189709096293072, 35.998717198674498 ], [ -79.183051840423545, 35.997349806612036 ], [ -79.180021401902962, 35.997092428477281 ], [ -79.178047169134814, 36.000064179986609 ], [ -79.167101193941917, 35.998713253530418 ], [ -79.162001164897887, 35.997440810109509 ], [ -79.160386633425475, 35.998574406781842 ], [ -79.154223070962161, 35.998057725532284 ], [ -79.147311855623215, 35.993013598743673 ], [ -79.149210309228536, 35.99061198845186 ], [ -79.146146407606551, 35.98384333138705 ], [ -79.148001431036278, 35.971440951653435 ], [ -79.161961754986265, 35.969706286331395 ], [ -79.177134215414384, 35.98590080355541 ], [ -79.194708949590876, 35.985683281125041 ], [ -79.215074741779716, 35.975872079156282 ], [ -79.252472965681065, 35.973654306160718 ], [ -79.275522380870498, 35.979566107729909 ], [ -79.27627428401874, 35.984949734567728 ], [ -79.276022485792183, 35.997111955363998 ], [ -79.284269310580513, 36.005677705448086 ], [ -79.304667073303065, 36.005867003919505 ], [ -79.319559643344235, 36.023952056942193 ], [ -79.312859883650418, 36.037323167049777 ], [ -79.297750734029663, 36.040341651006493 ], [ -79.296410218087047, 36.035098801285059 ], [ -79.301074667321572, 36.026264373864919 ], [ -79.29533724405438, 36.022701463394775 ], [ -79.293010602225493, 36.024638596369364 ], [ -79.291466883787947, 36.023926906419945 ], [ -79.290061590817587, 36.02496755336805 ], [ -79.288652805670779, 36.025042427149302 ], [ -79.289038201204676, 36.022001141674572 ], [ -79.289426648544378, 36.01981830424878 ], [ -79.286515348087548, 36.01832285999015 ], [ -79.277717196267545, 36.020560859965343 ], [ -79.27553900988292, 36.024572907919136 ], [ -79.266568853433697, 36.024167368569536 ], [ -79.265010270029393, 36.021538152527604 ], [ -79.260353234793783, 36.019258939062077 ], [ -79.258464368105692, 36.023383550982182 ], [ -79.25737756810075, 36.024631073923906 ], [ -79.252760194431559, 36.027888075048651 ], [ -79.249036169795531, 36.031157853061238 ], [ -79.235081893307921, 36.029926423411943 ], [ -79.233203898358852, 36.03834286810249 ], [ -79.227539330380708, 36.041108539319744 ], [ -79.231781155609752, 36.045917430400905 ], [ -79.228742048008968, 36.051073846989937 ], [ -79.224093687422638, 36.051206481871404 ], [ -79.221948052569331, 36.051557642811652 ], [ -79.22347572449425, 36.05275040712489 ], [ -79.242239867416274, 36.052643127185497 ], [ -79.242601075525187, 36.055575438576831 ], [ -79.234392826511723, 36.058331989176132 ], [ -79.231872585354509, 36.062392280903943 ], [ -79.226128931670843, 36.063596650560029 ], [ -79.224564957105272, 36.064265881944948 ], [ -79.224366164744282, 36.070258485994586 ], [ -79.226438341290887, 36.072489158483677 ], [ -79.230321630481043, 36.074628005443572 ], [ -79.230770831969878, 36.07763169499961 ] ] ] } },
{ "type": "Feature", "properties": { "OBJECTID": "11", "Substation": "Eubanks", "SubNumber": "10", "UplineSour": "Eubanks" }, "geometry": { "type": "Polygon", "coordinates": [ [ [ -79.02669134358537, 36.039649890439456 ], [ -79.026536769819728, 36.039868999071345 ], [ -79.021700145867655, 36.040323214716601 ], [ -79.010909931350568, 36.036698561696596 ], [ -79.00030669855829, 36.032770776054662 ], [ -78.999562667451201, 36.029295759607102 ], [ -79.012396267522149, 36.024762495088972 ], [ -79.010535538901195, 36.018719140745766 ], [ -79.006071293507134, 36.0090497686937 ], [ -78.997331511000851, 36.002250877386835 ], [ -78.993985108441024, 35.994847368223816 ], [ -78.997146050560644, 35.988652792384066 ], [ -79.00588382628446, 35.988350503314365 ], [ -79.01648062794979, 35.988047352471298 ], [ -79.024288677149073, 35.987592778683798 ], [ -79.030611101079245, 35.991670791619818 ], [ -79.038791981055084, 35.992726098114062 ], [ -79.047158290440777, 35.992572064191457 ], [ -79.051432322211298, 35.989246358010298 ], [ -79.057932838493002, 35.980329111396848 ], [ -79.069634605549439, 35.969444445570026 ], [ -79.074466989724172, 35.969290503352816 ], [ -79.085252319837238, 35.97411837027613 ], [ -79.088248621245341, 35.98200041101542 ], [ -79.087410462877997, 35.988296449501277 ], [ -79.083678243913042, 35.988356294357764 ], [ -79.081846559232943, 35.987613529939701 ], [ -79.079380686073705, 35.986413302099123 ], [ -79.076000210049429, 35.986014833729321 ], [ -79.072552695940402, 35.98933633864624 ], [ -79.071502367108835, 35.992719646016205 ], [ -79.069880951309088, 35.994259769048142 ], [ -79.069320645137026, 35.997865640080832 ], [ -79.065339614696555, 36.000465481426232 ], [ -79.061158815170714, 36.001838801848017 ], [ -79.054631264898845, 36.004941897225912 ], [ -79.046487986877494, 36.006256806067007 ], [ -79.037756964206594, 36.006498277792716 ], [ -79.031237281512247, 36.011739506979723 ], [ -79.030655330111273, 36.015024946067456 ], [ -79.029855249836146, 36.020667812503682 ], [ -79.031499573182913, 36.022002775004758 ], [ -79.029156384975991, 36.036215527234752 ], [ -79.02669134358537, 36.039649890439456 ] ] ] } },
{ "type": "Feature", "properties": { "OBJECTID": "17", "Substation": "N.Roxboro", "SubNumber": "2", "UplineSour": "N.Roxboro" }, "geometry": { "type": "Polygon", "coordinates": [ [ [ -78.959035219639006, 36.374255040717266 ], [ -78.985683887887618, 36.395855957180537 ], [ -78.998454460022458, 36.417841416192282 ], [ -78.998490505628311, 36.428252247843055 ], [ -78.994027789353822, 36.442517197144319 ], [ -79.006422080346354, 36.454318586582843 ], [ -79.004201205059772, 36.487195044031438 ], [ -78.994023712409444, 36.497232199719122 ], [ -78.996237296683717, 36.519046309806505 ], [ -78.994020430827646, 36.541217580672161 ], [ -78.96216777632246, 36.546287293793029 ], [ -78.936755605551298, 36.549376046916279 ], [ -78.916373428553044, 36.544119091006451 ], [ -78.898402785804947, 36.520667286375676 ], [ -78.913761175365636, 36.509047959157904 ], [ -78.92238541065089, 36.491682511358121 ], [ -78.91246979132265, 36.456484841847903 ], [ -78.91238364762998, 36.452336233583125 ], [ -78.920424616278069, 36.45173747288672 ], [ -78.925291404137369, 36.446151379203563 ], [ -78.916954896306407, 36.436128280212763 ], [ -78.888925402523981, 36.435510100288141 ], [ -78.863883267688252, 36.413431464049715 ], [ -78.844617283136628, 36.391752983428752 ], [ -78.877142722906825, 36.38227286479853 ], [ -78.887056405693485, 36.373671753099572 ], [ -78.895873817648038, 36.374286050445249 ], [ -78.906683266115209, 36.36281160233613 ], [ -78.916763419151692, 36.368408243346117 ], [ -78.921441442468222, 36.359951700958618 ], [ -78.927320059350222, 36.358536654627819 ], [ -78.930275160175825, 36.35671800602433 ], [ -78.934877949765678, 36.35121293749598 ], [ -78.942306186059668, 36.350262957073298 ], [ -78.946466890098279, 36.353098413086457 ], [ -78.959035219639006, 36.374255040717266 ] ] ] } },
{ "type": "Feature", "properties": { "OBJECTID": "16", "Substation": "MT. Tirzah", "SubNumber": "7", "UplineSour": "MT. Tirzah" }, "geometry": { "type": "Polygon", "coordinates": [ [ [ -78.970698741635474, 36.320033079727466 ], [ -78.97063445091014, 36.320040551055996 ], [ -78.97063069183703, 36.330322735152549 ], [ -78.983152747505798, 36.336583789707433 ], [ -78.981124754466464, 36.345077406964307 ], [ -78.968778883902218, 36.356400047234757 ], [ -78.965993743277423, 36.372922004780541 ], [ -78.959035219639006, 36.374255040717266 ], [ -78.95231850501024, 36.365192574077781 ], [ -78.946466890098279, 36.353098413086457 ], [ -78.942306186059668, 36.350262957073298 ], [ -78.934877949765678, 36.35121293749598 ], [ -78.930275160175825, 36.35671800602433 ], [ -78.927285691166929, 36.358525050288293 ], [ -78.921441442468222, 36.359951700958618 ], [ -78.916763419151692, 36.368408243346117 ], [ -78.906683266115209, 36.36281160233613 ], [ -78.90389898958405, 36.365242630863342 ], [ -78.895873817648038, 36.374286050445249 ], [ -78.887056405693485, 36.373671753099572 ], [ -78.877142722906825, 36.38227286479853 ], [ -78.844617283136628, 36.391752983428752 ], [ -78.807374576504515, 36.39839588172579 ], [ -78.787369508036747, 36.379766085952966 ], [ -78.775020629937799, 36.367346117598153 ], [ -78.80751067868799, 36.341651531721766 ], [ -78.798107578644874, 36.330668793783445 ], [ -78.776299488677878, 36.331584678234456 ], [ -78.745120332913643, 36.313880153873569 ], [ -78.724485593875201, 36.300245001065463 ], [ -78.725496480385544, 36.288874063479938 ], [ -78.735231954534783, 36.283888381685735 ], [ -78.760137597584162, 36.286872356305537 ], [ -78.770281333137532, 36.293034408186337 ], [ -78.784288012528933, 36.293202292262052 ], [ -78.784397915637413, 36.304933295196989 ], [ -78.803325106563861, 36.301499662605266 ], [ -78.811567823636921, 36.288369500577417 ], [ -78.807107468950576, 36.28080901841966 ], [ -78.825815753280224, 36.260331160559275 ], [ -78.827624864868824, 36.260045710030298 ], [ -78.831992395270092, 36.263201003726614 ], [ -78.834740644882558, 36.26901658456395 ], [ -78.846326623860307, 36.273055229721443 ], [ -78.858766667872445, 36.280214848246956 ], [ -78.871201985679193, 36.282517496708252 ], [ -78.878144487546876, 36.271938157220205 ], [ -78.883228649751516, 36.274689861954286 ], [ -78.886719762045601, 36.275412125738981 ], [ -78.886967947479164, 36.279156835928617 ], [ -78.889014603194511, 36.281275989730219 ], [ -78.891863933684547, 36.28225134099538 ], [ -78.896601043147697, 36.280939278937467 ], [ -78.905756606604669, 36.282084014499212 ], [ -78.910028530619527, 36.281922673519681 ], [ -78.912217285858645, 36.283984316263101 ], [ -78.912355649077838, 36.286731154199046 ], [ -78.911151717769727, 36.288847563557297 ], [ -78.907279162388321, 36.291119334671045 ], [ -78.909380939637742, 36.307787203648886 ], [ -78.918629312546599, 36.320646784787165 ], [ -78.92553806528386, 36.324607292532583 ], [ -78.92827897991107, 36.323822115020796 ], [ -78.9285501400947, 36.317098601098671 ], [ -78.93720429182116, 36.317460978634841 ], [ -78.940165832830502, 36.31664584211746 ], [ -78.948532719942463, 36.317031123440138 ], [ -78.955778434733773, 36.320495928036571 ], [ -78.958513200222157, 36.319361964872677 ], [ -78.959705733809969, 36.319136215773419 ], [ -78.96157837388607, 36.31716942332298 ], [ -78.967871646448472, 36.31665622774922 ], [ -78.970698741635474, 36.320033079727466 ] ] ] } },
{ "type": "Feature", "properties": { "OBJECTID": "19", "Substation": "New Sharon", "SubNumber": "22", "UplineSour": "New Sharon" }, "geometry": { "type": "Polygon", "coordinates": [ [ [ -78.985861576924961, 36.18236690603991 ], [ -78.975753810810403, 36.181595102793352 ], [ -78.967790789656149, 36.181619541699867 ], [ -78.961096129792878, 36.180419983762214 ], [ -78.962209851754096, 36.157469997883503 ], [ -78.959194056575356, 36.155492308612786 ], [ -78.95517137796277, 36.156177627717817 ], [ -78.953760066219033, 36.156119875714793 ], [ -78.952913896911681, 36.155032236710106 ], [ -78.947976185869379, 36.152054423583373 ], [ -78.950518796963294, 36.148278476064462 ], [ -78.957291764276121, 36.14982616481813 ], [ -78.963769725137979, 36.145875831960488 ], [ -78.963997679174483, 36.14410558385044 ], [ -78.968584239362485, 36.143133980540888 ], [ -78.971334753460795, 36.146396618514238 ], [ -78.973945830800332, 36.145138199267144 ], [ -78.976134234015987, 36.141361633549295 ], [ -78.974590068239465, 36.128063708887957 ], [ -78.976638745239654, 36.121866847285744 ], [ -78.978667952509085, 36.121683626342652 ], [ -78.981238120935046, 36.128092382606951 ], [ -78.984140649608676, 36.128122599394672 ], [ -78.985353333655567, 36.126841084432726 ], [ -78.99153527504771, 36.127619057123141 ], [ -79.004229525341145, 36.135594158655458 ], [ -79.013828915154676, 36.135746027118763 ], [ -79.015940899823093, 36.127363074954459 ], [ -79.036331172264923, 36.109379564327426 ], [ -79.035436272080119, 36.079096321730674 ], [ -79.033251405750164, 36.058749541489178 ], [ -79.039592623119745, 36.054360051629409 ], [ -79.055802974408692, 36.054926022953225 ], [ -79.072499884341468, 36.073802963776622 ], [ -79.064992410368717, 36.088686723110875 ], [ -79.061239518772538, 36.098608300409424 ], [ -79.067915154146903, 36.098662004557703 ], [ -79.068482061505506, 36.101923714780561 ], [ -79.066158296353919, 36.106045441490366 ], [ -79.060728607298344, 36.106849454969179 ], [ -79.058021484578077, 36.103848788904237 ], [ -79.056072072530796, 36.104047486303394 ], [ -79.055862888335213, 36.107481285275483 ], [ -79.05363944779495, 36.109691499385981 ], [ -79.054737178888161, 36.111430547487032 ], [ -79.065106043582077, 36.112970631038124 ], [ -79.065250996183551, 36.117777719920731 ], [ -79.063911984300447, 36.122900336070359 ], [ -79.061932502678616, 36.128624144896563 ], [ -79.056463857680484, 36.1436056670222 ], [ -79.038465538160793, 36.150928671040276 ], [ -78.985861576924961, 36.18236690603991 ] ] ] } },
{ "type": "Feature", "properties": { "OBJECTID": "21", "Substation": "W. Hillsborough", "SubNumber": "17", "UplineSour": "W. Hillsborough" }, "geometry": { "type": "Polygon", "coordinates": [ [ [ -79.158293212991282, 36.071189602686161 ], [ -79.188337801706012, 36.078714017032858 ], [ -79.202574362540616, 36.086295634603609 ], [ -79.220997388811128, 36.108916770389307 ], [ -79.246700716226883, 36.105886984749269 ], [ -79.268044180654712, 36.117764674538144 ], [ -79.268026637757231, 36.167689900681779 ], [ -79.249766333615057, 36.169669566273136 ], [ -79.235076054415117, 36.150172155148383 ], [ -79.223375813946959, 36.147695295504896 ], [ -79.2278360007477, 36.141542000514171 ], [ -79.226276672797155, 36.140708330339351 ], [ -79.218078389465063, 36.143303099915272 ], [ -79.204363023418551, 36.136498908633371 ], [ -79.199288068924815, 36.128876899382938 ], [ -79.189293574496645, 36.125760546775631 ], [ -79.183499442909223, 36.126886693465174 ], [ -79.18174196111265, 36.129571876080455 ], [ -79.162038020620002, 36.143405459281936 ], [ -79.118274960335668, 36.155974054763526 ], [ -79.10747428688255, 36.160840320212941 ], [ -79.099773877469701, 36.174350839533567 ], [ -79.099045533083199, 36.179954871386499 ], [ -79.090811339075657, 36.180915030156072 ], [ -79.078309483522276, 36.179135334203934 ], [ -79.072723259982851, 36.181284774558982 ], [ -79.063900460146613, 36.18236269286183 ], [ -79.060662921502058, 36.179503014403508 ], [ -79.041838367216329, 36.177245674809491 ], [ -79.056463857680484, 36.1436056670222 ], [ -79.085200917986356, 36.139074926622442 ], [ -79.101629896829451, 36.131272959854115 ], [ -79.105200233151407, 36.119666763277891 ], [ -79.06602567858765, 36.121983295578509 ], [ -79.065250996183551, 36.117777719920731 ], [ -79.065106043582077, 36.112970631038124 ], [ -79.054737178888161, 36.111430547487032 ], [ -79.05363944779495, 36.109691499385981 ], [ -79.055862888335213, 36.107481285275483 ], [ -79.056072072530796, 36.104047486303394 ], [ -79.058058138725258, 36.103788356420516 ], [ -79.060728607298344, 36.106849454969179 ], [ -79.066158296353919, 36.106045441490366 ], [ -79.068482061505506, 36.101923714780561 ], [ -79.067915154146903, 36.098662004557703 ], [ -79.061239518772538, 36.098608300409424 ], [ -79.072960819291751, 36.090290849968923 ], [ -79.104981104497313, 36.092835984463917 ], [ -79.101053157701116, 36.057970033333781 ], [ -79.101775104644091, 36.048282118884828 ], [ -79.099522854378336, 36.030776838821438 ], [ -79.101390923917009, 36.02219075793645 ], [ -79.117344025965707, 36.011493447042724 ], [ -79.127729930370577, 36.008907650525032 ], [ -79.131314969628463, 36.01162230801615 ], [ -79.135895783373556, 36.012904988818875 ], [ -79.137780992499145, 36.016861326892958 ], [ -79.14353198314528, 36.015710095109462 ], [ -79.147819612394571, 36.01694497898324 ], [ -79.152295557246504, 36.016465068919025 ], [ -79.151275122143403, 36.012648454762676 ], [ -79.152562671228779, 36.010596087997811 ], [ -79.151730825202307, 36.005255585346987 ], [ -79.145800038007835, 36.003879728810581 ], [ -79.146904471094501, 35.997964543886965 ], [ -79.154223070962161, 35.998057725532284 ], [ -79.160386633425475, 35.998574406781842 ], [ -79.162001164897887, 35.997440810109509 ], [ -79.167101193941917, 35.998713253530418 ], [ -79.178047169134814, 36.000064179986609 ], [ -79.180021401902962, 35.997092428477281 ], [ -79.183051840423545, 35.997349806612036 ], [ -79.189709096293072, 35.998717198674498 ], [ -79.192178928802363, 36.003810470302014 ], [ -79.192150623393417, 36.007327828057512 ], [ -79.18938274096304, 36.01282868671737 ], [ -79.179837544641487, 36.016634638746929 ], [ -79.170843168928585, 36.036228822864778 ], [ -79.166443900686318, 36.038470444120307 ], [ -79.161307980563592, 36.039520586087043 ], [ -79.157280516701434, 36.044444036606812 ], [ -79.158293212991282, 36.071189602686161 ] ] ] } },
{ "type": "Feature", "properties": { "OBJECTID": "7", "Substation": "Carrboro", "SubNumber": "8", "UplineSour": "Carrboro" }, "geometry": { "type": "Polygon", "coordinates": [ [ [ -79.098731303090645, 35.918816743370542 ], [ -79.098147430118132, 35.918796970228883 ], [ -79.097003024779767, 35.917915547245869 ], [ -79.092764834733785, 35.916182783785537 ], [ -79.086459308633493, 35.905478909551746 ], [ -79.071433491429531, 35.901464437103591 ], [ -79.067831020559126, 35.878495680508536 ], [ -79.07590289389978, 35.862036242249623 ], [ -79.094094351562632, 35.860878885214241 ], [ -79.10077569678343, 35.862447478737018 ], [ -79.100254402486229, 35.86731278079867 ], [ -79.101048576989371, 35.869816101340064 ], [ -79.096929034779777, 35.879477614658036 ], [ -79.094553013908424, 35.902348938997683 ], [ -79.094321370000188, 35.904781520525077 ], [ -79.095143045232149, 35.905591682861719 ], [ -79.093813045042211, 35.908764371236686 ], [ -79.09550107507242, 35.910909294676671 ], [ -79.095173192928485, 35.912519224172144 ], [ -79.099321202614604, 35.918507471994126 ], [ -79.098731303090645, 35.918816743370542 ] ] ] } },
{ "type": "Feature", "properties": { "OBJECTID": "8", "Substation": "Cherry Grove", "SubNumber": "11", "UplineSour": "Cherry Grove" }, "geometry": { "type": "Polygon", "coordinates": [ [ [ -79.32402652868744, 36.36058573715394 ], [ -79.309956159826243, 36.342889183230213 ], [ -79.322812675324684, 36.333616981320098 ], [ -79.355163965587849, 36.319221864990752 ], [ -79.357172285564019, 36.315341547007904 ], [ -79.353285715161974, 36.313098734873321 ], [ -79.34845230467198, 36.303594108519377 ], [ -79.341722369922223, 36.300370375552021 ], [ -79.340233955979443, 36.293350389631748 ], [ -79.336861293269649, 36.289094716676139 ], [ -79.326782805529831, 36.288668776558538 ], [ -79.325254515460912, 36.279910694684553 ], [ -79.364319845717787, 36.253967363297861 ], [ -79.396034333484891, 36.224129698542214 ], [ -79.435515036813598, 36.232818028240565 ], [ -79.481564154761713, 36.206417043485487 ], [ -79.50689023674154, 36.210129958387256 ], [ -79.525248837707096, 36.273000884705525 ], [ -79.518572823193509, 36.322206307167605 ], [ -79.434467296326886, 36.365747997166444 ], [ -79.366503983000939, 36.411567846842928 ], [ -79.35543623445993, 36.410110260308258 ], [ -79.315111135438116, 36.375351346069074 ], [ -79.324265623110989, 36.360724059968447 ], [ -79.32402652868744, 36.36058573715394 ] ] ] } },
{ "type": "Feature", "properties": { "OBJECTID": "9", "Substation": "Dixon's Store", "SubNumber": null, "UplineSour": "Dixon Store" }, "geometry": { "type": "Polygon", "coordinates": [ [ [ -78.714323221214286, 36.529479697017507 ], [ -78.723178160761037, 36.518977878126236 ], [ -78.728520813471164, 36.511265478806635 ], [ -78.730928130757306, 36.506764907927149 ], [ -78.737220220386661, 36.506206341647385 ], [ -78.778105671988527, 36.498538723305067 ], [ -78.795903231056542, 36.466980436063558 ], [ -78.795264231577221, 36.428237267460645 ], [ -78.821851046082188, 36.412781645075427 ], [ -78.863883267688252, 36.413431464049715 ], [ -78.888925402523981, 36.435510100288141 ], [ -78.916954896306407, 36.436128280212763 ], [ -78.925291404137369, 36.446151379203563 ], [ -78.920424616278069, 36.45173747288672 ], [ -78.91238364762998, 36.452336233583125 ], [ -78.91246979132265, 36.456484841847903 ], [ -78.92238541065089, 36.491682511358121 ], [ -78.913761175365636, 36.509047959157904 ], [ -78.898402785804947, 36.520667286375676 ], [ -78.859082705467571, 36.550104831903653 ], [ -78.819790356912463, 36.547431160090021 ], [ -78.778142936114648, 36.542595101866844 ], [ -78.738666608869096, 36.541653375617813 ], [ -78.715942224961779, 36.545030017579883 ], [ -78.714323221214286, 36.529479697017507 ] ] ] } },
{ "type": "Feature", "properties": { "OBJECTID": "10", "Substation": "E. Willardsville", "SubNumber": "15", "UplineSour": "E. Willardsville" }, "geometry": { "type": "Polygon", "coordinates": [ [ [ -78.894495032647527, 36.145446287095567 ], [ -78.883329673039171, 36.157434374190551 ], [ -78.859209264592138, 36.162893271680808 ], [ -78.83509877534101, 36.161909385322666 ], [ -78.811291867414539, 36.15710607315259 ], [ -78.801641073725733, 36.135868953853567 ], [ -78.792003372923475, 36.111531022510071 ], [ -78.794096400349773, 36.097465879735608 ], [ -78.818484144150133, 36.097027595439656 ], [ -78.852589675466533, 36.084435422619165 ], [ -78.874328881702027, 36.084221239466402 ], [ -78.903675685902215, 36.109285401597347 ], [ -78.890713551706, 36.133119526397529 ], [ -78.894495032647527, 36.145446287095567 ] ] ] } },
{ "type": "Feature", "properties": { "OBJECTID": "12", "Substation": "Hyco", "SubNumber": "16", "UplineSour": "Hyco" }, "geometry": { "type": "Polygon", "coordinates": [ [ [ -79.172624949393651, 36.545387818879867 ], [ -79.172624178719346, 36.545030219697075 ], [ -79.115907276553116, 36.552606307080097 ], [ -79.018839849854828, 36.550513868438834 ], [ -78.994020430827646, 36.541217580672161 ], [ -78.996237296683717, 36.519046309806505 ], [ -78.994023712409444, 36.497232199719122 ], [ -79.004201205059772, 36.487195044031438 ], [ -79.004652192541258, 36.46898092151153 ], [ -79.006422080346354, 36.454318586582843 ], [ -78.994027789353822, 36.442517197144319 ], [ -78.998490505628311, 36.428252247843055 ], [ -78.998454460022458, 36.417841416192282 ], [ -79.013498894884961, 36.417840684131619 ], [ -79.034740108737097, 36.422485623326061 ], [ -79.050676530231414, 36.432135891516999 ], [ -79.070161148550085, 36.445715885487353 ], [ -79.089638774779004, 36.447133695625439 ], [ -79.098030229386112, 36.431749609782692 ], [ -79.110822962867744, 36.40169825690932 ], [ -79.114334092250317, 36.382025421893587 ], [ -79.137403721117764, 36.385259320841158 ], [ -79.153288675042191, 36.399506822351263 ], [ -79.181609996070634, 36.403402110259655 ], [ -79.183419662643004, 36.420923093880738 ], [ -79.177283145556558, 36.447396116878608 ], [ -79.165367101584962, 36.464578376100981 ], [ -79.154775838300878, 36.482472876738456 ], [ -79.163229837972082, 36.502130521262295 ], [ -79.179259953088348, 36.539656719398707 ], [ -79.172624949393651, 36.545387818879867 ] ] ] } },
{ "type": "Feature", "properties": { "OBJECTID": "13", "Substation": "Jonathans Cross", "SubNumber": null, "UplineSour": "Jonathans Cross" }, "geometry": { "type": "Polygon", "coordinates": [ [ [ -78.715942224961779, 36.545030017579883 ], [ -78.692445408189059, 36.549129635290676 ], [ -78.662302368079608, 36.550242595476618 ], [ -78.610891000991685, 36.549852345036435 ], [ -78.573666556286639, 36.548775384330526 ], [ -78.546881462028153, 36.53056103137844 ], [ -78.535171941288809, 36.512160116757642 ], [ -78.533483219375768, 36.497849261830268 ], [ -78.559307638893401, 36.473388314143868 ], [ -78.562931803371313, 36.458381272128356 ], [ -78.565669372263685, 36.443370876258292 ], [ -78.587510216935641, 36.442492481641409 ], [ -78.597523698293003, 36.44634032892754 ], [ -78.612168749275796, 36.469036661232934 ], [ -78.624570571131372, 36.468121522999795 ], [ -78.654958936736833, 36.471548346660271 ], [ -78.673830404268998, 36.476606491936174 ], [ -78.692976649450429, 36.487622626697011 ], [ -78.705086932566189, 36.486221824030643 ], [ -78.71575925365083, 36.49057407150363 ], [ -78.730798788469002, 36.496115134580442 ], [ -78.732910235765132, 36.500482583780325 ], [ -78.730928130757306, 36.506764907927149 ], [ -78.728520813471164, 36.511265478806635 ], [ -78.723178160761037, 36.518977878126236 ], [ -78.714323221214286, 36.529479697017507 ], [ -78.715942224961779, 36.545030017579883 ] ] ] } },
{ "type": "Feature", "properties": { "OBJECTID": "14", "Substation": "Little River", "SubNumber": "14", "UplineSour": "Little River" }, "geometry": { "type": "Polygon", "coordinates": [ [ [ -79.141091037808451, 36.272201748845831 ], [ -79.114702518414305, 36.258113951093065 ], [ -79.08334343606117, 36.253132138099318 ], [ -79.056855148192938, 36.262088612541888 ], [ -79.04052616230031, 36.284269416965486 ], [ -79.021091410292485, 36.292500196183617 ], [ -78.983096590400791, 36.295362018222214 ], [ -78.964983360026935, 36.293212304580031 ], [ -78.955270989760749, 36.280333819454562 ], [ -78.947778838895459, 36.253864656672064 ], [ -78.944264291167258, 36.227754234311078 ], [ -78.930896052968976, 36.229739819480386 ], [ -78.922240622656247, 36.232882017843984 ], [ -78.921707103645176, 36.236744372382603 ], [ -78.916231177610044, 36.23817137711093 ], [ -78.909872854122554, 36.238882178165859 ], [ -78.90545556240339, 36.240449835043378 ], [ -78.902883524044498, 36.237616378522901 ], [ -78.897203022921929, 36.237954220078734 ], [ -78.892035678692778, 36.239344636021883 ], [ -78.887756847194012, 36.236670289929435 ], [ -78.87485592797978, 36.237013335784717 ], [ -78.85643674669403, 36.246508204801579 ], [ -78.852361970199908, 36.253370332424389 ], [ -78.848301884656351, 36.25207781947001 ], [ -78.844593853800731, 36.24409368502323 ], [ -78.848007090308144, 36.241654985444598 ], [ -78.85074523646783, 36.238075429395522 ], [ -78.849997996145888, 36.228784613340743 ], [ -78.849350540685805, 36.207831893092411 ], [ -78.892578476045458, 36.19482792178102 ], [ -78.896534997158469, 36.192020750272356 ], [ -78.901892085539686, 36.192939981023031 ], [ -78.906404447183789, 36.182928902920175 ], [ -78.917171248719129, 36.177058939857694 ], [ -78.921056076155352, 36.178790302803897 ], [ -78.933340936072497, 36.178499742713676 ], [ -78.939448305260612, 36.171667572100276 ], [ -78.943771928109243, 36.170882765932468 ], [ -78.946599780808612, 36.167353033990786 ], [ -78.950243996049522, 36.167285047341451 ], [ -78.952244934838021, 36.165163680063962 ], [ -78.961801914331531, 36.165877734864921 ], [ -78.961096129792821, 36.180419983762214 ], [ -78.967790789655993, 36.181619541699867 ], [ -78.975753810810403, 36.181595102793388 ], [ -78.985861576924819, 36.182366906039945 ], [ -79.002084606997528, 36.200355815935765 ], [ -79.012322113462901, 36.194291374582136 ], [ -79.024248656619221, 36.187188961052499 ], [ -79.041838367216329, 36.177245674809491 ], [ -79.060662921502015, 36.179503014403544 ], [ -79.06390046014657, 36.18236269286183 ], [ -79.072723259982851, 36.181284774559018 ], [ -79.078309483522219, 36.179135334203984 ], [ -79.085216655534225, 36.180432626082791 ], [ -79.0908113390756, 36.180915030156072 ], [ -79.099045533083199, 36.179954871386499 ], [ -79.099773877469659, 36.174350839533567 ], [ -79.107474286882493, 36.160840320212976 ], [ -79.119013632258685, 36.160150126535697 ], [ -79.126740272840792, 36.165209345916431 ], [ -79.134846971378252, 36.177122935447649 ], [ -79.142589440171676, 36.189632459725551 ], [ -79.152776030547756, 36.223165161943548 ], [ -79.146243585810055, 36.255791394901649 ], [ -79.141091037808451, 36.272201748845831 ] ] ] } },
{ "type": "Feature", "properties": { "OBJECTID": "4", "Substation": "Baynes", "SubNumber": "12", "UplineSour": "Baynes" }, "geometry": { "type": "Polygon", "coordinates": [ [ [ -79.32402652868744, 36.36058573715394 ], [ -79.315111135438116, 36.375351346069074 ], [ -79.248846290107323, 36.400423241274531 ], [ -79.214363084145305, 36.409071341820685 ], [ -79.181609996070634, 36.403402110259655 ], [ -79.153288675042191, 36.399506822351263 ], [ -79.137403721117764, 36.385259320841158 ], [ -79.114334092250317, 36.382025421893587 ], [ -79.121668476440789, 36.357580086196293 ], [ -79.125757876568784, 36.333733441729159 ], [ -79.125733989407834, 36.318474103120579 ], [ -79.135703673039487, 36.290328723585702 ], [ -79.141091037808508, 36.272201748845831 ], [ -79.146243585810055, 36.255791394901649 ], [ -79.152776030547813, 36.223165161943506 ], [ -79.164049328921791, 36.209988687327574 ], [ -79.188427993183041, 36.19197508599661 ], [ -79.180723593755999, 36.166950046386141 ], [ -79.18174196111265, 36.129571876080455 ], [ -79.183499442909223, 36.126886693465174 ], [ -79.189293574496645, 36.125760546775631 ], [ -79.191429610605098, 36.126457585698361 ], [ -79.199288068924815, 36.128876899382938 ], [ -79.204363023418551, 36.136498908633371 ], [ -79.214732600676186, 36.142237846970822 ], [ -79.218078389465063, 36.143303099915272 ], [ -79.223559316658068, 36.141486282673128 ], [ -79.226276672797155, 36.140708330339351 ], [ -79.2278360007477, 36.141542000514171 ], [ -79.223375813946959, 36.147695295504896 ], [ -79.230141931912939, 36.149127790961408 ], [ -79.235076054415117, 36.150172155148383 ], [ -79.249766333615057, 36.169669566273136 ], [ -79.275816339245281, 36.189140408452992 ], [ -79.292318754555225, 36.24161155795349 ], [ -79.303323912007514, 36.276540210073506 ], [ -79.325254515460912, 36.279910694684553 ], [ -79.326782805529831, 36.288668776558538 ], [ -79.336861293269649, 36.289094716676139 ], [ -79.340233955979443, 36.293350389631748 ], [ -79.341722369922223, 36.300370375552021 ], [ -79.34845230467198, 36.303594108519377 ], [ -79.354331734730721, 36.310015653526349 ], [ -79.357172285564019, 36.315341547007904 ], [ -79.355163965587849, 36.319221864990752 ], [ -79.341975608414586, 36.325091856626649 ], [ -79.322812675324684, 36.333616981320098 ], [ -79.309956159826243, 36.342889183230213 ], [ -79.320131742389208, 36.355688152214981 ], [ -79.32402652868744, 36.36058573715394 ] ] ] } },
{ "type": "Feature", "properties": { "OBJECTID": "5", "Substation": "Bivins", "SubNumber": "13", "UplineSour": "Bivins" }, "geometry": { "type": "Polygon", "coordinates": [ [ [ -79.013881128399646, 36.135772938875604 ], [ -79.004229525341145, 36.135594158655458 ], [ -78.996081374710684, 36.129852321283863 ], [ -78.99153527504771, 36.127619057123141 ], [ -78.985353333655567, 36.126841084432726 ], [ -78.984140649608676, 36.128122599394672 ], [ -78.981238120935046, 36.128092382606951 ], [ -78.978667952509085, 36.121683626342652 ], [ -78.976638745239654, 36.121866847285744 ], [ -78.974553313394537, 36.120351898186321 ], [ -78.972555945817035, 36.118165267999522 ], [ -78.972153432082195, 36.113575003476754 ], [ -78.96730435700249, 36.113931480091402 ], [ -78.961868388659383, 36.112379975987054 ], [ -78.9566515193209, 36.113630105731836 ], [ -78.948934965757317, 36.117323113539548 ], [ -78.942980818799498, 36.12143375001736 ], [ -78.941565633883954, 36.124416120190574 ], [ -78.934221072608878, 36.12318196216831 ], [ -78.924872548016637, 36.12553723193718 ], [ -78.918887281783682, 36.11494622087865 ], [ -78.920554184880146, 36.110061469199877 ], [ -78.932734752424224, 36.092471005804484 ], [ -78.947687861403651, 36.072192158851934 ], [ -78.952666412646494, 36.071734842309517 ], [ -78.971170741936163, 36.072169824269125 ], [ -78.982978338719093, 36.0726012570316 ], [ -78.996636636959394, 36.070670908924484 ], [ -79.008003712275084, 36.072530642578954 ], [ -79.014617140895808, 36.097996885671371 ], [ -79.015940899823093, 36.127363074954459 ], [ -79.013881128399646, 36.135772938875604 ] ] ] } },
{ "type": "Feature", "properties": { "OBJECTID": "15", "Substation": "Mebane Oaks", "SubNumber": "24", "UplineSour": "Mebane Oaks" }, "geometry": { "type": "Polygon", "coordinates": [ [ [ -79.297750734029663, 36.040341651006493 ], [ -79.297571818544483, 36.054769226357628 ], [ -79.2890359673803, 36.065663353469908 ], [ -79.277537101193332, 36.069791444724054 ], [ -79.260860019568184, 36.071640426708861 ], [ -79.245596170131407, 36.074831573866156 ], [ -79.230770831969878, 36.07763169499961 ], [ -79.230321630481043, 36.074628005443572 ], [ -79.226438341290887, 36.072489158483677 ], [ -79.22429777192859, 36.071158343867687 ], [ -79.220219823645991, 36.069806467401165 ], [ -79.21996886671279, 36.067947689515634 ], [ -79.223276816180601, 36.067124457829912 ], [ -79.222921779004437, 36.06528797069393 ], [ -79.222284132049367, 36.061256645147367 ], [ -79.222618948424014, 36.055128305448626 ], [ -79.222018542195229, 36.051984626014082 ], [ -79.221948052569331, 36.051557642811652 ], [ -79.224093687422638, 36.051206481871404 ], [ -79.228742048008968, 36.051073846989937 ], [ -79.231781155609752, 36.045917430400905 ], [ -79.227539330380708, 36.041108539319744 ], [ -79.233203898358852, 36.03834286810249 ], [ -79.235081893307921, 36.029926423411943 ], [ -79.249036169795531, 36.031157853061238 ], [ -79.25737756810075, 36.024631073923906 ], [ -79.258464368105692, 36.023383550982182 ], [ -79.260353234793783, 36.019258939062077 ], [ -79.265010270029393, 36.021538152527604 ], [ -79.266568853433697, 36.024167368569536 ], [ -79.27553900988292, 36.024572907919136 ], [ -79.277717196267545, 36.020560859965343 ], [ -79.286515348087548, 36.01832285999015 ], [ -79.289426648544378, 36.01981830424878 ], [ -79.288652805670779, 36.025042427149302 ], [ -79.290061590817587, 36.02496755336805 ], [ -79.291466883787947, 36.023926906419945 ], [ -79.293010602225493, 36.024638596369364 ], [ -79.29533724405438, 36.022701463394775 ], [ -79.301074667321572, 36.026264373864919 ], [ -79.296410218087047, 36.035098801285059 ], [ -79.297750734029663, 36.040341651006493 ] ] ] } },
{ "type": "Feature", "properties": { "OBJECTID": "22", "Substation": "Westbrook", "SubNumber": "1", "UplineSour": "Westbrook" }, "geometry": { "type": "Polygon", "coordinates": [ [ [ -79.092764834733785, 35.916182783785537 ], [ -79.088152774903918, 35.903150139822621 ], [ -79.095458344912217, 35.893635873686613 ], [ -79.096929034779777, 35.879477614658036 ], [ -79.097530396609173, 35.876032714319606 ], [ -79.101048576989371, 35.869816101340064 ], [ -79.100254402486229, 35.86731278079867 ], [ -79.10077569678343, 35.862447478737018 ], [ -79.11915416356409, 35.862905386132958 ], [ -79.125842550437682, 35.868574353106652 ], [ -79.13828025366341, 35.86033352159486 ], [ -79.148593960996166, 35.861275288711298 ], [ -79.165220240552955, 35.854576597500156 ], [ -79.175079709084216, 35.86238481888897 ], [ -79.175356719690583, 35.88203466191991 ], [ -79.163426106616868, 35.894451793569004 ], [ -79.145141531545562, 35.896382690073374 ], [ -79.131776899758464, 35.896397857227505 ], [ -79.131320370996164, 35.904029429356498 ], [ -79.143755779300989, 35.908212497447551 ], [ -79.155275697124836, 35.923460458699601 ], [ -79.167262820969739, 35.935654221154358 ], [ -79.177607473295183, 35.946132191651756 ], [ -79.170755006293632, 35.960370606586636 ], [ -79.147722643174859, 35.967199775310597 ], [ -79.136511814182185, 35.970696797503656 ], [ -79.1270893043352, 35.974630761335995 ], [ -79.123385224127375, 35.974957916128226 ], [ -79.120633757858172, 35.973862562439997 ], [ -79.117573893816598, 35.974766139583288 ], [ -79.104798041147987, 35.96654783871054 ], [ -79.112206162493678, 35.94765473979556 ], [ -79.096025964607648, 35.935732192937841 ], [ -79.092764834733785, 35.916182783785537 ] ] ] } },
{ "type": "Feature", "properties": { "OBJECTID": "18", "Substation": "New Hope", "SubNumber": "18", "UplineSour": "New Hope" }, "geometry": { "type": "Polygon", "coordinates": [ [ [ -79.099522854378336, 36.030776838821438 ], [ -79.099551298866075, 36.030846685029388 ], [ -79.101775104644091, 36.048282118884828 ], [ -79.101053157701116, 36.057970033333781 ], [ -79.095919755560899, 36.062892329193765 ], [ -79.086007253751887, 36.06245259871735 ], [ -79.076275169398969, 36.058584144519131 ], [ -79.070515770442157, 36.054712682179044 ], [ -79.068662970422977, 36.051494568262008 ], [ -79.070590900425927, 36.039904427191154 ], [ -79.06379105198117, 36.031084241516588 ], [ -79.059421703146597, 36.029770149548632 ], [ -79.048286890937547, 36.025311096236678 ], [ -79.036521006678413, 36.024685644907215 ], [ -79.03349111363309, 36.023599136933363 ], [ -79.031499573182913, 36.022002775004758 ], [ -79.029855249836146, 36.020667812503682 ], [ -79.030655330111273, 36.015024946067456 ], [ -79.031237281512247, 36.011739506979723 ], [ -79.037756964206594, 36.006498277792716 ], [ -79.046487986877494, 36.006256806067007 ], [ -79.054631264898845, 36.004941897225912 ], [ -79.061158815170714, 36.001838801848017 ], [ -79.065339614696555, 36.000465481426232 ], [ -79.069320645137026, 35.997865640080832 ], [ -79.069880951309088, 35.994259769048142 ], [ -79.071502367108835, 35.992719646016205 ], [ -79.072552695940402, 35.98933633864624 ], [ -79.076000210049429, 35.986014833729321 ], [ -79.079380686073705, 35.986413302099123 ], [ -79.083678243913042, 35.988356294357764 ], [ -79.087410462877997, 35.988296449501277 ], [ -79.106945559076365, 35.990586055785585 ], [ -79.117674319235093, 35.983279212004 ], [ -79.117573893816598, 35.974766139583288 ], [ -79.120633757858172, 35.973862562439997 ], [ -79.123385224127375, 35.974957916128226 ], [ -79.131865030180904, 35.977114808720337 ], [ -79.146146407606551, 35.98384333138705 ], [ -79.149210309228536, 35.99061198845186 ], [ -79.147854185479275, 35.99302857253592 ], [ -79.146904471094501, 35.997964543886965 ], [ -79.145800038007835, 36.003879728810581 ], [ -79.151730825202307, 36.005255585346987 ], [ -79.152562671228779, 36.010596087997811 ], [ -79.151275122143403, 36.012648454762676 ], [ -79.152346303147084, 36.016495636121427 ], [ -79.147819612394571, 36.01694497898324 ], [ -79.14353198314528, 36.015710095109462 ], [ -79.137780992499145, 36.016861326892958 ], [ -79.135895783373556, 36.012904988818875 ], [ -79.131314969628463, 36.01162230801615 ], [ -79.127729930370577, 36.008907650525032 ], [ -79.117344025965707, 36.011493447042724 ], [ -79.101390923917009, 36.02219075793645 ], [ -79.099522854378336, 36.030776838821438 ] ] ] } },
{ "type": "Feature", "properties": { "OBJECTID": "20", "Substation": "Red Mountain", "SubNumber": "19", "UplineSour": "Red Mountain" }, "geometry": { "type": "Polygon", "coordinates": [ [ [ -78.760137597584105, 36.286872356305572 ], [ -78.76670419858057, 36.262957562110174 ], [ -78.750532733234039, 36.236983783083375 ], [ -78.802831816595699, 36.2112400938219 ], [ -78.842607052474506, 36.232589001406261 ], [ -78.85074523646783, 36.238075429395522 ], [ -78.848007090308144, 36.241654985444598 ], [ -78.844583748113848, 36.244152649639794 ], [ -78.848301884656351, 36.25207781947001 ], [ -78.852361970199908, 36.253370332424389 ], [ -78.85643674669403, 36.246508204801579 ], [ -78.87485592797978, 36.237013335784717 ], [ -78.887756847194012, 36.236670289929435 ], [ -78.892035678692778, 36.239344636021883 ], [ -78.897203022921929, 36.237954220078734 ], [ -78.902883524044498, 36.237616378522901 ], [ -78.90545556240339, 36.240449835043378 ], [ -78.909872854122554, 36.238882178165859 ], [ -78.916231177610044, 36.23817137711093 ], [ -78.921707103645176, 36.236744372382603 ], [ -78.922240622656247, 36.232882017843984 ], [ -78.930896052968976, 36.229739819480386 ], [ -78.944264291167258, 36.227754234311078 ], [ -78.947778838895459, 36.253864656672064 ], [ -78.955270989760749, 36.280333819454562 ], [ -78.964983360026935, 36.293212304580031 ], [ -78.961578373885914, 36.31716942332298 ], [ -78.959705733809869, 36.319136215773462 ], [ -78.958513200222214, 36.319361964872705 ], [ -78.955778434733773, 36.320495928036621 ], [ -78.94853271994252, 36.317031123440138 ], [ -78.940165832830445, 36.31664584211746 ], [ -78.93720429182116, 36.317460978634884 ], [ -78.9285501400946, 36.317098601098714 ], [ -78.92827897991107, 36.323822115020796 ], [ -78.92553806528376, 36.324607292532583 ], [ -78.9186293125465, 36.320646784787201 ], [ -78.909380939637643, 36.307787203648886 ], [ -78.907279162388278, 36.291119334671045 ], [ -78.911151717769783, 36.28884756355734 ], [ -78.912355649077895, 36.286731154199096 ], [ -78.912217285858546, 36.283984316263101 ], [ -78.910028530619527, 36.281922673519716 ], [ -78.905756606604513, 36.282084014499254 ], [ -78.89660104314774, 36.280939278937517 ], [ -78.891863933684505, 36.28225134099538 ], [ -78.889014603194454, 36.281275989730268 ], [ -78.886967947479121, 36.279156835928653 ], [ -78.886719762045502, 36.275412125739024 ], [ -78.883228649751416, 36.274689861954286 ], [ -78.878144487546777, 36.271938157220248 ], [ -78.87120198567915, 36.282517496708252 ], [ -78.858766667872445, 36.280214848247013 ], [ -78.846326623860193, 36.273055229721486 ], [ -78.834740644882459, 36.26901658456395 ], [ -78.831992395270092, 36.263201003726614 ], [ -78.827624864868667, 36.26004571003034 ], [ -78.825815753280125, 36.260331160559275 ], [ -78.807107468950534, 36.28080901841966 ], [ -78.811567823636821, 36.288369500577446 ], [ -78.803325106563818, 36.301499662605266 ], [ -78.784397915637413, 36.304933295197024 ], [ -78.78428801252889, 36.293202292262052 ], [ -78.770281333137589, 36.293034408186337 ], [ -78.760137597584105, 36.286872356305572 ] ] ] } },
{ "type": "Feature", "properties": { "OBJECTID": "23", "Substation": "Willardsville", "SubNumber": "4", "UplineSour": "Willardsville" }, "geometry": { "type": "Polygon", "coordinates": [ [ [ -78.961801914331531, 36.165877734864921 ], [ -78.952244934838134, 36.16516368006392 ], [ -78.950243996049565, 36.167285047341423 ], [ -78.946579812428126, 36.167306330961878 ], [ -78.943771928109186, 36.170882765932426 ], [ -78.939448305260612, 36.171667572100219 ], [ -78.933340936072554, 36.178499742713676 ], [ -78.921056076155409, 36.178790302803897 ], [ -78.917171248719086, 36.177058939857694 ], [ -78.906404447183789, 36.182928902920175 ], [ -78.901892085539785, 36.192939981023031 ], [ -78.896528576461449, 36.192065803889285 ], [ -78.892578476045401, 36.19482792178102 ], [ -78.871649084437252, 36.176416364461318 ], [ -78.883329673039171, 36.157434374190551 ], [ -78.894495032647527, 36.145446287095567 ], [ -78.890713551706, 36.133119526397529 ], [ -78.903675685902215, 36.109285401597347 ], [ -78.918887281783682, 36.11494622087865 ], [ -78.924872548016637, 36.12553723193718 ], [ -78.934221072608878, 36.12318196216831 ], [ -78.941565633883954, 36.124416120190574 ], [ -78.942980818799498, 36.12143375001736 ], [ -78.948934965757317, 36.117323113539548 ], [ -78.9566515193209, 36.113630105731836 ], [ -78.961868388659383, 36.112379975987054 ], [ -78.96730435700249, 36.113931480091402 ], [ -78.972153432082195, 36.113575003476754 ], [ -78.972555945817035, 36.118165267999522 ], [ -78.974574598748347, 36.120351141074444 ], [ -78.976638745239654, 36.121866847285744 ], [ -78.974590068239465, 36.128063708887957 ], [ -78.976134234015987, 36.141361633549295 ], [ -78.973945830800332, 36.145138199267144 ], [ -78.971334753460795, 36.146396618514238 ], [ -78.968584239362485, 36.143133980540888 ], [ -78.963997679174483, 36.14410558385044 ], [ -78.963769725137979, 36.145875831960488 ], [ -78.957291764276121, 36.14982616481813 ], [ -78.950518796963294, 36.148278476064462 ], [ -78.947976185869379, 36.152054423583373 ], [ -78.952913896911681, 36.155032236710106 ], [ -78.953760066219033, 36.156119875714793 ], [ -78.95517137796277, 36.156177627717817 ], [ -78.959194056575356, 36.155492308612786 ], [ -78.962209851754096, 36.157469997883503 ], [ -78.961801914331531, 36.165877734864921 ] ] ] } }
]
}
