{
"type": "FeatureCollection",
"name": "Baynes_119_North_underground",
"crs": { "type": "name", "properties": { "name": "urn:ogc:def:crs:OGC:1.3:CRS84" } },
"features": [
{ "type": "Feature", "properties": { "FEEDER_NAME": "119 North", "SUBSTATION_NAME": "Baynes", "wmType": "PRIMARY UNDERGROUND", "WKT": "LINESTRING (-79.26505636413512 36.3090259211559, -79.2650111349664 36.309057251007765)" }, "geometry": { "type": "LineString", "coordinates": [ [ -79.26505636413512, 36.3090259211559 ], [ -79.2650111349664, 36.309057251007765 ] ] } },
{ "type": "Feature", "properties": { "FEEDER_NAME": "119 North", "SUBSTATION_NAME": "Baynes", "wmType": "PRIMARY UNDERGROUND", "WKT": "LINESTRING (-79.26505636413512 36.3090259211559, -79.2657538965736 36.3095327757715, -79.26570705162666 36.309567076865186, -79.26569108435899 36.30957691958805)" }, "geometry": { "type": "LineString", "coordinates": [ [ -79.26505636413512, 36.3090259211559 ], [ -79.265753896573599, 36.309532775771501 ], [ -79.265707051626663, 36.309567076865186 ], [ -79.265691084358991, 36.309576919588046 ] ] } },
{ "type": "Feature", "properties": { "FEEDER_NAME": "119 North", "SUBSTATION_NAME": "Baynes", "wmType": "PRIMARY UNDERGROUND", "WKT": "LINESTRING (-79.22363713970877 36.37994997173663, -79.22398208232569 36.37988729544254)" }, "geometry": { "type": "LineString", "coordinates": [ [ -79.223637139708771, 36.379949971736629 ], [ -79.223982082325691, 36.379887295442543 ] ] } },
{ "type": "Feature", "properties": { "FEEDER_NAME": "119 North", "SUBSTATION_NAME": "Baynes", "wmType": "PRIMARY UNDERGROUND", "WKT": "LINESTRING (-79.22369795928876 36.38054956982005, -79.22368371709305 36.380514325089976)" }, "geometry": { "type": "LineString", "coordinates": [ [ -79.223697959288756, 36.380549569820047 ], [ -79.223683717093053, 36.380514325089976 ] ] } },
{ "type": "Feature", "properties": { "FEEDER_NAME": "119 North", "SUBSTATION_NAME": "Baynes", "wmType": "PRIMARY UNDERGROUND", "WKT": "LINESTRING (-79.2237293871571 36.38055699453684, -79.2239020699912 36.38050772284775)" }, "geometry": { "type": "LineString", "coordinates": [ [ -79.223729387157107, 36.380556994536839 ], [ -79.223902069991198, 36.380507722847753 ] ] } },
{ "type": "Feature", "properties": { "FEEDER_NAME": "119 North", "SUBSTATION_NAME": "Baynes", "wmType": "SECONDARY UNDERGROUND", "WKT": "LINESTRING (-79.22693903291719 36.35307519934416, -79.22697971466413 36.35308858430475)" }, "geometry": { "type": "LineString", "coordinates": [ [ -79.226939032917187, 36.353075199344161 ], [ -79.226979714664125, 36.35308858430475 ] ] } },
{ "type": "Feature", "properties": { "FEEDER_NAME": "119 North", "SUBSTATION_NAME": "Baynes", "wmType": "SECONDARY UNDERGROUND", "WKT": "LINESTRING (-79.24714893251874 36.32425017379678, -79.24744193361495 36.32426017430689)" }, "geometry": { "type": "LineString", "coordinates": [ [ -79.247148932518741, 36.324250173796777 ], [ -79.247441933614951, 36.324260174306893 ] ] } },
{ "type": "Feature", "properties": { "FEEDER_NAME": "119 North", "SUBSTATION_NAME": "Baynes", "wmType": "SECONDARY UNDERGROUND", "WKT": "LINESTRING (-79.21523753374501 36.356835692310874, -79.21523776968817 36.35645116289355)" }, "geometry": { "type": "LineString", "coordinates": [ [ -79.215237533745011, 36.356835692310874 ], [ -79.215237769688173, 36.356451162893549 ] ] } },
{ "type": "Feature", "properties": { "FEEDER_NAME": "119 North", "SUBSTATION_NAME": "Baynes", "wmType": "SECONDARY UNDERGROUND", "WKT": "LINESTRING (-79.22231075752254 36.36408662818774, -79.22230958107748 36.364083452948, -79.22226146092453 36.36381535234318, -79.22221755250568 36.363812085063856, -79.22221784389315 36.3638106877907)" }, "geometry": { "type": "LineString", "coordinates": [ [ -79.222310757522536, 36.364086628187742 ], [ -79.222309581077482, 36.364083452948002 ], [ -79.222261460924528, 36.363815352343181 ], [ -79.222217552505683, 36.363812085063856 ], [ -79.222217843893148, 36.363810687790703 ] ] } },
{ "type": "Feature", "properties": { "FEEDER_NAME": "119 North", "SUBSTATION_NAME": "Baynes", "wmType": "SECONDARY UNDERGROUND", "WKT": "LINESTRING (-79.21396885963112 36.35376322933994, -79.21396802415757 36.3537678463876, -79.21399509680613 36.35381698739696, -79.21408844661345 36.35386825120638, -79.2140959463643 36.35389252088809, -79.21409642763473 36.353893359902195)" }, "geometry": { "type": "LineString", "coordinates": [ [ -79.213968859631123, 36.35376322933994 ], [ -79.213968024157566, 36.353767846387598 ], [ -79.21399509680613, 36.353816987396961 ], [ -79.214088446613445, 36.353868251206379 ], [ -79.214095946364296, 36.353892520888088 ], [ -79.214096427634729, 36.353893359902195 ] ] } },
{ "type": "Feature", "properties": { "FEEDER_NAME": "119 North", "SUBSTATION_NAME": "Baynes", "wmType": "SECONDARY UNDERGROUND", "WKT": "LINESTRING (-79.24196026329628 36.32841505678575, -79.24214860092277 36.32851520584919)" }, "geometry": { "type": "LineString", "coordinates": [ [ -79.241960263296278, 36.328415056785751 ], [ -79.242148600922775, 36.328515205849193 ] ] } },
{ "type": "Feature", "properties": { "FEEDER_NAME": "119 North", "SUBSTATION_NAME": "Baynes", "wmType": "SECONDARY UNDERGROUND", "WKT": "LINESTRING (-79.24243663245083 36.32764934798907, -79.24243186064122 36.32765312329526, -79.2429907093494 36.327746656614416, -79.2429823657876 36.327784593234576, -79.24298285915347 36.327786069230655)" }, "geometry": { "type": "LineString", "coordinates": [ [ -79.242436632450833, 36.327649347989073 ], [ -79.242431860641219, 36.327653123295264 ], [ -79.242990709349399, 36.327746656614416 ], [ -79.242982365787597, 36.327784593234576 ], [ -79.242982859153472, 36.327786069230655 ] ] } },
{ "type": "Feature", "properties": { "FEEDER_NAME": "119 North", "SUBSTATION_NAME": "Baynes", "wmType": "SECONDARY UNDERGROUND", "WKT": "LINESTRING (-79.18432679741721 36.34660569338276, -79.18434600850614 36.34663249666948)" }, "geometry": { "type": "LineString", "coordinates": [ [ -79.184326797417214, 36.346605693382763 ], [ -79.184346008506139, 36.346632496669478 ] ] } },
{ "type": "Feature", "properties": { "FEEDER_NAME": "119 North", "SUBSTATION_NAME": "Baynes", "wmType": "SECONDARY UNDERGROUND", "WKT": "LINESTRING (-79.23107521816823 36.33986475472013, -79.23107965099322 36.33986583044013, -79.2313588041503 36.33972546501658, -79.23165443349116 36.339582087779625, -79.23172903450718 36.339600167009664, -79.23171812849372 36.339623553196915, -79.23171993660772 36.339625608881185)" }, "geometry": { "type": "LineString", "coordinates": [ [ -79.231075218168229, 36.339864754720132 ], [ -79.231079650993223, 36.339865830440132 ], [ -79.231358804150304, 36.339725465016578 ], [ -79.231654433491158, 36.339582087779625 ], [ -79.231729034507183, 36.339600167009664 ], [ -79.231718128493725, 36.339623553196915 ], [ -79.231719936607718, 36.339625608881185 ] ] } },
{ "type": "Feature", "properties": { "FEEDER_NAME": "119 North", "SUBSTATION_NAME": "Baynes", "wmType": "SECONDARY UNDERGROUND", "WKT": "LINESTRING (-79.22190119938332 36.387646379237154, -79.22201007037246 36.38777691080466, -79.22205753895742 36.38785939504189, -79.22209530862321 36.3880048964596, -79.2220930289087 36.3880050997298)" }, "geometry": { "type": "LineString", "coordinates": [ [ -79.221901199383325, 36.387646379237154 ], [ -79.222010070372463, 36.387776910804661 ], [ -79.222057538957415, 36.387859395041893 ], [ -79.22209530862321, 36.388004896459599 ], [ -79.222093028908702, 36.388005099729803 ] ] } },
{ "type": "Feature", "properties": { "FEEDER_NAME": "119 North", "SUBSTATION_NAME": "Baynes", "wmType": "SECONDARY UNDERGROUND", "WKT": "LINESTRING (-79.22627975162574 36.37851860898799, -79.22628227356833 36.37851706883178, -79.22584233995299 36.37842231882921, -79.22576069247717 36.37839430181111, -79.22577966629017 36.3783287185772, -79.22586056778074 36.378285298897154, -79.22586388005325 36.37828027987469)" }, "geometry": { "type": "LineString", "coordinates": [ [ -79.226279751625739, 36.378518608987989 ], [ -79.22628227356833, 36.378517068831783 ], [ -79.22584233995299, 36.378422318829209 ], [ -79.225760692477166, 36.378394301811113 ], [ -79.225779666290165, 36.378328718577201 ], [ -79.225860567780742, 36.378285298897154 ], [ -79.225863880053254, 36.378280279874687 ] ] } },
{ "type": "Feature", "properties": { "FEEDER_NAME": "119 North", "SUBSTATION_NAME": "Baynes", "wmType": "SECONDARY UNDERGROUND", "WKT": "LINESTRING (-79.2380249183813 36.33304022487452, -79.23802536250193 36.33304276703128, -79.23751579300192 36.33316669444809, -79.23737025765162 36.33304943855577, -79.23738779371695 36.333035181927606, -79.23739608699873 36.33303266431514)" }, "geometry": { "type": "LineString", "coordinates": [ [ -79.238024918381299, 36.333040224874523 ], [ -79.238025362501929, 36.33304276703128 ], [ -79.237515793001918, 36.333166694448089 ], [ -79.237370257651619, 36.333049438555769 ], [ -79.237387793716948, 36.333035181927606 ], [ -79.237396086998729, 36.333032664315141 ] ] } },
{ "type": "Feature", "properties": { "FEEDER_NAME": "119 North", "SUBSTATION_NAME": "Baynes", "wmType": "SECONDARY UNDERGROUND", "WKT": "LINESTRING (-79.27424021684978 36.31123168482856, -79.27422631873837 36.31124306229448, -79.27422074324393 36.311247484992805, -79.27419591153655 36.311241037800706, -79.27418199034753 36.31123815099364)" }, "geometry": { "type": "LineString", "coordinates": [ [ -79.274240216849776, 36.311231684828563 ], [ -79.274226318738371, 36.31124306229448 ], [ -79.27422074324393, 36.311247484992805 ], [ -79.274195911536552, 36.311241037800706 ], [ -79.274181990347529, 36.311238150993638 ] ] } },
{ "type": "Feature", "properties": { "FEEDER_NAME": "119 North", "SUBSTATION_NAME": "Baynes", "wmType": "SECONDARY UNDERGROUND", "WKT": "LINESTRING (-79.24914108674088 36.318999945356474, -79.24941775476039 36.31922886109508, -79.24958071124307 36.31934012858149, -79.24961688803846 36.31930741543214, -79.24963517704067 36.31931996273048, -79.2496419386918 36.319322163989014)" }, "geometry": { "type": "LineString", "coordinates": [ [ -79.249141086740877, 36.318999945356474 ], [ -79.249417754760387, 36.319228861095077 ], [ -79.24958071124307, 36.319340128581487 ], [ -79.24961688803846, 36.319307415432142 ], [ -79.249635177040673, 36.319319962730482 ], [ -79.249641938691795, 36.319322163989014 ] ] } },
{ "type": "Feature", "properties": { "FEEDER_NAME": "119 North", "SUBSTATION_NAME": "Baynes", "wmType": "SECONDARY UNDERGROUND", "WKT": "LINESTRING (-79.26569108435899 36.30957691958805, -79.26572439031389 36.3095830635795)" }, "geometry": { "type": "LineString", "coordinates": [ [ -79.265691084358991, 36.309576919588046 ], [ -79.265724390313892, 36.309583063579502 ] ] } },
{ "type": "Feature", "properties": { "FEEDER_NAME": "119 North", "SUBSTATION_NAME": "Baynes", "wmType": "SECONDARY UNDERGROUND", "WKT": "LINESTRING (-79.2328769013552 36.33817320045046, -79.23288120131643 36.33816881185721, -79.2327631399434 36.338118685692706, -79.23247166722324 36.33813248861453, -79.23223725868858 36.3381302137815, -79.23213735313702 36.3380562716151, -79.23218776747042 36.33796761056895, -79.23219489938738 36.33795919936652)" }, "geometry": { "type": "LineString", "coordinates": [ [ -79.232876901355198, 36.338173200450463 ], [ -79.232881201316431, 36.338168811857209 ], [ -79.232763139943401, 36.338118685692706 ], [ -79.232471667223237, 36.338132488614526 ], [ -79.232237258688585, 36.338130213781497 ], [ -79.23213735313702, 36.338056271615102 ], [ -79.232187767470421, 36.337967610568953 ], [ -79.23219489938738, 36.337959199366523 ] ] } },
{ "type": "Feature", "properties": { "FEEDER_NAME": "119 North", "SUBSTATION_NAME": "Baynes", "wmType": "SECONDARY UNDERGROUND", "WKT": "LINESTRING (-79.25957847631783 36.314124640452555, -79.25957870701278 36.314130562318134, -79.25948339301134 36.31426535244711, -79.25946323765079 36.31426597812696, -79.2594433290984 36.31426958788803)" }, "geometry": { "type": "LineString", "coordinates": [ [ -79.259578476317827, 36.314124640452555 ], [ -79.259578707012778, 36.314130562318134 ], [ -79.259483393011337, 36.314265352447109 ], [ -79.259463237650792, 36.314265978126961 ], [ -79.259443329098403, 36.314269587888028 ] ] } },
{ "type": "Feature", "properties": { "FEEDER_NAME": "119 North", "SUBSTATION_NAME": "Baynes", "wmType": "SECONDARY UNDERGROUND", "WKT": "LINESTRING (-79.23073789524621 36.34990422323797, -79.23075589086456 36.34990127693961, -79.23099976465177 36.34990355846423, -79.23103362703317 36.349900754373294, -79.23106407029654 36.34988699803592, -79.23110186427573 36.349770525749186, -79.23110821347912 36.34975140256827, -79.23112461092741 36.349738929746145)" }, "geometry": { "type": "LineString", "coordinates": [ [ -79.230737895246207, 36.349904223237971 ], [ -79.230755890864558, 36.349901276939612 ], [ -79.23099976465177, 36.349903558464227 ], [ -79.23103362703317, 36.349900754373294 ], [ -79.23106407029654, 36.34988699803592 ], [ -79.231101864275729, 36.349770525749186 ], [ -79.231108213479118, 36.349751402568273 ], [ -79.231124610927409, 36.349738929746145 ] ] } },
{ "type": "Feature", "properties": { "FEEDER_NAME": "119 North", "SUBSTATION_NAME": "Baynes", "wmType": "SECONDARY UNDERGROUND", "WKT": "LINESTRING (-79.22730643948013 36.354977763412435, -79.22730660098132 36.35497263478057, -79.22737292398665 36.355010964954886, -79.22754621621291 36.35505184345178, -79.2275632915089 36.3550861448551, -79.22753279336554 36.35510817456313, -79.22752588703817 36.3551092335795)" }, "geometry": { "type": "LineString", "coordinates": [ [ -79.227306439480131, 36.354977763412435 ], [ -79.227306600981322, 36.354972634780573 ], [ -79.22737292398665, 36.355010964954886 ], [ -79.227546216212914, 36.355051843451783 ], [ -79.227563291508901, 36.3550861448551 ], [ -79.22753279336554, 36.355108174563128 ], [ -79.227525887038169, 36.355109233579498 ] ] } },
{ "type": "Feature", "properties": { "FEEDER_NAME": "119 North", "SUBSTATION_NAME": "Baynes", "wmType": "SECONDARY UNDERGROUND", "WKT": "LINESTRING (-79.22255695288418 36.380473268819905, -79.22271287347823 36.380200283237905)" }, "geometry": { "type": "LineString", "coordinates": [ [ -79.222556952884176, 36.380473268819905 ], [ -79.22271287347823, 36.380200283237905 ] ] } },
{ "type": "Feature", "properties": { "FEEDER_NAME": "119 North", "SUBSTATION_NAME": "Baynes", "wmType": "SECONDARY UNDERGROUND", "WKT": "LINESTRING (-79.27817659038658 36.29638176444103, -79.2781811417683 36.29637418349104, -79.27819241074344 36.29635705125153, -79.2782461441244 36.29628592262392, -79.27827984371095 36.29627492232256, -79.27830011497467 36.296283068745595, -79.27832373094179 36.29628301514937, -79.27832726593265 36.29632943477142, -79.27832632998926 36.29633401748023)" }, "geometry": { "type": "LineString", "coordinates": [ [ -79.278176590386579, 36.29638176444103 ], [ -79.2781811417683, 36.296374183491039 ], [ -79.278192410743443, 36.296357051251533 ], [ -79.278246144124395, 36.296285922623923 ], [ -79.278279843710948, 36.29627492232256 ], [ -79.27830011497467, 36.296283068745595 ], [ -79.278323730941793, 36.29628301514937 ], [ -79.278327265932646, 36.296329434771422 ], [ -79.278326329989255, 36.296334017480227 ] ] } },
{ "type": "Feature", "properties": { "FEEDER_NAME": "119 North", "SUBSTATION_NAME": "Baynes", "wmType": "SECONDARY UNDERGROUND", "WKT": "LINESTRING (-79.18033462342676 36.351333935299536, -79.18031690980733 36.35132352352656, -79.18015735470665 36.35133749200309, -79.1801065647122 36.35140073944805, -79.18011023738379 36.3515243331917, -79.18014120312968 36.35170556645656, -79.18018220134829 36.35181811969675, -79.18021981653773 36.35193617027755, -79.18023779011442 36.35194422161808)" }, "geometry": { "type": "LineString", "coordinates": [ [ -79.180334623426759, 36.351333935299536 ], [ -79.180316909807331, 36.35132352352656 ], [ -79.180157354706651, 36.35133749200309 ], [ -79.180106564712204, 36.351400739448053 ], [ -79.180110237383786, 36.351524333191698 ], [ -79.180141203129679, 36.351705566456559 ], [ -79.180182201348288, 36.351818119696752 ], [ -79.180219816537729, 36.351936170277547 ], [ -79.180237790114418, 36.351944221618083 ] ] } },
{ "type": "Feature", "properties": { "FEEDER_NAME": "119 North", "SUBSTATION_NAME": "Baynes", "wmType": "SECONDARY UNDERGROUND", "WKT": "LINESTRING (-79.21523753374501 36.356835692310874, -79.21521548822189 36.35683517767844)" }, "geometry": { "type": "LineString", "coordinates": [ [ -79.215237533745011, 36.356835692310874 ], [ -79.215215488221887, 36.356835177678441 ] ] } },
{ "type": "Feature", "properties": { "FEEDER_NAME": "119 North", "SUBSTATION_NAME": "Baynes", "wmType": "SECONDARY UNDERGROUND", "WKT": "LINESTRING (-79.21587375693092 36.357893214919535, -79.21621486359766 36.3578452376154)" }, "geometry": { "type": "LineString", "coordinates": [ [ -79.215873756930918, 36.357893214919535 ], [ -79.216214863597656, 36.3578452376154 ] ] } },
{ "type": "Feature", "properties": { "FEEDER_NAME": "119 North", "SUBSTATION_NAME": "Baynes", "wmType": "SECONDARY UNDERGROUND", "WKT": "LINESTRING (-79.27576604023993 36.29398842137631, -79.27581954173417 36.29396665341718, -79.27604375308819 36.2939573121464, -79.2761128908614 36.29394179984828, -79.27612717677523 36.29387382211703, -79.27608299741662 36.29386611665407)" }, "geometry": { "type": "LineString", "coordinates": [ [ -79.27576604023993, 36.293988421376312 ], [ -79.275819541734165, 36.293966653417179 ], [ -79.276043753088189, 36.293957312146397 ], [ -79.276112890861398, 36.293941799848277 ], [ -79.276127176775233, 36.293873822117028 ], [ -79.276082997416623, 36.293866116654073 ] ] } },
{ "type": "Feature", "properties": { "FEEDER_NAME": "119 North", "SUBSTATION_NAME": "Baynes", "wmType": "SECONDARY UNDERGROUND", "WKT": "LINESTRING (-79.27692999716261 36.306147141250236, -79.27693778203775 36.30618886509473)" }, "geometry": { "type": "LineString", "coordinates": [ [ -79.276929997162611, 36.306147141250236 ], [ -79.276937782037749, 36.306188865094732 ] ] } },
{ "type": "Feature", "properties": { "FEEDER_NAME": "119 North", "SUBSTATION_NAME": "Baynes", "wmType": "SECONDARY UNDERGROUND", "WKT": "LINESTRING (-79.22297026729571 36.367402790495944, -79.22253087541279 36.36731125685314, -79.22229987409197 36.36728125706893, -79.22228287420567 36.36706625698515)" }, "geometry": { "type": "LineString", "coordinates": [ [ -79.222970267295707, 36.367402790495944 ], [ -79.222530875412787, 36.367311256853142 ], [ -79.222299874091973, 36.367281257068932 ], [ -79.222282874205675, 36.367066256985147 ] ] } },
{ "type": "Feature", "properties": { "FEEDER_NAME": "119 North", "SUBSTATION_NAME": "Baynes", "wmType": "SECONDARY UNDERGROUND", "WKT": "LINESTRING (-79.26569108435899 36.30957691958805, -79.26562686360725 36.309679664700234, -79.26561933866522 36.309695693557586, -79.26560257002927 36.30975615748464, -79.26566497384775 36.30979014713849)" }, "geometry": { "type": "LineString", "coordinates": [ [ -79.265691084358991, 36.309576919588046 ], [ -79.265626863607253, 36.309679664700234 ], [ -79.265619338665218, 36.309695693557586 ], [ -79.265602570029273, 36.309756157484642 ], [ -79.265664973847748, 36.309790147138493 ] ] } },
{ "type": "Feature", "properties": { "FEEDER_NAME": "119 North", "SUBSTATION_NAME": "Baynes", "wmType": "SECONDARY UNDERGROUND", "WKT": "LINESTRING (-79.17578130040555 36.35553832926709, -79.17548231011823 36.35531422369486)" }, "geometry": { "type": "LineString", "coordinates": [ [ -79.175781300405546, 36.355538329267091 ], [ -79.175482310118227, 36.355314223694862 ] ] } },
{ "type": "Feature", "properties": { "FEEDER_NAME": "119 North", "SUBSTATION_NAME": "Baynes", "wmType": "SECONDARY UNDERGROUND", "WKT": "LINESTRING (-79.22141543591786 36.37881966301194, -79.22138838914421 36.37897451867016)" }, "geometry": { "type": "LineString", "coordinates": [ [ -79.221415435917862, 36.378819663011939 ], [ -79.221388389144209, 36.378974518670162 ] ] } },
{ "type": "Feature", "properties": { "FEEDER_NAME": "119 North", "SUBSTATION_NAME": "Baynes", "wmType": "SECONDARY UNDERGROUND", "WKT": "LINESTRING (-79.22176975871562 36.37877725296043, -79.22176583373084 36.37877598857144, -79.22172921354337 36.37880721992968, -79.221415409163 36.37881965945572, -79.22141543591786 36.37881966301194)" }, "geometry": { "type": "LineString", "coordinates": [ [ -79.221769758715624, 36.378777252960433 ], [ -79.221765833730842, 36.378775988571441 ], [ -79.221729213543369, 36.378807219929683 ], [ -79.221415409163001, 36.378819659455722 ], [ -79.221415435917862, 36.378819663011939 ] ] } },
{ "type": "Feature", "properties": { "FEEDER_NAME": "119 North", "SUBSTATION_NAME": "Baynes", "wmType": "SECONDARY UNDERGROUND", "WKT": "LINESTRING (-79.22141543591786 36.37881966301194, -79.2213768771959 36.378686665162654)" }, "geometry": { "type": "LineString", "coordinates": [ [ -79.221415435917862, 36.378819663011939 ], [ -79.221376877195894, 36.378686665162654 ] ] } },
{ "type": "Feature", "properties": { "FEEDER_NAME": "119 North", "SUBSTATION_NAME": "Baynes", "wmType": "SECONDARY UNDERGROUND", "WKT": "LINESTRING (-79.26109396382697 36.31323615348831, -79.2610893282213 36.313235053139095, -79.2609442756737 36.313088366246156, -79.26094605037036 36.31304100524149, -79.26090594635508 36.31303439500918, -79.26090152829748 36.31306016467775, -79.26090134503775 36.31306064988618)" }, "geometry": { "type": "LineString", "coordinates": [ [ -79.261093963826966, 36.313236153488312 ], [ -79.261089328221303, 36.313235053139095 ], [ -79.260944275673694, 36.313088366246156 ], [ -79.260946050370364, 36.313041005241487 ], [ -79.260905946355081, 36.313034395009183 ], [ -79.260901528297481, 36.313060164677751 ], [ -79.260901345037752, 36.313060649886182 ] ] } },
{ "type": "Feature", "properties": { "FEEDER_NAME": "119 North", "SUBSTATION_NAME": "Baynes", "wmType": "SECONDARY UNDERGROUND", "WKT": "LINESTRING (-79.25514706215455 36.31270936591201, -79.25513789130609 36.312715907511475, -79.25539633215232 36.312841938867955, -79.25541967642826 36.31280602899972, -79.2554222886202 36.31280813315202)" }, "geometry": { "type": "LineString", "coordinates": [ [ -79.255147062154549, 36.312709365912013 ], [ -79.255137891306092, 36.312715907511475 ], [ -79.255396332152316, 36.312841938867955 ], [ -79.255419676428261, 36.312806028999717 ], [ -79.255422288620196, 36.312808133152018 ] ] } },
{ "type": "Feature", "properties": { "FEEDER_NAME": "119 North", "SUBSTATION_NAME": "Baynes", "wmType": "SECONDARY UNDERGROUND", "WKT": "LINESTRING (-79.2729022309252 36.30597074914594, -79.27282756468153 36.30594832875607)" }, "geometry": { "type": "LineString", "coordinates": [ [ -79.272902230925197, 36.305970749145942 ], [ -79.272827564681535, 36.305948328756067 ] ] } },
{ "type": "Feature", "properties": { "FEEDER_NAME": "119 North", "SUBSTATION_NAME": "Baynes", "wmType": "SECONDARY UNDERGROUND", "WKT": "LINESTRING (-79.27517636685228 36.2980969328349, -79.27516928321535 36.29809401636506, -79.27507667563539 36.29815743486857, -79.27484710352924 36.29860528468817, -79.27498571659521 36.29869027112971, -79.27500074123478 36.298674976352366, -79.27500700721512 36.29866927059623)" }, "geometry": { "type": "LineString", "coordinates": [ [ -79.275176366852278, 36.298096932834902 ], [ -79.275169283215348, 36.298094016365063 ], [ -79.27507667563539, 36.298157434868571 ], [ -79.27484710352924, 36.298605284688172 ], [ -79.274985716595211, 36.298690271129708 ], [ -79.275000741234777, 36.298674976352366 ], [ -79.275007007215123, 36.298669270596228 ] ] } },
{ "type": "Feature", "properties": { "FEEDER_NAME": "119 North", "SUBSTATION_NAME": "Baynes", "wmType": "SECONDARY UNDERGROUND", "WKT": "LINESTRING (-79.26224786225804 36.30858423994026, -79.26224526885055 36.3085786934884, -79.26231347126931 36.308656366615196, -79.26223839294038 36.308752473700345, -79.26215518983989 36.30886016618617, -79.26228838208942 36.308965461271285, -79.26222305753618 36.309021501192674, -79.26220058597463 36.309002176273914, -79.26219932916877 36.30900020093262)" }, "geometry": { "type": "LineString", "coordinates": [ [ -79.262247862258036, 36.308584239940259 ], [ -79.262245268850549, 36.3085786934884 ], [ -79.262313471269309, 36.308656366615196 ], [ -79.262238392940375, 36.308752473700345 ], [ -79.262155189839888, 36.308860166186172 ], [ -79.262288382089423, 36.308965461271285 ], [ -79.262223057536175, 36.309021501192674 ], [ -79.262200585974625, 36.309002176273914 ], [ -79.262199329168766, 36.309000200932623 ] ] } },
{ "type": "Feature", "properties": { "FEEDER_NAME": "119 North", "SUBSTATION_NAME": "Baynes", "wmType": "SECONDARY UNDERGROUND", "WKT": "LINESTRING (-79.27517636685228 36.2980969328349, -79.27505171592829 36.2981449548596, -79.2748201061346 36.29860117824278, -79.27479703537418 36.29862250534736)" }, "geometry": { "type": "LineString", "coordinates": [ [ -79.275176366852278, 36.298096932834902 ], [ -79.275051715928285, 36.298144954859602 ], [ -79.274820106134598, 36.298601178242777 ], [ -79.274797035374178, 36.29862250534736 ] ] } },
{ "type": "Feature", "properties": { "FEEDER_NAME": "119 North", "SUBSTATION_NAME": "Baynes", "wmType": "SECONDARY UNDERGROUND", "WKT": "LINESTRING (-79.26429306536684 36.29304558842978, -79.2641581772019 36.293251916404714)" }, "geometry": { "type": "LineString", "coordinates": [ [ -79.264293065366843, 36.293045588429777 ], [ -79.264158177201907, 36.293251916404714 ] ] } },
{ "type": "Feature", "properties": { "FEEDER_NAME": "119 North", "SUBSTATION_NAME": "Baynes", "wmType": "SECONDARY UNDERGROUND", "WKT": "LINESTRING (-79.2641581772019 36.293251916404714, -79.26409097339695 36.29325111403614)" }, "geometry": { "type": "LineString", "coordinates": [ [ -79.264158177201907, 36.293251916404714 ], [ -79.264090973396947, 36.293251114036138 ] ] } },
{ "type": "Feature", "properties": { "FEEDER_NAME": "119 North", "SUBSTATION_NAME": "Baynes", "wmType": "SECONDARY UNDERGROUND", "WKT": "LINESTRING (-79.27365455431139 36.29095174257461, -79.2737635416208 36.29091449316976)" }, "geometry": { "type": "LineString", "coordinates": [ [ -79.273654554311392, 36.290951742574613 ], [ -79.273763541620795, 36.290914493169758 ] ] } },
{ "type": "Feature", "properties": { "FEEDER_NAME": "119 North", "SUBSTATION_NAME": "Baynes", "wmType": "SECONDARY UNDERGROUND", "WKT": "LINESTRING (-79.26924718647551 36.28820728525033, -79.26950178606951 36.28826758224031)" }, "geometry": { "type": "LineString", "coordinates": [ [ -79.269247186475511, 36.28820728525033 ], [ -79.269501786069512, 36.288267582240309 ] ] } },
{ "type": "Feature", "properties": { "FEEDER_NAME": "119 North", "SUBSTATION_NAME": "Baynes", "wmType": "SECONDARY UNDERGROUND", "WKT": "LINESTRING (-79.2712363752109 36.29306922028103, -79.27077778874721 36.29281674675157)" }, "geometry": { "type": "LineString", "coordinates": [ [ -79.271236375210904, 36.293069220281033 ], [ -79.27077778874721, 36.292816746751569 ] ] } },
{ "type": "Feature", "properties": { "FEEDER_NAME": "119 North", "SUBSTATION_NAME": "Baynes", "wmType": "SECONDARY UNDERGROUND", "WKT": "LINESTRING (-79.27077778874721 36.29281674675157, -79.27090791865551 36.2928740767412)" }, "geometry": { "type": "LineString", "coordinates": [ [ -79.27077778874721, 36.292816746751569 ], [ -79.27090791865551, 36.292874076741199 ] ] } },
{ "type": "Feature", "properties": { "FEEDER_NAME": "119 North", "SUBSTATION_NAME": "Baynes", "wmType": "SECONDARY UNDERGROUND", "WKT": "LINESTRING (-79.2758888563288 36.314564739148615, -79.27639015480653 36.31449765185815)" }, "geometry": { "type": "LineString", "coordinates": [ [ -79.275888856328805, 36.314564739148615 ], [ -79.276390154806535, 36.314497651858147 ] ] } },
{ "type": "Feature", "properties": { "FEEDER_NAME": "119 North", "SUBSTATION_NAME": "Baynes", "wmType": "SECONDARY UNDERGROUND", "WKT": "LINESTRING (-79.2758888563288 36.314564739148615, -79.27622355231338 36.31461671666204)" }, "geometry": { "type": "LineString", "coordinates": [ [ -79.275888856328805, 36.314564739148615 ], [ -79.276223552313382, 36.314616716662037 ] ] } },
{ "type": "Feature", "properties": { "FEEDER_NAME": "119 North", "SUBSTATION_NAME": "Baynes", "wmType": "SECONDARY UNDERGROUND", "WKT": "LINESTRING (-79.27260589702959 36.30907353416589, -79.27241460685237 36.30895581274756)" }, "geometry": { "type": "LineString", "coordinates": [ [ -79.272605897029592, 36.30907353416589 ], [ -79.272414606852365, 36.308955812747563 ] ] } },
{ "type": "Feature", "properties": { "FEEDER_NAME": "119 North", "SUBSTATION_NAME": "Baynes", "wmType": "SECONDARY UNDERGROUND", "WKT": "LINESTRING (-79.25822090013182 36.302605209122746, -79.25809130141427 36.30270077269472)" }, "geometry": { "type": "LineString", "coordinates": [ [ -79.258220900131818, 36.302605209122746 ], [ -79.258091301414268, 36.30270077269472 ] ] } },
{ "type": "Feature", "properties": { "FEEDER_NAME": "119 North", "SUBSTATION_NAME": "Baynes", "wmType": "SECONDARY UNDERGROUND", "WKT": "LINESTRING (-79.2588670911811 36.3027477206848, -79.25908632502583 36.30281967811208, -79.25904133384007 36.30295105511642, -79.25895999950642 36.302952000071485)" }, "geometry": { "type": "LineString", "coordinates": [ [ -79.258867091181102, 36.302747720684799 ], [ -79.259086325025834, 36.30281967811208 ], [ -79.259041333840074, 36.302951055116417 ], [ -79.258959999506416, 36.302952000071485 ] ] } },
{ "type": "Feature", "properties": { "FEEDER_NAME": "119 North", "SUBSTATION_NAME": "Baynes", "wmType": "SECONDARY UNDERGROUND", "WKT": "LINESTRING (-79.26038262639793 36.303167013210235, -79.2602310689394 36.30312302333063)" }, "geometry": { "type": "LineString", "coordinates": [ [ -79.260382626397927, 36.303167013210235 ], [ -79.260231068939405, 36.303123023330627 ] ] } },
{ "type": "Feature", "properties": { "FEEDER_NAME": "119 North", "SUBSTATION_NAME": "Baynes", "wmType": "SECONDARY UNDERGROUND", "WKT": "LINESTRING (-79.26402833838655 36.308126882869956, -79.26465593300097 36.308052520702915)" }, "geometry": { "type": "LineString", "coordinates": [ [ -79.264028338386552, 36.308126882869956 ], [ -79.264655933000967, 36.308052520702915 ] ] } },
{ "type": "Feature", "properties": { "FEEDER_NAME": "119 North", "SUBSTATION_NAME": "Baynes", "wmType": "SECONDARY UNDERGROUND", "WKT": "LINESTRING (-79.26352034832227 36.30828371426965, -79.2633794026285 36.30850845072803)" }, "geometry": { "type": "LineString", "coordinates": [ [ -79.263520348322274, 36.308283714269649 ], [ -79.263379402628502, 36.308508450728027 ] ] } },
{ "type": "Feature", "properties": { "FEEDER_NAME": "119 North", "SUBSTATION_NAME": "Baynes", "wmType": "SECONDARY UNDERGROUND", "WKT": "LINESTRING (-79.26352034832227 36.30828371426965, -79.26340604768909 36.308505117820594, -79.26322725456264 36.308657862127006)" }, "geometry": { "type": "LineString", "coordinates": [ [ -79.263520348322274, 36.308283714269649 ], [ -79.263406047689088, 36.308505117820594 ], [ -79.263227254562636, 36.308657862127006 ] ] } },
{ "type": "Feature", "properties": { "FEEDER_NAME": "119 North", "SUBSTATION_NAME": "Baynes", "wmType": "SECONDARY UNDERGROUND", "WKT": "LINESTRING (-79.26352034832227 36.30828371426965, -79.2634050598055 36.3086024984216)" }, "geometry": { "type": "LineString", "coordinates": [ [ -79.263520348322274, 36.308283714269649 ], [ -79.263405059805507, 36.3086024984216 ] ] } },
{ "type": "Feature", "properties": { "FEEDER_NAME": "119 North", "SUBSTATION_NAME": "Baynes", "wmType": "SECONDARY UNDERGROUND", "WKT": "LINESTRING (-79.26352034832227 36.30828371426965, -79.26362908825658 36.30807188376382)" }, "geometry": { "type": "LineString", "coordinates": [ [ -79.263520348322274, 36.308283714269649 ], [ -79.263629088256579, 36.308071883763823 ] ] } },
{ "type": "Feature", "properties": { "FEEDER_NAME": "119 North", "SUBSTATION_NAME": "Baynes", "wmType": "SECONDARY UNDERGROUND", "WKT": "LINESTRING (-79.26362908825658 36.30807188376382, -79.26359446024323 36.30796117234162)" }, "geometry": { "type": "LineString", "coordinates": [ [ -79.263629088256579, 36.308071883763823 ], [ -79.263594460243226, 36.307961172341621 ] ] } },
{ "type": "Feature", "properties": { "FEEDER_NAME": "119 North", "SUBSTATION_NAME": "Baynes", "wmType": "SECONDARY UNDERGROUND", "WKT": "LINESTRING (-79.2584826045515 36.31285988421655, -79.2589454502704 36.31256316946334)" }, "geometry": { "type": "LineString", "coordinates": [ [ -79.258482604551503, 36.31285988421655 ], [ -79.258945450270403, 36.312563169463338 ] ] } },
{ "type": "Feature", "properties": { "FEEDER_NAME": "119 North", "SUBSTATION_NAME": "Baynes", "wmType": "SECONDARY UNDERGROUND", "WKT": "LINESTRING (-79.2584826045515 36.31285988421655, -79.2588074824409 36.312618065840034)" }, "geometry": { "type": "LineString", "coordinates": [ [ -79.258482604551503, 36.31285988421655 ], [ -79.258807482440901, 36.312618065840034 ] ] } },
{ "type": "Feature", "properties": { "FEEDER_NAME": "119 North", "SUBSTATION_NAME": "Baynes", "wmType": "SECONDARY UNDERGROUND", "WKT": "LINESTRING (-79.26132596435144 36.31324415366619, -79.26162891768398 36.31314556367155)" }, "geometry": { "type": "LineString", "coordinates": [ [ -79.261325964351443, 36.31324415366619 ], [ -79.261628917683979, 36.313145563671547 ] ] } },
{ "type": "Feature", "properties": { "FEEDER_NAME": "119 North", "SUBSTATION_NAME": "Baynes", "wmType": "SECONDARY UNDERGROUND", "WKT": "LINESTRING (-79.26937023222011 36.32135473265349, -79.26956900072582 36.32150399986841)" }, "geometry": { "type": "LineString", "coordinates": [ [ -79.269370232220112, 36.321354732653489 ], [ -79.269569000725824, 36.321503999868412 ] ] } },
{ "type": "Feature", "properties": { "FEEDER_NAME": "119 North", "SUBSTATION_NAME": "Baynes", "wmType": "SECONDARY UNDERGROUND", "WKT": "LINESTRING (-79.26937023222011 36.32135473265349, -79.26965998367167 36.32133973809066)" }, "geometry": { "type": "LineString", "coordinates": [ [ -79.269370232220112, 36.321354732653489 ], [ -79.269659983671673, 36.321339738090657 ] ] } },
{ "type": "Feature", "properties": { "FEEDER_NAME": "119 North", "SUBSTATION_NAME": "Baynes", "wmType": "SECONDARY UNDERGROUND", "WKT": "LINESTRING (-79.2681586812116 36.31980984959833, -79.26775391950123 36.32010372007047, -79.2676160000575 36.32009300000591)" }, "geometry": { "type": "LineString", "coordinates": [ [ -79.268158681211602, 36.319809849598329 ], [ -79.267753919501232, 36.32010372007047 ], [ -79.267616000057501, 36.320093000005912 ] ] } },
{ "type": "Feature", "properties": { "FEEDER_NAME": "119 North", "SUBSTATION_NAME": "Baynes", "wmType": "SECONDARY UNDERGROUND", "WKT": "LINESTRING (-79.2597127083464 36.31326066751519, -79.259557525369 36.31285607151356)" }, "geometry": { "type": "LineString", "coordinates": [ [ -79.259712708346399, 36.313260667515188 ], [ -79.259557525369004, 36.312856071513558 ] ] } },
{ "type": "Feature", "properties": { "FEEDER_NAME": "119 North", "SUBSTATION_NAME": "Baynes", "wmType": "SECONDARY UNDERGROUND", "WKT": "LINESTRING (-79.2597127083464 36.31326066751519, -79.260095178066 36.31306077597417)" }, "geometry": { "type": "LineString", "coordinates": [ [ -79.259712708346399, 36.313260667515188 ], [ -79.260095178065995, 36.313060775974172 ] ] } },
{ "type": "Feature", "properties": { "FEEDER_NAME": "119 North", "SUBSTATION_NAME": "Baynes", "wmType": "SECONDARY UNDERGROUND", "WKT": "LINESTRING (-79.260095178066 36.31306077597417, -79.25997844292964 36.31298631272079)" }, "geometry": { "type": "LineString", "coordinates": [ [ -79.260095178065995, 36.313060775974172 ], [ -79.259978442929636, 36.312986312720788 ] ] } },
{ "type": "Feature", "properties": { "FEEDER_NAME": "119 North", "SUBSTATION_NAME": "Baynes", "wmType": "SECONDARY UNDERGROUND", "WKT": "LINESTRING (-79.25966696032962 36.313543154052454, -79.25982786389778 36.31371049653491)" }, "geometry": { "type": "LineString", "coordinates": [ [ -79.259666960329625, 36.313543154052454 ], [ -79.259827863897783, 36.31371049653491 ] ] } },
{ "type": "Feature", "properties": { "FEEDER_NAME": "119 North", "SUBSTATION_NAME": "Baynes", "wmType": "SECONDARY UNDERGROUND", "WKT": "LINESTRING (-79.25966696032962 36.313543154052454, -79.25888447143208 36.31334887199542)" }, "geometry": { "type": "LineString", "coordinates": [ [ -79.259666960329625, 36.313543154052454 ], [ -79.258884471432083, 36.313348871995423 ] ] } },
{ "type": "Feature", "properties": { "FEEDER_NAME": "119 North", "SUBSTATION_NAME": "Baynes", "wmType": "SECONDARY UNDERGROUND", "WKT": "LINESTRING (-79.25514895418262 36.317140768151205, -79.25543197487663 36.31712710437269)" }, "geometry": { "type": "LineString", "coordinates": [ [ -79.255148954182616, 36.317140768151205 ], [ -79.255431974876629, 36.317127104372688 ] ] } },
{ "type": "Feature", "properties": { "FEEDER_NAME": "119 North", "SUBSTATION_NAME": "Baynes", "wmType": "SECONDARY UNDERGROUND", "WKT": "LINESTRING (-79.25421070845118 36.31776242738067, -79.25486149296613 36.317594332214505)" }, "geometry": { "type": "LineString", "coordinates": [ [ -79.254210708451183, 36.317762427380671 ], [ -79.254861492966128, 36.317594332214505 ] ] } },
{ "type": "Feature", "properties": { "FEEDER_NAME": "119 North", "SUBSTATION_NAME": "Baynes", "wmType": "SECONDARY UNDERGROUND", "WKT": "LINESTRING (-79.25884915694266 36.31640472669651, -79.25949688962204 36.31649958904943)" }, "geometry": { "type": "LineString", "coordinates": [ [ -79.258849156942659, 36.316404726696511 ], [ -79.259496889622042, 36.316499589049428 ] ] } },
{ "type": "Feature", "properties": { "FEEDER_NAME": "119 North", "SUBSTATION_NAME": "Baynes", "wmType": "SECONDARY UNDERGROUND", "WKT": "LINESTRING (-79.24737145250418 36.31849073442948, -79.24765032638803 36.31837506369578)" }, "geometry": { "type": "LineString", "coordinates": [ [ -79.247371452504183, 36.318490734429481 ], [ -79.247650326388026, 36.318375063695783 ] ] } },
{ "type": "Feature", "properties": { "FEEDER_NAME": "119 North", "SUBSTATION_NAME": "Baynes", "wmType": "SECONDARY UNDERGROUND", "WKT": "LINESTRING (-79.24737145250418 36.31849073442948, -79.24735908987503 36.31836955145707)" }, "geometry": { "type": "LineString", "coordinates": [ [ -79.247371452504183, 36.318490734429481 ], [ -79.247359089875033, 36.318369551457067 ] ] } },
{ "type": "Feature", "properties": { "FEEDER_NAME": "119 North", "SUBSTATION_NAME": "Baynes", "wmType": "SECONDARY UNDERGROUND", "WKT": "LINESTRING (-79.24809073344258 36.32174286841068, -79.2487005690316 36.32171269507851)" }, "geometry": { "type": "LineString", "coordinates": [ [ -79.248090733442581, 36.321742868410681 ], [ -79.248700569031598, 36.32171269507851 ] ] } },
{ "type": "Feature", "properties": { "FEEDER_NAME": "119 North", "SUBSTATION_NAME": "Baynes", "wmType": "SECONDARY UNDERGROUND", "WKT": "LINESTRING (-79.24809073344258 36.32174286841068, -79.24877361395522 36.32193935813609)" }, "geometry": { "type": "LineString", "coordinates": [ [ -79.248090733442581, 36.321742868410681 ], [ -79.248773613955223, 36.321939358136092 ] ] } },
{ "type": "Feature", "properties": { "FEEDER_NAME": "119 North", "SUBSTATION_NAME": "Baynes", "wmType": "SECONDARY UNDERGROUND", "WKT": "LINESTRING (-79.24803299079892 36.32313652186811, -79.2484997799339 36.323110669537726)" }, "geometry": { "type": "LineString", "coordinates": [ [ -79.248032990798919, 36.323136521868108 ], [ -79.248499779933894, 36.323110669537726 ] ] } },
{ "type": "Feature", "properties": { "FEEDER_NAME": "119 North", "SUBSTATION_NAME": "Baynes", "wmType": "SECONDARY UNDERGROUND", "WKT": "LINESTRING (-79.23930726140635 36.33667400377932, -79.23929767578747 36.33719912503013)" }, "geometry": { "type": "LineString", "coordinates": [ [ -79.239307261406353, 36.336674003779322 ], [ -79.239297675787469, 36.337199125030132 ] ] } },
{ "type": "Feature", "properties": { "FEEDER_NAME": "119 North", "SUBSTATION_NAME": "Baynes", "wmType": "SECONDARY UNDERGROUND", "WKT": "LINESTRING (-79.22719633809244 36.34655962961217, -79.22685225891912 36.346848808407216)" }, "geometry": { "type": "LineString", "coordinates": [ [ -79.22719633809244, 36.346559629612173 ], [ -79.226852258919124, 36.346848808407216 ] ] } },
{ "type": "Feature", "properties": { "FEEDER_NAME": "119 North", "SUBSTATION_NAME": "Baynes", "wmType": "SECONDARY UNDERGROUND", "WKT": "LINESTRING (-79.21587375693092 36.357893214919535, -79.21624399991636 36.358193000339384)" }, "geometry": { "type": "LineString", "coordinates": [ [ -79.215873756930918, 36.357893214919535 ], [ -79.216243999916358, 36.358193000339384 ] ] } },
{ "type": "Feature", "properties": { "FEEDER_NAME": "119 North", "SUBSTATION_NAME": "Baynes", "wmType": "SECONDARY UNDERGROUND", "WKT": "LINESTRING (-79.21452612256681 36.3563188858561, -79.21430958224555 36.35560946240116)" }, "geometry": { "type": "LineString", "coordinates": [ [ -79.214526122566809, 36.356318885856098 ], [ -79.214309582245548, 36.355609462401162 ] ] } },
{ "type": "Feature", "properties": { "FEEDER_NAME": "119 North", "SUBSTATION_NAME": "Baynes", "wmType": "SECONDARY UNDERGROUND", "WKT": "LINESTRING (-79.21338268440958 36.356710490629865, -79.2131186987555 36.356464933818565)" }, "geometry": { "type": "LineString", "coordinates": [ [ -79.213382684409581, 36.356710490629865 ], [ -79.213118698755494, 36.356464933818565 ] ] } },
{ "type": "Feature", "properties": { "FEEDER_NAME": "119 North", "SUBSTATION_NAME": "Baynes", "wmType": "SECONDARY UNDERGROUND", "WKT": "LINESTRING (-79.21338268440958 36.356710490629865, -79.21372595845294 36.35649285361331)" }, "geometry": { "type": "LineString", "coordinates": [ [ -79.213382684409581, 36.356710490629865 ], [ -79.21372595845294, 36.356492853613311 ] ] } },
{ "type": "Feature", "properties": { "FEEDER_NAME": "119 North", "SUBSTATION_NAME": "Baynes", "wmType": "SECONDARY UNDERGROUND", "WKT": "LINESTRING (-79.21330887879822 36.357587552670516, -79.21332141828864 36.35767663900058, -79.21326088012184 36.35777312534067, -79.21322446559977 36.357796792777705, -79.21316373401561 36.35782050063898, -79.21316384889771 36.35786377444363, -79.2131668031242 36.35806046497779, -79.21321057547914 36.3580603889429)" }, "geometry": { "type": "LineString", "coordinates": [ [ -79.213308878798216, 36.357587552670516 ], [ -79.213321418288643, 36.35767663900058 ], [ -79.213260880121837, 36.357773125340671 ], [ -79.213224465599765, 36.357796792777705 ], [ -79.213163734015609, 36.357820500638979 ], [ -79.213163848897707, 36.357863774443629 ], [ -79.213166803124196, 36.35806046497779 ], [ -79.213210575479138, 36.358060388942903 ] ] } },
{ "type": "Feature", "properties": { "FEEDER_NAME": "119 North", "SUBSTATION_NAME": "Baynes", "wmType": "SECONDARY UNDERGROUND", "WKT": "LINESTRING (-79.21338268440958 36.356710490629865, -79.21329707709594 36.356518017648106)" }, "geometry": { "type": "LineString", "coordinates": [ [ -79.213382684409581, 36.356710490629865 ], [ -79.213297077095945, 36.356518017648106 ] ] } },
{ "type": "Feature", "properties": { "FEEDER_NAME": "119 North", "SUBSTATION_NAME": "Baynes", "wmType": "SECONDARY UNDERGROUND", "WKT": "LINESTRING (-79.21181600013207 36.357614000169, -79.21227299928854 36.358089000246835)" }, "geometry": { "type": "LineString", "coordinates": [ [ -79.211816000132075, 36.357614000169001 ], [ -79.212272999288544, 36.358089000246835 ] ] } },
{ "type": "Feature", "properties": { "FEEDER_NAME": "119 North", "SUBSTATION_NAME": "Baynes", "wmType": "SECONDARY UNDERGROUND", "WKT": "LINESTRING (-79.21171677814348 36.35613872288265, -79.211959511882 36.35567349044355)" }, "geometry": { "type": "LineString", "coordinates": [ [ -79.211716778143483, 36.356138722882648 ], [ -79.211959511882, 36.35567349044355 ] ] } },
{ "type": "Feature", "properties": { "FEEDER_NAME": "119 North", "SUBSTATION_NAME": "Baynes", "wmType": "SECONDARY UNDERGROUND", "WKT": "LINESTRING (-79.21058261404464 36.35740347246021, -79.21055765237459 36.35801030925352)" }, "geometry": { "type": "LineString", "coordinates": [ [ -79.21058261404464, 36.357403472460213 ], [ -79.21055765237459, 36.358010309253523 ] ] } },
{ "type": "Feature", "properties": { "FEEDER_NAME": "119 North", "SUBSTATION_NAME": "Baynes", "wmType": "SECONDARY UNDERGROUND", "WKT": "LINESTRING (-79.2104250044186 36.35259043901594, -79.21021805660685 36.35286709937567)" }, "geometry": { "type": "LineString", "coordinates": [ [ -79.210425004418596, 36.352590439015941 ], [ -79.210218056606848, 36.352867099375672 ] ] } },
{ "type": "Feature", "properties": { "FEEDER_NAME": "119 North", "SUBSTATION_NAME": "Baynes", "wmType": "SECONDARY UNDERGROUND", "WKT": "LINESTRING (-79.18033462342676 36.351333935299536, -79.18050367260653 36.35204084116824)" }, "geometry": { "type": "LineString", "coordinates": [ [ -79.180334623426759, 36.351333935299536 ], [ -79.180503672606534, 36.35204084116824 ] ] } },
{ "type": "Feature", "properties": { "FEEDER_NAME": "119 North", "SUBSTATION_NAME": "Baynes", "wmType": "SECONDARY UNDERGROUND", "WKT": "LINESTRING (-79.18033462342676 36.351333935299536, -79.18053960011244 36.35125636642944)" }, "geometry": { "type": "LineString", "coordinates": [ [ -79.180334623426759, 36.351333935299536 ], [ -79.180539600112439, 36.351256366429439 ] ] } },
{ "type": "Feature", "properties": { "FEEDER_NAME": "119 North", "SUBSTATION_NAME": "Baynes", "wmType": "SECONDARY UNDERGROUND", "WKT": "LINESTRING (-79.17578130040555 36.35553832926709, -79.17565989481133 36.35518771963277)" }, "geometry": { "type": "LineString", "coordinates": [ [ -79.175781300405546, 36.355538329267091 ], [ -79.175659894811332, 36.355187719632767 ] ] } },
{ "type": "Feature", "properties": { "FEEDER_NAME": "119 North", "SUBSTATION_NAME": "Baynes", "wmType": "SECONDARY UNDERGROUND", "WKT": "LINESTRING (-79.17886683969294 36.35524856631982, -79.17836143693688 36.35526318107291, -79.17827359008879 36.35546106693093)" }, "geometry": { "type": "LineString", "coordinates": [ [ -79.178866839692944, 36.355248566319823 ], [ -79.178361436936882, 36.355263181072907 ], [ -79.178273590088793, 36.355461066930928 ] ] } },
{ "type": "Feature", "properties": { "FEEDER_NAME": "119 North", "SUBSTATION_NAME": "Baynes", "wmType": "SECONDARY UNDERGROUND", "WKT": "LINESTRING (-79.18388757287293 36.34731158546858, -79.18369299772537 36.347664143257475)" }, "geometry": { "type": "LineString", "coordinates": [ [ -79.183887572872933, 36.347311585468582 ], [ -79.183692997725373, 36.347664143257475 ] ] } },
{ "type": "Feature", "properties": { "FEEDER_NAME": "119 North", "SUBSTATION_NAME": "Baynes", "wmType": "SECONDARY UNDERGROUND", "WKT": "LINESTRING (-79.2120059338897 36.351501436680586, -79.21167955034204 36.352068153057026)" }, "geometry": { "type": "LineString", "coordinates": [ [ -79.212005933889699, 36.351501436680586 ], [ -79.211679550342041, 36.352068153057026 ] ] } },
{ "type": "Feature", "properties": { "FEEDER_NAME": "119 North", "SUBSTATION_NAME": "Baynes", "wmType": "SECONDARY UNDERGROUND", "WKT": "LINESTRING (-79.21562753340743 36.35311556984622, -79.21547870115171 36.3534201990222)" }, "geometry": { "type": "LineString", "coordinates": [ [ -79.215627533407428, 36.353115569846217 ], [ -79.21547870115171, 36.353420199022203 ] ] } },
{ "type": "Feature", "properties": { "FEEDER_NAME": "119 North", "SUBSTATION_NAME": "Baynes", "wmType": "SECONDARY UNDERGROUND", "WKT": "LINESTRING (-79.21608589365316 36.352584384923524, -79.2163233717182 36.352637107152816, -79.21642343588108 36.352615236895254, -79.21650186486481 36.35255622675608)" }, "geometry": { "type": "LineString", "coordinates": [ [ -79.216085893653158, 36.352584384923524 ], [ -79.216323371718204, 36.352637107152816 ], [ -79.216423435881083, 36.352615236895254 ], [ -79.21650186486481, 36.352556226756079 ] ] } },
{ "type": "Feature", "properties": { "FEEDER_NAME": "119 North", "SUBSTATION_NAME": "Baynes", "wmType": "SECONDARY UNDERGROUND", "WKT": "LINESTRING (-79.21671623663038 36.349186758329466, -79.216869823764 36.349349346910266, -79.21684616119856 36.34938784095725, -79.21678857353604 36.34943738244526, -79.21674100880502 36.34942647985399)" }, "geometry": { "type": "LineString", "coordinates": [ [ -79.216716236630376, 36.349186758329466 ], [ -79.216869823764, 36.349349346910266 ], [ -79.216846161198561, 36.349387840957249 ], [ -79.216788573536036, 36.349437382445259 ], [ -79.216741008805016, 36.349426479853989 ] ] } },
{ "type": "Feature", "properties": { "FEEDER_NAME": "119 North", "SUBSTATION_NAME": "Baynes", "wmType": "SECONDARY UNDERGROUND", "WKT": "LINESTRING (-79.22063058428778 36.345178942266756, -79.22065954215728 36.3450802619106, -79.22067789753227 36.34498432834521, -79.22069604901675 36.34487988211895, -79.2207140774655 36.34473068575033, -79.2207047347471 36.3446859540004, -79.22054445409533 36.34464176306165)" }, "geometry": { "type": "LineString", "coordinates": [ [ -79.220630584287775, 36.345178942266756 ], [ -79.220659542157279, 36.345080261910603 ], [ -79.220677897532269, 36.344984328345213 ], [ -79.220696049016752, 36.344879882118953 ], [ -79.220714077465502, 36.344730685750328 ], [ -79.220704734747102, 36.344685954000397 ], [ -79.220544454095332, 36.344641763061652 ] ] } },
{ "type": "Feature", "properties": { "FEEDER_NAME": "119 North", "SUBSTATION_NAME": "Baynes", "wmType": "SECONDARY UNDERGROUND", "WKT": "LINESTRING (-79.22531267340673 36.34699339417651, -79.22536540274072 36.347079157385565)" }, "geometry": { "type": "LineString", "coordinates": [ [ -79.225312673406734, 36.346993394176508 ], [ -79.225365402740721, 36.347079157385565 ] ] } },
{ "type": "Feature", "properties": { "FEEDER_NAME": "119 North", "SUBSTATION_NAME": "Baynes", "wmType": "SECONDARY UNDERGROUND", "WKT": "LINESTRING (-79.22547210331453 36.346057890835574, -79.22563800001286 36.34600800008231)" }, "geometry": { "type": "LineString", "coordinates": [ [ -79.22547210331453, 36.346057890835574 ], [ -79.225638000012864, 36.346008000082307 ] ] } },
{ "type": "Feature", "properties": { "FEEDER_NAME": "119 North", "SUBSTATION_NAME": "Baynes", "wmType": "SECONDARY UNDERGROUND", "WKT": "LINESTRING (-79.23039319469603 36.34627946926858, -79.23067915855414 36.346515287840965)" }, "geometry": { "type": "LineString", "coordinates": [ [ -79.230393194696035, 36.34627946926858 ], [ -79.230679158554139, 36.346515287840965 ] ] } },
{ "type": "Feature", "properties": { "FEEDER_NAME": "119 North", "SUBSTATION_NAME": "Baynes", "wmType": "SECONDARY UNDERGROUND", "WKT": "LINESTRING (-79.22705965272797 36.3565895694701, -79.2271484458711 36.356772560642504)" }, "geometry": { "type": "LineString", "coordinates": [ [ -79.227059652727974, 36.356589569470103 ], [ -79.227148445871094, 36.356772560642504 ] ] } },
{ "type": "Feature", "properties": { "FEEDER_NAME": "119 North", "SUBSTATION_NAME": "Baynes", "wmType": "SECONDARY UNDERGROUND", "WKT": "LINESTRING (-79.22705965272797 36.3565895694701, -79.22723187371884 36.356311782989025)" }, "geometry": { "type": "LineString", "coordinates": [ [ -79.227059652727974, 36.356589569470103 ], [ -79.227231873718836, 36.356311782989025 ] ] } },
{ "type": "Feature", "properties": { "FEEDER_NAME": "119 North", "SUBSTATION_NAME": "Baynes", "wmType": "SECONDARY UNDERGROUND", "WKT": "LINESTRING (-79.22686088581976 36.35838123946957, -79.22669619967905 36.358767273704046)" }, "geometry": { "type": "LineString", "coordinates": [ [ -79.226860885819761, 36.358381239469573 ], [ -79.226696199679054, 36.358767273704046 ] ] } },
{ "type": "Feature", "properties": { "FEEDER_NAME": "119 North", "SUBSTATION_NAME": "Baynes", "wmType": "SECONDARY UNDERGROUND", "WKT": "LINESTRING (-79.21601603590548 36.36712048538838, -79.21628639459408 36.36677060001438)" }, "geometry": { "type": "LineString", "coordinates": [ [ -79.216016035905483, 36.367120485388376 ], [ -79.216286394594079, 36.366770600014377 ] ] } },
{ "type": "Feature", "properties": { "FEEDER_NAME": "119 North", "SUBSTATION_NAME": "Baynes", "wmType": "SECONDARY UNDERGROUND", "WKT": "LINESTRING (-79.22403890159485 36.366880247770794, -79.22375507561512 36.36664375163235)" }, "geometry": { "type": "LineString", "coordinates": [ [ -79.224038901594852, 36.366880247770794 ], [ -79.223755075615117, 36.366643751632353 ] ] } },
{ "type": "Feature", "properties": { "FEEDER_NAME": "119 North", "SUBSTATION_NAME": "Baynes", "wmType": "SECONDARY UNDERGROUND", "WKT": "LINESTRING (-79.22403890159485 36.366880247770794, -79.22377023972986 36.36672001232185)" }, "geometry": { "type": "LineString", "coordinates": [ [ -79.224038901594852, 36.366880247770794 ], [ -79.223770239729859, 36.366720012321849 ] ] } },
{ "type": "Feature", "properties": { "FEEDER_NAME": "119 North", "SUBSTATION_NAME": "Baynes", "wmType": "SECONDARY UNDERGROUND", "WKT": "LINESTRING (-79.22809099995861 36.36616099960629, -79.22770200001726 36.36553799982474)" }, "geometry": { "type": "LineString", "coordinates": [ [ -79.22809099995861, 36.366160999606286 ], [ -79.22770200001726, 36.365537999824738 ] ] } },
{ "type": "Feature", "properties": { "FEEDER_NAME": "119 North", "SUBSTATION_NAME": "Baynes", "wmType": "SECONDARY UNDERGROUND", "WKT": "LINESTRING (-79.22293321781565 36.374252509916886, -79.22290222417233 36.37481591659013)" }, "geometry": { "type": "LineString", "coordinates": [ [ -79.222933217815651, 36.374252509916886 ], [ -79.22290222417233, 36.37481591659013 ] ] } },
{ "type": "Feature", "properties": { "FEEDER_NAME": "119 North", "SUBSTATION_NAME": "Baynes", "wmType": "SECONDARY UNDERGROUND", "WKT": "LINESTRING (-79.22203380986032 36.37747054331502, -79.22235805197793 36.37753389810709)" }, "geometry": { "type": "LineString", "coordinates": [ [ -79.222033809860321, 36.37747054331502 ], [ -79.222358051977935, 36.377533898107089 ] ] } },
{ "type": "Feature", "properties": { "FEEDER_NAME": "119 North", "SUBSTATION_NAME": "Baynes", "wmType": "SECONDARY UNDERGROUND", "WKT": "LINESTRING (-79.22203380986032 36.37747054331502, -79.22239990025896 36.37757438711264)" }, "geometry": { "type": "LineString", "coordinates": [ [ -79.222033809860321, 36.37747054331502 ], [ -79.222399900258964, 36.377574387112638 ] ] } },
{ "type": "Feature", "properties": { "FEEDER_NAME": "119 North", "SUBSTATION_NAME": "Baynes", "wmType": "SECONDARY UNDERGROUND", "WKT": "LINESTRING (-79.22473763706907 36.378897435645655, -79.22450710001593 36.37863884151481)" }, "geometry": { "type": "LineString", "coordinates": [ [ -79.224737637069069, 36.378897435645655 ], [ -79.224507100015927, 36.378638841514807 ] ] } },
{ "type": "Feature", "properties": { "FEEDER_NAME": "119 North", "SUBSTATION_NAME": "Baynes", "wmType": "SECONDARY UNDERGROUND", "WKT": "LINESTRING (-79.22373570134765 36.379056866110695, -79.22425970820258 36.37934864756464)" }, "geometry": { "type": "LineString", "coordinates": [ [ -79.22373570134765, 36.379056866110695 ], [ -79.224259708202581, 36.37934864756464 ] ] } },
{ "type": "Feature", "properties": { "FEEDER_NAME": "119 North", "SUBSTATION_NAME": "Baynes", "wmType": "SECONDARY UNDERGROUND", "WKT": "LINESTRING (-79.22398208232569 36.37988729544254, -79.22402507426698 36.37989601011471)" }, "geometry": { "type": "LineString", "coordinates": [ [ -79.223982082325691, 36.379887295442543 ], [ -79.224025074266976, 36.379896010114713 ] ] } },
{ "type": "Feature", "properties": { "FEEDER_NAME": "119 North", "SUBSTATION_NAME": "Baynes", "wmType": "SECONDARY UNDERGROUND", "WKT": "LINESTRING (-79.22363713970877 36.37994997173663, -79.22368373811223 36.37996398935018)" }, "geometry": { "type": "LineString", "coordinates": [ [ -79.223637139708771, 36.379949971736629 ], [ -79.223683738112229, 36.37996398935018 ] ] } },
{ "type": "Feature", "properties": { "FEEDER_NAME": "119 North", "SUBSTATION_NAME": "Baynes", "wmType": "SECONDARY UNDERGROUND", "WKT": "LINESTRING (-79.22368371709305 36.380514325089976, -79.2237498754854 36.380422284127356)" }, "geometry": { "type": "LineString", "coordinates": [ [ -79.223683717093053, 36.380514325089976 ], [ -79.223749875485396, 36.380422284127356 ] ] } },
{ "type": "Feature", "properties": { "FEEDER_NAME": "119 North", "SUBSTATION_NAME": "Baynes", "wmType": "SECONDARY UNDERGROUND", "WKT": "LINESTRING (-79.22457197483786 36.38049280944449, -79.22455687704074 36.380532283526705)" }, "geometry": { "type": "LineString", "coordinates": [ [ -79.224571974837858, 36.38049280944449 ], [ -79.22455687704074, 36.380532283526705 ] ] } },
{ "type": "Feature", "properties": { "FEEDER_NAME": "119 North", "SUBSTATION_NAME": "Baynes", "wmType": "SECONDARY UNDERGROUND", "WKT": "LINESTRING (-79.2239020699912 36.38050772284775, -79.22410687585413 36.38036528329761)" }, "geometry": { "type": "LineString", "coordinates": [ [ -79.223902069991198, 36.380507722847753 ], [ -79.224106875854133, 36.380365283297607 ] ] } },
{ "type": "Feature", "properties": { "FEEDER_NAME": "119 North", "SUBSTATION_NAME": "Baynes", "wmType": "SECONDARY UNDERGROUND", "WKT": "LINESTRING (-79.21667574153258 36.395258170261584, -79.21633622719592 36.395347504961364)" }, "geometry": { "type": "LineString", "coordinates": [ [ -79.216675741532583, 36.395258170261584 ], [ -79.216336227195924, 36.395347504961364 ] ] } },
{ "type": "Feature", "properties": { "FEEDER_NAME": "119 North", "SUBSTATION_NAME": "Baynes", "wmType": "SECONDARY UNDERGROUND", "WKT": "LINESTRING (-79.22039479329568 36.39784117226001, -79.22065255246058 36.397649217066906)" }, "geometry": { "type": "LineString", "coordinates": [ [ -79.220394793295682, 36.397841172260009 ], [ -79.220652552460578, 36.397649217066906 ] ] } },
{ "type": "Feature", "properties": { "FEEDER_NAME": "119 North", "SUBSTATION_NAME": "Baynes", "wmType": "SECONDARY UNDERGROUND", "WKT": "LINESTRING (-79.21822128710988 36.39719347550967, -79.21747402667697 36.39782577775074)" }, "geometry": { "type": "LineString", "coordinates": [ [ -79.218221287109884, 36.397193475509667 ], [ -79.217474026676967, 36.397825777750739 ] ] } },
{ "type": "Feature", "properties": { "FEEDER_NAME": "119 North", "SUBSTATION_NAME": "Baynes", "wmType": "SECONDARY UNDERGROUND", "WKT": "LINESTRING (-79.21814461851075 36.395986757416885, -79.2177144339159 36.396202122345215)" }, "geometry": { "type": "LineString", "coordinates": [ [ -79.218144618510749, 36.395986757416885 ], [ -79.217714433915901, 36.396202122345215 ] ] } },
{ "type": "Feature", "properties": { "FEEDER_NAME": "119 North", "SUBSTATION_NAME": "Baynes", "wmType": "SECONDARY UNDERGROUND", "WKT": "LINESTRING (-79.21970168498038 36.39031371222397, -79.22003264991771 36.390110798744466)" }, "geometry": { "type": "LineString", "coordinates": [ [ -79.219701684980379, 36.390313712223971 ], [ -79.220032649917712, 36.390110798744466 ] ] } },
{ "type": "Feature", "properties": { "FEEDER_NAME": "119 North", "SUBSTATION_NAME": "Baynes", "wmType": "SECONDARY UNDERGROUND", "WKT": "LINESTRING (-79.2208118030731 36.388859894113864, -79.22080955782536 36.38881794495788)" }, "geometry": { "type": "LineString", "coordinates": [ [ -79.220811803073104, 36.388859894113864 ], [ -79.220809557825362, 36.388817944957879 ] ] } },
{ "type": "Feature", "properties": { "FEEDER_NAME": "119 North", "SUBSTATION_NAME": "Baynes", "wmType": "SECONDARY UNDERGROUND", "WKT": "LINESTRING (-79.22711454788464 36.38532481541529, -79.22710170253038 36.3852838509962, -79.22708569536292 36.38526058314085, -79.22705843487896 36.385230420928124, -79.22701081647101 36.38520853616172, -79.22689187149555 36.38518952981584, -79.22688177403549 36.38522250771104)" }, "geometry": { "type": "LineString", "coordinates": [ [ -79.227114547884639, 36.385324815415288 ], [ -79.227101702530376, 36.385283850996203 ], [ -79.227085695362916, 36.385260583140848 ], [ -79.227058434878955, 36.385230420928124 ], [ -79.227010816471008, 36.38520853616172 ], [ -79.226891871495553, 36.38518952981584 ], [ -79.22688177403549, 36.385222507711042 ] ] } },
{ "type": "Feature", "properties": { "FEEDER_NAME": "119 North", "SUBSTATION_NAME": "Baynes", "wmType": "SECONDARY UNDERGROUND", "WKT": "LINESTRING (-79.22711454788464 36.38532481541529, -79.2270957860876 36.38522485863893, -79.22702437289755 36.38519752468312, -79.22687484054421 36.385173081671084, -79.22668457572385 36.38515970010261, -79.22667115887151 36.385220150138615)" }, "geometry": { "type": "LineString", "coordinates": [ [ -79.227114547884639, 36.385324815415288 ], [ -79.227095786087602, 36.385224858638928 ], [ -79.227024372897546, 36.385197524683122 ], [ -79.226874840544212, 36.385173081671084 ], [ -79.226684575723851, 36.385159700102612 ], [ -79.226671158871511, 36.385220150138615 ] ] } },
{ "type": "Feature", "properties": { "FEEDER_NAME": "119 North", "SUBSTATION_NAME": "Baynes", "wmType": "SECONDARY UNDERGROUND", "WKT": "LINESTRING (-79.22257027588918 36.383599878396126, -79.22194318021334 36.383746027715716)" }, "geometry": { "type": "LineString", "coordinates": [ [ -79.222570275889183, 36.383599878396126 ], [ -79.221943180213344, 36.383746027715716 ] ] } },
{ "type": "Feature", "properties": { "FEEDER_NAME": "119 North", "SUBSTATION_NAME": "Baynes", "wmType": "SECONDARY UNDERGROUND", "WKT": "LINESTRING (-79.22325469712243 36.38251086810128, -79.22383005458356 36.38228355883099)" }, "geometry": { "type": "LineString", "coordinates": [ [ -79.223254697122428, 36.382510868101278 ], [ -79.223830054583559, 36.382283558830991 ] ] } },
{ "type": "Feature", "properties": { "FEEDER_NAME": "119 North", "SUBSTATION_NAME": "Baynes", "wmType": "SECONDARY UNDERGROUND", "WKT": "LINESTRING (-79.22325469712243 36.38251086810128, -79.22355501159905 36.38264028800178, -79.22357478372119 36.3826322491713)" }, "geometry": { "type": "LineString", "coordinates": [ [ -79.223254697122428, 36.382510868101278 ], [ -79.223555011599046, 36.382640288001781 ], [ -79.22357478372119, 36.382632249171301 ] ] } },
{ "type": "Feature", "properties": { "FEEDER_NAME": "119 North", "SUBSTATION_NAME": "Baynes", "wmType": "SECONDARY UNDERGROUND", "WKT": "LINESTRING (-79.22182594080952 36.377962948537665, -79.22142992733068 36.37817734687906, -79.22147343496083 36.37835361568674)" }, "geometry": { "type": "LineString", "coordinates": [ [ -79.221825940809524, 36.377962948537665 ], [ -79.221429927330675, 36.378177346879063 ], [ -79.221473434960828, 36.378353615686741 ] ] } },
{ "type": "Feature", "properties": { "FEEDER_NAME": "119 North", "SUBSTATION_NAME": "Baynes", "wmType": "SECONDARY UNDERGROUND", "WKT": "LINESTRING (-79.22182594080952 36.377962948537665, -79.22156236806232 36.377810445031294, -79.22141414474382 36.377839265338224, -79.22142494261209 36.377913485511606, -79.2214920945196 36.37793620685471)" }, "geometry": { "type": "LineString", "coordinates": [ [ -79.221825940809524, 36.377962948537665 ], [ -79.221562368062322, 36.377810445031294 ], [ -79.221414144743818, 36.377839265338224 ], [ -79.221424942612089, 36.377913485511606 ], [ -79.221492094519604, 36.377936206854713 ] ] } },
{ "type": "Feature", "properties": { "FEEDER_NAME": "119 North", "SUBSTATION_NAME": "Baynes", "wmType": "SECONDARY UNDERGROUND", "WKT": "LINESTRING (-79.22120254065199 36.370040887864576, -79.22051414555513 36.36997912353237)" }, "geometry": { "type": "LineString", "coordinates": [ [ -79.221202540651987, 36.370040887864576 ], [ -79.220514145555128, 36.369979123532367 ] ] } },
{ "type": "Feature", "properties": { "FEEDER_NAME": "119 North", "SUBSTATION_NAME": "Baynes", "wmType": "SECONDARY UNDERGROUND", "WKT": "LINESTRING (-79.2277626288587 36.3698897186158, -79.22766432949885 36.37010310588456)" }, "geometry": { "type": "LineString", "coordinates": [ [ -79.227762628858699, 36.369889718615802 ], [ -79.22766432949885, 36.37010310588456 ] ] } },
{ "type": "Feature", "properties": { "FEEDER_NAME": "119 North", "SUBSTATION_NAME": "Baynes", "wmType": "SECONDARY UNDERGROUND", "WKT": "LINESTRING (-79.22297026729571 36.367402790495944, -79.2222230675479 36.367523914895806)" }, "geometry": { "type": "LineString", "coordinates": [ [ -79.222970267295707, 36.367402790495944 ], [ -79.222223067547901, 36.367523914895806 ] ] } },
{ "type": "Feature", "properties": { "FEEDER_NAME": "119 North", "SUBSTATION_NAME": "Baynes", "wmType": "SECONDARY UNDERGROUND", "WKT": "LINESTRING (-79.22231075752254 36.36408662818774, -79.22238536857202 36.3642267794271)" }, "geometry": { "type": "LineString", "coordinates": [ [ -79.222310757522536, 36.364086628187742 ], [ -79.22238536857202, 36.364226779427099 ] ] } },
{ "type": "Feature", "properties": { "FEEDER_NAME": "119 North", "SUBSTATION_NAME": "Baynes", "wmType": "SECONDARY UNDERGROUND", "WKT": "LINESTRING (-79.22231075752254 36.36408662818774, -79.22220175927984 36.36416116846011)" }, "geometry": { "type": "LineString", "coordinates": [ [ -79.222310757522536, 36.364086628187742 ], [ -79.222201759279841, 36.364161168460107 ] ] } },
{ "type": "Feature", "properties": { "FEEDER_NAME": "119 North", "SUBSTATION_NAME": "Baynes", "wmType": "SECONDARY UNDERGROUND", "WKT": "LINESTRING (-79.22296358839297 36.36230735204614, -79.22300939888892 36.36217500411152)" }, "geometry": { "type": "LineString", "coordinates": [ [ -79.222963588392972, 36.362307352046138 ], [ -79.223009398888919, 36.362175004111521 ] ] } },
{ "type": "Feature", "properties": { "FEEDER_NAME": "119 North", "SUBSTATION_NAME": "Baynes", "wmType": "SECONDARY UNDERGROUND", "WKT": "LINESTRING (-79.22178107982637 36.35963530948411, -79.22186007009172 36.359771920113396)" }, "geometry": { "type": "LineString", "coordinates": [ [ -79.221781079826371, 36.359635309484112 ], [ -79.221860070091722, 36.359771920113396 ] ] } },
{ "type": "Feature", "properties": { "FEEDER_NAME": "119 North", "SUBSTATION_NAME": "Baynes", "wmType": "SECONDARY UNDERGROUND", "WKT": "LINESTRING (-79.22967278035097 36.35528664021754, -79.22989746681417 36.355615901601304)" }, "geometry": { "type": "LineString", "coordinates": [ [ -79.229672780350967, 36.355286640217543 ], [ -79.229897466814165, 36.355615901601304 ] ] } },
{ "type": "Feature", "properties": { "FEEDER_NAME": "119 North", "SUBSTATION_NAME": "Baynes", "wmType": "SECONDARY UNDERGROUND", "WKT": "LINESTRING (-79.22796609584732 36.354160921206955, -79.22826517754051 36.35399044356162)" }, "geometry": { "type": "LineString", "coordinates": [ [ -79.227966095847322, 36.354160921206955 ], [ -79.228265177540507, 36.353990443561621 ] ] } },
{ "type": "Feature", "properties": { "FEEDER_NAME": "119 North", "SUBSTATION_NAME": "Baynes", "wmType": "SECONDARY UNDERGROUND", "WKT": "LINESTRING (-79.22716336322621 36.35422706582608, -79.22677044963746 36.354481206628456)" }, "geometry": { "type": "LineString", "coordinates": [ [ -79.227163363226211, 36.35422706582608 ], [ -79.226770449637456, 36.354481206628456 ] ] } },
{ "type": "Feature", "properties": { "FEEDER_NAME": "119 North", "SUBSTATION_NAME": "Baynes", "wmType": "SECONDARY UNDERGROUND", "WKT": "LINESTRING (-79.22756087912742 36.35332644386269, -79.22781715179282 36.35324020955106)" }, "geometry": { "type": "LineString", "coordinates": [ [ -79.227560879127424, 36.353326443862692 ], [ -79.22781715179282, 36.353240209551061 ] ] } },
{ "type": "Feature", "properties": { "FEEDER_NAME": "119 North", "SUBSTATION_NAME": "Baynes", "wmType": "SECONDARY UNDERGROUND", "WKT": "LINESTRING (-79.22547064899855 36.35152566814711, -79.22549377511871 36.351191464308364)" }, "geometry": { "type": "LineString", "coordinates": [ [ -79.225470648998552, 36.351525668147112 ], [ -79.225493775118707, 36.351191464308364 ] ] } },
{ "type": "Feature", "properties": { "FEEDER_NAME": "119 North", "SUBSTATION_NAME": "Baynes", "wmType": "SECONDARY UNDERGROUND", "WKT": "LINESTRING (-79.23194367061448 36.35347391903434, -79.23219861520347 36.353734657699725)" }, "geometry": { "type": "LineString", "coordinates": [ [ -79.231943670614484, 36.353473919034343 ], [ -79.232198615203473, 36.353734657699725 ] ] } },
{ "type": "Feature", "properties": { "FEEDER_NAME": "119 North", "SUBSTATION_NAME": "Baynes", "wmType": "SECONDARY UNDERGROUND", "WKT": "LINESTRING (-79.23195816173155 36.354576068399794, -79.23198319267416 36.354887486943994)" }, "geometry": { "type": "LineString", "coordinates": [ [ -79.231958161731555, 36.354576068399794 ], [ -79.231983192674164, 36.354887486943994 ] ] } },
{ "type": "Feature", "properties": { "FEEDER_NAME": "119 North", "SUBSTATION_NAME": "Baynes", "wmType": "SECONDARY UNDERGROUND", "WKT": "LINESTRING (-79.23374057207461 36.34149577986202, -79.23396900069646 36.34175899993345)" }, "geometry": { "type": "LineString", "coordinates": [ [ -79.233740572074609, 36.341495779862022 ], [ -79.233969000696462, 36.341758999933447 ] ] } },
{ "type": "Feature", "properties": { "FEEDER_NAME": "119 North", "SUBSTATION_NAME": "Baynes", "wmType": "SECONDARY UNDERGROUND", "WKT": "LINESTRING (-79.23206982948489 36.34091879933333, -79.23240479788657 36.34084790010297)" }, "geometry": { "type": "LineString", "coordinates": [ [ -79.232069829484885, 36.34091879933333 ], [ -79.232404797886574, 36.340847900102972 ] ] } },
{ "type": "Feature", "properties": { "FEEDER_NAME": "119 North", "SUBSTATION_NAME": "Baynes", "wmType": "SECONDARY UNDERGROUND", "WKT": "LINESTRING (-79.23206982948489 36.34091879933333, -79.23221559485775 36.34098931596252, -79.23243385762797 36.34105089370514, -79.23260493945943 36.34110302377704, -79.2327758752749 36.34110508312624)" }, "geometry": { "type": "LineString", "coordinates": [ [ -79.232069829484885, 36.34091879933333 ], [ -79.232215594857749, 36.340989315962517 ], [ -79.232433857627967, 36.341050893705138 ], [ -79.232604939459435, 36.341103023777038 ], [ -79.232775875274896, 36.341105083126237 ] ] } },
{ "type": "Feature", "properties": { "FEEDER_NAME": "119 North", "SUBSTATION_NAME": "Baynes", "wmType": "SECONDARY UNDERGROUND", "WKT": "LINESTRING (-79.23272300195526 36.33959605639161, -79.2328230383226 36.33997247442858)" }, "geometry": { "type": "LineString", "coordinates": [ [ -79.232723001955264, 36.339596056391613 ], [ -79.232823038322607, 36.339972474428578 ] ] } },
{ "type": "Feature", "properties": { "FEEDER_NAME": "119 North", "SUBSTATION_NAME": "Baynes", "wmType": "SECONDARY UNDERGROUND", "WKT": "LINESTRING (-79.23509558107655 36.33724274252834, -79.23560130801017 36.33682625926591)" }, "geometry": { "type": "LineString", "coordinates": [ [ -79.23509558107655, 36.337242742528339 ], [ -79.235601308010175, 36.336826259265912 ] ] } },
{ "type": "Feature", "properties": { "FEEDER_NAME": "119 North", "SUBSTATION_NAME": "Baynes", "wmType": "SECONDARY UNDERGROUND", "WKT": "LINESTRING (-79.24343174536111 36.32266682516325, -79.24313397879268 36.322472477239046)" }, "geometry": { "type": "LineString", "coordinates": [ [ -79.243431745361107, 36.322666825163253 ], [ -79.243133978792685, 36.322472477239046 ] ] } },
{ "type": "Feature", "properties": { "FEEDER_NAME": "119 North", "SUBSTATION_NAME": "Baynes", "wmType": "SECONDARY UNDERGROUND", "WKT": "LINESTRING (-79.26308164079298 36.30924430348068, -79.2632363538179 36.30941891029137)" }, "geometry": { "type": "LineString", "coordinates": [ [ -79.263081640792976, 36.309244303480682 ], [ -79.263236353817902, 36.30941891029137 ] ] } },
{ "type": "Feature", "properties": { "FEEDER_NAME": "119 North", "SUBSTATION_NAME": "Baynes", "wmType": "SECONDARY UNDERGROUND", "WKT": "LINESTRING (-79.26308164079298 36.30924430348068, -79.26335890394441 36.30947557025407)" }, "geometry": { "type": "LineString", "coordinates": [ [ -79.263081640792976, 36.309244303480682 ], [ -79.263358903944408, 36.309475570254072 ] ] } },
{ "type": "Feature", "properties": { "FEEDER_NAME": "119 North", "SUBSTATION_NAME": "Baynes", "wmType": "SECONDARY UNDERGROUND", "WKT": "LINESTRING (-79.2620959010439 36.308378627211695, -79.26168670673437 36.30825818425754)" }, "geometry": { "type": "LineString", "coordinates": [ [ -79.262095901043907, 36.308378627211695 ], [ -79.261686706734366, 36.308258184257539 ] ] } },
{ "type": "Feature", "properties": { "FEEDER_NAME": "119 North", "SUBSTATION_NAME": "Baynes", "wmType": "SECONDARY UNDERGROUND", "WKT": "LINESTRING (-79.26683133574804 36.30427980330375, -79.26676494182145 36.304257452230225)" }, "geometry": { "type": "LineString", "coordinates": [ [ -79.266831335748037, 36.30427980330375 ], [ -79.266764941821449, 36.304257452230225 ] ] } },
{ "type": "Feature", "properties": { "FEEDER_NAME": "119 North", "SUBSTATION_NAME": "Baynes", "wmType": "SECONDARY UNDERGROUND", "WKT": "LINESTRING (-79.26683133574804 36.30427980330375, -79.26698409626037 36.304039102451696)" }, "geometry": { "type": "LineString", "coordinates": [ [ -79.266831335748037, 36.30427980330375 ], [ -79.266984096260373, 36.304039102451696 ] ] } },
{ "type": "Feature", "properties": { "FEEDER_NAME": "119 North", "SUBSTATION_NAME": "Baynes", "wmType": "SECONDARY UNDERGROUND", "WKT": "LINESTRING (-79.27779074287602 36.297885973174246, -79.27757947237924 36.29816635000352)" }, "geometry": { "type": "LineString", "coordinates": [ [ -79.277790742876022, 36.297885973174246 ], [ -79.277579472379244, 36.29816635000352 ] ] } },
{ "type": "Feature", "properties": { "FEEDER_NAME": "119 North", "SUBSTATION_NAME": "Baynes", "wmType": "SECONDARY UNDERGROUND", "WKT": "LINESTRING (-79.2210745314086 36.38806923375118, -79.22107478126043 36.388068093390835, -79.22108943615417 36.38803743720216, -79.22107462931004 36.38796558462202, -79.22102512576292 36.38774802742025, -79.22099075166594 36.387599640482954, -79.22101209455545 36.38756896324675, -79.22108284742598 36.38748724168015, -79.2211002433507 36.38747379274795)" }, "geometry": { "type": "LineString", "coordinates": [ [ -79.221074531408604, 36.388069233751182 ], [ -79.221074781260427, 36.388068093390835 ], [ -79.221089436154173, 36.388037437202158 ], [ -79.221074629310039, 36.387965584622023 ], [ -79.221025125762921, 36.387748027420251 ], [ -79.220990751665937, 36.387599640482954 ], [ -79.221012094555448, 36.38756896324675 ], [ -79.221082847425976, 36.387487241680148 ], [ -79.221100243350705, 36.387473792747947 ] ] } },
{ "type": "Feature", "properties": { "FEEDER_NAME": "119 North", "SUBSTATION_NAME": "Baynes", "wmType": "SECONDARY UNDERGROUND", "WKT": "LINESTRING (-79.25436794867323 36.3165841596134, -79.25419894879457 36.316619159098074)" }, "geometry": { "type": "LineString", "coordinates": [ [ -79.254367948673234, 36.316584159613399 ], [ -79.254198948794567, 36.316619159098074 ] ] } },
{ "type": "Feature", "properties": { "FEEDER_NAME": "119 North", "SUBSTATION_NAME": "Baynes", "wmType": "SECONDARY UNDERGROUND", "WKT": "LINESTRING (-79.25489536207532 36.314736856418406, -79.2549177552079 36.31475783278758, -79.25523553610108 36.31503818083555, -79.25534103526462 36.31512860332516, -79.25539887143533 36.315172430142354, -79.25543608219851 36.315133898835654, -79.25544095185978 36.31513015613625)" }, "geometry": { "type": "LineString", "coordinates": [ [ -79.254895362075317, 36.314736856418406 ], [ -79.254917755207899, 36.314757832787578 ], [ -79.255235536101083, 36.31503818083555 ], [ -79.255341035264621, 36.315128603325157 ], [ -79.255398871435332, 36.315172430142354 ], [ -79.255436082198514, 36.315133898835654 ], [ -79.255440951859782, 36.315130156136249 ] ] } },
{ "type": "Feature", "properties": { "FEEDER_NAME": "119 North", "SUBSTATION_NAME": "Baynes", "wmType": "SECONDARY UNDERGROUND", "WKT": "LINESTRING (-79.22359066622164 36.36067246122699, -79.22359435845878 36.360665268908726, -79.22300393248442 36.36066458230936, -79.22292883668023 36.360673663325905, -79.2229246980295 36.360741997944075, -79.22301186394891 36.36078090978145, -79.22301787725654 36.360782244238465)" }, "geometry": { "type": "LineString", "coordinates": [ [ -79.223590666221639, 36.36067246122699 ], [ -79.223594358458783, 36.360665268908726 ], [ -79.223003932484417, 36.360664582309361 ], [ -79.222928836680225, 36.360673663325905 ], [ -79.222924698029502, 36.360741997944075 ], [ -79.223011863948912, 36.360780909781447 ], [ -79.223017877256538, 36.360782244238465 ] ] } },
{ "type": "Feature", "properties": { "FEEDER_NAME": "119 North", "SUBSTATION_NAME": "Baynes", "wmType": "SECONDARY UNDERGROUND", "WKT": "LINESTRING (-79.23318437553579 36.33984056826224, -79.23318086834323 36.33984258266126, -79.23309143120439 36.33990611786514, -79.23307257276213 36.3398899782744, -79.23306908815594 36.339888646704566)" }, "geometry": { "type": "LineString", "coordinates": [ [ -79.233184375535785, 36.33984056826224 ], [ -79.233180868343226, 36.339842582661262 ], [ -79.233091431204386, 36.339906117865141 ], [ -79.233072572762126, 36.3398899782744 ], [ -79.233069088155943, 36.339888646704566 ] ] } },
{ "type": "Feature", "properties": { "FEEDER_NAME": "119 North", "SUBSTATION_NAME": "Baynes", "wmType": "PRIMARY UNDERGROUND", "WKT": "LINESTRING (-79.2729022309252 36.30597074914594, -79.27290178676508 36.30596945968264, -79.27314082305749 36.30592246230281, -79.27364794115752 36.30592907639129, -79.27376230667329 36.305797170767995, -79.2740294896551 36.3055874821568, -79.27471667211599 36.305090318464735, -79.27558794094709 36.305266479538716, -79.27575101660868 36.305390018923426, -79.27605720939819 36.30539707462923, -79.27613391091356 36.30544336724665, -79.27684376293102 36.30597611318437, -79.27693048630518 36.30615403306769, -79.27692999716261 36.306147141250236)" }, "geometry": { "type": "LineString", "coordinates": [ [ -79.272902230925197, 36.305970749145942 ], [ -79.272901786765075, 36.305969459682643 ], [ -79.273140823057489, 36.30592246230281 ], [ -79.27364794115752, 36.305929076391287 ], [ -79.273762306673291, 36.305797170767995 ], [ -79.274029489655106, 36.305587482156803 ], [ -79.274716672115986, 36.305090318464735 ], [ -79.275587940947091, 36.305266479538716 ], [ -79.27575101660868, 36.305390018923426 ], [ -79.276057209398189, 36.305397074629226 ], [ -79.276133910913558, 36.305443367246653 ], [ -79.276843762931023, 36.305976113184371 ], [ -79.276930486305176, 36.306154033067692 ], [ -79.276929997162611, 36.306147141250236 ] ] } },
{ "type": "Feature", "properties": { "FEEDER_NAME": "119 North", "SUBSTATION_NAME": "Baynes", "wmType": "PRIMARY UNDERGROUND", "WKT": "LINESTRING (-79.21523753374501 36.356835692310874, -79.21535704297264 36.356950519914434, -79.21554036019006 36.35716001160489, -79.21572380647348 36.35741718691591, -79.2158364330439 36.35764587564613, -79.21587375693092 36.357893214919535)" }, "geometry": { "type": "LineString", "coordinates": [ [ -79.215237533745011, 36.356835692310874 ], [ -79.215357042972641, 36.356950519914434 ], [ -79.215540360190062, 36.35716001160489 ], [ -79.215723806473477, 36.35741718691591 ], [ -79.215836433043904, 36.357645875646128 ], [ -79.215873756930918, 36.357893214919535 ] ] } },
{ "type": "Feature", "properties": { "FEEDER_NAME": "119 North", "SUBSTATION_NAME": "Baynes", "wmType": "PRIMARY UNDERGROUND", "WKT": "LINESTRING (-79.21239019897942 36.356854406799215, -79.21247539477011 36.356938782543295, -79.21244023126685 36.35701752370213, -79.21229020353974 36.35713222669682, -79.21210480357894 36.35724699063752, -79.21188403123465 36.357361816265055, -79.21183121875846 36.3574548922198, -79.21181600013207 36.357614000169)" }, "geometry": { "type": "LineString", "coordinates": [ [ -79.212390198979421, 36.356854406799215 ], [ -79.212475394770109, 36.356938782543295 ], [ -79.212440231266854, 36.357017523702133 ], [ -79.212290203539737, 36.35713222669682 ], [ -79.212104803578939, 36.35724699063752 ], [ -79.211884031234646, 36.357361816265055 ], [ -79.211831218758462, 36.357454892219799 ], [ -79.211816000132075, 36.357614000169001 ] ] } },
{ "type": "Feature", "properties": { "FEEDER_NAME": "119 North", "SUBSTATION_NAME": "Baynes", "wmType": "PRIMARY UNDERGROUND", "WKT": "LINESTRING (-79.22370389766007 36.38056426705587, -79.2237293871571 36.38055699453684)" }, "geometry": { "type": "LineString", "coordinates": [ [ -79.223703897660073, 36.380564267055867 ], [ -79.223729387157107, 36.380556994536839 ] ] } },
{ "type": "Feature", "properties": { "FEEDER_NAME": "119 North", "SUBSTATION_NAME": "Baynes", "wmType": "PRIMARY UNDERGROUND", "WKT": "LINESTRING (-79.22370389766007 36.38056426705587, -79.22369795928876 36.38054956982005)" }, "geometry": { "type": "LineString", "coordinates": [ [ -79.223703897660073, 36.380564267055867 ], [ -79.223697959288756, 36.380549569820047 ] ] } },
{ "type": "Feature", "properties": { "FEEDER_NAME": "119 North", "SUBSTATION_NAME": "Baynes", "wmType": "PRIMARY UNDERGROUND", "WKT": "LINESTRING (-79.2463311384536 36.32397422913739, -79.24641963569304 36.32401499040801)" }, "geometry": { "type": "LineString", "coordinates": [ [ -79.246331138453598, 36.323974229137391 ], [ -79.246419635693044, 36.32401499040801 ] ] } },
{ "type": "Feature", "properties": { "FEEDER_NAME": "119 North", "SUBSTATION_NAME": "Baynes", "wmType": "PRIMARY UNDERGROUND", "WKT": "LINESTRING (-79.24641963569304 36.32401499040801, -79.24657819179727 36.3240880195829, -79.24713371170462 36.32424298539098, -79.24714893251874 36.32425017379678)" }, "geometry": { "type": "LineString", "coordinates": [ [ -79.246419635693044, 36.32401499040801 ], [ -79.246578191797269, 36.324088019582902 ], [ -79.24713371170462, 36.324242985390981 ], [ -79.247148932518741, 36.324250173796777 ] ] } },
{ "type": "Feature", "properties": { "FEEDER_NAME": "119 North", "SUBSTATION_NAME": "Baynes", "wmType": "PRIMARY UNDERGROUND", "WKT": "LINESTRING (-79.27356699023215 36.30790314413922, -79.27353968117727 36.307823763048134)" }, "geometry": { "type": "LineString", "coordinates": [ [ -79.273566990232155, 36.307903144139217 ], [ -79.273539681177269, 36.307823763048134 ] ] } },
{ "type": "Feature", "properties": { "FEEDER_NAME": "119 North", "SUBSTATION_NAME": "Baynes", "wmType": "PRIMARY UNDERGROUND", "WKT": "LINESTRING (-79.27353968117727 36.307823763048134, -79.2729022309252 36.30597074914594)" }, "geometry": { "type": "LineString", "coordinates": [ [ -79.273539681177269, 36.307823763048134 ], [ -79.272902230925197, 36.305970749145942 ] ] } },
{ "type": "Feature", "properties": { "FEEDER_NAME": "119 North", "SUBSTATION_NAME": "Baynes", "wmType": "PRIMARY UNDERGROUND", "WKT": "LINESTRING (-79.26014594116312 36.31373722630303, -79.26006811752886 36.31379035820051)" }, "geometry": { "type": "LineString", "coordinates": [ [ -79.260145941163117, 36.313737226303033 ], [ -79.26006811752886, 36.313790358200507 ] ] } },
{ "type": "Feature", "properties": { "FEEDER_NAME": "119 North", "SUBSTATION_NAME": "Baynes", "wmType": "PRIMARY UNDERGROUND", "WKT": "LINESTRING (-79.26006811752886 36.31379035820051, -79.25957847631783 36.314124640452555)" }, "geometry": { "type": "LineString", "coordinates": [ [ -79.26006811752886, 36.313790358200507 ], [ -79.259578476317827, 36.314124640452555 ] ] } },
{ "type": "Feature", "properties": { "FEEDER_NAME": "119 North", "SUBSTATION_NAME": "Baynes", "wmType": "PRIMARY UNDERGROUND", "WKT": "LINESTRING (-79.26402833838655 36.308126882869956, -79.26404383369652 36.30817571538843, -79.26407250257712 36.30819772828887)" }, "geometry": { "type": "LineString", "coordinates": [ [ -79.264028338386552, 36.308126882869956 ], [ -79.264043833696519, 36.30817571538843 ], [ -79.264072502577122, 36.308197728288867 ] ] } },
{ "type": "Feature", "properties": { "FEEDER_NAME": "119 North", "SUBSTATION_NAME": "Baynes", "wmType": "PRIMARY UNDERGROUND", "WKT": "LINESTRING (-79.26407250257712 36.30819772828887, -79.26435848677627 36.3084173096308, -79.26438168524146 36.30850990616443, -79.26505636413512 36.3090259211559)" }, "geometry": { "type": "LineString", "coordinates": [ [ -79.264072502577122, 36.308197728288867 ], [ -79.264358486776274, 36.308417309630798 ], [ -79.26438168524146, 36.308509906164431 ], [ -79.26505636413512, 36.3090259211559 ] ] } },
{ "type": "Feature", "properties": { "FEEDER_NAME": "119 North", "SUBSTATION_NAME": "Baynes", "wmType": "PRIMARY UNDERGROUND", "WKT": "LINESTRING (-79.2239020699912 36.38050772284775, -79.22457197483786 36.38049280944449)" }, "geometry": { "type": "LineString", "coordinates": [ [ -79.223902069991198, 36.380507722847753 ], [ -79.224571974837858, 36.38049280944449 ] ] } },
{ "type": "Feature", "properties": { "FEEDER_NAME": "119 North", "SUBSTATION_NAME": "Baynes", "wmType": "PRIMARY UNDERGROUND", "WKT": "LINESTRING (-79.23402008630961 36.338198444332136, -79.23400886664572 36.338197988127476, -79.233918299035 36.33819567548456)" }, "geometry": { "type": "LineString", "coordinates": [ [ -79.234020086309613, 36.338198444332136 ], [ -79.234008866645723, 36.338197988127476 ], [ -79.233918299034997, 36.338195675484563 ] ] } },
{ "type": "Feature", "properties": { "FEEDER_NAME": "119 North", "SUBSTATION_NAME": "Baynes", "wmType": "PRIMARY UNDERGROUND", "WKT": "LINESTRING (-79.233918299035 36.33819567548456, -79.23288655021362 36.33816932166153, -79.2328769013552 36.33817320045046)" }, "geometry": { "type": "LineString", "coordinates": [ [ -79.233918299034997, 36.338195675484563 ], [ -79.232886550213621, 36.338169321661532 ], [ -79.232876901355198, 36.338173200450463 ] ] } },
{ "type": "Feature", "properties": { "FEEDER_NAME": "119 North", "SUBSTATION_NAME": "Baynes", "wmType": "PRIMARY UNDERGROUND", "WKT": "LINESTRING (-79.24879199583039 36.31866871545406, -79.24869137263443 36.318656108787515)" }, "geometry": { "type": "LineString", "coordinates": [ [ -79.248791995830388, 36.318668715454059 ], [ -79.248691372634426, 36.318656108787515 ] ] } },
{ "type": "Feature", "properties": { "FEEDER_NAME": "119 North", "SUBSTATION_NAME": "Baynes", "wmType": "PRIMARY UNDERGROUND", "WKT": "LINESTRING (-79.24869137263443 36.318656108787515, -79.24737145250418 36.31849073442948)" }, "geometry": { "type": "LineString", "coordinates": [ [ -79.248691372634426, 36.318656108787515 ], [ -79.247371452504183, 36.318490734429481 ] ] } },
{ "type": "Feature", "properties": { "FEEDER_NAME": "119 North", "SUBSTATION_NAME": "Baynes", "wmType": "PRIMARY UNDERGROUND", "WKT": "LINESTRING (-79.21348082046765 36.35685122323416, -79.21349046511705 36.3569170555709, -79.2134841845025 36.35693233973422)" }, "geometry": { "type": "LineString", "coordinates": [ [ -79.213480820467652, 36.356851223234159 ], [ -79.213490465117047, 36.356917055570896 ], [ -79.213484184502505, 36.356932339734222 ] ] } },
{ "type": "Feature", "properties": { "FEEDER_NAME": "119 North", "SUBSTATION_NAME": "Baynes", "wmType": "PRIMARY UNDERGROUND", "WKT": "LINESTRING (-79.2134841845025 36.35693233973422, -79.2134599818588 36.35699123547751, -79.21343664643013 36.35710941498871, -79.21336231970785 36.357252368674864, -79.21332874953075 36.35739799991179, -79.21330188308698 36.35751065978783, -79.21330887879822 36.357587552670516)" }, "geometry": { "type": "LineString", "coordinates": [ [ -79.213484184502505, 36.356932339734222 ], [ -79.213459981858804, 36.356991235477508 ], [ -79.213436646430125, 36.357109414988713 ], [ -79.213362319707855, 36.357252368674864 ], [ -79.213328749530746, 36.35739799991179 ], [ -79.213301883086984, 36.357510659787827 ], [ -79.213308878798216, 36.357587552670516 ] ] } },
{ "type": "Feature", "properties": { "FEEDER_NAME": "119 North", "SUBSTATION_NAME": "Baynes", "wmType": "PRIMARY UNDERGROUND", "WKT": "LINESTRING (-79.21435217027977 36.357047133752644, -79.21444987138534 36.3570238013513)" }, "geometry": { "type": "LineString", "coordinates": [ [ -79.214352170279767, 36.357047133752644 ], [ -79.214449871385341, 36.357023801351303 ] ] } },
{ "type": "Feature", "properties": { "FEEDER_NAME": "119 North", "SUBSTATION_NAME": "Baynes", "wmType": "PRIMARY UNDERGROUND", "WKT": "LINESTRING (-79.21444987138534 36.3570238013513, -79.21523753374501 36.356835692310874)" }, "geometry": { "type": "LineString", "coordinates": [ [ -79.214449871385341, 36.357023801351303 ], [ -79.215237533745011, 36.356835692310874 ] ] } },
{ "type": "Feature", "properties": { "FEEDER_NAME": "119 North", "SUBSTATION_NAME": "Baynes", "wmType": "PRIMARY UNDERGROUND", "WKT": "LINESTRING (-79.21067346961911 36.35226015908071, -79.210620516044 36.35233054992311)" }, "geometry": { "type": "LineString", "coordinates": [ [ -79.21067346961911, 36.352260159080707 ], [ -79.210620516044003, 36.35233054992311 ] ] } },
{ "type": "Feature", "properties": { "FEEDER_NAME": "119 North", "SUBSTATION_NAME": "Baynes", "wmType": "PRIMARY UNDERGROUND", "WKT": "LINESTRING (-79.210620516044 36.35233054992311, -79.2104250044186 36.35259043901594)" }, "geometry": { "type": "LineString", "coordinates": [ [ -79.210620516044003, 36.35233054992311 ], [ -79.210425004418596, 36.352590439015941 ] ] } },
{ "type": "Feature", "properties": { "FEEDER_NAME": "119 North", "SUBSTATION_NAME": "Baynes", "wmType": "PRIMARY UNDERGROUND", "WKT": "LINESTRING (-79.18103579250153 36.351206221020206, -79.18093641719211 36.35122432171609)" }, "geometry": { "type": "LineString", "coordinates": [ [ -79.181035792501532, 36.351206221020206 ], [ -79.180936417192115, 36.351224321716089 ] ] } },
{ "type": "Feature", "properties": { "FEEDER_NAME": "119 North", "SUBSTATION_NAME": "Baynes", "wmType": "PRIMARY UNDERGROUND", "WKT": "LINESTRING (-79.18093641719211 36.35122432171609, -79.18033462342676 36.351333935299536)" }, "geometry": { "type": "LineString", "coordinates": [ [ -79.180936417192115, 36.351224321716089 ], [ -79.180334623426759, 36.351333935299536 ] ] } },
{ "type": "Feature", "properties": { "FEEDER_NAME": "119 North", "SUBSTATION_NAME": "Baynes", "wmType": "PRIMARY UNDERGROUND", "WKT": "LINESTRING (-79.17739081557117 36.35581223288985, -79.17729112794382 36.355795269004844)" }, "geometry": { "type": "LineString", "coordinates": [ [ -79.177390815571172, 36.355812232889853 ], [ -79.177291127943818, 36.355795269004844 ] ] } },
{ "type": "Feature", "properties": { "FEEDER_NAME": "119 North", "SUBSTATION_NAME": "Baynes", "wmType": "PRIMARY UNDERGROUND", "WKT": "LINESTRING (-79.17729112794382 36.355795269004844, -79.17578130040555 36.35553832926709)" }, "geometry": { "type": "LineString", "coordinates": [ [ -79.177291127943818, 36.355795269004844 ], [ -79.175781300405546, 36.355538329267091 ] ] } },
{ "type": "Feature", "properties": { "FEEDER_NAME": "119 North", "SUBSTATION_NAME": "Baynes", "wmType": "PRIMARY UNDERGROUND", "WKT": "LINESTRING (-79.22653484661919 36.3664219781723, -79.22663583643939 36.36641109448832)" }, "geometry": { "type": "LineString", "coordinates": [ [ -79.226534846619188, 36.366421978172298 ], [ -79.226635836439385, 36.366411094488321 ] ] } },
{ "type": "Feature", "properties": { "FEEDER_NAME": "119 North", "SUBSTATION_NAME": "Baynes", "wmType": "PRIMARY UNDERGROUND", "WKT": "LINESTRING (-79.22663583643939 36.36641109448832, -79.22676014167469 36.366397697665725, -79.22702530851672 36.366349419033966, -79.22731994560583 36.366291652274164, -79.22758515580344 36.36625301348717, -79.22785031272561 36.366195299206275, -79.22809099995861 36.36616099960629)" }, "geometry": { "type": "LineString", "coordinates": [ [ -79.226635836439385, 36.366411094488321 ], [ -79.226760141674688, 36.366397697665725 ], [ -79.227025308516716, 36.366349419033966 ], [ -79.227319945605828, 36.366291652274164 ], [ -79.227585155803439, 36.366253013487167 ], [ -79.227850312725607, 36.366195299206275 ], [ -79.22809099995861, 36.366160999606286 ] ] } },
{ "type": "Feature", "properties": { "FEEDER_NAME": "119 North", "SUBSTATION_NAME": "Baynes", "wmType": "PRIMARY UNDERGROUND", "WKT": "LINESTRING (-79.22255695288418 36.380473268819905, -79.22262845156429 36.38041455836585)" }, "geometry": { "type": "LineString", "coordinates": [ [ -79.222556952884176, 36.380473268819905 ], [ -79.22262845156429, 36.38041455836585 ] ] } },
{ "type": "Feature", "properties": { "FEEDER_NAME": "119 North", "SUBSTATION_NAME": "Baynes", "wmType": "PRIMARY UNDERGROUND", "WKT": "LINESTRING (-79.22262845156429 36.38041455836585, -79.22293179026657 36.380165473977826, -79.22311766995644 36.38007870999863, -79.22363713970877 36.37994997173663)" }, "geometry": { "type": "LineString", "coordinates": [ [ -79.22262845156429, 36.38041455836585 ], [ -79.222931790266571, 36.380165473977826 ], [ -79.223117669956437, 36.380078709998628 ], [ -79.223637139708771, 36.379949971736629 ] ] } },
{ "type": "Feature", "properties": { "FEEDER_NAME": "119 North", "SUBSTATION_NAME": "Baynes", "wmType": "PRIMARY UNDERGROUND", "WKT": "LINESTRING (-79.26693031938908 36.30463087299737, -79.26690766863213 36.304550536672636)" }, "geometry": { "type": "LineString", "coordinates": [ [ -79.266930319389076, 36.304630872997372 ], [ -79.266907668632129, 36.304550536672636 ] ] } },
{ "type": "Feature", "properties": { "FEEDER_NAME": "119 North", "SUBSTATION_NAME": "Baynes", "wmType": "PRIMARY UNDERGROUND", "WKT": "LINESTRING (-79.26690766863213 36.304550536672636, -79.26683133574804 36.30427980330375)" }, "geometry": { "type": "LineString", "coordinates": [ [ -79.266907668632129, 36.304550536672636 ], [ -79.266831335748037, 36.30427980330375 ] ] } },
{ "type": "Feature", "properties": { "FEEDER_NAME": "119 North", "SUBSTATION_NAME": "Baynes", "wmType": "SECONDARY UNDERGROUND", "WKT": "LINESTRING (-79.23023130737299 36.35196373737009, -79.23000933043517 36.352158470048984)" }, "geometry": { "type": "LineString", "coordinates": [ [ -79.230231307372989, 36.351963737370092 ], [ -79.230009330435166, 36.352158470048984 ] ] } },
{ "type": "Feature", "properties": { "FEEDER_NAME": "119 North", "SUBSTATION_NAME": "Baynes", "wmType": "PRIMARY UNDERGROUND", "WKT": "LINESTRING (-79.22393904779226 36.360570633035245, -79.22384250541529 36.36059694365281)" }, "geometry": { "type": "LineString", "coordinates": [ [ -79.223939047792257, 36.360570633035245 ], [ -79.223842505415291, 36.360596943652808 ] ] } },
{ "type": "Feature", "properties": { "FEEDER_NAME": "119 North", "SUBSTATION_NAME": "Baynes", "wmType": "PRIMARY UNDERGROUND", "WKT": "LINESTRING (-79.22384250541529 36.36059694365281, -79.22359551766257 36.3606642530283, -79.22359066622164 36.36067246122699)" }, "geometry": { "type": "LineString", "coordinates": [ [ -79.223842505415291, 36.360596943652808 ], [ -79.223595517662574, 36.360664253028297 ], [ -79.223590666221639, 36.36067246122699 ] ] } }
]
}
