{
"type": "FeatureCollection",
"name": "Bivins_Willowhaven_South_underground",
"crs": { "type": "name", "properties": { "name": "urn:ogc:def:crs:OGC:1.3:CRS84" } },
"features": [
{ "type": "Feature", "properties": { "FEEDER_NAME": "Willowhaven South", "SUBSTATION_NAME": "Bivins", "wmType": "PRIMARY UNDERGROUND", "WKT": "LINESTRING (-78.96034601265305 36.09141798655204, -78.96037561932712 36.09149681483641)" }, "geometry": { "type": "LineString", "coordinates": [ [ -78.960346012653048, 36.091417986552038 ], [ -78.960375619327124, 36.091496814836411 ] ] } },
{ "type": "Feature", "properties": { "FEEDER_NAME": "Willowhaven South", "SUBSTATION_NAME": "Bivins", "wmType": "PRIMARY UNDERGROUND", "WKT": "LINESTRING (-78.96037561932712 36.09149681483641, -78.96073400019048 36.092450999903605)" }, "geometry": { "type": "LineString", "coordinates": [ [ -78.960375619327124, 36.091496814836411 ], [ -78.960734000190484, 36.092450999903605 ] ] } },
{ "type": "Feature", "properties": { "FEEDER_NAME": "Willowhaven South", "SUBSTATION_NAME": "Bivins", "wmType": "PRIMARY UNDERGROUND", "WKT": "LINESTRING (-78.9680475219433 36.093628453807206, -78.96797639441832 36.09368726527578)" }, "geometry": { "type": "LineString", "coordinates": [ [ -78.968047521943305, 36.093628453807206 ], [ -78.967976394418315, 36.093687265275783 ] ] } },
{ "type": "Feature", "properties": { "FEEDER_NAME": "Willowhaven South", "SUBSTATION_NAME": "Bivins", "wmType": "PRIMARY UNDERGROUND", "WKT": "LINESTRING (-78.95987502755139 36.09141198210778, -78.95993962672796 36.09147556130624)" }, "geometry": { "type": "LineString", "coordinates": [ [ -78.959875027551391, 36.091411982107779 ], [ -78.959939626727959, 36.09147556130624 ] ] } },
{ "type": "Feature", "properties": { "FEEDER_NAME": "Willowhaven South", "SUBSTATION_NAME": "Bivins", "wmType": "PRIMARY UNDERGROUND", "WKT": "LINESTRING (-78.95993962672796 36.09147556130624, -78.95994112947417 36.09147704073035, -78.95998918844015 36.09153570724051, -78.95997889562314 36.09158591545666, -78.95997197594032 36.091650048002926, -78.96003705166507 36.09176304488846)" }, "geometry": { "type": "LineString", "coordinates": [ [ -78.959939626727959, 36.09147556130624 ], [ -78.959941129474174, 36.091477040730346 ], [ -78.959989188440147, 36.09153570724051 ], [ -78.959978895623138, 36.091585915456662 ], [ -78.95997197594032, 36.091650048002926 ], [ -78.960037051665068, 36.091763044888459 ] ] } },
{ "type": "Feature", "properties": { "FEEDER_NAME": "Willowhaven South", "SUBSTATION_NAME": "Bivins", "wmType": "PRIMARY UNDERGROUND", "WKT": "LINESTRING (-78.96797639441832 36.09368726527578, -78.96758446859661 36.09401132446537)" }, "geometry": { "type": "LineString", "coordinates": [ [ -78.967976394418315, 36.093687265275783 ], [ -78.967584468596613, 36.09401132446537 ] ] } },
{ "type": "Feature", "properties": { "FEEDER_NAME": "Willowhaven South", "SUBSTATION_NAME": "Bivins", "wmType": "PRIMARY UNDERGROUND", "WKT": "LINESTRING (-78.96958181810456 36.090873048820484, -78.96961799927523 36.09079604969414)" }, "geometry": { "type": "LineString", "coordinates": [ [ -78.969581818104558, 36.090873048820484 ], [ -78.969617999275229, 36.090796049694141 ] ] } },
{ "type": "Feature", "properties": { "FEEDER_NAME": "Willowhaven South", "SUBSTATION_NAME": "Bivins", "wmType": "PRIMARY UNDERGROUND", "WKT": "LINESTRING (-78.96961799927523 36.09079604969414, -78.96987022871966 36.090259265021366, -78.96989411297645 36.090238700130776)" }, "geometry": { "type": "LineString", "coordinates": [ [ -78.969617999275229, 36.090796049694141 ], [ -78.969870228719657, 36.090259265021366 ], [ -78.969894112976448, 36.090238700130776 ] ] } },
{ "type": "Feature", "properties": { "FEEDER_NAME": "Willowhaven South", "SUBSTATION_NAME": "Bivins", "wmType": "PRIMARY UNDERGROUND", "WKT": "LINESTRING (-78.97064946660552 36.075689575905116, -78.97073027740214 36.0757276403952, -78.97073376455663 36.075733563305114)" }, "geometry": { "type": "LineString", "coordinates": [ [ -78.970649466605522, 36.075689575905116 ], [ -78.97073027740214, 36.075727640395201 ], [ -78.970733764556627, 36.075733563305114 ] ] } },
{ "type": "Feature", "properties": { "FEEDER_NAME": "Willowhaven South", "SUBSTATION_NAME": "Bivins", "wmType": "PRIMARY UNDERGROUND", "WKT": "LINESTRING (-78.97073376455663 36.075733563305114, -78.97074355810415 36.075750199010464, -78.97075563231476 36.07576589255898, -78.97077374743876 36.07578354865738, -78.97079790228288 36.075797283981004, -78.97082447471638 36.0758090578682, -78.97085829585873 36.075816912164065, -78.97088607937673 36.07581986044276, -78.97091386502022 36.07581692539417, -78.97093561050349 36.075813007448915, -78.97095856638863 36.07580516757283, -78.97097981368024 36.075797371447955)" }, "geometry": { "type": "LineString", "coordinates": [ [ -78.970733764556627, 36.075733563305114 ], [ -78.970743558104147, 36.075750199010464 ], [ -78.970755632314763, 36.075765892558977 ], [ -78.970773747438756, 36.075783548657377 ], [ -78.970797902282882, 36.075797283981004 ], [ -78.97082447471638, 36.075809057868199 ], [ -78.970858295858733, 36.075816912164065 ], [ -78.970886079376726, 36.075819860442763 ], [ -78.970913865020222, 36.075816925394172 ], [ -78.970935610503489, 36.075813007448915 ], [ -78.970958566388632, 36.075805167572831 ], [ -78.970979813680245, 36.075797371447955 ] ] } },
{ "type": "Feature", "properties": { "FEEDER_NAME": "Willowhaven South", "SUBSTATION_NAME": "Bivins", "wmType": "PRIMARY UNDERGROUND", "WKT": "LINESTRING (-78.96650501953293 36.083790986900084, -78.96640349415598 36.083791166337406)" }, "geometry": { "type": "LineString", "coordinates": [ [ -78.966505019532931, 36.083790986900084 ], [ -78.966403494155983, 36.083791166337406 ] ] } },
{ "type": "Feature", "properties": { "FEEDER_NAME": "Willowhaven South", "SUBSTATION_NAME": "Bivins", "wmType": "PRIMARY UNDERGROUND", "WKT": "LINESTRING (-78.96640349415598 36.083791166337406, -78.96592999995548 36.08379200057525)" }, "geometry": { "type": "LineString", "coordinates": [ [ -78.966403494155983, 36.083791166337406 ], [ -78.965929999955478, 36.083792000575251 ] ] } },
{ "type": "Feature", "properties": { "FEEDER_NAME": "Willowhaven South", "SUBSTATION_NAME": "Bivins", "wmType": "PRIMARY UNDERGROUND", "WKT": "LINESTRING (-78.95107800810737 36.07577797347556, -78.95109650489229 36.075756001330575, -78.95112999277703 36.07573352597155, -78.9511182291926 36.07571535939628)" }, "geometry": { "type": "LineString", "coordinates": [ [ -78.951078008107373, 36.07577797347556 ], [ -78.951096504892291, 36.075756001330575 ], [ -78.951129992777027, 36.07573352597155 ], [ -78.951118229192602, 36.075715359396277 ] ] } },
{ "type": "Feature", "properties": { "FEEDER_NAME": "Willowhaven South", "SUBSTATION_NAME": "Bivins", "wmType": "PRIMARY UNDERGROUND", "WKT": "LINESTRING (-78.9511182291926 36.07571535939628, -78.95103773540431 36.07559105462445, -78.95098353038439 36.075513256428536, -78.95080577088379 36.0754763304626)" }, "geometry": { "type": "LineString", "coordinates": [ [ -78.951118229192602, 36.075715359396277 ], [ -78.951037735404313, 36.075591054624446 ], [ -78.950983530384391, 36.075513256428536 ], [ -78.95080577088379, 36.0754763304626 ] ] } },
{ "type": "Feature", "properties": { "FEEDER_NAME": "Willowhaven South", "SUBSTATION_NAME": "Bivins", "wmType": "PRIMARY UNDERGROUND", "WKT": "LINESTRING (-78.94881293904571 36.07757259357689, -78.94882081753336 36.0775194460366, -78.94879512447194 36.07749947183499)" }, "geometry": { "type": "LineString", "coordinates": [ [ -78.948812939045709, 36.077572593576889 ], [ -78.94882081753336, 36.077519446036597 ], [ -78.948795124471943, 36.07749947183499 ] ] } },
{ "type": "Feature", "properties": { "FEEDER_NAME": "Willowhaven South", "SUBSTATION_NAME": "Bivins", "wmType": "PRIMARY UNDERGROUND", "WKT": "LINESTRING (-78.94879512447194 36.07749947183499, -78.94876885218106 36.07747904766456, -78.9487234514135 36.07744581690898, -78.9485281897513 36.07725745066623, -78.94846011297368 36.07714487197951, -78.94840613826908 36.07703039126714, -78.9483686618443 36.07693063029703, -78.94835864368099 36.0768851502067)" }, "geometry": { "type": "LineString", "coordinates": [ [ -78.948795124471943, 36.07749947183499 ], [ -78.948768852181061, 36.077479047664561 ], [ -78.9487234514135, 36.077445816908977 ], [ -78.9485281897513, 36.077257450666231 ], [ -78.948460112973677, 36.077144871979513 ], [ -78.948406138269078, 36.077030391267137 ], [ -78.948368661844299, 36.076930630297028 ], [ -78.94835864368099, 36.076885150206699 ] ] } },
{ "type": "Feature", "properties": { "FEEDER_NAME": "Willowhaven South", "SUBSTATION_NAME": "Bivins", "wmType": "PRIMARY UNDERGROUND", "WKT": "LINESTRING (-78.95172460456193 36.0764398670655, -78.95169366398545 36.07644828958906, -78.95173109156283 36.07649523304114)" }, "geometry": { "type": "LineString", "coordinates": [ [ -78.951724604561932, 36.076439867065503 ], [ -78.951693663985452, 36.076448289589059 ], [ -78.951731091562834, 36.076495233041143 ] ] } },
{ "type": "Feature", "properties": { "FEEDER_NAME": "Willowhaven South", "SUBSTATION_NAME": "Bivins", "wmType": "PRIMARY UNDERGROUND", "WKT": "LINESTRING (-78.95173109156283 36.07649523304114, -78.95186002389704 36.07665694899519, -78.9518819649213 36.07680718326159, -78.95187306356398 36.076957407182626)" }, "geometry": { "type": "LineString", "coordinates": [ [ -78.951731091562834, 36.076495233041143 ], [ -78.951860023897041, 36.076656948995193 ], [ -78.951881964921299, 36.076807183261593 ], [ -78.95187306356398, 36.076957407182626 ] ] } },
{ "type": "Feature", "properties": { "FEEDER_NAME": "Willowhaven South", "SUBSTATION_NAME": "Bivins", "wmType": "PRIMARY UNDERGROUND", "WKT": "LINESTRING (-78.95172460456193 36.0764398670655, -78.95177722106303 36.0765103434715)" }, "geometry": { "type": "LineString", "coordinates": [ [ -78.951724604561932, 36.076439867065503 ], [ -78.951777221063026, 36.076510343471497 ] ] } },
{ "type": "Feature", "properties": { "FEEDER_NAME": "Willowhaven South", "SUBSTATION_NAME": "Bivins", "wmType": "PRIMARY UNDERGROUND", "WKT": "LINESTRING (-78.95177722106303 36.0765103434715, -78.95188933649241 36.07666051593811, -78.95213071213361 36.07664344106703)" }, "geometry": { "type": "LineString", "coordinates": [ [ -78.951777221063026, 36.076510343471497 ], [ -78.951889336492414, 36.076660515938109 ], [ -78.952130712133609, 36.076643441067027 ] ] } },
{ "type": "Feature", "properties": { "FEEDER_NAME": "Willowhaven South", "SUBSTATION_NAME": "Bivins", "wmType": "PRIMARY UNDERGROUND", "WKT": "LINESTRING (-78.95305835890528 36.075798308514884, -78.95303565249111 36.07571798632113)" }, "geometry": { "type": "LineString", "coordinates": [ [ -78.953058358905281, 36.075798308514884 ], [ -78.95303565249111, 36.075717986321131 ] ] } },
{ "type": "Feature", "properties": { "FEEDER_NAME": "Willowhaven South", "SUBSTATION_NAME": "Bivins", "wmType": "PRIMARY UNDERGROUND", "WKT": "LINESTRING (-78.95303565249111 36.07571798632113, -78.95292663241612 36.07533234072669, -78.95275218030879 36.07514847636886, -78.95273298197878 36.07488928365563, -78.95269202047662 36.07451587406853)" }, "geometry": { "type": "LineString", "coordinates": [ [ -78.95303565249111, 36.075717986321131 ], [ -78.952926632416123, 36.075332340726689 ], [ -78.952752180308792, 36.075148476368859 ], [ -78.952732981978784, 36.074889283655629 ], [ -78.952692020476618, 36.074515874068531 ] ] } },
{ "type": "Feature", "properties": { "FEEDER_NAME": "Willowhaven South", "SUBSTATION_NAME": "Bivins", "wmType": "PRIMARY UNDERGROUND", "WKT": "LINESTRING (-78.96739817822262 36.10094430148524, -78.96739714878701 36.100949724840426)" }, "geometry": { "type": "LineString", "coordinates": [ [ -78.967398178222624, 36.100944301485242 ], [ -78.967397148787015, 36.100949724840426 ] ] } },
{ "type": "Feature", "properties": { "FEEDER_NAME": "Willowhaven South", "SUBSTATION_NAME": "Bivins", "wmType": "PRIMARY UNDERGROUND", "WKT": "LINESTRING (-78.96741941236948 36.10083248015366, -78.96739817822262 36.10094430148524)" }, "geometry": { "type": "LineString", "coordinates": [ [ -78.96741941236948, 36.100832480153663 ], [ -78.967398178222624, 36.100944301485242 ] ] } },
{ "type": "Feature", "properties": { "FEEDER_NAME": "Willowhaven South", "SUBSTATION_NAME": "Bivins", "wmType": "PRIMARY UNDERGROUND", "WKT": "LINESTRING (-78.97196693294404 36.076173328564046, -78.9719716605306 36.07620409631433)" }, "geometry": { "type": "LineString", "coordinates": [ [ -78.971966932944042, 36.076173328564046 ], [ -78.971971660530599, 36.076204096314328 ] ] } },
{ "type": "Feature", "properties": { "FEEDER_NAME": "Willowhaven South", "SUBSTATION_NAME": "Bivins", "wmType": "PRIMARY UNDERGROUND", "WKT": "LINESTRING (-78.95187306356398 36.076957407182626, -78.9518566125982 36.077726792371394)" }, "geometry": { "type": "LineString", "coordinates": [ [ -78.95187306356398, 36.076957407182626 ], [ -78.951856612598206, 36.077726792371394 ] ] } },
{ "type": "Feature", "properties": { "FEEDER_NAME": "Willowhaven South", "SUBSTATION_NAME": "Bivins", "wmType": "PRIMARY UNDERGROUND", "WKT": "LINESTRING (-78.96989411297645 36.090238700130776, -78.96988475967036 36.09020155057324, -78.96990023411291 36.090085224295755, -78.96991262190592 36.089953361697674, -78.96990033138799 36.08982483301117, -78.9698818593221 36.08972634739383, -78.9698469328693 36.08963620318608, -78.96978734047941 36.08951100008783, -78.96969691597369 36.089349068336396, -78.96964665133636 36.089255737980814, -78.96963043424252 36.089191318796274)" }, "geometry": { "type": "LineString", "coordinates": [ [ -78.969894112976448, 36.090238700130776 ], [ -78.969884759670364, 36.090201550573241 ], [ -78.969900234112913, 36.090085224295755 ], [ -78.96991262190592, 36.089953361697674 ], [ -78.96990033138799, 36.089824833011171 ], [ -78.969881859322101, 36.089726347393828 ], [ -78.969846932869302, 36.089636203186082 ], [ -78.969787340479414, 36.089511000087832 ], [ -78.969696915973685, 36.089349068336396 ], [ -78.969646651336362, 36.089255737980814 ], [ -78.969630434242518, 36.089191318796274 ] ] } },
{ "type": "Feature", "properties": { "FEEDER_NAME": "Willowhaven South", "SUBSTATION_NAME": "Bivins", "wmType": "PRIMARY UNDERGROUND", "WKT": "LINESTRING (-78.96963043424252 36.089191318796274, -78.96959827092948 36.08916877261942, -78.96933316520156 36.088689654567894, -78.96923041028323 36.088506019282605, -78.96929102023977 36.08847134491347)" }, "geometry": { "type": "LineString", "coordinates": [ [ -78.969630434242518, 36.089191318796274 ], [ -78.969598270929481, 36.089168772619423 ], [ -78.969333165201562, 36.088689654567894 ], [ -78.969230410283231, 36.088506019282605 ], [ -78.969291020239766, 36.088471344913472 ] ] } },
{ "type": "Feature", "properties": { "FEEDER_NAME": "Willowhaven South", "SUBSTATION_NAME": "Bivins", "wmType": "PRIMARY UNDERGROUND", "WKT": "LINESTRING (-78.97097981368024 36.075797371447955, -78.97099040921854 36.07579136536743, -78.97102864743292 36.07576007332297, -78.97105522904577 36.07574635006459, -78.9710846773565 36.07574440673914, -78.97121940603516 36.075675568148505, -78.97123887446575 36.075674804869)" }, "geometry": { "type": "LineString", "coordinates": [ [ -78.970979813680245, 36.075797371447955 ], [ -78.970990409218544, 36.075791365367429 ], [ -78.971028647432917, 36.075760073322968 ], [ -78.971055229045774, 36.075746350064591 ], [ -78.971084677356501, 36.07574440673914 ], [ -78.971219406035161, 36.075675568148505 ], [ -78.971238874465755, 36.075674804869003 ] ] } },
{ "type": "Feature", "properties": { "FEEDER_NAME": "Willowhaven South", "SUBSTATION_NAME": "Bivins", "wmType": "PRIMARY UNDERGROUND", "WKT": "LINESTRING (-78.97123887446575 36.075674804869, -78.9714043622949 36.07570720555479, -78.97149253911326 36.07573076213367, -78.97152273595701 36.075740576508316, -78.97154930917011 36.075750389131166, -78.9715855506861 36.075748435549265, -78.97160488139566 36.07574157616414, -78.97162905094369 36.07571706522963, -78.97168795844554 36.07563782437212, -78.9716943193127 36.075617051265034, -78.97169432516834 36.075600380051384, -78.97168949986093 36.07558272626429, -78.97167501276839 36.07555526470232, -78.97166897986037 36.07553368841955, -78.97166657230726 36.07550720930651, -78.971673833426 36.07547092689594, -78.97169196376527 36.07544249143091, -78.97171854963423 36.07541601992749, -78.97174875746802 36.075397393684995, -78.97179345874419 36.07538171424265, -78.9718393655604 36.07537584059927, -78.97189009253204 36.07538336143787, -78.97192832481508 36.07539940876357, -78.97197039226548 36.07538182792772)" }, "geometry": { "type": "LineString", "coordinates": [ [ -78.971238874465755, 36.075674804869003 ], [ -78.971404362294905, 36.075707205554792 ], [ -78.971492539113257, 36.075730762133666 ], [ -78.971522735957009, 36.075740576508316 ], [ -78.971549309170115, 36.075750389131166 ], [ -78.9715855506861, 36.075748435549265 ], [ -78.971604881395663, 36.075741576164141 ], [ -78.97162905094369, 36.075717065229632 ], [ -78.971687958445543, 36.075637824372123 ], [ -78.971694319312704, 36.075617051265034 ], [ -78.971694325168343, 36.075600380051384 ], [ -78.971689499860929, 36.075582726264287 ], [ -78.971675012768387, 36.075555264702317 ], [ -78.971668979860368, 36.075533688419547 ], [ -78.971666572307257, 36.075507209306508 ], [ -78.971673833425996, 36.075470926895939 ], [ -78.971691963765267, 36.075442491430913 ], [ -78.971718549634232, 36.075416019927488 ], [ -78.971748757468021, 36.075397393684995 ], [ -78.971793458744187, 36.075381714242653 ], [ -78.971839365560399, 36.075375840599271 ], [ -78.971890092532036, 36.075383361437872 ], [ -78.971928324815082, 36.075399408763573 ], [ -78.971970392265476, 36.075381827927721 ] ] } },
{ "type": "Feature", "properties": { "FEEDER_NAME": "Willowhaven South", "SUBSTATION_NAME": "Bivins", "wmType": "PRIMARY UNDERGROUND", "WKT": "LINESTRING (-78.97197039226548 36.07538182792772, -78.97194866819785 36.075414003675306, -78.97196015549295 36.07542278442899, -78.97197497013576 36.07543755110722, -78.97199201907867 36.07545693987585, -78.97200252097724 36.07549962791157, -78.97200426109963 36.07553662258275, -78.97199373459286 36.07556792218621, -78.9719586651657 36.07560917761486, -78.97191133265594 36.07563762353678, -78.97186400446721 36.075650417533566, -78.97182544402034 36.075651831719796, -78.97179389348953 36.07565893886786, -78.97176934516673 36.07568738998756, -78.9717352512052 36.07572926833499, -78.971718489609 36.07576421290466)" }, "geometry": { "type": "LineString", "coordinates": [ [ -78.971970392265476, 36.075381827927721 ], [ -78.971948668197854, 36.075414003675306 ], [ -78.971960155492951, 36.075422784428987 ], [ -78.971974970135761, 36.075437551107221 ], [ -78.97199201907867, 36.075456939875849 ], [ -78.972002520977242, 36.075499627911569 ], [ -78.972004261099627, 36.075536622582753 ], [ -78.971993734592857, 36.07556792218621 ], [ -78.971958665165701, 36.075609177614858 ], [ -78.971911332655935, 36.075637623536778 ], [ -78.971864004467207, 36.075650417533566 ], [ -78.97182544402034, 36.075651831719796 ], [ -78.971793893489533, 36.075658938867861 ], [ -78.971769345166734, 36.075687389987557 ], [ -78.971735251205203, 36.075729268334989 ], [ -78.971718489609003, 36.075764212904659 ] ] } },
{ "type": "Feature", "properties": { "FEEDER_NAME": "Willowhaven South", "SUBSTATION_NAME": "Bivins", "wmType": "PRIMARY UNDERGROUND", "WKT": "LINESTRING (-78.971718489609 36.07576421290466, -78.97170446310676 36.075781282828615, -78.97170270102234 36.07580404874854, -78.97171145682422 36.07582681529933, -78.97174475054355 36.07585101238844, -78.9717955676723 36.07588090396635, -78.97185864826652 36.075932140706385, -78.97191822396339 36.07598053138049, -78.97195151224169 36.076017532384505, -78.97200056877779 36.076073035023725, -78.97203211463683 36.076083002791464, -78.97196693294404 36.076173328564046)" }, "geometry": { "type": "LineString", "coordinates": [ [ -78.971718489609003, 36.075764212904659 ], [ -78.971704463106761, 36.075781282828615 ], [ -78.971702701022338, 36.075804048748537 ], [ -78.971711456824224, 36.07582681529933 ], [ -78.97174475054355, 36.075851012388441 ], [ -78.971795567672302, 36.07588090396635 ], [ -78.971858648266519, 36.075932140706385 ], [ -78.971918223963385, 36.075980531380488 ], [ -78.971951512241688, 36.076017532384505 ], [ -78.972000568777787, 36.076073035023725 ], [ -78.972032114636832, 36.076083002791464 ], [ -78.971966932944042, 36.076173328564046 ] ] } },
{ "type": "Feature", "properties": { "FEEDER_NAME": "Willowhaven South", "SUBSTATION_NAME": "Bivins", "wmType": "PRIMARY UNDERGROUND", "WKT": "LINESTRING (-78.95080577088379 36.0754763304626, -78.95065354212531 36.07545788103923, -78.95062976822696 36.07549677725892, -78.95058616888676 36.0755281292589, -78.95054631791147 36.07554792880721, -78.95048332513937 36.075551556058755, -78.95040565929557 36.07554043657626)" }, "geometry": { "type": "LineString", "coordinates": [ [ -78.95080577088379, 36.0754763304626 ], [ -78.950653542125309, 36.075457881039227 ], [ -78.95062976822696, 36.07549677725892 ], [ -78.950586168886758, 36.075528129258899 ], [ -78.950546317911474, 36.075547928807211 ], [ -78.950483325139373, 36.075551556058755 ], [ -78.950405659295569, 36.075540436576262 ] ] } },
{ "type": "Feature", "properties": { "FEEDER_NAME": "Willowhaven South", "SUBSTATION_NAME": "Bivins", "wmType": "PRIMARY UNDERGROUND", "WKT": "LINESTRING (-78.95040565929557 36.07554043657626, -78.95037072043714 36.075513988004836, -78.95034476731803 36.07548586675782, -78.95032363121487 36.07544525351181, -78.95032173215695 36.075403088024174, -78.95033264066205 36.07536003640775, -78.95035736987683 36.07532579916355, -78.95039064711268 36.07530470913006, -78.95040933306994 36.0752875588188, -78.95042184756015 36.07527038527399, -78.95044499163129 36.075174351742234, -78.95047975467469 36.07503504965477)" }, "geometry": { "type": "LineString", "coordinates": [ [ -78.950405659295569, 36.075540436576262 ], [ -78.950370720437135, 36.075513988004836 ], [ -78.950344767318029, 36.075485866757823 ], [ -78.950323631214872, 36.075445253511809 ], [ -78.950321732156951, 36.075403088024174 ], [ -78.950332640662054, 36.075360036407751 ], [ -78.950357369876826, 36.075325799163551 ], [ -78.950390647112684, 36.075304709130059 ], [ -78.950409333069942, 36.0752875588188 ], [ -78.95042184756015, 36.075270385273988 ], [ -78.950444991631286, 36.075174351742234 ], [ -78.950479754674689, 36.075035049654772 ] ] } },
{ "type": "Feature", "properties": { "FEEDER_NAME": "Willowhaven South", "SUBSTATION_NAME": "Bivins", "wmType": "PRIMARY UNDERGROUND", "WKT": "LINESTRING (-78.95047975467469 36.07503504965477, -78.95054949080236 36.07476273800062, -78.95056833838976 36.074684532009975, -78.95059891736085 36.074633038237295, -78.95062714250417 36.07458917434399, -78.95067417535185 36.07453196428918, -78.95074000429186 36.074476668821944, -78.95077169322492 36.07444519029122)" }, "geometry": { "type": "LineString", "coordinates": [ [ -78.950479754674689, 36.075035049654772 ], [ -78.950549490802359, 36.074762738000622 ], [ -78.950568338389758, 36.074684532009975 ], [ -78.95059891736085, 36.074633038237295 ], [ -78.950627142504175, 36.074589174343991 ], [ -78.95067417535185, 36.074531964289179 ], [ -78.950740004291859, 36.074476668821944 ], [ -78.950771693224922, 36.074445190291222 ] ] } },
{ "type": "Feature", "properties": { "FEEDER_NAME": "Willowhaven South", "SUBSTATION_NAME": "Bivins", "wmType": "PRIMARY UNDERGROUND", "WKT": "LINESTRING (-78.95077169322492 36.07444519029122, -78.95081758079826 36.07442519391357, -78.95087399456897 36.074398510005814, -78.95095860884689 36.07436611357957, -78.95103146607951 36.07434706703134, -78.95111607098261 36.074329932170286, -78.95133536829437 36.07432998178838)" }, "geometry": { "type": "LineString", "coordinates": [ [ -78.950771693224922, 36.074445190291222 ], [ -78.950817580798258, 36.074425193913569 ], [ -78.950873994568965, 36.074398510005814 ], [ -78.950958608846889, 36.074366113579572 ], [ -78.951031466079513, 36.07434706703134 ], [ -78.951116070982607, 36.074329932170286 ], [ -78.951335368294366, 36.074329981788381 ] ] } },
{ "type": "Feature", "properties": { "FEEDER_NAME": "Willowhaven South", "SUBSTATION_NAME": "Bivins", "wmType": "PRIMARY UNDERGROUND", "WKT": "LINESTRING (-78.94835864368099 36.0768851502067, -78.94836630602843 36.07684914875255, -78.94836398629691 36.0768014566541, -78.94835931994824 36.076748040665315, -78.94835229575962 36.0767098853429, -78.94832176238783 36.07668507291586, -78.94829593706065 36.07664690964237, -78.94829126942837 36.07659730861241, -78.94831245167646 36.07654581147802, -78.94835242902296 36.076501953110906, -78.94841589490221 36.07647336450304, -78.9484746418841 36.07647338927036, -78.94854043239404 36.076484862771764, -78.94857801548716 36.07650967811096, -78.94861421379326 36.07654556373674)" }, "geometry": { "type": "LineString", "coordinates": [ [ -78.94835864368099, 36.076885150206699 ], [ -78.948366306028433, 36.076849148752551 ], [ -78.948363986296911, 36.076801456654103 ], [ -78.948359319948239, 36.076748040665315 ], [ -78.948352295759619, 36.0767098853429 ], [ -78.948321762387835, 36.076685072915858 ], [ -78.948295937060649, 36.076646909642371 ], [ -78.948291269428367, 36.076597308612413 ], [ -78.948312451676458, 36.07654581147802 ], [ -78.948352429022961, 36.076501953110906 ], [ -78.948415894902212, 36.076473364503038 ], [ -78.948474641884104, 36.076473389270362 ], [ -78.94854043239404, 36.076484862771764 ], [ -78.948578015487158, 36.076509678110959 ], [ -78.948614213793263, 36.076545563736737 ] ] } },
{ "type": "Feature", "properties": { "FEEDER_NAME": "Willowhaven South", "SUBSTATION_NAME": "Bivins", "wmType": "PRIMARY UNDERGROUND", "WKT": "LINESTRING (-78.94861421379326 36.07654556373674, -78.94862818876223 36.07651794828461, -78.9485991841443 36.07647916548348, -78.9485683408478 36.07646335190623, -78.94854439739824 36.07645103985359, -78.94855456473024 36.07643336262623, -78.9487898043816 36.076042396257606, -78.94844675075491 36.076007887674955)" }, "geometry": { "type": "LineString", "coordinates": [ [ -78.948614213793263, 36.076545563736737 ], [ -78.948628188762228, 36.076517948284611 ], [ -78.9485991841443, 36.076479165483477 ], [ -78.9485683408478, 36.076463351906227 ], [ -78.948544397398237, 36.076451039853588 ], [ -78.948554564730244, 36.076433362626233 ], [ -78.948789804381605, 36.076042396257606 ], [ -78.948446750754911, 36.076007887674955 ] ] } },
{ "type": "Feature", "properties": { "FEEDER_NAME": "Willowhaven South", "SUBSTATION_NAME": "Bivins", "wmType": "PRIMARY UNDERGROUND", "WKT": "LINESTRING (-78.94861421379326 36.07654556373674, -78.94862966777238 36.07658028254022, -78.94863670159606 36.07660699295655, -78.94862257293114 36.07665276930953, -78.94859669636504 36.076694727559506, -78.94855203055353 36.07672141533518, -78.94853086059634 36.07675383588409, -78.94853318286174 36.07679771301622, -78.94853783603656 36.07687020471793, -78.94854954020504 36.076940792352254, -78.94857768560829 36.0770266476584, -78.94861523379642 36.077104876977124, -78.94863548615808 36.07714137053424)" }, "geometry": { "type": "LineString", "coordinates": [ [ -78.948614213793263, 36.076545563736737 ], [ -78.94862966777238, 36.07658028254022 ], [ -78.948636701596058, 36.076606992956549 ], [ -78.948622572931143, 36.076652769309533 ], [ -78.948596696365044, 36.076694727559506 ], [ -78.948552030553529, 36.076721415335179 ], [ -78.948530860596335, 36.076753835884091 ], [ -78.948533182861738, 36.076797713016219 ], [ -78.948537836036564, 36.076870204717927 ], [ -78.948549540205036, 36.076940792352254 ], [ -78.948577685608285, 36.0770266476584 ], [ -78.948615233796417, 36.077104876977124 ], [ -78.948635486158082, 36.077141370534243 ] ] } },
{ "type": "Feature", "properties": { "FEEDER_NAME": "Willowhaven South", "SUBSTATION_NAME": "Bivins", "wmType": "PRIMARY UNDERGROUND", "WKT": "LINESTRING (-78.9518566125982 36.077726792371394, -78.95184594354214 36.078101977595296, -78.951832651515 36.07822358342683, -78.95181059469525 36.07826649734862, -78.95174008300692 36.0782879299465, -78.95113164514798 36.07826478772766, -78.95095246990249 36.078272857826676)" }, "geometry": { "type": "LineString", "coordinates": [ [ -78.951856612598206, 36.077726792371394 ], [ -78.951845943542139, 36.078101977595296 ], [ -78.951832651515005, 36.078223583426833 ], [ -78.951810594695246, 36.078266497348622 ], [ -78.951740083006925, 36.078287929946498 ], [ -78.951131645147981, 36.078264787727662 ], [ -78.950952469902489, 36.078272857826676 ] ] } },
{ "type": "Feature", "properties": { "FEEDER_NAME": "Willowhaven South", "SUBSTATION_NAME": "Bivins", "wmType": "PRIMARY UNDERGROUND", "WKT": "LINESTRING (-78.95095246990249 36.078272857826676, -78.95090258363852 36.07829426036017, -78.95070130946453 36.07835848669513, -78.95055795531029 36.0784188544739, -78.95039902898463 36.07850807447567, -78.95033567306203 36.07855675013966, -78.95030650170268 36.07854998978026)" }, "geometry": { "type": "LineString", "coordinates": [ [ -78.950952469902489, 36.078272857826676 ], [ -78.950902583638523, 36.078294260360167 ], [ -78.950701309464534, 36.07835848669513 ], [ -78.950557955310288, 36.078418854473902 ], [ -78.950399028984634, 36.078508074475671 ], [ -78.950335673062028, 36.078556750139661 ], [ -78.950306501702684, 36.078549989780257 ] ] } },
{ "type": "Feature", "properties": { "FEEDER_NAME": "Willowhaven South", "SUBSTATION_NAME": "Bivins", "wmType": "PRIMARY UNDERGROUND", "WKT": "LINESTRING (-78.95030650170268 36.07854998978026, -78.95031677651517 36.07857207351105, -78.9502878751783 36.07859731459852, -78.9502478716199 36.07860992384499, -78.95019331457954 36.07860564686798, -78.9501545529896 36.0786026713923, -78.95010077865658 36.07861633934498, -78.950051202173 36.078649526309725, -78.95002170855115 36.078687982920435, -78.9500133708786 36.078741500734964, -78.95002334606022 36.07878118654462, -78.95004887495912 36.07881997836518, -78.95008601467434 36.078853320596515)" }, "geometry": { "type": "LineString", "coordinates": [ [ -78.950306501702684, 36.078549989780257 ], [ -78.950316776515166, 36.078572073511047 ], [ -78.950287875178304, 36.078597314598518 ], [ -78.950247871619894, 36.078609923844994 ], [ -78.950193314579536, 36.078605646867977 ], [ -78.950154552989602, 36.078602671392296 ], [ -78.950100778656576, 36.078616339344983 ], [ -78.950051202173, 36.078649526309725 ], [ -78.950021708551148, 36.078687982920435 ], [ -78.950013370878594, 36.078741500734964 ], [ -78.95002334606022, 36.078781186544617 ], [ -78.950048874959123, 36.078819978365182 ], [ -78.950086014674341, 36.078853320596515 ] ] } },
{ "type": "Feature", "properties": { "FEEDER_NAME": "Willowhaven South", "SUBSTATION_NAME": "Bivins", "wmType": "PRIMARY UNDERGROUND", "WKT": "LINESTRING (-78.95008601467434 36.078853320596515, -78.95013619768906 36.078871783205365, -78.9501849108343 36.0788811886035, -78.95023993245049 36.07887416779013, -78.95028549338701 36.07885524759946, -78.95032662173894 36.07882279613059, -78.95035121257219 36.078789643977295, -78.95038443397145 36.078755179505634, -78.95045001934281 36.07869568349789, -78.95054560726385 36.07862537656175, -78.95067053679973 36.07855552570127, -78.95075280979275 36.07851740653473, -78.95081392141176 36.07849644748514, -78.9508538716063 36.078496463547104)" }, "geometry": { "type": "LineString", "coordinates": [ [ -78.950086014674341, 36.078853320596515 ], [ -78.950136197689062, 36.078871783205365 ], [ -78.950184910834295, 36.078881188603503 ], [ -78.950239932450486, 36.078874167790133 ], [ -78.950285493387014, 36.078855247599463 ], [ -78.950326621738938, 36.078822796130588 ], [ -78.950351212572187, 36.078789643977295 ], [ -78.95038443397145, 36.078755179505634 ], [ -78.95045001934281, 36.078695683497891 ], [ -78.950545607263848, 36.078625376561753 ], [ -78.950670536799734, 36.078555525701269 ], [ -78.950752809792746, 36.078517406534729 ], [ -78.950813921411765, 36.078496447485144 ], [ -78.950853871606299, 36.078496463547104 ] ] } },
{ "type": "Feature", "properties": { "FEEDER_NAME": "Willowhaven South", "SUBSTATION_NAME": "Bivins", "wmType": "PRIMARY UNDERGROUND", "WKT": "LINESTRING (-78.9508538716063 36.078496463547104, -78.9508867859013 36.078471677262016, -78.95097374434157 36.078456451404236, -78.9510654034223 36.07844122646445, -78.95113120520904 36.078435529883485, -78.95119935501167 36.07843365006784, -78.95170224351746 36.07844338757383, -78.95175864042648 36.07844722479716, -78.95179858492223 36.07845487137432, -78.95181971862465 36.07848349417345, -78.95183379904644 36.07851592915303, -78.95180739275825 36.07913356674333)" }, "geometry": { "type": "LineString", "coordinates": [ [ -78.950853871606299, 36.078496463547104 ], [ -78.950886785901304, 36.078471677262016 ], [ -78.950973744341567, 36.078456451404236 ], [ -78.951065403422305, 36.078441226464449 ], [ -78.951131205209037, 36.078435529883485 ], [ -78.951199355011667, 36.078433650067844 ], [ -78.95170224351746, 36.078443387573827 ], [ -78.951758640426476, 36.078447224797159 ], [ -78.95179858492223, 36.078454871374319 ], [ -78.951819718624648, 36.078483494173447 ], [ -78.95183379904644, 36.078515929153028 ], [ -78.951807392758255, 36.07913356674333 ] ] } },
{ "type": "Feature", "properties": { "FEEDER_NAME": "Willowhaven South", "SUBSTATION_NAME": "Bivins", "wmType": "PRIMARY UNDERGROUND", "WKT": "LINESTRING (-78.95180739275825 36.07913356674333, -78.9518004822471 36.07930321217984, -78.95179724925728 36.07941827528279, -78.9517932211645 36.07956702021268, -78.95174050765925 36.079781227520655, -78.9516899731313 36.07989197299465)" }, "geometry": { "type": "LineString", "coordinates": [ [ -78.951807392758255, 36.07913356674333 ], [ -78.951800482247094, 36.079303212179838 ], [ -78.951797249257282, 36.079418275282791 ], [ -78.951793221164493, 36.079567020212679 ], [ -78.951740507659252, 36.079781227520655 ], [ -78.951689973131295, 36.079891972994652 ] ] } },
{ "type": "Feature", "properties": { "FEEDER_NAME": "Willowhaven South", "SUBSTATION_NAME": "Bivins", "wmType": "PRIMARY UNDERGROUND", "WKT": "LINESTRING (-78.9516899731313 36.07989197299465, -78.95168254856591 36.079937057427806, -78.95161433568485 36.08004004248738, -78.95157669727931 36.08010297938335, -78.95152965834119 36.080167820470976, -78.95143794906126 36.08026507411866, -78.95136740937416 36.08032799787479, -78.95128746787519 36.080396640733504, -78.95120988481004 36.08044811581076, -78.9511360652037 36.08049806653812, -78.95104580083353 36.08053465692943, -78.95101007197377 36.0805491409082)" }, "geometry": { "type": "LineString", "coordinates": [ [ -78.951689973131295, 36.079891972994652 ], [ -78.951682548565913, 36.079937057427806 ], [ -78.951614335684852, 36.080040042487383 ], [ -78.951576697279307, 36.080102979383348 ], [ -78.951529658341187, 36.080167820470976 ], [ -78.951437949061258, 36.080265074118657 ], [ -78.951367409374157, 36.08032799787479 ], [ -78.95128746787519, 36.080396640733504 ], [ -78.951209884810041, 36.080448115810761 ], [ -78.951136065203698, 36.080498066538119 ], [ -78.951045800833526, 36.08053465692943 ], [ -78.951010071973769, 36.080549140908197 ] ] } },
{ "type": "Feature", "properties": { "FEEDER_NAME": "Willowhaven South", "SUBSTATION_NAME": "Bivins", "wmType": "PRIMARY UNDERGROUND", "WKT": "LINESTRING (-78.95101007197377 36.0805491409082, -78.95096775290237 36.08057964542267, -78.95088547906792 36.080615857672456, -78.95076090338488 36.08065586780038, -78.95064808204114 36.08068825262721, -78.95054701748586 36.080707287495486, -78.9504060038028 36.08072630698698, -78.95029084593565 36.080735798079566, -78.95018744484484 36.08073575600552, -78.95006289463771 36.08073379727977, -78.94998534591186 36.080729950629944, -78.94993599758841 36.080726115478875, -78.9499031106188 36.08070321045585, -78.94988903059252 36.08067077438252, -78.9498867122222 36.08061926743141, -78.94989381094429 36.08054105782196, -78.94989856044408 36.080460938415634, -78.94989625623094 36.080388447837834, -78.94989159807228 36.08032167918309, -78.94988457529556 36.080277801116985, -78.94989727895855 36.080254218102205)" }, "geometry": { "type": "LineString", "coordinates": [ [ -78.951010071973769, 36.080549140908197 ], [ -78.950967752902372, 36.080579645422667 ], [ -78.950885479067921, 36.080615857672456 ], [ -78.950760903384875, 36.080655867800381 ], [ -78.950648082041141, 36.080688252627212 ], [ -78.95054701748586, 36.080707287495486 ], [ -78.950406003802797, 36.080726306986982 ], [ -78.950290845935655, 36.080735798079566 ], [ -78.950187444844843, 36.080735756005517 ], [ -78.950062894637711, 36.08073379727977 ], [ -78.949985345911855, 36.080729950629944 ], [ -78.949935997588412, 36.080726115478875 ], [ -78.949903110618806, 36.080703210455852 ], [ -78.949889030592516, 36.080670774382519 ], [ -78.949886712222195, 36.080619267431409 ], [ -78.949893810944289, 36.080541057821961 ], [ -78.949898560444083, 36.080460938415634 ], [ -78.949896256230943, 36.080388447837834 ], [ -78.949891598072284, 36.080321679183093 ], [ -78.949884575295556, 36.080277801116985 ], [ -78.949897278958545, 36.080254218102205 ] ] } },
{ "type": "Feature", "properties": { "FEEDER_NAME": "Willowhaven South", "SUBSTATION_NAME": "Bivins", "wmType": "PRIMARY UNDERGROUND", "WKT": "LINESTRING (-78.96537348718196 36.09991714588685, -78.9655907306914 36.09982652312467)" }, "geometry": { "type": "LineString", "coordinates": [ [ -78.965373487181964, 36.099917145886849 ], [ -78.965590730691403, 36.099826523124669 ] ] } },
{ "type": "Feature", "properties": { "FEEDER_NAME": "Willowhaven South", "SUBSTATION_NAME": "Bivins", "wmType": "PRIMARY UNDERGROUND", "WKT": "LINESTRING (-78.96510633160588 36.09959862127894, -78.96604622451927 36.098065277882384)" }, "geometry": { "type": "LineString", "coordinates": [ [ -78.965106331605881, 36.099598621278943 ], [ -78.966046224519275, 36.098065277882384 ] ] } },
{ "type": "Feature", "properties": { "FEEDER_NAME": "Willowhaven South", "SUBSTATION_NAME": "Bivins", "wmType": "PRIMARY UNDERGROUND", "WKT": "LINESTRING (-78.94989727895855 36.080254218102205, -78.9498705131517 36.08021675059302, -78.94985411251345 36.080136623407064, -78.94982360826462 36.08006221241944, -78.949795454453 36.07998780328809, -78.94975084431127 36.07992292523794, -78.94970624376597 36.07984278643167, -78.94966162892794 36.07978744709572, -78.94961466385995 36.07973019884306, -78.94958413364573 36.079699663873264, -78.9495705312428 36.079674455913135)" }, "geometry": { "type": "LineString", "coordinates": [ [ -78.949897278958545, 36.080254218102205 ], [ -78.949870513151694, 36.080216750593017 ], [ -78.949854112513449, 36.080136623407064 ], [ -78.949823608264623, 36.080062212419442 ], [ -78.949795454452996, 36.079987803288091 ], [ -78.949750844311268, 36.079922925237938 ], [ -78.949706243765974, 36.079842786431669 ], [ -78.949661628927942, 36.079787447095718 ], [ -78.949614663859947, 36.079730198843059 ], [ -78.949584133645729, 36.079699663873264 ], [ -78.949570531242799, 36.079674455913135 ] ] } },
{ "type": "Feature", "properties": { "FEEDER_NAME": "Willowhaven South", "SUBSTATION_NAME": "Bivins", "wmType": "PRIMARY UNDERGROUND", "WKT": "LINESTRING (-78.9495705312428 36.079674455913135, -78.94952776702888 36.07964622757061, -78.9494878377889 36.07961187283429, -78.94943850693068 36.0795813309608, -78.94938446450095 36.079569862821586, -78.94933041377938 36.079569840438246, -78.94928105419191 36.079585079819324, -78.94925989458558 36.079600332686695, -78.94922227969765 36.07962511657086, -78.94919874453616 36.07967852074992, -78.94919636520775 36.07972620992144, -78.94921748518716 36.07977390975384, -78.9492621117234 36.07981017355459, -78.94932319342989 36.079840721267594, -78.94938365140632 36.07984270380526, -78.94942424530228 36.079838855170586, -78.94945479576384 36.07983886780153, -78.94947358109678 36.07986176712815, -78.94950176206206 36.07989230115334, -78.94954167950293 36.07994573067648, -78.94957454585078 36.079999158179355, -78.94960506296908 36.080052584704106, -78.9496238293136 36.080106006380014, -78.94965669101457 36.0801670637747, -78.94966605927914 36.08021857364186, -78.9496824740405 36.08027581019786, -78.94967482090782 36.080309920879735)" }, "geometry": { "type": "LineString", "coordinates": [ [ -78.949570531242799, 36.079674455913135 ], [ -78.949527767028883, 36.079646227570613 ], [ -78.949487837788894, 36.079611872834292 ], [ -78.949438506930676, 36.079581330960799 ], [ -78.949384464500952, 36.079569862821586 ], [ -78.949330413779379, 36.079569840438246 ], [ -78.949281054191914, 36.079585079819324 ], [ -78.94925989458558, 36.079600332686695 ], [ -78.949222279697651, 36.07962511657086 ], [ -78.949198744536162, 36.079678520749923 ], [ -78.949196365207754, 36.079726209921439 ], [ -78.949217485187162, 36.07977390975384 ], [ -78.949262111723399, 36.079810173554591 ], [ -78.94932319342989, 36.079840721267594 ], [ -78.949383651406322, 36.079842703805262 ], [ -78.949424245302282, 36.079838855170586 ], [ -78.949454795763842, 36.079838867801527 ], [ -78.949473581096782, 36.079861767128151 ], [ -78.949501762062056, 36.079892301153343 ], [ -78.949541679502929, 36.079945730676478 ], [ -78.94957454585078, 36.079999158179355 ], [ -78.949605062969084, 36.080052584704106 ], [ -78.949623829313595, 36.080106006380014 ], [ -78.949656691014567, 36.080167063774702 ], [ -78.949666059279139, 36.080218573641858 ], [ -78.9496824740405, 36.080275810197861 ], [ -78.949674820907816, 36.080309920879735 ] ] } },
{ "type": "Feature", "properties": { "FEEDER_NAME": "Willowhaven South", "SUBSTATION_NAME": "Bivins", "wmType": "PRIMARY UNDERGROUND", "WKT": "LINESTRING (-78.94967482090782 36.080309920879735, -78.94969182455092 36.08035402657184, -78.94969410706229 36.08046276241288, -78.94969405823524 36.080540975814884, -78.94968931686523 36.080607740604485, -78.94968928470742 36.0806592474939, -78.94967750879536 36.080699302871295, -78.9496304918294 36.080725990029265, -78.949512991834 36.08072212661829, -78.94917929162007 36.08071435757958, -78.94897719170311 36.08070855053743, -78.94894202533774 36.080696678214714)" }, "geometry": { "type": "LineString", "coordinates": [ [ -78.949674820907816, 36.080309920879735 ], [ -78.949691824550925, 36.08035402657184 ], [ -78.949694107062285, 36.080462762412878 ], [ -78.949694058235238, 36.080540975814884 ], [ -78.949689316865232, 36.080607740604485 ], [ -78.949689284707418, 36.080659247493898 ], [ -78.949677508795361, 36.080699302871295 ], [ -78.949630491829396, 36.080725990029265 ], [ -78.949512991833998, 36.080722126618291 ], [ -78.949179291620069, 36.080714357579581 ], [ -78.948977191703108, 36.08070855053743 ], [ -78.948942025337743, 36.080696678214714 ] ] } },
{ "type": "Feature", "properties": { "FEEDER_NAME": "Willowhaven South", "SUBSTATION_NAME": "Bivins", "wmType": "PRIMARY UNDERGROUND", "WKT": "LINESTRING (-78.94894202533774 36.080696678214714, -78.9487186934698 36.08069890456571, -78.94843669450064 36.080691154268415, -78.94834739488115 36.080689210455894, -78.94832712264568 36.08068771664443)" }, "geometry": { "type": "LineString", "coordinates": [ [ -78.948942025337743, 36.080696678214714 ], [ -78.9487186934698, 36.080698904565708 ], [ -78.948436694500643, 36.080691154268415 ], [ -78.948347394881154, 36.080689210455894 ], [ -78.948327122645679, 36.080687716644427 ] ] } },
{ "type": "Feature", "properties": { "FEEDER_NAME": "Willowhaven South", "SUBSTATION_NAME": "Bivins", "wmType": "PRIMARY UNDERGROUND", "WKT": "LINESTRING (-78.94832712264568 36.08068771664443, -78.94828629564832 36.08068727670403, -78.94802309553279 36.08067953430227, -78.94794789735806 36.080675687359296, -78.94788464934312 36.08067275661933, -78.94784685810791 36.08065465978421, -78.94781758777329 36.08061129573708, -78.94783756739147 36.08048678410331, -78.9478517206304 36.08040476265667, -78.94785882501226 36.08032082936882, -78.94786460004366 36.08012078032199, -78.94784628880396 36.07984629456686, -78.94783713850053 36.07978066487538, -78.94783849193391 36.079777154211115)" }, "geometry": { "type": "LineString", "coordinates": [ [ -78.948327122645679, 36.080687716644427 ], [ -78.948286295648316, 36.080687276704033 ], [ -78.94802309553279, 36.08067953430227 ], [ -78.947947897358063, 36.080675687359296 ], [ -78.947884649343123, 36.080672756619329 ], [ -78.947846858107908, 36.080654659784209 ], [ -78.947817587773287, 36.080611295737079 ], [ -78.947837567391474, 36.080486784103307 ], [ -78.947851720630396, 36.08040476265667 ], [ -78.947858825012261, 36.080320829368823 ], [ -78.947864600043658, 36.080120780321991 ], [ -78.947846288803959, 36.079846294566863 ], [ -78.947837138500532, 36.079780664875379 ], [ -78.947838491933908, 36.079777154211115 ] ] } },
{ "type": "Feature", "properties": { "FEEDER_NAME": "Willowhaven South", "SUBSTATION_NAME": "Bivins", "wmType": "PRIMARY UNDERGROUND", "WKT": "LINESTRING (-78.94783849193391 36.079777154211115, -78.94783498129675 36.07977210395206, -78.9478336025935 36.07975976895626, -78.94782690612902 36.07971613333461, -78.9478215189103 36.07968408554832, -78.94779352446027 36.07955011738258, -78.94775367021556 36.07940130517311, -78.94769715019864 36.07923403196483, -78.94766469233633 36.0791574809245)" }, "geometry": { "type": "LineString", "coordinates": [ [ -78.947838491933908, 36.079777154211115 ], [ -78.947834981296751, 36.07977210395206 ], [ -78.947833602593505, 36.079759768956258 ], [ -78.947826906129023, 36.079716133334607 ], [ -78.947821518910303, 36.079684085548323 ], [ -78.947793524460266, 36.079550117382581 ], [ -78.947753670215562, 36.079401305173107 ], [ -78.947697150198636, 36.07923403196483 ], [ -78.947664692336332, 36.079157480924501 ] ] } },
{ "type": "Feature", "properties": { "FEEDER_NAME": "Willowhaven South", "SUBSTATION_NAME": "Bivins", "wmType": "PRIMARY UNDERGROUND", "WKT": "LINESTRING (-78.95213071213361 36.07664344106703, -78.9520762763085 36.07729429166854)" }, "geometry": { "type": "LineString", "coordinates": [ [ -78.952130712133609, 36.076643441067027 ], [ -78.952076276308503, 36.077294291668537 ] ] } },
{ "type": "Feature", "properties": { "FEEDER_NAME": "Willowhaven South", "SUBSTATION_NAME": "Bivins", "wmType": "PRIMARY UNDERGROUND", "WKT": "LINESTRING (-78.9520762763085 36.07729429166854, -78.95205122924988 36.07794316184768)" }, "geometry": { "type": "LineString", "coordinates": [ [ -78.952076276308503, 36.077294291668537 ], [ -78.952051229249875, 36.077943161847678 ] ] } },
{ "type": "Feature", "properties": { "FEEDER_NAME": "Willowhaven South", "SUBSTATION_NAME": "Bivins", "wmType": "PRIMARY UNDERGROUND", "WKT": "LINESTRING (-78.95205122924988 36.07794316184768, -78.9520259274742 36.07879915723525)" }, "geometry": { "type": "LineString", "coordinates": [ [ -78.952051229249875, 36.077943161847678 ], [ -78.952025927474196, 36.078799157235252 ] ] } },
{ "type": "Feature", "properties": { "FEEDER_NAME": "Willowhaven South", "SUBSTATION_NAME": "Bivins", "wmType": "PRIMARY UNDERGROUND", "WKT": "LINESTRING (-78.9520259274742 36.07879915723525, -78.95200243548317 36.07945836756417)" }, "geometry": { "type": "LineString", "coordinates": [ [ -78.952025927474196, 36.078799157235252 ], [ -78.952002435483166, 36.079458367564172 ] ] } },
{ "type": "Feature", "properties": { "FEEDER_NAME": "Willowhaven South", "SUBSTATION_NAME": "Bivins", "wmType": "PRIMARY UNDERGROUND", "WKT": "LINESTRING (-78.95200243548317 36.07945836756417, -78.9519842069663 36.079623486109014, -78.95197325277493 36.07968782062468, -78.95195993241734 36.07974136723432, -78.95194946600766 36.079784512819735, -78.951933297893 36.07983613144854, -78.95191618414103 36.07988351205935, -78.95184256281496 36.08004728663835)" }, "geometry": { "type": "LineString", "coordinates": [ [ -78.952002435483166, 36.079458367564172 ], [ -78.951984206966301, 36.079623486109014 ], [ -78.951973252774934, 36.079687820624677 ], [ -78.951959932417338, 36.07974136723432 ], [ -78.951949466007662, 36.079784512819735 ], [ -78.951933297893007, 36.079836131448538 ], [ -78.951916184141027, 36.079883512059347 ], [ -78.95184256281496, 36.080047286638347 ] ] } },
{ "type": "Feature", "properties": { "FEEDER_NAME": "Willowhaven South", "SUBSTATION_NAME": "Bivins", "wmType": "PRIMARY UNDERGROUND", "WKT": "LINESTRING (-78.95184256281496 36.08004728663835, -78.95175399457199 36.080191498303215, -78.95163580180915 36.08032746262923, -78.95162117962116 36.08034450745186, -78.95161883487313 36.08037578865019, -78.95163519801251 36.080417808342, -78.95184212064908 36.08061253402796)" }, "geometry": { "type": "LineString", "coordinates": [ [ -78.95184256281496, 36.080047286638347 ], [ -78.951753994571988, 36.080191498303215 ], [ -78.951635801809147, 36.080327462629228 ], [ -78.951621179621156, 36.080344507451862 ], [ -78.95161883487313, 36.080375788650187 ], [ -78.951635198012511, 36.080417808341998 ], [ -78.951842120649076, 36.080612534027964 ] ] } },
{ "type": "Feature", "properties": { "FEEDER_NAME": "Willowhaven South", "SUBSTATION_NAME": "Bivins", "wmType": "PRIMARY UNDERGROUND", "WKT": "LINESTRING (-78.94937894041296 36.08088231208526, -78.94856621629064 36.08085665166685)" }, "geometry": { "type": "LineString", "coordinates": [ [ -78.949378940412956, 36.080882312085258 ], [ -78.948566216290644, 36.080856651666849 ] ] } },
{ "type": "Feature", "properties": { "FEEDER_NAME": "Willowhaven South", "SUBSTATION_NAME": "Bivins", "wmType": "PRIMARY UNDERGROUND", "WKT": "LINESTRING (-78.9476506276418 36.08122927560094, -78.947422035239 36.081210660613465)" }, "geometry": { "type": "LineString", "coordinates": [ [ -78.947650627641806, 36.08122927560094 ], [ -78.947422035239001, 36.081210660613465 ] ] } },
{ "type": "Feature", "properties": { "FEEDER_NAME": "Willowhaven South", "SUBSTATION_NAME": "Bivins", "wmType": "PRIMARY UNDERGROUND", "WKT": "LINESTRING (-78.94747307311731 36.07924791239769, -78.94763808083403 36.079170039168126)" }, "geometry": { "type": "LineString", "coordinates": [ [ -78.947473073117308, 36.07924791239769 ], [ -78.947638080834025, 36.079170039168126 ] ] } },
{ "type": "Feature", "properties": { "FEEDER_NAME": "Willowhaven South", "SUBSTATION_NAME": "Bivins", "wmType": "PRIMARY UNDERGROUND", "WKT": "LINESTRING (-78.95184212064908 36.08061253402796, -78.95162768874069 36.0806538092123, -78.95153881900876 36.08056651934658, -78.9514636449392 36.080520707321476, -78.95142134215493 36.08052450458245, -78.95138137825312 36.080547381159036, -78.95132495569418 36.08058360397965, -78.9512638299774 36.08062363985842, -78.95116744906359 36.080673199481026, -78.95109457456527 36.080711323553, -78.95100525171327 36.080745624231014, -78.95090201280911 36.08078732476509)" }, "geometry": { "type": "LineString", "coordinates": [ [ -78.951842120649076, 36.080612534027964 ], [ -78.951627688740686, 36.080653809212301 ], [ -78.951538819008761, 36.080566519346583 ], [ -78.951463644939196, 36.080520707321476 ], [ -78.95142134215493, 36.080524504582449 ], [ -78.951381378253117, 36.080547381159036 ], [ -78.951324955694176, 36.080583603979647 ], [ -78.951263829977407, 36.080623639858423 ], [ -78.95116744906359, 36.080673199481026 ], [ -78.951094574565275, 36.080711323552997 ], [ -78.951005251713269, 36.080745624231014 ], [ -78.950902012809109, 36.08078732476509 ] ] } },
{ "type": "Feature", "properties": { "FEEDER_NAME": "Willowhaven South", "SUBSTATION_NAME": "Bivins", "wmType": "PRIMARY UNDERGROUND", "WKT": "LINESTRING (-78.95090201280911 36.08078732476509, -78.95065972904267 36.08085612902865, -78.95053986546178 36.08087515630362, -78.95041765265293 36.08089036845126, -78.9502930951409 36.080899855734, -78.95017661286313 36.08090154232336)" }, "geometry": { "type": "LineString", "coordinates": [ [ -78.950902012809109, 36.08078732476509 ], [ -78.95065972904267, 36.080856129028653 ], [ -78.950539865461778, 36.08087515630362 ], [ -78.950417652652931, 36.080890368451257 ], [ -78.950293095140907, 36.080899855734003 ], [ -78.950176612863132, 36.08090154232336 ] ] } },
{ "type": "Feature", "properties": { "FEEDER_NAME": "Willowhaven South", "SUBSTATION_NAME": "Bivins", "wmType": "PRIMARY UNDERGROUND", "WKT": "LINESTRING (-78.95017661286313 36.08090154232336, -78.95010508588182 36.0809014572845, -78.9498888929831 36.080892059956, -78.94979723921175 36.0808939302951, -78.94972909086536 36.080890087341736, -78.94966093895094 36.08089196633606, -78.94951758986343 36.08088618435701, -78.94937894041296 36.08088231208526)" }, "geometry": { "type": "LineString", "coordinates": [ [ -78.950176612863132, 36.08090154232336 ], [ -78.950105085881816, 36.080901457284497 ], [ -78.949888892983097, 36.080892059956 ], [ -78.949797239211748, 36.080893930295098 ], [ -78.949729090865361, 36.080890087341736 ], [ -78.949660938950942, 36.080891966336061 ], [ -78.949517589863433, 36.080886184357013 ], [ -78.949378940412956, 36.080882312085258 ] ] } },
{ "type": "Feature", "properties": { "FEEDER_NAME": "Willowhaven South", "SUBSTATION_NAME": "Bivins", "wmType": "PRIMARY UNDERGROUND", "WKT": "LINESTRING (-78.94856621629064 36.08085665166685, -78.9478373414136 36.080835881139116, -78.94779738993411 36.08083777202158, -78.947759774146 36.08086064661197, -78.94774095195255 36.08089497680244, -78.94773152173455 36.08094075587965, -78.94771033053274 36.081003698591765, -78.9476373462561 36.08120778340068, -78.9476506276418 36.08122927560094)" }, "geometry": { "type": "LineString", "coordinates": [ [ -78.948566216290644, 36.080856651666849 ], [ -78.947837341413603, 36.080835881139116 ], [ -78.947797389934109, 36.080837772021582 ], [ -78.947759774145993, 36.080860646611967 ], [ -78.947740951952554, 36.080894976802441 ], [ -78.947731521734553, 36.080940755879652 ], [ -78.947710330532743, 36.081003698591765 ], [ -78.947637346256101, 36.081207783400679 ], [ -78.947650627641806, 36.08122927560094 ] ] } },
{ "type": "Feature", "properties": { "FEEDER_NAME": "Willowhaven South", "SUBSTATION_NAME": "Bivins", "wmType": "PRIMARY UNDERGROUND", "WKT": "LINESTRING (-78.947422035239 36.081210660613465, -78.94758676822607 36.08074720801878, -78.94759832609363 36.08065991863758, -78.94762366493794 36.080564905199, -78.94763545685579 36.08050005143703, -78.94764192828396 36.08046107817623, -78.9476284451794 36.08043241830036)" }, "geometry": { "type": "LineString", "coordinates": [ [ -78.947422035239001, 36.081210660613465 ], [ -78.947586768226074, 36.080747208018778 ], [ -78.947598326093626, 36.080659918637579 ], [ -78.947623664937936, 36.080564905198997 ], [ -78.947635456855792, 36.080500051437028 ], [ -78.947641928283957, 36.080461078176228 ], [ -78.947628445179404, 36.080432418300362 ] ] } },
{ "type": "Feature", "properties": { "FEEDER_NAME": "Willowhaven South", "SUBSTATION_NAME": "Bivins", "wmType": "PRIMARY UNDERGROUND", "WKT": "LINESTRING (-78.9476284451794 36.08043241830036, -78.94764491943042 36.080402766366234, -78.94765199924304 36.080356985378074, -78.94765909391516 36.08028831463783, -78.94766148023703 36.08023299378832, -78.9476591509123 36.08020056338118, -78.94766387287905 36.08016622715977, -78.94765919056266 36.080139518635015, -78.9476568600023 36.08010899615658, -78.94765452683694 36.08008419566578, -78.9476540080887 36.08005896605866)" }, "geometry": { "type": "LineString", "coordinates": [ [ -78.947628445179404, 36.080432418300362 ], [ -78.947644919430417, 36.080402766366234 ], [ -78.947651999243035, 36.080356985378074 ], [ -78.947659093915163, 36.080288314637833 ], [ -78.947661480237031, 36.080232993788321 ], [ -78.947659150912301, 36.080200563381183 ], [ -78.947663872879048, 36.080166227159772 ], [ -78.947659190562661, 36.080139518635015 ], [ -78.947656860002297, 36.080108996156582 ], [ -78.947654526836942, 36.080084195665783 ], [ -78.947654008088705, 36.080058966058658 ] ] } },
{ "type": "Feature", "properties": { "FEEDER_NAME": "Willowhaven South", "SUBSTATION_NAME": "Bivins", "wmType": "PRIMARY UNDERGROUND", "WKT": "LINESTRING (-78.9476540080887 36.08005896605866, -78.94765691948035 36.08001742903319, -78.94765225824209 36.079958290200814, -78.94764526026428 36.0798781676348, -78.94763356265999 36.07979804125081, -78.94761953330533 36.0796892994076, -78.94759374828774 36.07958818424442, -78.94757500078411 36.079508055724915, -78.94754451737249 36.07940693762812, -78.94752340730719 36.07934397675786, -78.9475046512312 36.07927720193161, -78.94747307311731 36.07924791239769)" }, "geometry": { "type": "LineString", "coordinates": [ [ -78.947654008088705, 36.080058966058658 ], [ -78.947656919480352, 36.080017429033191 ], [ -78.947652258242087, 36.079958290200814 ], [ -78.947645260264281, 36.079878167634803 ], [ -78.947633562659988, 36.079798041250811 ], [ -78.947619533305328, 36.079689299407598 ], [ -78.947593748287744, 36.079588184244422 ], [ -78.947575000784113, 36.079508055724915 ], [ -78.947544517372492, 36.079406937628121 ], [ -78.947523407307187, 36.079343976757862 ], [ -78.947504651231199, 36.07927720193161 ], [ -78.947473073117308, 36.07924791239769 ] ] } },
{ "type": "Feature", "properties": { "FEEDER_NAME": "Willowhaven South", "SUBSTATION_NAME": "Bivins", "wmType": "PRIMARY UNDERGROUND", "WKT": "LINESTRING (-78.96604622451927 36.098065277882384, -78.96654834064321 36.09804150104094, -78.96643808666445 36.09828148610939, -78.9667157175688 36.09834952053959, -78.9670286133879 36.0983996797304, -78.96706455108617 36.09801705451339, -78.96735141066185 36.09800346868328)" }, "geometry": { "type": "LineString", "coordinates": [ [ -78.966046224519275, 36.098065277882384 ], [ -78.966548340643214, 36.098041501040939 ], [ -78.966438086664454, 36.098281486109393 ], [ -78.966715717568803, 36.098349520539593 ], [ -78.967028613387896, 36.098399679730399 ], [ -78.967064551086168, 36.098017054513392 ], [ -78.967351410661848, 36.098003468683281 ] ] } },
{ "type": "Feature", "properties": { "FEEDER_NAME": "Willowhaven South", "SUBSTATION_NAME": "Bivins", "wmType": "PRIMARY UNDERGROUND", "WKT": "LINESTRING (-78.96735141066185 36.09800346868328, -78.96767244505065 36.098004757099865, -78.9681165555261 36.0980133047266, -78.96835015169468 36.09798475115916, -78.96852646260675 36.09793472219416, -78.9685805880362 36.09783172666767)" }, "geometry": { "type": "LineString", "coordinates": [ [ -78.967351410661848, 36.098003468683281 ], [ -78.967672445050653, 36.098004757099865 ], [ -78.968116555526095, 36.098013304726599 ], [ -78.968350151694679, 36.09798475115916 ], [ -78.968526462606746, 36.097934722194161 ], [ -78.968580588036204, 36.097831726667671 ] ] } },
{ "type": "Feature", "properties": { "FEEDER_NAME": "Willowhaven South", "SUBSTATION_NAME": "Bivins", "wmType": "PRIMARY UNDERGROUND", "WKT": "LINESTRING (-78.94766469233633 36.0791574809245, -78.94763808083403 36.079170039168126)" }, "geometry": { "type": "LineString", "coordinates": [ [ -78.947664692336332, 36.079157480924501 ], [ -78.947638080834025, 36.079170039168126 ] ] } },
{ "type": "Feature", "properties": { "FEEDER_NAME": "Willowhaven South", "SUBSTATION_NAME": "Bivins", "wmType": "PRIMARY UNDERGROUND", "WKT": "LINESTRING (-78.96535828148417 36.09992348897932, -78.96537348718196 36.09991714588685)" }, "geometry": { "type": "LineString", "coordinates": [ [ -78.965358281484171, 36.099923488979321 ], [ -78.965373487181964, 36.099917145886849 ] ] } },
{ "type": "Feature", "properties": { "FEEDER_NAME": "Willowhaven South", "SUBSTATION_NAME": "Bivins", "wmType": "PRIMARY UNDERGROUND", "WKT": "LINESTRING (-78.96508789295449 36.09962870104698, -78.96510633160588 36.09959862127894)" }, "geometry": { "type": "LineString", "coordinates": [ [ -78.965087892954486, 36.099628701046981 ], [ -78.965106331605881, 36.099598621278943 ] ] } }
]
}
