{
"type": "FeatureCollection",
"name": "Jonathan_s_X_Rd_Cornwall_underground",
"crs": { "type": "name", "properties": { "name": "urn:ogc:def:crs:OGC:1.3:CRS84" } },
"features": [
{ "type": "Feature", "properties": { "FEEDER_NAME": "Cornwall", "SUBSTATION_NAME": "Jonathan's X Rd.", "wmType": "PRIMARY UNDERGROUND", "WKT": "LINESTRING (-78.71867234026425 36.50092177369883, -78.71881584704393 36.50080456018809, -78.71882644088795 36.50071674074999, -78.71880263891214 36.50067555462447, -78.71880275454755 36.50064259673078, -78.71885394828053 36.50061793097772, -78.7191347847062 36.50009397690948, -78.71913014795793 36.50004606312425)" }, "geometry": { "type": "LineString", "coordinates": [ [ -78.718672340264249, 36.500921773698828 ], [ -78.718815847043928, 36.500804560188087 ], [ -78.718826440887952, 36.500716740749994 ], [ -78.718802638912138, 36.500675554624472 ], [ -78.718802754547553, 36.500642596730778 ], [ -78.718853948280525, 36.500617930977718 ], [ -78.719134784706199, 36.500093976909483 ], [ -78.719130147957927, 36.500046063124252 ] ] } },
{ "type": "Feature", "properties": { "FEEDER_NAME": "Cornwall", "SUBSTATION_NAME": "Jonathan's X Rd.", "wmType": "PRIMARY UNDERGROUND", "WKT": "LINESTRING (-78.67034871371722 36.484360429180896, -78.67163371695298 36.48536543178012)" }, "geometry": { "type": "LineString", "coordinates": [ [ -78.670348713717217, 36.484360429180896 ], [ -78.671633716952982, 36.485365431780117 ] ] } },
{ "type": "Feature", "properties": { "FEEDER_NAME": "Cornwall", "SUBSTATION_NAME": "Jonathan's X Rd.", "wmType": "PRIMARY UNDERGROUND", "WKT": "LINESTRING (-78.72069963751929 36.49996651346278, -78.72067647601537 36.4999446920754, -78.72042378444895 36.49987985307694, -78.72038271949293 36.49987457678452, -78.72030401041611 36.49900531986548)" }, "geometry": { "type": "LineString", "coordinates": [ [ -78.720699637519289, 36.49996651346278 ], [ -78.72067647601537, 36.499944692075402 ], [ -78.720423784448954, 36.499879853076941 ], [ -78.720382719492932, 36.499874576784521 ], [ -78.720304010416115, 36.499005319865482 ] ] } },
{ "type": "Feature", "properties": { "FEEDER_NAME": "Cornwall", "SUBSTATION_NAME": "Jonathan's X Rd.", "wmType": "PRIMARY UNDERGROUND", "WKT": "LINESTRING (-78.71913014795793 36.50004606312425, -78.71918055099601 36.499990511498744, -78.71923053382956 36.4993479524816, -78.71920268383973 36.499325960613426)" }, "geometry": { "type": "LineString", "coordinates": [ [ -78.719130147957927, 36.500046063124252 ], [ -78.719180550996015, 36.499990511498744 ], [ -78.71923053382956, 36.4993479524816 ], [ -78.719202683839725, 36.499325960613426 ] ] } },
{ "type": "Feature", "properties": { "FEEDER_NAME": "Cornwall", "SUBSTATION_NAME": "Jonathan's X Rd.", "wmType": "PRIMARY UNDERGROUND", "WKT": "LINESTRING (-78.71913014795793 36.50004606312425, -78.71937132706249 36.5000528149265, -78.71944625027754 36.499998100374945, -78.71957913426712 36.499959865958836, -78.71980376391826 36.49992742078657, -78.71995682862168 36.499908566050735, -78.72020184048668 36.49988446986436, -78.72031848480978 36.49988601295057, -78.7204224539845 36.49989332454352, -78.72069963751929 36.49996651346278)" }, "geometry": { "type": "LineString", "coordinates": [ [ -78.719130147957927, 36.500046063124252 ], [ -78.71937132706249, 36.500052814926498 ], [ -78.719446250277542, 36.499998100374945 ], [ -78.719579134267121, 36.499959865958836 ], [ -78.719803763918264, 36.49992742078657 ], [ -78.719956828621676, 36.499908566050735 ], [ -78.720201840486681, 36.499884469864362 ], [ -78.720318484809781, 36.499886012950569 ], [ -78.720422453984497, 36.499893324543521 ], [ -78.720699637519289, 36.49996651346278 ] ] } },
{ "type": "Feature", "properties": { "FEEDER_NAME": "Cornwall", "SUBSTATION_NAME": "Jonathan's X Rd.", "wmType": "PRIMARY UNDERGROUND", "WKT": "LINESTRING (-78.70831724337219 36.508703462784894, -78.70814232031351 36.50870286573359, -78.70795752869722 36.50871370105673, -78.70789743944509 36.50869363232495, -78.70780994038132 36.508694600331125, -78.70770704035637 36.50871510806931, -78.70759009320433 36.50873558141856, -78.70744987387354 36.508742807795024, -78.70708934776094 36.508732496558814, -78.70708187296715 36.50857942402165)" }, "geometry": { "type": "LineString", "coordinates": [ [ -78.708317243372193, 36.508703462784894 ], [ -78.708142320313513, 36.508702865733589 ], [ -78.707957528697222, 36.508713701056728 ], [ -78.707897439445091, 36.508693632324949 ], [ -78.707809940381324, 36.508694600331125 ], [ -78.707707040356368, 36.50871510806931 ], [ -78.707590093204331, 36.508735581418563 ], [ -78.707449873873543, 36.508742807795024 ], [ -78.707089347760942, 36.508732496558814 ], [ -78.707081872967152, 36.508579424021647 ] ] } },
{ "type": "Feature", "properties": { "FEEDER_NAME": "Cornwall", "SUBSTATION_NAME": "Jonathan's X Rd.", "wmType": "PRIMARY UNDERGROUND", "WKT": "LINESTRING (-78.68182473626587 36.49444945130078, -78.68172726389265 36.49447384228022)" }, "geometry": { "type": "LineString", "coordinates": [ [ -78.681824736265867, 36.494449451300781 ], [ -78.681727263892654, 36.494473842280222 ] ] } },
{ "type": "Feature", "properties": { "FEEDER_NAME": "Cornwall", "SUBSTATION_NAME": "Jonathan's X Rd.", "wmType": "PRIMARY UNDERGROUND", "WKT": "LINESTRING (-78.68172726389265 36.49447384228022, -78.68146456798557 36.494539576865755, -78.68129090762261 36.49439199528262, -78.68125922946045 36.49432093344882, -78.6811914382915 36.494078107657, -78.68109773446008 36.494087450188864)" }, "geometry": { "type": "LineString", "coordinates": [ [ -78.681727263892654, 36.494473842280222 ], [ -78.681464567985572, 36.494539576865755 ], [ -78.681290907622611, 36.494391995282619 ], [ -78.681259229460451, 36.494320933448819 ], [ -78.681191438291506, 36.494078107657003 ], [ -78.681097734460081, 36.494087450188864 ] ] } },
{ "type": "Feature", "properties": { "FEEDER_NAME": "Cornwall", "SUBSTATION_NAME": "Jonathan's X Rd.", "wmType": "PRIMARY UNDERGROUND", "WKT": "LINESTRING (-78.71872450556432 36.50271124948525, -78.71872210485067 36.502628879775806)" }, "geometry": { "type": "LineString", "coordinates": [ [ -78.718724505564325, 36.502711249485252 ], [ -78.71872210485067, 36.502628879775806 ] ] } },
{ "type": "Feature", "properties": { "FEEDER_NAME": "Cornwall", "SUBSTATION_NAME": "Jonathan's X Rd.", "wmType": "PRIMARY UNDERGROUND", "WKT": "LINESTRING (-78.71872210485067 36.502628879775806, -78.71867234026425 36.50092177369883)" }, "geometry": { "type": "LineString", "coordinates": [ [ -78.71872210485067, 36.502628879775806 ], [ -78.718672340264249, 36.500921773698828 ] ] } },
{ "type": "Feature", "properties": { "FEEDER_NAME": "Cornwall", "SUBSTATION_NAME": "Jonathan's X Rd.", "wmType": "PRIMARY UNDERGROUND", "WKT": "LINESTRING (-78.67967983259472 36.495432278519644, -78.6796846255152 36.49534997591992)" }, "geometry": { "type": "LineString", "coordinates": [ [ -78.679679832594715, 36.495432278519644 ], [ -78.679684625515193, 36.495349975919922 ] ] } },
{ "type": "Feature", "properties": { "FEEDER_NAME": "Cornwall", "SUBSTATION_NAME": "Jonathan's X Rd.", "wmType": "PRIMARY UNDERGROUND", "WKT": "LINESTRING (-78.6796846255152 36.49534997591992, -78.67975266206584 36.494181721491, -78.67971366043076 36.49410469583405, -78.6796406410795 36.49400990710309, -78.67940890118118 36.493835977444434)" }, "geometry": { "type": "LineString", "coordinates": [ [ -78.679684625515193, 36.495349975919922 ], [ -78.679752662065837, 36.494181721491003 ], [ -78.679713660430764, 36.494104695834046 ], [ -78.679640641079502, 36.494009907103091 ], [ -78.679408901181176, 36.493835977444434 ] ] } },
{ "type": "Feature", "properties": { "FEEDER_NAME": "Cornwall", "SUBSTATION_NAME": "Jonathan's X Rd.", "wmType": "PRIMARY UNDERGROUND", "WKT": "LINESTRING (-78.70270204314556 36.5102962971431, -78.70276792831149 36.51035922410794)" }, "geometry": { "type": "LineString", "coordinates": [ [ -78.702702043145564, 36.5102962971431 ], [ -78.702767928311488, 36.510359224107937 ] ] } },
{ "type": "Feature", "properties": { "FEEDER_NAME": "Cornwall", "SUBSTATION_NAME": "Jonathan's X Rd.", "wmType": "PRIMARY UNDERGROUND", "WKT": "LINESTRING (-78.70276792831149 36.51035922410794, -78.7028154210886 36.51040458371443, -78.70289836272799 36.51040713408754, -78.70317382957874 36.51041502849131, -78.70342850053464 36.51041564293895, -78.70353514809479 36.51042547923884, -78.70362979022582 36.51044242469395, -78.70378972188593 36.510452389177935, -78.70381022823707 36.51049363854143)" }, "geometry": { "type": "LineString", "coordinates": [ [ -78.702767928311488, 36.510359224107937 ], [ -78.702815421088602, 36.510404583714433 ], [ -78.702898362727993, 36.510407134087536 ], [ -78.703173829578745, 36.510415028491309 ], [ -78.703428500534642, 36.510415642938952 ], [ -78.703535148094787, 36.51042547923884 ], [ -78.703629790225818, 36.510442424693949 ], [ -78.703789721885926, 36.510452389177935 ], [ -78.703810228237074, 36.510493638541433 ] ] } },
{ "type": "Feature", "properties": { "FEEDER_NAME": "Cornwall", "SUBSTATION_NAME": "Jonathan's X Rd.", "wmType": "PRIMARY UNDERGROUND", "WKT": "LINESTRING (-78.654074120249 36.48975125660792, -78.6539772617406 36.48972533598568)" }, "geometry": { "type": "LineString", "coordinates": [ [ -78.654074120249007, 36.489751256607917 ], [ -78.653977261740593, 36.489725335985682 ] ] } },
{ "type": "Feature", "properties": { "FEEDER_NAME": "Cornwall", "SUBSTATION_NAME": "Jonathan's X Rd.", "wmType": "PRIMARY UNDERGROUND", "WKT": "LINESTRING (-78.6539772617406 36.48972533598568, -78.65320358858033 36.489518287887165, -78.65319721378404 36.48941939732015, -78.65312267795727 36.48940243705102)" }, "geometry": { "type": "LineString", "coordinates": [ [ -78.653977261740593, 36.489725335985682 ], [ -78.653203588580325, 36.489518287887165 ], [ -78.65319721378404, 36.489419397320148 ], [ -78.653122677957271, 36.489402437051019 ] ] } },
{ "type": "Feature", "properties": { "FEEDER_NAME": "Cornwall", "SUBSTATION_NAME": "Jonathan's X Rd.", "wmType": "PRIMARY UNDERGROUND", "WKT": "LINESTRING (-78.72384281861764 36.51587149872307, -78.72380121098051 36.51594673525657)" }, "geometry": { "type": "LineString", "coordinates": [ [ -78.723842818617641, 36.515871498723072 ], [ -78.723801210980511, 36.51594673525657 ] ] } },
{ "type": "Feature", "properties": { "FEEDER_NAME": "Cornwall", "SUBSTATION_NAME": "Jonathan's X Rd.", "wmType": "PRIMARY UNDERGROUND", "WKT": "LINESTRING (-78.72380121098051 36.51594673525657, -78.72376981846006 36.51600349876989, -78.7237458186156 36.516045498881546, -78.72368068776733 36.51609468980445, -78.72354726930395 36.51609817169065, -78.72338375020968 36.51608966387939, -78.72317327345831 36.51606304168338, -78.72262800648728 36.516048738804535, -78.72216345482292 36.51611306259828, -78.72171518933919 36.51615127198521, -78.72143381377732 36.516166498933245, -78.72100061480049 36.51615420059126)" }, "geometry": { "type": "LineString", "coordinates": [ [ -78.723801210980511, 36.51594673525657 ], [ -78.723769818460056, 36.516003498769891 ], [ -78.723745818615598, 36.516045498881546 ], [ -78.723680687767327, 36.516094689804447 ], [ -78.72354726930395, 36.516098171690651 ], [ -78.723383750209678, 36.516089663879391 ], [ -78.723173273458315, 36.516063041683381 ], [ -78.722628006487284, 36.516048738804535 ], [ -78.722163454822919, 36.516113062598279 ], [ -78.721715189339193, 36.516151271985208 ], [ -78.721433813777324, 36.516166498933245 ], [ -78.721000614800488, 36.516154200591259 ] ] } },
{ "type": "Feature", "properties": { "FEEDER_NAME": "Cornwall", "SUBSTATION_NAME": "Jonathan's X Rd.", "wmType": "PRIMARY UNDERGROUND", "WKT": "LINESTRING (-78.65402797851299 36.507101919917574, -78.65412958286994 36.50710971338172)" }, "geometry": { "type": "LineString", "coordinates": [ [ -78.654027978512985, 36.507101919917574 ], [ -78.654129582869942, 36.507109713381723 ] ] } },
{ "type": "Feature", "properties": { "FEEDER_NAME": "Cornwall", "SUBSTATION_NAME": "Jonathan's X Rd.", "wmType": "PRIMARY UNDERGROUND", "WKT": "LINESTRING (-78.65412958286994 36.50710971338172, -78.6541457183942 36.50711095086867, -78.65423867620274 36.50723947290746, -78.65430367647453 36.50741147355575, -78.65437867726477 36.507586473959314, -78.65450067719823 36.50798747432556, -78.65453265094915 36.50824334820185, -78.65449167736914 36.50823447477741)" }, "geometry": { "type": "LineString", "coordinates": [ [ -78.654129582869942, 36.507109713381723 ], [ -78.654145718394204, 36.507110950868672 ], [ -78.654238676202738, 36.507239472907457 ], [ -78.654303676474527, 36.507411473555749 ], [ -78.654378677264774, 36.507586473959314 ], [ -78.654500677198229, 36.50798747432556 ], [ -78.65453265094915, 36.508243348201852 ], [ -78.654491677369137, 36.50823447477741 ] ] } },
{ "type": "Feature", "properties": { "FEEDER_NAME": "Cornwall", "SUBSTATION_NAME": "Jonathan's X Rd.", "wmType": "PRIMARY UNDERGROUND", "WKT": "LINESTRING (-78.70280754540988 36.502824098786206, -78.70290889184486 36.50283380033788)" }, "geometry": { "type": "LineString", "coordinates": [ [ -78.702807545409883, 36.502824098786206 ], [ -78.702908891844856, 36.502833800337882 ] ] } },
{ "type": "Feature", "properties": { "FEEDER_NAME": "Cornwall", "SUBSTATION_NAME": "Jonathan's X Rd.", "wmType": "PRIMARY UNDERGROUND", "WKT": "LINESTRING (-78.70290889184486 36.50283380033788, -78.70499000027165 36.503033000564315)" }, "geometry": { "type": "LineString", "coordinates": [ [ -78.702908891844856, 36.502833800337882 ], [ -78.70499000027165, 36.503033000564315 ] ] } },
{ "type": "Feature", "properties": { "FEEDER_NAME": "Cornwall", "SUBSTATION_NAME": "Jonathan's X Rd.", "wmType": "PRIMARY UNDERGROUND", "WKT": "LINESTRING (-78.72048707873452 36.51457548541967, -78.72053685166654 36.51450355284719)" }, "geometry": { "type": "LineString", "coordinates": [ [ -78.720487078734521, 36.51457548541967 ], [ -78.720536851666537, 36.514503552847188 ] ] } },
{ "type": "Feature", "properties": { "FEEDER_NAME": "Cornwall", "SUBSTATION_NAME": "Jonathan's X Rd.", "wmType": "PRIMARY UNDERGROUND", "WKT": "LINESTRING (-78.72053685166654 36.51450355284719, -78.72083022786542 36.51407956071212)" }, "geometry": { "type": "LineString", "coordinates": [ [ -78.720536851666537, 36.514503552847188 ], [ -78.72083022786542, 36.514079560712119 ] ] } },
{ "type": "Feature", "properties": { "FEEDER_NAME": "Cornwall", "SUBSTATION_NAME": "Jonathan's X Rd.", "wmType": "PRIMARY UNDERGROUND", "WKT": "LINESTRING (-78.70912118100186 36.509105515453264, -78.70909924603842 36.509066655880055, -78.70905189020314 36.50905598884713)" }, "geometry": { "type": "LineString", "coordinates": [ [ -78.709121181001862, 36.509105515453264 ], [ -78.70909924603842, 36.509066655880055 ], [ -78.709051890203142, 36.50905598884713 ] ] } },
{ "type": "Feature", "properties": { "FEEDER_NAME": "Cornwall", "SUBSTATION_NAME": "Jonathan's X Rd.", "wmType": "PRIMARY UNDERGROUND", "WKT": "LINESTRING (-78.70905189020314 36.50905598884713, -78.7090246394944 36.50904985123524, -78.70893459791276 36.50902885252822, -78.70888068869938 36.508985076742526, -78.70879585658405 36.50894746303299, -78.70872134842843 36.508903637492466, -78.70859282980959 36.508843055792525, -78.70844634252248 36.5087678828625, -78.70834108803234 36.50868241384471, -78.70831724337219 36.508703462784894)" }, "geometry": { "type": "LineString", "coordinates": [ [ -78.709051890203142, 36.50905598884713 ], [ -78.709024639494402, 36.50904985123524 ], [ -78.708934597912759, 36.509028852528218 ], [ -78.708880688699381, 36.508985076742526 ], [ -78.708795856584047, 36.508947463032989 ], [ -78.708721348428426, 36.508903637492466 ], [ -78.708592829809589, 36.508843055792525 ], [ -78.708446342522478, 36.5087678828625 ], [ -78.708341088032341, 36.50868241384471 ], [ -78.708317243372193, 36.508703462784894 ] ] } },
{ "type": "Feature", "properties": { "FEEDER_NAME": "Cornwall", "SUBSTATION_NAME": "Jonathan's X Rd.", "wmType": "PRIMARY UNDERGROUND", "WKT": "LINESTRING (-78.69828979724356 36.511356483495874, -78.69829655630106 36.51127427226361)" }, "geometry": { "type": "LineString", "coordinates": [ [ -78.698289797243561, 36.511356483495874 ], [ -78.698296556301059, 36.511274272263613 ] ] } },
{ "type": "Feature", "properties": { "FEEDER_NAME": "Cornwall", "SUBSTATION_NAME": "Jonathan's X Rd.", "wmType": "PRIMARY UNDERGROUND", "WKT": "LINESTRING (-78.69829655630106 36.51127427226361, -78.69830112897829 36.51121866209432, -78.69830499933074 36.51111478234102, -78.69828788142243 36.511041736646405, -78.69828113776943 36.510985562576636, -78.69827437074366 36.51093500564176, -78.69825368076806 36.51088722133764, -78.69823309766612 36.510811359426945, -78.69820896026002 36.51075514356298, -78.69817783610075 36.51070733363406, -78.69815019006629 36.51065953223329, -78.69812939446021 36.510639827310754, -78.69815722027053 36.510639895613345)" }, "geometry": { "type": "LineString", "coordinates": [ [ -78.698296556301059, 36.511274272263613 ], [ -78.698301128978287, 36.511218662094322 ], [ -78.698304999330745, 36.511114782341018 ], [ -78.698287881422431, 36.511041736646405 ], [ -78.698281137769428, 36.510985562576636 ], [ -78.698274370743661, 36.510935005641763 ], [ -78.698253680768062, 36.51088722133764 ], [ -78.698233097666119, 36.510811359426945 ], [ -78.698208960260018, 36.510755143562982 ], [ -78.698177836100754, 36.510707333634059 ], [ -78.698150190066286, 36.510659532233291 ], [ -78.69812939446021, 36.510639827310754 ], [ -78.698157220270531, 36.510639895613345 ] ] } },
{ "type": "Feature", "properties": { "FEEDER_NAME": "Cornwall", "SUBSTATION_NAME": "Jonathan's X Rd.", "wmType": "PRIMARY UNDERGROUND", "WKT": "LINESTRING (-78.66041201657386 36.50899399882661, -78.66045198203156 36.50906981263163)" }, "geometry": { "type": "LineString", "coordinates": [ [ -78.660412016573858, 36.508993998826611 ], [ -78.66045198203156, 36.50906981263163 ] ] } },
{ "type": "Feature", "properties": { "FEEDER_NAME": "Cornwall", "SUBSTATION_NAME": "Jonathan's X Rd.", "wmType": "PRIMARY UNDERGROUND", "WKT": "LINESTRING (-78.66045198203156 36.50906981263163, -78.66078041187399 36.509692830481484)" }, "geometry": { "type": "LineString", "coordinates": [ [ -78.66045198203156, 36.50906981263163 ], [ -78.660780411873986, 36.509692830481484 ] ] } },
{ "type": "Feature", "properties": { "FEEDER_NAME": "Cornwall", "SUBSTATION_NAME": "Jonathan's X Rd.", "wmType": "PRIMARY UNDERGROUND", "WKT": "LINESTRING (-78.65624695383924 36.4861373963503, -78.65630879754072 36.486071861340726)" }, "geometry": { "type": "LineString", "coordinates": [ [ -78.656246953839243, 36.486137396350301 ], [ -78.656308797540717, 36.486071861340726 ] ] } },
{ "type": "Feature", "properties": { "FEEDER_NAME": "Cornwall", "SUBSTATION_NAME": "Jonathan's X Rd.", "wmType": "PRIMARY UNDERGROUND", "WKT": "LINESTRING (-78.65630879754072 36.486071861340726, -78.65655496405834 36.4858110016219)" }, "geometry": { "type": "LineString", "coordinates": [ [ -78.656308797540717, 36.486071861340726 ], [ -78.656554964058344, 36.485811001621897 ] ] } },
{ "type": "Feature", "properties": { "FEEDER_NAME": "Cornwall", "SUBSTATION_NAME": "Jonathan's X Rd.", "wmType": "PRIMARY UNDERGROUND", "WKT": "LINESTRING (-78.66776581834547 36.48471041553445, -78.66780043688667 36.48473860990982, -78.66785134184293 36.48472709390032)" }, "geometry": { "type": "LineString", "coordinates": [ [ -78.667765818345472, 36.484710415534451 ], [ -78.667800436886665, 36.484738609909819 ], [ -78.667851341842933, 36.484727093900318 ] ] } },
{ "type": "Feature", "properties": { "FEEDER_NAME": "Cornwall", "SUBSTATION_NAME": "Jonathan's X Rd.", "wmType": "PRIMARY UNDERGROUND", "WKT": "LINESTRING (-78.66785134184293 36.48472709390032, -78.66794902365083 36.48470499589184, -78.66800908026845 36.48468336657878, -78.66834488674202 36.48468669418168, -78.66837180209876 36.484703715950815, -78.66850809451374 36.48483379280401)" }, "geometry": { "type": "LineString", "coordinates": [ [ -78.667851341842933, 36.484727093900318 ], [ -78.667949023650834, 36.484704995891839 ], [ -78.668009080268448, 36.484683366578778 ], [ -78.66834488674202, 36.484686694181683 ], [ -78.668371802098761, 36.484703715950815 ], [ -78.66850809451374, 36.484833792804011 ] ] } },
{ "type": "Feature", "properties": { "FEEDER_NAME": "Cornwall", "SUBSTATION_NAME": "Jonathan's X Rd.", "wmType": "PRIMARY UNDERGROUND", "WKT": "LINESTRING (-78.68954425456239 36.50399853309502, -78.68955702182915 36.50382018938348, -78.68959823779316 36.50338016624406)" }, "geometry": { "type": "LineString", "coordinates": [ [ -78.689544254562392, 36.503998533095022 ], [ -78.689557021829145, 36.503820189383482 ], [ -78.689598237793163, 36.503380166244057 ] ] } },
{ "type": "Feature", "properties": { "FEEDER_NAME": "Cornwall", "SUBSTATION_NAME": "Jonathan's X Rd.", "wmType": "PRIMARY UNDERGROUND", "WKT": "LINESTRING (-78.70424108719988 36.514122092078935, -78.70420884789213 36.5142002667522)" }, "geometry": { "type": "LineString", "coordinates": [ [ -78.704241087199875, 36.514122092078935 ], [ -78.704208847892133, 36.514200266752198 ] ] } },
{ "type": "Feature", "properties": { "FEEDER_NAME": "Cornwall", "SUBSTATION_NAME": "Jonathan's X Rd.", "wmType": "PRIMARY UNDERGROUND", "WKT": "LINESTRING (-78.70420884789213 36.5142002667522, -78.70415068113512 36.51434131239595, -78.70414227749673 36.514878970204336)" }, "geometry": { "type": "LineString", "coordinates": [ [ -78.704208847892133, 36.514200266752198 ], [ -78.704150681135118, 36.514341312395949 ], [ -78.704142277496729, 36.514878970204336 ] ] } },
{ "type": "Feature", "properties": { "FEEDER_NAME": "Cornwall", "SUBSTATION_NAME": "Jonathan's X Rd.", "wmType": "PRIMARY UNDERGROUND", "WKT": "LINESTRING (-78.668958849875 36.48317409933674, -78.66897723216813 36.483255144430004)" }, "geometry": { "type": "LineString", "coordinates": [ [ -78.668958849874997, 36.483174099336743 ], [ -78.668977232168132, 36.483255144430004 ] ] } },
{ "type": "Feature", "properties": { "FEEDER_NAME": "Cornwall", "SUBSTATION_NAME": "Jonathan's X Rd.", "wmType": "PRIMARY UNDERGROUND", "WKT": "LINESTRING (-78.66897723216813 36.483255144430004, -78.66899842873988 36.483348594047264, -78.66906371129164 36.48337842770343, -78.66915571136023 36.483443427293686, -78.66937571228306 36.48357042790716, -78.67034965596257 36.484359500900496, -78.67034871371722 36.484360429180896)" }, "geometry": { "type": "LineString", "coordinates": [ [ -78.668977232168132, 36.483255144430004 ], [ -78.668998428739883, 36.483348594047264 ], [ -78.669063711291642, 36.483378427703428 ], [ -78.669155711360233, 36.483443427293686 ], [ -78.669375712283056, 36.483570427907161 ], [ -78.670349655962568, 36.484359500900496 ], [ -78.670348713717217, 36.484360429180896 ] ] } },
{ "type": "Feature", "properties": { "FEEDER_NAME": "Cornwall", "SUBSTATION_NAME": "Jonathan's X Rd.", "wmType": "PRIMARY UNDERGROUND", "WKT": "LINESTRING (-78.66819266175128 36.507986050382705, -78.66816581558135 36.50806554155011)" }, "geometry": { "type": "LineString", "coordinates": [ [ -78.668192661751277, 36.507986050382705 ], [ -78.668165815581347, 36.50806554155011 ] ] } },
{ "type": "Feature", "properties": { "FEEDER_NAME": "Cornwall", "SUBSTATION_NAME": "Jonathan's X Rd.", "wmType": "PRIMARY UNDERGROUND", "WKT": "LINESTRING (-78.66816581558135 36.50806554155011, -78.6680419080448 36.50843242061714)" }, "geometry": { "type": "LineString", "coordinates": [ [ -78.668165815581347, 36.50806554155011 ], [ -78.668041908044799, 36.50843242061714 ] ] } },
{ "type": "Feature", "properties": { "FEEDER_NAME": "Cornwall", "SUBSTATION_NAME": "Jonathan's X Rd.", "wmType": "PRIMARY UNDERGROUND", "WKT": "LINESTRING (-78.68953836647147 36.504080788746094, -78.68954425456239 36.50399853309502)" }, "geometry": { "type": "LineString", "coordinates": [ [ -78.689538366471467, 36.504080788746094 ], [ -78.689544254562392, 36.503998533095022 ] ] } }
]
}
