{
"type": "FeatureCollection",
"name": "Jonathan_s_X_Rd_Grassy_Creek_underground",
"crs": { "type": "name", "properties": { "name": "urn:ogc:def:crs:OGC:1.3:CRS84" } },
"features": [
{ "type": "Feature", "properties": { "FEEDER_NAME": "Grassy Creek", "SUBSTATION_NAME": "Jonathan's X Rd.", "wmType": "PRIMARY UNDERGROUND", "WKT": "LINESTRING (-78.5840175278171 36.52682850414901, -78.5849115250316 36.52730581820433)" }, "geometry": { "type": "LineString", "coordinates": [ [ -78.584017527817096, 36.526828504149009 ], [ -78.5849115250316, 36.527305818204333 ] ] } },
{ "type": "Feature", "properties": { "FEEDER_NAME": "Grassy Creek", "SUBSTATION_NAME": "Jonathan's X Rd.", "wmType": "PRIMARY UNDERGROUND", "WKT": "LINESTRING (-78.60800818536477 36.53035692169453, -78.60758386985255 36.53039426348621, -78.60751370489685 36.5303790272129)" }, "geometry": { "type": "LineString", "coordinates": [ [ -78.608008185364767, 36.530356921694533 ], [ -78.607583869852547, 36.530394263486208 ], [ -78.607513704896846, 36.530379027212902 ] ] } },
{ "type": "Feature", "properties": { "FEEDER_NAME": "Grassy Creek", "SUBSTATION_NAME": "Jonathan's X Rd.", "wmType": "PRIMARY UNDERGROUND", "WKT": "LINESTRING (-78.6551126065281 36.524093925075505, -78.65449244502682 36.524883343612714)" }, "geometry": { "type": "LineString", "coordinates": [ [ -78.655112606528107, 36.524093925075505 ], [ -78.654492445026818, 36.524883343612714 ] ] } },
{ "type": "Feature", "properties": { "FEEDER_NAME": "Grassy Creek", "SUBSTATION_NAME": "Jonathan's X Rd.", "wmType": "PRIMARY UNDERGROUND", "WKT": "LINESTRING (-78.61270358888777 36.513965481757104, -78.61271525827368 36.51402276458582, -78.6129592100005 36.514291496697254, -78.61323306763289 36.51472247774938)" }, "geometry": { "type": "LineString", "coordinates": [ [ -78.612703588887769, 36.513965481757104 ], [ -78.612715258273681, 36.514022764585818 ], [ -78.612959210000497, 36.514291496697254 ], [ -78.613233067632891, 36.51472247774938 ] ] } },
{ "type": "Feature", "properties": { "FEEDER_NAME": "Grassy Creek", "SUBSTATION_NAME": "Jonathan's X Rd.", "wmType": "PRIMARY UNDERGROUND", "WKT": "LINESTRING (-78.59614649817381 36.483205771794346, -78.59608217037477 36.483979074439475)" }, "geometry": { "type": "LineString", "coordinates": [ [ -78.596146498173809, 36.483205771794346 ], [ -78.596082170374771, 36.483979074439475 ] ] } },
{ "type": "Feature", "properties": { "FEEDER_NAME": "Grassy Creek", "SUBSTATION_NAME": "Jonathan's X Rd.", "wmType": "PRIMARY UNDERGROUND", "WKT": "LINESTRING (-78.61695507671935 36.51264337732649, -78.61744824036506 36.51303563340976)" }, "geometry": { "type": "LineString", "coordinates": [ [ -78.61695507671935, 36.512643377326491 ], [ -78.617448240365064, 36.513035633409757 ] ] } },
{ "type": "Feature", "properties": { "FEEDER_NAME": "Grassy Creek", "SUBSTATION_NAME": "Jonathan's X Rd.", "wmType": "PRIMARY UNDERGROUND", "WKT": "LINESTRING (-78.60893033787404 36.53012038373644, -78.60914817894177 36.52976776227569)" }, "geometry": { "type": "LineString", "coordinates": [ [ -78.608930337874042, 36.530120383736438 ], [ -78.609148178941766, 36.529767762275689 ] ] } },
{ "type": "Feature", "properties": { "FEEDER_NAME": "Grassy Creek", "SUBSTATION_NAME": "Jonathan's X Rd.", "wmType": "PRIMARY UNDERGROUND", "WKT": "LINESTRING (-78.65822838476987 36.52357404795644, -78.6581108843759 36.523530590705946, -78.65803136104785 36.52340460158933, -78.65795597531779 36.52331600679759, -78.65783433056777 36.523213666561105, -78.65782182925648 36.523159290184395, -78.65784768770587 36.52303025385371, -78.65785188425376 36.523016647914645, -78.65788629420254 36.52286040012571, -78.65791621954871 36.522748332891275, -78.65793770734717 36.522673625069324, -78.65798611144807 36.522620007354384)" }, "geometry": { "type": "LineString", "coordinates": [ [ -78.65822838476987, 36.523574047956437 ], [ -78.658110884375901, 36.523530590705946 ], [ -78.658031361047847, 36.523404601589327 ], [ -78.65795597531779, 36.523316006797593 ], [ -78.657834330567766, 36.523213666561105 ], [ -78.657821829256477, 36.523159290184395 ], [ -78.657847687705868, 36.523030253853712 ], [ -78.657851884253759, 36.523016647914645 ], [ -78.657886294202541, 36.522860400125708 ], [ -78.65791621954871, 36.522748332891275 ], [ -78.657937707347173, 36.522673625069324 ], [ -78.657986111448068, 36.522620007354384 ] ] } },
{ "type": "Feature", "properties": { "FEEDER_NAME": "Grassy Creek", "SUBSTATION_NAME": "Jonathan's X Rd.", "wmType": "PRIMARY UNDERGROUND", "WKT": "LINESTRING (-78.60037762504916 36.48226905088957, -78.59979825470559 36.48227889716342, -78.59972650822229 36.482276938006905, -78.59962545739683 36.48231822508184, -78.59829881441617 36.4825688382436)" }, "geometry": { "type": "LineString", "coordinates": [ [ -78.600377625049163, 36.48226905088957 ], [ -78.59979825470559, 36.482278897163418 ], [ -78.59972650822229, 36.482276938006905 ], [ -78.599625457396826, 36.482318225081841 ], [ -78.598298814416168, 36.482568838243601 ] ] } },
{ "type": "Feature", "properties": { "FEEDER_NAME": "Grassy Creek", "SUBSTATION_NAME": "Jonathan's X Rd.", "wmType": "PRIMARY UNDERGROUND", "WKT": "LINESTRING (-78.59829881441617 36.4825688382436, -78.59725164618986 36.48255178131671, -78.59696821399946 36.482527406410064, -78.59679223473367 36.48254009494726, -78.59668120377195 36.48257905453152, -78.59645855018906 36.48268755214087)" }, "geometry": { "type": "LineString", "coordinates": [ [ -78.598298814416168, 36.482568838243601 ], [ -78.597251646189861, 36.482551781316708 ], [ -78.59696821399946, 36.482527406410064 ], [ -78.59679223473367, 36.482540094947261 ], [ -78.596681203771951, 36.48257905453152 ], [ -78.596458550189055, 36.482687552140867 ] ] } },
{ "type": "Feature", "properties": { "FEEDER_NAME": "Grassy Creek", "SUBSTATION_NAME": "Jonathan's X Rd.", "wmType": "PRIMARY UNDERGROUND", "WKT": "LINESTRING (-78.59645855018906 36.48268755214087, -78.59640418199353 36.48272889699276, -78.59631498382372 36.482796475781164, -78.59626920597219 36.48283898413537, -78.59621609807604 36.482895026869954, -78.59619915079755 36.4829260483762, -78.59618926664639 36.4829783494391, -78.5961694872261 36.48308492938097, -78.59614649817381 36.483205771794346)" }, "geometry": { "type": "LineString", "coordinates": [ [ -78.596458550189055, 36.482687552140867 ], [ -78.596404181993535, 36.482728896992761 ], [ -78.596314983823717, 36.482796475781164 ], [ -78.596269205972192, 36.48283898413537 ], [ -78.596216098076042, 36.482895026869954 ], [ -78.596199150797545, 36.4829260483762 ], [ -78.596189266646391, 36.482978349439101 ], [ -78.596169487226106, 36.483084929380972 ], [ -78.596146498173809, 36.483205771794346 ] ] } },
{ "type": "Feature", "properties": { "FEEDER_NAME": "Grassy Creek", "SUBSTATION_NAME": "Jonathan's X Rd.", "wmType": "PRIMARY UNDERGROUND", "WKT": "LINESTRING (-78.61695507671935 36.51264337732649, -78.61694406347036 36.51269716600856, -78.61682805297747 36.51284803390773, -78.6167539044116 36.512908876658344, -78.61659665572292 36.513018900535684, -78.61647743759553 36.51308687324172, -78.61622999823062 36.51327384782593)" }, "geometry": { "type": "LineString", "coordinates": [ [ -78.61695507671935, 36.512643377326491 ], [ -78.616944063470356, 36.512697166008557 ], [ -78.616828052977468, 36.51284803390773 ], [ -78.616753904411595, 36.512908876658344 ], [ -78.616596655722915, 36.513018900535684 ], [ -78.616477437595535, 36.513086873241718 ], [ -78.616229998230622, 36.513273847825928 ] ] } },
{ "type": "Feature", "properties": { "FEEDER_NAME": "Grassy Creek", "SUBSTATION_NAME": "Jonathan's X Rd.", "wmType": "PRIMARY UNDERGROUND", "WKT": "LINESTRING (-78.61622999823062 36.51327384782593, -78.61612542132436 36.513159368039794, -78.61594150599274 36.51319514704553, -78.61567657021736 36.513221947644574, -78.61534702164876 36.513199105371, -78.61509137083449 36.513167768572096, -78.61496355654222 36.51314991854311, -78.61492903010033 36.51321233854685, -78.61487412383926 36.51328481631623)" }, "geometry": { "type": "LineString", "coordinates": [ [ -78.616229998230622, 36.513273847825928 ], [ -78.616125421324355, 36.513159368039794 ], [ -78.615941505992737, 36.513195147045529 ], [ -78.61567657021736, 36.513221947644574 ], [ -78.615347021648759, 36.513199105371001 ], [ -78.615091370834492, 36.513167768572096 ], [ -78.614963556542222, 36.513149918543107 ], [ -78.614929030100328, 36.51321233854685 ], [ -78.614874123839257, 36.513284816316229 ] ] } },
{ "type": "Feature", "properties": { "FEEDER_NAME": "Grassy Creek", "SUBSTATION_NAME": "Jonathan's X Rd.", "wmType": "PRIMARY UNDERGROUND", "WKT": "LINESTRING (-78.61487412383926 36.51328481631623, -78.61494915294307 36.513148420036565, -78.61461061198222 36.51312263901134, -78.61446287755076 36.51312653797683, -78.61428260563291 36.51315360187005, -78.61410593091557 36.51318213019545, -78.6139545090791 36.5132034668947, -78.61382652680089 36.51322051408536, -78.61371116046871 36.51323614736321, -78.61360843336584 36.51324600390762, -78.61361959090722 36.51333848043898)" }, "geometry": { "type": "LineString", "coordinates": [ [ -78.614874123839257, 36.513284816316229 ], [ -78.614949152943069, 36.513148420036565 ], [ -78.614610611982215, 36.513122639011343 ], [ -78.614462877550764, 36.513126537976831 ], [ -78.614282605632908, 36.513153601870052 ], [ -78.614105930915571, 36.513182130195453 ], [ -78.613954509079093, 36.513203466894701 ], [ -78.613826526800892, 36.513220514085361 ], [ -78.613711160468711, 36.513236147363209 ], [ -78.61360843336584, 36.513246003907618 ], [ -78.61361959090722, 36.513338480438982 ] ] } },
{ "type": "Feature", "properties": { "FEEDER_NAME": "Grassy Creek", "SUBSTATION_NAME": "Jonathan's X Rd.", "wmType": "PRIMARY UNDERGROUND", "WKT": "LINESTRING (-78.61361959090722 36.51333848043898, -78.61359223407165 36.5132430443894, -78.61340844368928 36.51325264603101, -78.6133183185126 36.51326399535661, -78.61322446376434 36.51330150775832, -78.61312334043754 36.51335208420688, -78.61307090395059 36.51339263540063, -78.61302023391166 36.51344046187579, -78.61297316591047 36.51348830056619, -78.6129279556579 36.51352451150946, -78.61285752055647 36.51348856099529)" }, "geometry": { "type": "LineString", "coordinates": [ [ -78.61361959090722, 36.513338480438982 ], [ -78.613592234071646, 36.513243044389398 ], [ -78.613408443689281, 36.513252646031013 ], [ -78.613318318512597, 36.51326399535661 ], [ -78.61322446376434, 36.513301507758321 ], [ -78.613123340437539, 36.513352084206879 ], [ -78.613070903950586, 36.513392635400628 ], [ -78.613020233911655, 36.513440461875788 ], [ -78.612973165910475, 36.513488300566188 ], [ -78.612927955657895, 36.513524511509459 ], [ -78.612857520556474, 36.513488560995292 ] ] } },
{ "type": "Feature", "properties": { "FEEDER_NAME": "Grassy Creek", "SUBSTATION_NAME": "Jonathan's X Rd.", "wmType": "PRIMARY UNDERGROUND", "WKT": "LINESTRING (-78.61270358888777 36.513965481757104, -78.6126556799994 36.51395116892409, -78.61255772171258 36.5140919112168, -78.6124382524111 36.51421077370055, -78.6122412735291 36.51433957095638, -78.61224358789977 36.51438148289472)" }, "geometry": { "type": "LineString", "coordinates": [ [ -78.612703588887769, 36.513965481757104 ], [ -78.612655679999406, 36.513951168924088 ], [ -78.612557721712577, 36.514091911216802 ], [ -78.612438252411096, 36.514210773700547 ], [ -78.612241273529094, 36.51433957095638 ], [ -78.612243587899769, 36.51438148289472 ] ] } },
{ "type": "Feature", "properties": { "FEEDER_NAME": "Grassy Creek", "SUBSTATION_NAME": "Jonathan's X Rd.", "wmType": "PRIMARY UNDERGROUND", "WKT": "LINESTRING (-78.61705009965583 36.51216071522174, -78.61711396762361 36.51220038140893, -78.61694870929809 36.512479060098364, -78.61691019917595 36.512621445410375, -78.61693297494507 36.512673296643364, -78.6168314097523 36.51281693979586, -78.616708423122 36.51291979992085, -78.61657649079868 36.51300954504136, -78.61637596704875 36.51312815865641, -78.6162294481972 36.51325421112806)" }, "geometry": { "type": "LineString", "coordinates": [ [ -78.617050099655827, 36.512160715221739 ], [ -78.617113967623609, 36.512200381408931 ], [ -78.616948709298086, 36.512479060098364 ], [ -78.616910199175948, 36.512621445410375 ], [ -78.616932974945072, 36.512673296643364 ], [ -78.616831409752294, 36.512816939795862 ], [ -78.616708423122006, 36.512919799920851 ], [ -78.616576490798678, 36.513009545041363 ], [ -78.616375967048754, 36.513128158656407 ], [ -78.616229448197203, 36.513254211128057 ] ] } },
{ "type": "Feature", "properties": { "FEEDER_NAME": "Grassy Creek", "SUBSTATION_NAME": "Jonathan's X Rd.", "wmType": "PRIMARY UNDERGROUND", "WKT": "LINESTRING (-78.60914817894177 36.52976776227569, -78.60933130728579 36.52947571412658, -78.60934623170205 36.52942250218365, -78.60931603262436 36.52935508151187, -78.60929920600222 36.52929216351083, -78.60933079188686 36.529228582924716, -78.60938546573897 36.52918437527167)" }, "geometry": { "type": "LineString", "coordinates": [ [ -78.609148178941766, 36.529767762275689 ], [ -78.609331307285785, 36.529475714126583 ], [ -78.609346231702048, 36.52942250218365 ], [ -78.609316032624363, 36.529355081511873 ], [ -78.60929920600222, 36.529292163510831 ], [ -78.609330791886862, 36.529228582924716 ], [ -78.609385465738967, 36.529184375271669 ] ] } },
{ "type": "Feature", "properties": { "FEEDER_NAME": "Grassy Creek", "SUBSTATION_NAME": "Jonathan's X Rd.", "wmType": "PRIMARY UNDERGROUND", "WKT": "LINESTRING (-78.60893033787404 36.53012038373644, -78.60883481656606 36.53030473238521, -78.60879917085033 36.53033504661265, -78.6086525787812 36.53032274410335, -78.60846280858816 36.530319836204136, -78.60807994538483 36.53035308391548, -78.60800818536477 36.53035692169453)" }, "geometry": { "type": "LineString", "coordinates": [ [ -78.608930337874042, 36.530120383736438 ], [ -78.608834816566059, 36.530304732385211 ], [ -78.608799170850332, 36.530335046612649 ], [ -78.608652578781204, 36.530322744103351 ], [ -78.608462808588158, 36.530319836204136 ], [ -78.60807994538483, 36.530353083915479 ], [ -78.608008185364767, 36.530356921694533 ] ] } },
{ "type": "Feature", "properties": { "FEEDER_NAME": "Grassy Creek", "SUBSTATION_NAME": "Jonathan's X Rd.", "wmType": "PRIMARY UNDERGROUND", "WKT": "LINESTRING (-78.60751370489685 36.5303790272129, -78.60746215791767 36.5303632412047, -78.60740622937045 36.53036145073052, -78.60734825603875 36.53036932828781, -78.60730918261798 36.53039338685933, -78.60729868074257 36.53042280147865)" }, "geometry": { "type": "LineString", "coordinates": [ [ -78.607513704896846, 36.530379027212902 ], [ -78.607462157917666, 36.530363241204697 ], [ -78.607406229370454, 36.530361450730517 ], [ -78.607348256038748, 36.530369328287811 ], [ -78.607309182617982, 36.53039338685933 ], [ -78.607298680742574, 36.53042280147865 ] ] } },
{ "type": "Feature", "properties": { "FEEDER_NAME": "Grassy Creek", "SUBSTATION_NAME": "Jonathan's X Rd.", "wmType": "PRIMARY UNDERGROUND", "WKT": "LINESTRING (-78.60729868074257 36.53042280147865, -78.60727201565413 36.53043599333118, -78.6072518438156 36.5304754291954, -78.60724967650653 36.530510086604366, -78.60725747348903 36.53054961086701, -78.60727137693294 36.53057221036363)" }, "geometry": { "type": "LineString", "coordinates": [ [ -78.607298680742574, 36.53042280147865 ], [ -78.607272015654132, 36.530435993331182 ], [ -78.607251843815604, 36.530475429195398 ], [ -78.607249676506527, 36.530510086604366 ], [ -78.607257473489028, 36.530549610867013 ], [ -78.607271376932943, 36.53057221036363 ] ] } },
{ "type": "Feature", "properties": { "FEEDER_NAME": "Grassy Creek", "SUBSTATION_NAME": "Jonathan's X Rd.", "wmType": "PRIMARY UNDERGROUND", "WKT": "LINESTRING (-78.6084534341045 36.530492628827254, -78.6084415850397 36.53037469851228, -78.60819029961984 36.530389327039934, -78.60794090855778 36.53040628490273, -78.60772813559797 36.530432236196944, -78.60756312627493 36.530437627060905, -78.60748192676562 36.53040603032389, -78.60740806589129 36.53039450894306, -78.60734407053633 36.530408008757746, -78.60730293649846 36.530444959292936, -78.60727879362959 36.5304795465434, -78.60727261071264 36.53051822063144, -78.60727744269218 36.53055128750597, -78.60728443897305 36.53057604639234)" }, "geometry": { "type": "LineString", "coordinates": [ [ -78.608453434104504, 36.530492628827254 ], [ -78.608441585039699, 36.530374698512283 ], [ -78.608190299619835, 36.530389327039934 ], [ -78.607940908557779, 36.530406284902732 ], [ -78.607728135597966, 36.530432236196944 ], [ -78.607563126274925, 36.530437627060905 ], [ -78.607481926765615, 36.530406030323888 ], [ -78.607408065891292, 36.530394508943061 ], [ -78.607344070536328, 36.530408008757746 ], [ -78.607302936498456, 36.530444959292936 ], [ -78.60727879362959, 36.530479546543397 ], [ -78.607272610712641, 36.530518220631443 ], [ -78.60727744269218, 36.530551287505972 ], [ -78.607284438973053, 36.530576046392341 ] ] } },
{ "type": "Feature", "properties": { "FEEDER_NAME": "Grassy Creek", "SUBSTATION_NAME": "Jonathan's X Rd.", "wmType": "PRIMARY UNDERGROUND", "WKT": "LINESTRING (-78.60728443897305 36.53057604639234, -78.60730516148534 36.53060216283188, -78.60734999627283 36.53062568372283, -78.60740687289427 36.530637957369805, -78.60746082683873 36.530634904700605, -78.60751086612436 36.530615717014385, -78.6075629569284 36.53058525019118, -78.60765600117271 36.530576569835674)" }, "geometry": { "type": "LineString", "coordinates": [ [ -78.607284438973053, 36.530576046392341 ], [ -78.607305161485343, 36.530602162831883 ], [ -78.607349996272831, 36.530625683722832 ], [ -78.607406872894273, 36.530637957369805 ], [ -78.607460826838732, 36.530634904700605 ], [ -78.607510866124358, 36.530615717014385 ], [ -78.607562956928405, 36.53058525019118 ], [ -78.607656001172714, 36.530576569835674 ] ] } },
{ "type": "Feature", "properties": { "FEEDER_NAME": "Grassy Creek", "SUBSTATION_NAME": "Jonathan's X Rd.", "wmType": "PRIMARY UNDERGROUND", "WKT": "LINESTRING (-78.60765600117271 36.530576569835674, -78.60815279748519 36.530560819925576, -78.6081671451559 36.530625959343865, -78.60818879469868 36.53069704101947, -78.60839251409026 36.53102316278012, -78.60855695740136 36.531205598391715, -78.60874284353925 36.531358625907615, -78.60859681544595 36.53145103620494)" }, "geometry": { "type": "LineString", "coordinates": [ [ -78.607656001172714, 36.530576569835674 ], [ -78.608152797485189, 36.530560819925576 ], [ -78.608167145155903, 36.530625959343865 ], [ -78.608188794698677, 36.530697041019472 ], [ -78.608392514090255, 36.531023162780123 ], [ -78.608556957401362, 36.531205598391715 ], [ -78.608742843539247, 36.531358625907615 ], [ -78.608596815445949, 36.531451036204942 ] ] } },
{ "type": "Feature", "properties": { "FEEDER_NAME": "Grassy Creek", "SUBSTATION_NAME": "Jonathan's X Rd.", "wmType": "PRIMARY UNDERGROUND", "WKT": "LINESTRING (-78.60859681544595 36.53145103620494, -78.60876471052882 36.53138532600445, -78.60908237836425 36.53165263057861, -78.60912608611682 36.53171194594859, -78.60913305722477 36.531785939816174, -78.6090897364611 36.53183196115077, -78.60907346824106 36.531914235698125)" }, "geometry": { "type": "LineString", "coordinates": [ [ -78.608596815445949, 36.531451036204942 ], [ -78.608764710528817, 36.531385326004447 ], [ -78.609082378364249, 36.531652630578613 ], [ -78.609126086116817, 36.531711945948587 ], [ -78.609133057224767, 36.531785939816174 ], [ -78.609089736461101, 36.531831961150772 ], [ -78.609073468241064, 36.531914235698125 ] ] } },
{ "type": "Feature", "properties": { "FEEDER_NAME": "Grassy Creek", "SUBSTATION_NAME": "Jonathan's X Rd.", "wmType": "PRIMARY UNDERGROUND", "WKT": "LINESTRING (-78.61893188028382 36.533536857058785, -78.61867472949073 36.53357168584554, -78.6185525974163 36.53316363745062, -78.618447827798 36.53283193273968, -78.61837959267363 36.53262399224266, -78.61833531710916 36.53249225660026, -78.61825867433915 36.532209748775294, -78.61822890591694 36.532009398094026, -78.61817238784597 36.53196726348527, -78.61814887313854 36.53194239720535, -78.61811361530862 36.53190223518531, -78.61810676193896 36.53185262643373, -78.61811412442061 36.53179543262635, -78.61814813227443 36.53173849904184, -78.6182043466083 36.531707980172094, -78.61801860962966 36.53162907886615)" }, "geometry": { "type": "LineString", "coordinates": [ [ -78.618931880283824, 36.533536857058785 ], [ -78.618674729490735, 36.533571685845537 ], [ -78.618552597416297, 36.53316363745062 ], [ -78.618447827797993, 36.532831932739683 ], [ -78.618379592673634, 36.532623992242662 ], [ -78.618335317109157, 36.532492256600257 ], [ -78.618258674339145, 36.532209748775294 ], [ -78.618228905916936, 36.532009398094026 ], [ -78.618172387845974, 36.531967263485271 ], [ -78.618148873138537, 36.531942397205349 ], [ -78.618113615308616, 36.531902235185314 ], [ -78.618106761938961, 36.531852626433732 ], [ -78.618114124420615, 36.531795432626353 ], [ -78.618148132274428, 36.531738499041843 ], [ -78.618204346608294, 36.531707980172094 ], [ -78.618018609629658, 36.531629078866153 ] ] } },
{ "type": "Feature", "properties": { "FEEDER_NAME": "Grassy Creek", "SUBSTATION_NAME": "Jonathan's X Rd.", "wmType": "PRIMARY UNDERGROUND", "WKT": "LINESTRING (-78.61801860962966 36.53162907886615, -78.61814291063205 36.53170588194599, -78.6180882836543 36.53176292902047, -78.61805722466974 36.531833400106606, -78.6180734586317 36.53189829636528, -78.61809920852178 36.53194987130929, -78.61813682999346 36.53199003976897, -78.61818618558792 36.532047409636654, -78.61819994699891 36.53213518485771, -78.61821834481113 36.53224204698059, -78.61825081207152 36.5323718394178, -78.61828335213872 36.53248637369039, -78.61754434710261 36.53261415010793)" }, "geometry": { "type": "LineString", "coordinates": [ [ -78.618018609629658, 36.531629078866153 ], [ -78.618142910632045, 36.531705881945989 ], [ -78.618088283654302, 36.531762929020474 ], [ -78.618057224669741, 36.531833400106606 ], [ -78.618073458631699, 36.531898296365277 ], [ -78.618099208521784, 36.531949871309287 ], [ -78.61813682999346, 36.531990039768971 ], [ -78.618186185587916, 36.532047409636654 ], [ -78.618199946998914, 36.532135184857708 ], [ -78.618218344811126, 36.532242046980592 ], [ -78.618250812071523, 36.532371839417799 ], [ -78.618283352138718, 36.532486373690389 ], [ -78.617544347102609, 36.532614150107932 ] ] } },
{ "type": "Feature", "properties": { "FEEDER_NAME": "Grassy Creek", "SUBSTATION_NAME": "Jonathan's X Rd.", "wmType": "PRIMARY UNDERGROUND", "WKT": "LINESTRING (-78.61754434710261 36.53261415010793, -78.61829832141252 36.532505571047814, -78.61848576036024 36.53315834465192, -78.61756180750066 36.533304065751395)" }, "geometry": { "type": "LineString", "coordinates": [ [ -78.617544347102609, 36.532614150107932 ], [ -78.618298321412524, 36.532505571047814 ], [ -78.618485760360244, 36.533158344651923 ], [ -78.617561807500664, 36.533304065751395 ] ] } },
{ "type": "Feature", "properties": { "FEEDER_NAME": "Grassy Creek", "SUBSTATION_NAME": "Jonathan's X Rd.", "wmType": "PRIMARY UNDERGROUND", "WKT": "LINESTRING (-78.61756180750066 36.533304065751395, -78.61762609946771 36.53330292936313)" }, "geometry": { "type": "LineString", "coordinates": [ [ -78.617561807500664, 36.533304065751395 ], [ -78.617626099467714, 36.533302929363131 ] ] } },
{ "type": "Feature", "properties": { "FEEDER_NAME": "Grassy Creek", "SUBSTATION_NAME": "Jonathan's X Rd.", "wmType": "PRIMARY UNDERGROUND", "WKT": "LINESTRING (-78.61814896323204 36.53404482201152, -78.61873958328374 36.53386052255867, -78.6186886034829 36.5337600669943, -78.61862730500899 36.53360491547743, -78.6185807647146 36.53345219295231, -78.61849637835795 36.53318253561201, -78.61762609946771 36.53330292936313)" }, "geometry": { "type": "LineString", "coordinates": [ [ -78.618148963232045, 36.534044822011523 ], [ -78.618739583283741, 36.533860522558669 ], [ -78.618688603482894, 36.533760066994297 ], [ -78.618627305008985, 36.533604915477433 ], [ -78.618580764714594, 36.533452192952311 ], [ -78.618496378357946, 36.533182535612013 ], [ -78.617626099467714, 36.533302929363131 ] ] } },
{ "type": "Feature", "properties": { "FEEDER_NAME": "Grassy Creek", "SUBSTATION_NAME": "Jonathan's X Rd.", "wmType": "PRIMARY UNDERGROUND", "WKT": "LINESTRING (-78.61285752055647 36.51348856099529, -78.61291502733334 36.51353695769535, -78.61282487214659 36.51365239241429, -78.61274085881605 36.51375549107914, -78.6127087268544 36.513799462493225, -78.61267861084417 36.51384158226342, -78.61263769170772 36.51389823271594, -78.61270358888777 36.513965481757104)" }, "geometry": { "type": "LineString", "coordinates": [ [ -78.612857520556474, 36.513488560995292 ], [ -78.612915027333344, 36.513536957695351 ], [ -78.612824872146589, 36.513652392414294 ], [ -78.612740858816053, 36.513755491079138 ], [ -78.612708726854393, 36.513799462493225 ], [ -78.612678610844171, 36.513841582263417 ], [ -78.612637691707718, 36.513898232715938 ], [ -78.612703588887769, 36.513965481757104 ] ] } },
{ "type": "Feature", "properties": { "FEEDER_NAME": "Grassy Creek", "SUBSTATION_NAME": "Jonathan's X Rd.", "wmType": "PRIMARY UNDERGROUND", "WKT": "LINESTRING (-78.64463097548756 36.52871261548695, -78.6453618737519 36.528786491839114)" }, "geometry": { "type": "LineString", "coordinates": [ [ -78.644630975487559, 36.528712615486953 ], [ -78.645361873751895, 36.528786491839114 ] ] } },
{ "type": "Feature", "properties": { "FEEDER_NAME": "Grassy Creek", "SUBSTATION_NAME": "Jonathan's X Rd.", "wmType": "PRIMARY UNDERGROUND", "WKT": "LINESTRING (-78.57192650789419 36.49896444705443, -78.57193135508315 36.498896714430536, -78.57120273985744 36.497395223964254, -78.57102550674564 36.49711044285791)" }, "geometry": { "type": "LineString", "coordinates": [ [ -78.57192650789419, 36.498964447054433 ], [ -78.571931355083152, 36.498896714430536 ], [ -78.571202739857441, 36.497395223964254 ], [ -78.571025506745642, 36.49711044285791 ] ] } },
{ "type": "Feature", "properties": { "FEEDER_NAME": "Grassy Creek", "SUBSTATION_NAME": "Jonathan's X Rd.", "wmType": "PRIMARY UNDERGROUND", "WKT": "LINESTRING (-78.62387365274081 36.52466916437752, -78.62414171526675 36.52491715082626, -78.62438849232485 36.5258679631168, -78.62442361160207 36.525968507088095)" }, "geometry": { "type": "LineString", "coordinates": [ [ -78.623873652740812, 36.524669164377521 ], [ -78.624141715266745, 36.524917150826262 ], [ -78.624388492324854, 36.525867963116802 ], [ -78.624423611602069, 36.525968507088095 ] ] } },
{ "type": "Feature", "properties": { "FEEDER_NAME": "Grassy Creek", "SUBSTATION_NAME": "Jonathan's X Rd.", "wmType": "PRIMARY UNDERGROUND", "WKT": "LINESTRING (-78.60978658745067 36.491573436894036, -78.60973039595972 36.49156473260623, -78.60949227366598 36.49156946940373, -78.60686627990843 36.49158856493502, -78.60673019834269 36.49159362263657, -78.60663419623307 36.4915916133853, -78.60654706727527 36.49155159287149, -78.60648567643862 36.49151593926948, -78.60641073858153 36.4915376710851, -78.60635599306404 36.49160341090681, -78.60601450651829 36.49187696415936, -78.60599964554297 36.49200292398767, -78.60599211371527 36.492015458064266, -78.60598657997217 36.49202243713912)" }, "geometry": { "type": "LineString", "coordinates": [ [ -78.609786587450671, 36.491573436894036 ], [ -78.609730395959716, 36.491564732606228 ], [ -78.609492273665978, 36.491569469403728 ], [ -78.606866279908431, 36.491588564935022 ], [ -78.606730198342689, 36.491593622636572 ], [ -78.606634196233074, 36.491591613385303 ], [ -78.606547067275272, 36.491551592871488 ], [ -78.606485676438623, 36.491515939269483 ], [ -78.60641073858153, 36.491537671085098 ], [ -78.606355993064042, 36.491603410906812 ], [ -78.606014506518292, 36.49187696415936 ], [ -78.605999645542965, 36.49200292398767 ], [ -78.605992113715274, 36.492015458064266 ], [ -78.605986579972168, 36.49202243713912 ] ] } },
{ "type": "Feature", "properties": { "FEEDER_NAME": "Grassy Creek", "SUBSTATION_NAME": "Jonathan's X Rd.", "wmType": "PRIMARY UNDERGROUND", "WKT": "LINESTRING (-78.58237212145129 36.52685580783468, -78.58244337447411 36.52679680456515)" }, "geometry": { "type": "LineString", "coordinates": [ [ -78.582372121451286, 36.526855807834679 ], [ -78.58244337447411, 36.526796804565151 ] ] } },
{ "type": "Feature", "properties": { "FEEDER_NAME": "Grassy Creek", "SUBSTATION_NAME": "Jonathan's X Rd.", "wmType": "PRIMARY UNDERGROUND", "WKT": "LINESTRING (-78.58244337447411 36.52679680456515, -78.5825287891564 36.52672607434993, -78.58274908501367 36.526815328758225, -78.58304888963328 36.52689543630552, -78.58309950920645 36.52691023919709, -78.583141792596 36.526910824924784, -78.5832223715564 36.52692270446073, -78.58325117836884 36.52687220520538, -78.58337087094253 36.52693622687779, -78.58357266503272 36.526919237875234, -78.58362588279894 36.5268491628899, -78.5840175278171 36.52682850414901)" }, "geometry": { "type": "LineString", "coordinates": [ [ -78.58244337447411, 36.526796804565151 ], [ -78.582528789156399, 36.526726074349931 ], [ -78.582749085013674, 36.526815328758225 ], [ -78.583048889633275, 36.526895436305523 ], [ -78.583099509206448, 36.526910239197093 ], [ -78.583141792595995, 36.526910824924784 ], [ -78.583222371556403, 36.526922704460731 ], [ -78.58325117836884, 36.526872205205379 ], [ -78.583370870942531, 36.526936226877787 ], [ -78.583572665032719, 36.526919237875234 ], [ -78.583625882798941, 36.526849162889903 ], [ -78.584017527817096, 36.526828504149009 ] ] } },
{ "type": "Feature", "properties": { "FEEDER_NAME": "Grassy Creek", "SUBSTATION_NAME": "Jonathan's X Rd.", "wmType": "PRIMARY UNDERGROUND", "WKT": "LINESTRING (-78.58543140766403 36.46070539486388, -78.58533133751628 36.46072135699399)" }, "geometry": { "type": "LineString", "coordinates": [ [ -78.585431407664032, 36.460705394863879 ], [ -78.58533133751628, 36.460721356993993 ] ] } },
{ "type": "Feature", "properties": { "FEEDER_NAME": "Grassy Creek", "SUBSTATION_NAME": "Jonathan's X Rd.", "wmType": "PRIMARY UNDERGROUND", "WKT": "LINESTRING (-78.58533133751628 36.46072135699399, -78.58404795357966 36.4609260592536)" }, "geometry": { "type": "LineString", "coordinates": [ [ -78.58533133751628, 36.460721356993993 ], [ -78.584047953579656, 36.460926059253602 ] ] } },
{ "type": "Feature", "properties": { "FEEDER_NAME": "Grassy Creek", "SUBSTATION_NAME": "Jonathan's X Rd.", "wmType": "PRIMARY UNDERGROUND", "WKT": "LINESTRING (-78.63779805287496 36.52766535483093, -78.63789129096496 36.5276318011873)" }, "geometry": { "type": "LineString", "coordinates": [ [ -78.637798052874956, 36.52766535483093 ], [ -78.637891290964959, 36.527631801187297 ] ] } },
{ "type": "Feature", "properties": { "FEEDER_NAME": "Grassy Creek", "SUBSTATION_NAME": "Jonathan's X Rd.", "wmType": "PRIMARY UNDERGROUND", "WKT": "LINESTRING (-78.63789129096496 36.5276318011873, -78.6379280160863 36.52761858455272, -78.63786940805471 36.527200635933774, -78.63784718328702 36.52691850621609, -78.63783465537448 36.5267041992358, -78.63749183406281 36.526705879876644, -78.63727447505762 36.526718844055516, -78.63713590238767 36.526661218537406, -78.63702703023561 36.52656791956608, -78.63693357566983 36.526331624009224, -78.63686141782944 36.5262861655687)" }, "geometry": { "type": "LineString", "coordinates": [ [ -78.637891290964959, 36.527631801187297 ], [ -78.637928016086306, 36.527618584552719 ], [ -78.637869408054712, 36.527200635933774 ], [ -78.637847183287022, 36.526918506216091 ], [ -78.637834655374476, 36.526704199235802 ], [ -78.637491834062814, 36.526705879876644 ], [ -78.637274475057623, 36.526718844055516 ], [ -78.637135902387669, 36.526661218537406 ], [ -78.637027030235615, 36.526567919566077 ], [ -78.636933575669829, 36.526331624009224 ], [ -78.636861417829437, 36.526286165568699 ] ] } },
{ "type": "Feature", "properties": { "FEEDER_NAME": "Grassy Creek", "SUBSTATION_NAME": "Jonathan's X Rd.", "wmType": "PRIMARY UNDERGROUND", "WKT": "LINESTRING (-78.61624941585684 36.50827120994266, -78.6161528035318 36.50824464335894)" }, "geometry": { "type": "LineString", "coordinates": [ [ -78.616249415856842, 36.508271209942663 ], [ -78.616152803531804, 36.508244643358942 ] ] } },
{ "type": "Feature", "properties": { "FEEDER_NAME": "Grassy Creek", "SUBSTATION_NAME": "Jonathan's X Rd.", "wmType": "PRIMARY UNDERGROUND", "WKT": "LINESTRING (-78.6161528035318 36.50824464335894, -78.61569862391651 36.508119749608426)" }, "geometry": { "type": "LineString", "coordinates": [ [ -78.616152803531804, 36.508244643358942 ], [ -78.615698623916515, 36.508119749608426 ] ] } },
{ "type": "Feature", "properties": { "FEEDER_NAME": "Grassy Creek", "SUBSTATION_NAME": "Jonathan's X Rd.", "wmType": "PRIMARY UNDERGROUND", "WKT": "LINESTRING (-78.60230543946554 36.48216501756703, -78.60220363713812 36.48217051182313)" }, "geometry": { "type": "LineString", "coordinates": [ [ -78.602305439465539, 36.482165017567027 ], [ -78.602203637138118, 36.482170511823128 ] ] } },
{ "type": "Feature", "properties": { "FEEDER_NAME": "Grassy Creek", "SUBSTATION_NAME": "Jonathan's X Rd.", "wmType": "PRIMARY UNDERGROUND", "WKT": "LINESTRING (-78.60220363713812 36.48217051182313, -78.60037762504916 36.48226905088957)" }, "geometry": { "type": "LineString", "coordinates": [ [ -78.602203637138118, 36.482170511823128 ], [ -78.600377625049163, 36.48226905088957 ] ] } },
{ "type": "Feature", "properties": { "FEEDER_NAME": "Grassy Creek", "SUBSTATION_NAME": "Jonathan's X Rd.", "wmType": "PRIMARY UNDERGROUND", "WKT": "LINESTRING (-78.57259101393885 36.500580096782194, -78.57255934331927 36.50050177135547)" }, "geometry": { "type": "LineString", "coordinates": [ [ -78.572591013938847, 36.500580096782194 ], [ -78.57255934331927, 36.500501771355466 ] ] } },
{ "type": "Feature", "properties": { "FEEDER_NAME": "Grassy Creek", "SUBSTATION_NAME": "Jonathan's X Rd.", "wmType": "PRIMARY UNDERGROUND", "WKT": "LINESTRING (-78.57255934331927 36.50050177135547, -78.57241789974414 36.5001519619163, -78.57238567502661 36.499744339387064, -78.57197981897552 36.49899424444502, -78.57192650789419 36.49896444705443)" }, "geometry": { "type": "LineString", "coordinates": [ [ -78.57255934331927, 36.500501771355466 ], [ -78.572417899744138, 36.500151961916302 ], [ -78.572385675026609, 36.499744339387064 ], [ -78.571979818975521, 36.498994244445022 ], [ -78.57192650789419, 36.498964447054433 ] ] } },
{ "type": "Feature", "properties": { "FEEDER_NAME": "Grassy Creek", "SUBSTATION_NAME": "Jonathan's X Rd.", "wmType": "PRIMARY UNDERGROUND", "WKT": "LINESTRING (-78.6293133608488 36.53360761189764, -78.62930711292515 36.533689848889544)" }, "geometry": { "type": "LineString", "coordinates": [ [ -78.629313360848798, 36.533607611897637 ], [ -78.629307112925147, 36.533689848889544 ] ] } },
{ "type": "Feature", "properties": { "FEEDER_NAME": "Grassy Creek", "SUBSTATION_NAME": "Jonathan's X Rd.", "wmType": "PRIMARY UNDERGROUND", "WKT": "LINESTRING (-78.62930711292515 36.533689848889544, -78.62925848950758 36.53432978728232)" }, "geometry": { "type": "LineString", "coordinates": [ [ -78.629307112925147, 36.533689848889544 ], [ -78.629258489507578, 36.534329787282317 ] ] } },
{ "type": "Feature", "properties": { "FEEDER_NAME": "Grassy Creek", "SUBSTATION_NAME": "Jonathan's X Rd.", "wmType": "PRIMARY UNDERGROUND", "WKT": "LINESTRING (-78.63295400132408 36.53468799833827, -78.63304555907867 36.53465154118009)" }, "geometry": { "type": "LineString", "coordinates": [ [ -78.63295400132408, 36.534687998338271 ], [ -78.633045559078667, 36.534651541180089 ] ] } },
{ "type": "Feature", "properties": { "FEEDER_NAME": "Grassy Creek", "SUBSTATION_NAME": "Jonathan's X Rd.", "wmType": "PRIMARY UNDERGROUND", "WKT": "LINESTRING (-78.63304555907867 36.53465154118009, -78.6339396295929 36.534295524853604)" }, "geometry": { "type": "LineString", "coordinates": [ [ -78.633045559078667, 36.534651541180089 ], [ -78.633939629592902, 36.534295524853604 ] ] } },
{ "type": "Feature", "properties": { "FEEDER_NAME": "Grassy Creek", "SUBSTATION_NAME": "Jonathan's X Rd.", "wmType": "PRIMARY UNDERGROUND", "WKT": "LINESTRING (-78.58101691155625 36.53371970008479, -78.5809333522278 36.53376704135752)" }, "geometry": { "type": "LineString", "coordinates": [ [ -78.581016911556247, 36.533719700084788 ], [ -78.580933352227802, 36.533767041357521 ] ] } },
{ "type": "Feature", "properties": { "FEEDER_NAME": "Grassy Creek", "SUBSTATION_NAME": "Jonathan's X Rd.", "wmType": "PRIMARY UNDERGROUND", "WKT": "LINESTRING (-78.5809333522278 36.53376704135752, -78.58078865176661 36.5338490241412, -78.58054201240748 36.53364067239142, -78.58015563709736 36.53376841620223)" }, "geometry": { "type": "LineString", "coordinates": [ [ -78.580933352227802, 36.533767041357521 ], [ -78.580788651766611, 36.533849024141198 ], [ -78.580542012407477, 36.533640672391421 ], [ -78.580155637097363, 36.533768416202228 ] ] } },
{ "type": "Feature", "properties": { "FEEDER_NAME": "Grassy Creek", "SUBSTATION_NAME": "Jonathan's X Rd.", "wmType": "PRIMARY UNDERGROUND", "WKT": "LINESTRING (-78.66020527885976 36.535085791393996, -78.66020730527953 36.535091086136276, -78.66026992046777 36.535033183909114)" }, "geometry": { "type": "LineString", "coordinates": [ [ -78.660205278859763, 36.535085791393996 ], [ -78.660207305279528, 36.535091086136276 ], [ -78.660269920467769, 36.535033183909114 ] ] } },
{ "type": "Feature", "properties": { "FEEDER_NAME": "Grassy Creek", "SUBSTATION_NAME": "Jonathan's X Rd.", "wmType": "PRIMARY UNDERGROUND", "WKT": "LINESTRING (-78.66026992046777 36.535033183909114, -78.66031834659721 36.53498840315856, -78.66037785546096 36.5350000107645, -78.6604685108709 36.535023147609074, -78.66053088377433 36.53502789706896, -78.66062157804252 36.53504187927174, -78.66070380307102 36.535046683412105, -78.66105291478866 36.534981274736445, -78.66111539419077 36.53496084894488, -78.66114383175112 36.53494261801177, -78.66125455230464 36.53491545905025, -78.66125468559049 36.53491852928393)" }, "geometry": { "type": "LineString", "coordinates": [ [ -78.660269920467769, 36.535033183909114 ], [ -78.660318346597208, 36.534988403158557 ], [ -78.660377855460965, 36.535000010764499 ], [ -78.660468510870899, 36.535023147609074 ], [ -78.660530883774328, 36.535027897068957 ], [ -78.660621578042523, 36.535041879271738 ], [ -78.660703803071016, 36.535046683412105 ], [ -78.661052914788655, 36.534981274736445 ], [ -78.661115394190773, 36.534960848944877 ], [ -78.661143831751119, 36.534942618011769 ], [ -78.661254552304641, 36.534915459050247 ], [ -78.661254685590492, 36.534918529283928 ] ] } },
{ "type": "Feature", "properties": { "FEEDER_NAME": "Grassy Creek", "SUBSTATION_NAME": "Jonathan's X Rd.", "wmType": "PRIMARY UNDERGROUND", "WKT": "LINESTRING (-78.61746526304904 36.51183611294241, -78.61740209120028 36.51190082787183)" }, "geometry": { "type": "LineString", "coordinates": [ [ -78.617465263049041, 36.511836112942412 ], [ -78.617402091200276, 36.511900827871827 ] ] } },
{ "type": "Feature", "properties": { "FEEDER_NAME": "Grassy Creek", "SUBSTATION_NAME": "Jonathan's X Rd.", "wmType": "PRIMARY UNDERGROUND", "WKT": "LINESTRING (-78.63260228528709 36.53847950181807, -78.63237905061308 36.53893036342357)" }, "geometry": { "type": "LineString", "coordinates": [ [ -78.632602285287092, 36.538479501818067 ], [ -78.632379050613082, 36.538930363423567 ] ] } },
{ "type": "Feature", "properties": { "FEEDER_NAME": "Grassy Creek", "SUBSTATION_NAME": "Jonathan's X Rd.", "wmType": "PRIMARY UNDERGROUND", "WKT": "LINESTRING (-78.6212554409349 36.53463187816008, -78.62115826313207 36.53460661267106)" }, "geometry": { "type": "LineString", "coordinates": [ [ -78.621255440934902, 36.534631878160077 ], [ -78.621158263132074, 36.534606612671062 ] ] } },
{ "type": "Feature", "properties": { "FEEDER_NAME": "Grassy Creek", "SUBSTATION_NAME": "Jonathan's X Rd.", "wmType": "PRIMARY UNDERGROUND", "WKT": "LINESTRING (-78.6212554409349 36.53463187816008, -78.621176193983 36.53464435333683, -78.6211548493572 36.534643783015575)" }, "geometry": { "type": "LineString", "coordinates": [ [ -78.621255440934902, 36.534631878160077 ], [ -78.621176193983004, 36.53464435333683 ], [ -78.621154849357197, 36.534643783015575 ] ] } },
{ "type": "Feature", "properties": { "FEEDER_NAME": "Grassy Creek", "SUBSTATION_NAME": "Jonathan's X Rd.", "wmType": "PRIMARY UNDERGROUND", "WKT": "LINESTRING (-78.61740209120028 36.51190082787183, -78.61728234181199 36.512023501279174, -78.61715550955438 36.51217724447996, -78.61703385334603 36.512378990489786, -78.61697570890037 36.51248350712531, -78.61693735175062 36.51259390170463, -78.6169313399777 36.51262115624783, -78.61695507671935 36.51264337732649)" }, "geometry": { "type": "LineString", "coordinates": [ [ -78.617402091200276, 36.511900827871827 ], [ -78.617282341811986, 36.512023501279174 ], [ -78.617155509554379, 36.512177244479957 ], [ -78.61703385334603, 36.512378990489786 ], [ -78.61697570890037, 36.51248350712531 ], [ -78.616937351750622, 36.512593901704633 ], [ -78.616931339977697, 36.512621156247832 ], [ -78.61695507671935, 36.512643377326491 ] ] } },
{ "type": "Feature", "properties": { "FEEDER_NAME": "Grassy Creek", "SUBSTATION_NAME": "Jonathan's X Rd.", "wmType": "PRIMARY UNDERGROUND", "WKT": "LINESTRING (-78.61746526304904 36.51183611294241, -78.61739655378896 36.51189704060941)" }, "geometry": { "type": "LineString", "coordinates": [ [ -78.617465263049041, 36.511836112942412 ], [ -78.617396553788964, 36.511897040609412 ] ] } },
{ "type": "Feature", "properties": { "FEEDER_NAME": "Grassy Creek", "SUBSTATION_NAME": "Jonathan's X Rd.", "wmType": "PRIMARY UNDERGROUND", "WKT": "LINESTRING (-78.61739655378896 36.51189704060941, -78.6172589443848 36.512019065529216, -78.61712304388827 36.51218586836582, -78.61705009965583 36.51216071522174)" }, "geometry": { "type": "LineString", "coordinates": [ [ -78.617396553788964, 36.511897040609412 ], [ -78.617258944384801, 36.512019065529216 ], [ -78.61712304388827, 36.512185868365819 ], [ -78.617050099655827, 36.512160715221739 ] ] } },
{ "type": "Feature", "properties": { "FEEDER_NAME": "Grassy Creek", "SUBSTATION_NAME": "Jonathan's X Rd.", "wmType": "PRIMARY UNDERGROUND", "WKT": "LINESTRING (-78.59591111005116 36.50170842751569, -78.59584871892326 36.501643224985074)" }, "geometry": { "type": "LineString", "coordinates": [ [ -78.595911110051162, 36.501708427515688 ], [ -78.595848718923264, 36.501643224985074 ] ] } },
{ "type": "Feature", "properties": { "FEEDER_NAME": "Grassy Creek", "SUBSTATION_NAME": "Jonathan's X Rd.", "wmType": "PRIMARY UNDERGROUND", "WKT": "LINESTRING (-78.59584871892326 36.501643224985074, -78.59501262253656 36.500769441442394)" }, "geometry": { "type": "LineString", "coordinates": [ [ -78.595848718923264, 36.501643224985074 ], [ -78.595012622536558, 36.500769441442394 ] ] } },
{ "type": "Feature", "properties": { "FEEDER_NAME": "Grassy Creek", "SUBSTATION_NAME": "Jonathan's X Rd.", "wmType": "PRIMARY UNDERGROUND", "WKT": "LINESTRING (-78.58654609322373 36.51917155031515, -78.58645031080772 36.519200035082385)" }, "geometry": { "type": "LineString", "coordinates": [ [ -78.586546093223731, 36.51917155031515 ], [ -78.58645031080772, 36.519200035082385 ] ] } },
{ "type": "Feature", "properties": { "FEEDER_NAME": "Grassy Creek", "SUBSTATION_NAME": "Jonathan's X Rd.", "wmType": "PRIMARY UNDERGROUND", "WKT": "LINESTRING (-78.58645031080772 36.519200035082385, -78.58592077544563 36.519357512530604)" }, "geometry": { "type": "LineString", "coordinates": [ [ -78.58645031080772, 36.519200035082385 ], [ -78.585920775445629, 36.519357512530604 ] ] } },
{ "type": "Feature", "properties": { "FEEDER_NAME": "Grassy Creek", "SUBSTATION_NAME": "Jonathan's X Rd.", "wmType": "PRIMARY UNDERGROUND", "WKT": "LINESTRING (-78.55195847207003 36.50386305460463, -78.55187507628794 36.50381556095825)" }, "geometry": { "type": "LineString", "coordinates": [ [ -78.551958472070027, 36.503863054604629 ], [ -78.551875076287942, 36.503815560958252 ] ] } },
{ "type": "Feature", "properties": { "FEEDER_NAME": "Grassy Creek", "SUBSTATION_NAME": "Jonathan's X Rd.", "wmType": "PRIMARY UNDERGROUND", "WKT": "LINESTRING (-78.55187507628794 36.50381556095825, -78.55108108068679 36.50336337496167)" }, "geometry": { "type": "LineString", "coordinates": [ [ -78.551875076287942, 36.503815560958252 ], [ -78.551081080686785, 36.503363374961673 ] ] } },
{ "type": "Feature", "properties": { "FEEDER_NAME": "Grassy Creek", "SUBSTATION_NAME": "Jonathan's X Rd.", "wmType": "PRIMARY UNDERGROUND", "WKT": "LINESTRING (-78.57748140224109 36.520003065651025, -78.57748091572003 36.51992067490452)" }, "geometry": { "type": "LineString", "coordinates": [ [ -78.577481402241091, 36.520003065651025 ], [ -78.577480915720031, 36.519920674904519 ] ] } },
{ "type": "Feature", "properties": { "FEEDER_NAME": "Grassy Creek", "SUBSTATION_NAME": "Jonathan's X Rd.", "wmType": "PRIMARY UNDERGROUND", "WKT": "LINESTRING (-78.57748091572003 36.51992067490452, -78.57747727301089 36.51930379754331)" }, "geometry": { "type": "LineString", "coordinates": [ [ -78.577480915720031, 36.519920674904519 ], [ -78.577477273010885, 36.519303797543309 ] ] } },
{ "type": "Feature", "properties": { "FEEDER_NAME": "Grassy Creek", "SUBSTATION_NAME": "Jonathan's X Rd.", "wmType": "PRIMARY UNDERGROUND", "WKT": "LINESTRING (-78.58266944928684 36.51644632846733, -78.58271076736962 36.51637098786893)" }, "geometry": { "type": "LineString", "coordinates": [ [ -78.58266944928684, 36.516446328467332 ], [ -78.582710767369619, 36.516370987868932 ] ] } },
{ "type": "Feature", "properties": { "FEEDER_NAME": "Grassy Creek", "SUBSTATION_NAME": "Jonathan's X Rd.", "wmType": "PRIMARY UNDERGROUND", "WKT": "LINESTRING (-78.58271076736962 36.51637098786893, -78.58313159270543 36.51560363685292)" }, "geometry": { "type": "LineString", "coordinates": [ [ -78.582710767369619, 36.516370987868932 ], [ -78.583131592705428, 36.515603636852923 ] ] } },
{ "type": "Feature", "properties": { "FEEDER_NAME": "Grassy Creek", "SUBSTATION_NAME": "Jonathan's X Rd.", "wmType": "PRIMARY UNDERGROUND", "WKT": "LINESTRING (-78.58893532024996 36.52141545203582, -78.58893751218058 36.521497824900926)" }, "geometry": { "type": "LineString", "coordinates": [ [ -78.588935320249959, 36.521415452035818 ], [ -78.588937512180578, 36.521497824900926 ] ] } },
{ "type": "Feature", "properties": { "FEEDER_NAME": "Grassy Creek", "SUBSTATION_NAME": "Jonathan's X Rd.", "wmType": "PRIMARY UNDERGROUND", "WKT": "LINESTRING (-78.58893751218058 36.521497824900926, -78.58895796938386 36.522266476832655, -78.58914361310751 36.52235292267202, -78.58986009068974 36.522412178707, -78.59010012094781 36.52245266859441, -78.59010055849147 36.522671338204795)" }, "geometry": { "type": "LineString", "coordinates": [ [ -78.588937512180578, 36.521497824900926 ], [ -78.588957969383856, 36.522266476832655 ], [ -78.58914361310751, 36.52235292267202 ], [ -78.58986009068974, 36.522412178707 ], [ -78.59010012094781, 36.522452668594411 ], [ -78.590100558491471, 36.522671338204795 ] ] } },
{ "type": "Feature", "properties": { "FEEDER_NAME": "Grassy Creek", "SUBSTATION_NAME": "Jonathan's X Rd.", "wmType": "PRIMARY UNDERGROUND", "WKT": "LINESTRING (-78.61827558119417 36.50056634422937, -78.61822363088164 36.50049542496817)" }, "geometry": { "type": "LineString", "coordinates": [ [ -78.618275581194169, 36.50056634422937 ], [ -78.618223630881644, 36.500495424968172 ] ] } },
{ "type": "Feature", "properties": { "FEEDER_NAME": "Grassy Creek", "SUBSTATION_NAME": "Jonathan's X Rd.", "wmType": "PRIMARY UNDERGROUND", "WKT": "LINESTRING (-78.61822363088164 36.50049542496817, -78.61783458086366 36.49996431137949)" }, "geometry": { "type": "LineString", "coordinates": [ [ -78.618223630881644, 36.500495424968172 ], [ -78.617834580863658, 36.499964311379493 ] ] } },
{ "type": "Feature", "properties": { "FEEDER_NAME": "Grassy Creek", "SUBSTATION_NAME": "Jonathan's X Rd.", "wmType": "PRIMARY UNDERGROUND", "WKT": "LINESTRING (-78.57415630839374 36.49890498027078, -78.57405696365988 36.498886130024225)" }, "geometry": { "type": "LineString", "coordinates": [ [ -78.574156308393739, 36.49890498027078 ], [ -78.574056963659885, 36.498886130024225 ] ] } },
{ "type": "Feature", "properties": { "FEEDER_NAME": "Grassy Creek", "SUBSTATION_NAME": "Jonathan's X Rd.", "wmType": "PRIMARY UNDERGROUND", "WKT": "LINESTRING (-78.57405696365988 36.498886130024225, -78.57352892015751 36.498785934537025)" }, "geometry": { "type": "LineString", "coordinates": [ [ -78.574056963659885, 36.498886130024225 ], [ -78.573528920157514, 36.498785934537025 ] ] } },
{ "type": "Feature", "properties": { "FEEDER_NAME": "Grassy Creek", "SUBSTATION_NAME": "Jonathan's X Rd.", "wmType": "PRIMARY UNDERGROUND", "WKT": "LINESTRING (-78.6098073087437 36.53082575503849, -78.60971021603311 36.53080028696995)" }, "geometry": { "type": "LineString", "coordinates": [ [ -78.609807308743697, 36.530825755038492 ], [ -78.609710216033108, 36.530800286969949 ] ] } },
{ "type": "Feature", "properties": { "FEEDER_NAME": "Grassy Creek", "SUBSTATION_NAME": "Jonathan's X Rd.", "wmType": "PRIMARY UNDERGROUND", "WKT": "LINESTRING (-78.60971021603311 36.53080028696995, -78.60958165495533 36.53076656443937, -78.6094682314805 36.53071886227762, -78.6093183194916 36.53063553911903, -78.60917946284198 36.530540415596874, -78.60904425970651 36.530448261674174, -78.60886143795872 36.530347079933094, -78.60893033787404 36.53012038373644)" }, "geometry": { "type": "LineString", "coordinates": [ [ -78.609710216033108, 36.530800286969949 ], [ -78.609581654955335, 36.530766564439368 ], [ -78.609468231480506, 36.530718862277617 ], [ -78.609318319491607, 36.530635539119032 ], [ -78.609179462841979, 36.530540415596874 ], [ -78.609044259706508, 36.530448261674174 ], [ -78.608861437958723, 36.530347079933094 ], [ -78.608930337874042, 36.530120383736438 ] ] } },
{ "type": "Feature", "properties": { "FEEDER_NAME": "Grassy Creek", "SUBSTATION_NAME": "Jonathan's X Rd.", "wmType": "PRIMARY UNDERGROUND", "WKT": "LINESTRING (-78.6098073087437 36.53082575503849, -78.60970612486372 36.53081479171692)" }, "geometry": { "type": "LineString", "coordinates": [ [ -78.609807308743697, 36.530825755038492 ], [ -78.60970612486372, 36.530814791716921 ] ] } },
{ "type": "Feature", "properties": { "FEEDER_NAME": "Grassy Creek", "SUBSTATION_NAME": "Jonathan's X Rd.", "wmType": "PRIMARY UNDERGROUND", "WKT": "LINESTRING (-78.62679445925606 36.538887546554406, -78.62669943604313 36.53891769016931)" }, "geometry": { "type": "LineString", "coordinates": [ [ -78.626794459256061, 36.538887546554406 ], [ -78.626699436043126, 36.538917690169313 ] ] } },
{ "type": "Feature", "properties": { "FEEDER_NAME": "Grassy Creek", "SUBSTATION_NAME": "Jonathan's X Rd.", "wmType": "PRIMARY UNDERGROUND", "WKT": "LINESTRING (-78.62669943604313 36.53891769016931, -78.62626491533564 36.53905553018496)" }, "geometry": { "type": "LineString", "coordinates": [ [ -78.626699436043126, 36.538917690169313 ], [ -78.626264915335639, 36.53905553018496 ] ] } },
{ "type": "Feature", "properties": { "FEEDER_NAME": "Grassy Creek", "SUBSTATION_NAME": "Jonathan's X Rd.", "wmType": "PRIMARY UNDERGROUND", "WKT": "LINESTRING (-78.63264016742133 36.53840299179855, -78.63260228528709 36.53847950181807)" }, "geometry": { "type": "LineString", "coordinates": [ [ -78.632640167421329, 36.538402991798549 ], [ -78.632602285287092, 36.538479501818067 ] ] } },
{ "type": "Feature", "properties": { "FEEDER_NAME": "Grassy Creek", "SUBSTATION_NAME": "Jonathan's X Rd.", "wmType": "PRIMARY UNDERGROUND", "WKT": "LINESTRING (-78.60970612486372 36.53081479171692, -78.60950453274066 36.53079294928163, -78.6093618526181 36.53073036068992, -78.60920470872634 36.53062630197227, -78.60902207520647 36.53048665522015, -78.60891246339405 36.53040937774517, -78.60884222025558 36.53038380332411, -78.60874036572818 36.53036444738557, -78.60846341824566 36.530375110410795, -78.6084534341045 36.530492628827254)" }, "geometry": { "type": "LineString", "coordinates": [ [ -78.60970612486372, 36.530814791716921 ], [ -78.609504532740658, 36.530792949281633 ], [ -78.609361852618093, 36.530730360689923 ], [ -78.609204708726338, 36.530626301972269 ], [ -78.609022075206468, 36.530486655220152 ], [ -78.608912463394049, 36.530409377745173 ], [ -78.608842220255582, 36.530383803324114 ], [ -78.608740365728181, 36.530364447385573 ], [ -78.608463418245663, 36.530375110410795 ], [ -78.608453434104504, 36.530492628827254 ] ] } },
{ "type": "Feature", "properties": { "FEEDER_NAME": "Grassy Creek", "SUBSTATION_NAME": "Jonathan's X Rd.", "wmType": "PRIMARY UNDERGROUND", "WKT": "LINESTRING (-78.62115826313207 36.53460661267106, -78.62112507319084 36.53459798383044, -78.62037636845854 36.53458129661855, -78.62013406062349 36.534571146159216, -78.62001758052037 36.5345632635549, -78.61990116401236 36.53454221762052, -78.61972426718643 36.53449841786469, -78.61959395782411 36.534458522907016, -78.61947998678495 36.534413036887, -78.61932685286266 36.53435089893572, -78.61919424523558 36.53428135194012, -78.61908525893415 36.53421426121952, -78.61899398633643 36.53414961034151, -78.61890292936958 36.534039662541474, -78.61883835723081 36.5339512534093, -78.6187826935701 36.53385333604727, -78.61872714350996 36.53373157815477, -78.61868045654964 36.533609847703445, -78.61871124436483 36.533578551495225, -78.61893188028382 36.533536857058785)" }, "geometry": { "type": "LineString", "coordinates": [ [ -78.621158263132074, 36.534606612671062 ], [ -78.621125073190839, 36.534597983830437 ], [ -78.620376368458537, 36.534581296618548 ], [ -78.620134060623485, 36.534571146159216 ], [ -78.620017580520368, 36.534563263554901 ], [ -78.619901164012362, 36.534542217620519 ], [ -78.619724267186427, 36.53449841786469 ], [ -78.619593957824108, 36.534458522907016 ], [ -78.619479986784953, 36.534413036887003 ], [ -78.619326852862656, 36.53435089893572 ], [ -78.619194245235576, 36.534281351940123 ], [ -78.619085258934149, 36.534214261219518 ], [ -78.618993986336434, 36.534149610341508 ], [ -78.618902929369582, 36.534039662541474 ], [ -78.618838357230814, 36.533951253409299 ], [ -78.618782693570097, 36.533853336047272 ], [ -78.618727143509958, 36.533731578154772 ], [ -78.61868045654964, 36.533609847703445 ], [ -78.618711244364832, 36.533578551495225 ], [ -78.618931880283824, 36.533536857058785 ] ] } },
{ "type": "Feature", "properties": { "FEEDER_NAME": "Grassy Creek", "SUBSTATION_NAME": "Jonathan's X Rd.", "wmType": "PRIMARY UNDERGROUND", "WKT": "LINESTRING (-78.6211548493572 36.534643783015575, -78.620203746096 36.53461837443141, -78.62002205472858 36.53460276942524, -78.61984041586595 36.53457587958256, -78.61969611505391 36.53453782288402, -78.61954719974861 36.53449034840171, -78.61940767577916 36.534427857987545, -78.61908502088495 36.53426432544518, -78.61897903326711 36.53418770811759, -78.6188908285309 36.534099225817705, -78.61880572578553 36.53397976059043, -78.61877642189947 36.533929605707606, -78.61875592540582 36.53389139718647, -78.61814896323204 36.53404482201152)" }, "geometry": { "type": "LineString", "coordinates": [ [ -78.621154849357197, 36.534643783015575 ], [ -78.620203746095996, 36.53461837443141 ], [ -78.62002205472858, 36.534602769425241 ], [ -78.619840415865951, 36.534575879582562 ], [ -78.619696115053912, 36.534537822884019 ], [ -78.61954719974861, 36.534490348401711 ], [ -78.619407675779158, 36.534427857987545 ], [ -78.619085020884953, 36.534264325445179 ], [ -78.618979033267109, 36.534187708117592 ], [ -78.618890828530894, 36.534099225817705 ], [ -78.618805725785535, 36.533979760590427 ], [ -78.618776421899469, 36.533929605707606 ], [ -78.618755925405821, 36.533891397186473 ], [ -78.618148963232045, 36.534044822011523 ] ] } },
{ "type": "Feature", "properties": { "FEEDER_NAME": "Grassy Creek", "SUBSTATION_NAME": "Jonathan's X Rd.", "wmType": "PRIMARY UNDERGROUND", "WKT": "LINESTRING (-78.62790576178921 36.5335938262978, -78.62792127074131 36.53367526132503)" }, "geometry": { "type": "LineString", "coordinates": [ [ -78.627905761789208, 36.533593826297803 ], [ -78.627921270741311, 36.53367526132503 ] ] } },
{ "type": "Feature", "properties": { "FEEDER_NAME": "Grassy Creek", "SUBSTATION_NAME": "Jonathan's X Rd.", "wmType": "PRIMARY UNDERGROUND", "WKT": "LINESTRING (-78.62792127074131 36.53367526132503, -78.62805879261937 36.53439737192451)" }, "geometry": { "type": "LineString", "coordinates": [ [ -78.627921270741311, 36.53367526132503 ], [ -78.62805879261937, 36.534397371924513 ] ] } },
{ "type": "Feature", "properties": { "FEEDER_NAME": "Grassy Creek", "SUBSTATION_NAME": "Jonathan's X Rd.", "wmType": "PRIMARY UNDERGROUND", "WKT": "LINESTRING (-78.63126909389469 36.53437544515393, -78.6312897660814 36.53445613019711)" }, "geometry": { "type": "LineString", "coordinates": [ [ -78.631269093894687, 36.534375445153927 ], [ -78.631289766081395, 36.534456130197107 ] ] } },
{ "type": "Feature", "properties": { "FEEDER_NAME": "Grassy Creek", "SUBSTATION_NAME": "Jonathan's X Rd.", "wmType": "PRIMARY UNDERGROUND", "WKT": "LINESTRING (-78.6312897660814 36.53445613019711, -78.63162389432463 36.53576019492605)" }, "geometry": { "type": "LineString", "coordinates": [ [ -78.631289766081395, 36.534456130197107 ], [ -78.631623894324633, 36.535760194926048 ] ] } },
{ "type": "Feature", "properties": { "FEEDER_NAME": "Grassy Creek", "SUBSTATION_NAME": "Jonathan's X Rd.", "wmType": "PRIMARY UNDERGROUND", "WKT": "LINESTRING (-78.6306110332006 36.49933406157926, -78.63065506288758 36.499408392096726)" }, "geometry": { "type": "LineString", "coordinates": [ [ -78.630611033200594, 36.499334061579262 ], [ -78.630655062887584, 36.499408392096726 ] ] } },
{ "type": "Feature", "properties": { "FEEDER_NAME": "Grassy Creek", "SUBSTATION_NAME": "Jonathan's X Rd.", "wmType": "PRIMARY UNDERGROUND", "WKT": "LINESTRING (-78.63065506288758 36.499408392096726, -78.63133753124549 36.50056051315684)" }, "geometry": { "type": "LineString", "coordinates": [ [ -78.630655062887584, 36.499408392096726 ], [ -78.631337531245492, 36.500560513156842 ] ] } },
{ "type": "Feature", "properties": { "FEEDER_NAME": "Grassy Creek", "SUBSTATION_NAME": "Jonathan's X Rd.", "wmType": "PRIMARY UNDERGROUND", "WKT": "LINESTRING (-78.6512878090033 36.5167406982019, -78.65138987913352 36.51674142819043)" }, "geometry": { "type": "LineString", "coordinates": [ [ -78.651287809003307, 36.5167406982019 ], [ -78.651389879133518, 36.516741428190429 ] ] } },
{ "type": "Feature", "properties": { "FEEDER_NAME": "Grassy Creek", "SUBSTATION_NAME": "Jonathan's X Rd.", "wmType": "PRIMARY UNDERGROUND", "WKT": "LINESTRING (-78.65138987913352 36.51674142819043, -78.65141693404047 36.51674162201506, -78.65145449339302 36.51671151785155, -78.6514887327805 36.51666217933002, -78.65149565710009 36.516634734754604, -78.65152296018192 36.516615587183516, -78.65160129974095 36.516596584198204, -78.65169325010663 36.51657761971155, -78.65178528285699 36.516539430450266, -78.651867071321 36.51650945138076, -78.65192515233707 36.516454686479435, -78.65196278182077 36.516408103834955, -78.65200390909882 36.51633956061528, -78.65207559845993 36.516284834144344, -78.65214715657203 36.51626031878321, -78.65224255539698 36.51623037885749, -78.65229366428017 36.51621404394462, -78.65234478393805 36.51619496352159, -78.65239935364177 36.51616490714697, -78.65244032445183 36.516132064995226, -78.65247446880724 36.51610469818227, -78.65251202634762 36.51607459368194, -78.65254616842934 36.5160472250398, -78.65257009358348 36.51602257484662, -78.65261108917622 36.51598424076556, -78.65263156314624 36.51597056649369, -78.65269643502933 36.51591856861816)" }, "geometry": { "type": "LineString", "coordinates": [ [ -78.651389879133518, 36.516741428190429 ], [ -78.651416934040469, 36.516741622015061 ], [ -78.651454493393018, 36.516711517851547 ], [ -78.651488732780507, 36.516662179330019 ], [ -78.651495657100085, 36.516634734754604 ], [ -78.651522960181921, 36.516615587183516 ], [ -78.651601299740946, 36.516596584198204 ], [ -78.651693250106632, 36.516577619711548 ], [ -78.651785282856991, 36.516539430450266 ], [ -78.651867071321007, 36.516509451380763 ], [ -78.651925152337071, 36.516454686479435 ], [ -78.651962781820771, 36.516408103834955 ], [ -78.652003909098823, 36.516339560615279 ], [ -78.65207559845993, 36.516284834144344 ], [ -78.652147156572028, 36.51626031878321 ], [ -78.652242555396981, 36.516230378857493 ], [ -78.652293664280165, 36.516214043944622 ], [ -78.652344783938048, 36.516194963521592 ], [ -78.652399353641769, 36.516164907146972 ], [ -78.652440324451831, 36.516132064995226 ], [ -78.652474468807242, 36.516104698182268 ], [ -78.652512026347623, 36.516074593681942 ], [ -78.652546168429339, 36.516047225039799 ], [ -78.652570093583478, 36.516022574846623 ], [ -78.652611089176219, 36.515984240765562 ], [ -78.652631563146244, 36.515970566493692 ], [ -78.652696435029327, 36.515918568618162 ] ] } },
{ "type": "Feature", "properties": { "FEEDER_NAME": "Grassy Creek", "SUBSTATION_NAME": "Jonathan's X Rd.", "wmType": "PRIMARY UNDERGROUND", "WKT": "LINESTRING (-78.66147244299157 36.52705640540246, -78.66149567882182 36.52713663493949)" }, "geometry": { "type": "LineString", "coordinates": [ [ -78.661472442991567, 36.527056405402462 ], [ -78.661495678821822, 36.527136634939488 ] ] } },
{ "type": "Feature", "properties": { "FEEDER_NAME": "Grassy Creek", "SUBSTATION_NAME": "Jonathan's X Rd.", "wmType": "PRIMARY UNDERGROUND", "WKT": "LINESTRING (-78.66149567882182 36.52713663493949, -78.66167416143456 36.52775289048018)" }, "geometry": { "type": "LineString", "coordinates": [ [ -78.661495678821822, 36.527136634939488 ], [ -78.661674161434561, 36.52775289048018 ] ] } },
{ "type": "Feature", "properties": { "FEEDER_NAME": "Grassy Creek", "SUBSTATION_NAME": "Jonathan's X Rd.", "wmType": "PRIMARY UNDERGROUND", "WKT": "LINESTRING (-78.66925202469834 36.54019873274952, -78.66927078236822 36.54025484342927, -78.66925583420742 36.54027590929437)" }, "geometry": { "type": "LineString", "coordinates": [ [ -78.669252024698338, 36.540198732749523 ], [ -78.669270782368216, 36.540254843429267 ], [ -78.669255834207419, 36.540275909294373 ] ] } },
{ "type": "Feature", "properties": { "FEEDER_NAME": "Grassy Creek", "SUBSTATION_NAME": "Jonathan's X Rd.", "wmType": "PRIMARY UNDERGROUND", "WKT": "LINESTRING (-78.62836574405293 36.539271360739825, -78.62833067289436 36.53919398290554)" }, "geometry": { "type": "LineString", "coordinates": [ [ -78.628365744052928, 36.539271360739825 ], [ -78.628330672894364, 36.539193982905537 ] ] } },
{ "type": "Feature", "properties": { "FEEDER_NAME": "Grassy Creek", "SUBSTATION_NAME": "Jonathan's X Rd.", "wmType": "PRIMARY UNDERGROUND", "WKT": "LINESTRING (-78.66925583420742 36.54027590929437, -78.66920793692088 36.540343408361466, -78.6691827283014 36.54039577321859, -78.6691374194541 36.540474301683545, -78.66913716956783 36.54053480069602, -78.66923929348611 36.54061775959334, -78.66935648763261 36.54068260738124, -78.66943632680665 36.540715088312375, -78.66954578880882 36.54077933576779)" }, "geometry": { "type": "LineString", "coordinates": [ [ -78.669255834207419, 36.540275909294373 ], [ -78.669207936920884, 36.540343408361466 ], [ -78.669182728301394, 36.540395773218592 ], [ -78.669137419454103, 36.540474301683545 ], [ -78.669137169567833, 36.540534800696022 ], [ -78.669239293486115, 36.540617759593339 ], [ -78.669356487632612, 36.540682607381243 ], [ -78.669436326806647, 36.540715088312375 ], [ -78.669545788808819, 36.540779335767787 ] ] } },
{ "type": "Feature", "properties": { "FEEDER_NAME": "Grassy Creek", "SUBSTATION_NAME": "Jonathan's X Rd.", "wmType": "PRIMARY UNDERGROUND", "WKT": "LINESTRING (-78.57733151922316 36.497546444402616, -78.57739212307595 36.49761273437969)" }, "geometry": { "type": "LineString", "coordinates": [ [ -78.577331519223165, 36.497546444402616 ], [ -78.577392123075953, 36.497612734379693 ] ] } },
{ "type": "Feature", "properties": { "FEEDER_NAME": "Grassy Creek", "SUBSTATION_NAME": "Jonathan's X Rd.", "wmType": "PRIMARY UNDERGROUND", "WKT": "LINESTRING (-78.57739212307595 36.49761273437969, -78.5775400445627 36.49777453486266, -78.57812859753935 36.49776838120632, -78.57830055885759 36.49783055192459)" }, "geometry": { "type": "LineString", "coordinates": [ [ -78.577392123075953, 36.497612734379693 ], [ -78.577540044562696, 36.497774534862657 ], [ -78.578128597539347, 36.49776838120632 ], [ -78.578300558857592, 36.497830551924586 ] ] } },
{ "type": "Feature", "properties": { "FEEDER_NAME": "Grassy Creek", "SUBSTATION_NAME": "Jonathan's X Rd.", "wmType": "PRIMARY UNDERGROUND", "WKT": "LINESTRING (-78.63143918363731 36.538187250914696, -78.63135475318015 36.53823357931537)" }, "geometry": { "type": "LineString", "coordinates": [ [ -78.631439183637312, 36.538187250914696 ], [ -78.631354753180148, 36.538233579315367 ] ] } },
{ "type": "Feature", "properties": { "FEEDER_NAME": "Grassy Creek", "SUBSTATION_NAME": "Jonathan's X Rd.", "wmType": "PRIMARY UNDERGROUND", "WKT": "LINESTRING (-78.63135475318015 36.53823357931537, -78.63122362344043 36.53830553218609, -78.63112062270424 36.53840153258577, -78.63106795862197 36.53881213898952, -78.63109803780071 36.539049999863934, -78.63105662274475 36.539056534391975)" }, "geometry": { "type": "LineString", "coordinates": [ [ -78.631354753180148, 36.538233579315367 ], [ -78.631223623440434, 36.538305532186087 ], [ -78.631120622704245, 36.538401532585773 ], [ -78.631067958621969, 36.53881213898952 ], [ -78.631098037800712, 36.539049999863934 ], [ -78.631056622744751, 36.539056534391975 ] ] } },
{ "type": "Feature", "properties": { "FEEDER_NAME": "Grassy Creek", "SUBSTATION_NAME": "Jonathan's X Rd.", "wmType": "PRIMARY UNDERGROUND", "WKT": "LINESTRING (-78.6112485844778 36.52675150748425, -78.61124706456022 36.526728589812684, -78.61126271864732 36.52667050697459)" }, "geometry": { "type": "LineString", "coordinates": [ [ -78.611248584477806, 36.526751507484249 ], [ -78.611247064560217, 36.526728589812684 ], [ -78.611262718647325, 36.52667050697459 ] ] } },
{ "type": "Feature", "properties": { "FEEDER_NAME": "Grassy Creek", "SUBSTATION_NAME": "Jonathan's X Rd.", "wmType": "PRIMARY UNDERGROUND", "WKT": "LINESTRING (-78.61126271864732 36.52667050697459, -78.61126505271965 36.5266618462246, -78.61123560178473 36.52661383786297, -78.61120609809437 36.52657647796731, -78.61117322013237 36.52655507855676, -78.6111271483311 36.52653363742422, -78.61108434973511 36.52651753004357, -78.61104483613491 36.52650409564681, -78.61101187958789 36.52649866710407, -78.6109657690847 36.52648521181858, -78.61089317083018 36.52649296820594, -78.61083046627978 36.5265007549536, -78.61077258287219 36.52651650691444)" }, "geometry": { "type": "LineString", "coordinates": [ [ -78.611262718647325, 36.52667050697459 ], [ -78.611265052719645, 36.526661846224599 ], [ -78.611235601784728, 36.526613837862968 ], [ -78.611206098094371, 36.526576477967311 ], [ -78.611173220132372, 36.526555078556761 ], [ -78.611127148331093, 36.526533637424222 ], [ -78.611084349735108, 36.52651753004357 ], [ -78.611044836134909, 36.526504095646807 ], [ -78.611011879587892, 36.526498667104072 ], [ -78.6109657690847, 36.526485211818581 ], [ -78.610893170830181, 36.526492968205943 ], [ -78.610830466279779, 36.526500754953602 ], [ -78.610772582872187, 36.52651650691444 ] ] } },
{ "type": "Feature", "properties": { "FEEDER_NAME": "Grassy Creek", "SUBSTATION_NAME": "Jonathan's X Rd.", "wmType": "PRIMARY UNDERGROUND", "WKT": "LINESTRING (-78.60928758669498 36.49095943509743, -78.6091868588933 36.4909726102735)" }, "geometry": { "type": "LineString", "coordinates": [ [ -78.609287586694975, 36.49095943509743 ], [ -78.609186858893295, 36.490972610273502 ] ] } },
{ "type": "Feature", "properties": { "FEEDER_NAME": "Grassy Creek", "SUBSTATION_NAME": "Jonathan's X Rd.", "wmType": "PRIMARY UNDERGROUND", "WKT": "LINESTRING (-78.6091868588933 36.4909726102735, -78.6078195839109 36.491151435839456)" }, "geometry": { "type": "LineString", "coordinates": [ [ -78.609186858893295, 36.490972610273502 ], [ -78.607819583910896, 36.491151435839456 ] ] } },
{ "type": "Feature", "properties": { "FEEDER_NAME": "Grassy Creek", "SUBSTATION_NAME": "Jonathan's X Rd.", "wmType": "PRIMARY UNDERGROUND", "WKT": "LINESTRING (-78.61202259099676 36.49490444371957, -78.61200719016117 36.49491183704398, -78.61197783559929 36.49491654890204, -78.61192687729783 36.49493145663599)" }, "geometry": { "type": "LineString", "coordinates": [ [ -78.612022590996759, 36.49490444371957 ], [ -78.612007190161165, 36.494911837043979 ], [ -78.611977835599291, 36.49491654890204 ], [ -78.611926877297833, 36.494931456635989 ] ] } },
{ "type": "Feature", "properties": { "FEEDER_NAME": "Grassy Creek", "SUBSTATION_NAME": "Jonathan's X Rd.", "wmType": "PRIMARY UNDERGROUND", "WKT": "LINESTRING (-78.61192687729783 36.49493145663599, -78.61191324281445 36.49493544588075, -78.6118721257092 36.49495673358369, -78.61179868816932 36.49500405742065, -78.61177811787242 36.495022995101664, -78.61174285981411 36.49505139717484, -78.61171346707923 36.495082174054964, -78.61165471088908 36.495124772109754, -78.61160184089289 36.49515552796763, -78.61151943314125 36.49521217908881, -78.61148726106633 36.495240725997256, -78.61144906517359 36.495271495718114, -78.61139619132835 36.495304620382036, -78.61133448501886 36.49535669359994, -78.61129041262011 36.495392196025996, -78.61126396202206 36.495418237070126, -78.61122869255976 36.49545374838312, -78.61118167504986 36.49549635629063, -78.61112586217514 36.49553184855841, -78.61107300534057 36.495553124987765, -78.61103777037668 36.49556494006192, -78.61098491975629 36.49558147775525, -78.61094675080003 36.495593289827404, -78.61089977657808 36.49560509384526, -78.61084399081437 36.49562162939742, -78.61078233967042 36.495635789162115, -78.61072069108641 36.49564757909473, -78.61065611479373 36.49565462731529, -78.61059574875792 36.49565877748548, -78.61056219355666 36.495659278525, -78.61055158872134 36.495647444545455)" }, "geometry": { "type": "LineString", "coordinates": [ [ -78.611926877297833, 36.494931456635989 ], [ -78.611913242814452, 36.494935445880749 ], [ -78.611872125709198, 36.494956733583692 ], [ -78.611798688169316, 36.495004057420651 ], [ -78.611778117872419, 36.495022995101664 ], [ -78.611742859814115, 36.495051397174841 ], [ -78.611713467079227, 36.495082174054964 ], [ -78.611654710889084, 36.495124772109754 ], [ -78.611601840892888, 36.495155527967633 ], [ -78.611519433141254, 36.49521217908881 ], [ -78.61148726106633, 36.495240725997256 ], [ -78.611449065173588, 36.495271495718114 ], [ -78.611396191328353, 36.495304620382036 ], [ -78.611334485018858, 36.495356693599938 ], [ -78.611290412620107, 36.495392196025996 ], [ -78.611263962022065, 36.495418237070126 ], [ -78.611228692559763, 36.49545374838312 ], [ -78.611181675049863, 36.49549635629063 ], [ -78.611125862175143, 36.495531848558407 ], [ -78.611073005340572, 36.495553124987765 ], [ -78.611037770376683, 36.495564940061918 ], [ -78.610984919756291, 36.495581477755252 ], [ -78.610946750800025, 36.495593289827404 ], [ -78.61089977657808, 36.495605093845263 ], [ -78.610843990814374, 36.495621629397419 ], [ -78.610782339670422, 36.495635789162115 ], [ -78.610720691086414, 36.495647579094729 ], [ -78.610656114793727, 36.49565462731529 ], [ -78.610595748757916, 36.495658777485481 ], [ -78.61056219355666, 36.495659278524997 ], [ -78.610551588721336, 36.495647444545455 ] ] } },
{ "type": "Feature", "properties": { "FEEDER_NAME": "Grassy Creek", "SUBSTATION_NAME": "Jonathan's X Rd.", "wmType": "PRIMARY UNDERGROUND", "WKT": "LINESTRING (-78.62833067289436 36.53919398290554, -78.62809958294014 36.53868412599725)" }, "geometry": { "type": "LineString", "coordinates": [ [ -78.628330672894364, 36.539193982905537 ], [ -78.628099582940138, 36.53868412599725 ] ] } },
{ "type": "Feature", "properties": { "FEEDER_NAME": "Grassy Creek", "SUBSTATION_NAME": "Jonathan's X Rd.", "wmType": "PRIMARY UNDERGROUND", "WKT": "LINESTRING (-78.64104371068093 36.51425440761373, -78.64094447535756 36.51427369250317)" }, "geometry": { "type": "LineString", "coordinates": [ [ -78.641043710680933, 36.514254407613727 ], [ -78.640944475357557, 36.514273692503167 ] ] } },
{ "type": "Feature", "properties": { "FEEDER_NAME": "Grassy Creek", "SUBSTATION_NAME": "Jonathan's X Rd.", "wmType": "PRIMARY UNDERGROUND", "WKT": "LINESTRING (-78.64094447535756 36.51427369250317, -78.64076904315918 36.51430778530593, -78.64113809898343 36.51507913012653, -78.64149167498992 36.515856860109686, -78.64160359995289 36.51596608718721, -78.64176630377948 36.516098371452046, -78.64195764955011 36.51624848969995)" }, "geometry": { "type": "LineString", "coordinates": [ [ -78.640944475357557, 36.514273692503167 ], [ -78.640769043159182, 36.514307785305931 ], [ -78.641138098983433, 36.51507913012653 ], [ -78.641491674989922, 36.515856860109686 ], [ -78.641603599952887, 36.515966087187209 ], [ -78.641766303779477, 36.516098371452046 ], [ -78.641957649550108, 36.516248489699947 ] ] } },
{ "type": "Feature", "properties": { "FEEDER_NAME": "Grassy Creek", "SUBSTATION_NAME": "Jonathan's X Rd.", "wmType": "PRIMARY UNDERGROUND", "WKT": "LINESTRING (-78.64466066069949 36.486151429698864, -78.64470659812635 36.48607785841116)" }, "geometry": { "type": "LineString", "coordinates": [ [ -78.644660660699486, 36.486151429698864 ], [ -78.644706598126348, 36.486077858411157 ] ] } },
{ "type": "Feature", "properties": { "FEEDER_NAME": "Grassy Creek", "SUBSTATION_NAME": "Jonathan's X Rd.", "wmType": "PRIMARY UNDERGROUND", "WKT": "LINESTRING (-78.64470659812635 36.48607785841116, -78.64503966136144 36.48554442908565)" }, "geometry": { "type": "LineString", "coordinates": [ [ -78.644706598126348, 36.486077858411157 ], [ -78.645039661361437, 36.48554442908565 ] ] } },
{ "type": "Feature", "properties": { "FEEDER_NAME": "Grassy Creek", "SUBSTATION_NAME": "Jonathan's X Rd.", "wmType": "PRIMARY UNDERGROUND", "WKT": "LINESTRING (-78.61622999823062 36.51327384782593, -78.6162294481972 36.51325421112806)" }, "geometry": { "type": "LineString", "coordinates": [ [ -78.616229998230622, 36.513273847825928 ], [ -78.616229448197203, 36.513254211128057 ] ] } },
{ "type": "Feature", "properties": { "FEEDER_NAME": "Grassy Creek", "SUBSTATION_NAME": "Jonathan's X Rd.", "wmType": "PRIMARY UNDERGROUND", "WKT": "LINESTRING (-78.60728443897305 36.53057604639234, -78.60727137693294 36.53057221036363)" }, "geometry": { "type": "LineString", "coordinates": [ [ -78.607284438973053, 36.530576046392341 ], [ -78.607271376932943, 36.53057221036363 ] ] } }
]
}
