{
"type": "FeatureCollection",
"name": "Little_River_New_Sharon_Rd_underground",
"crs": { "type": "name", "properties": { "name": "urn:ogc:def:crs:OGC:1.3:CRS84" } },
"features": [
{ "type": "Feature", "properties": { "FEEDER_NAME": "New Sharon Rd.", "SUBSTATION_NAME": "Little River", "wmType": "PRIMARY UNDERGROUND", "WKT": "LINESTRING (-78.99175860839205 36.20763917492888, -78.99178558247647 36.20762613018483)" }, "geometry": { "type": "LineString", "coordinates": [ [ -78.991758608392047, 36.207639174928879 ], [ -78.991785582476467, 36.207626130184828 ] ] } },
{ "type": "Feature", "properties": { "FEEDER_NAME": "New Sharon Rd.", "SUBSTATION_NAME": "Little River", "wmType": "PRIMARY UNDERGROUND", "WKT": "LINESTRING (-78.97918316341767 36.19634329275597, -78.9790942693916 36.19630330323551)" }, "geometry": { "type": "LineString", "coordinates": [ [ -78.979183163417673, 36.196343292755969 ], [ -78.979094269391595, 36.19630330323551 ] ] } },
{ "type": "Feature", "properties": { "FEEDER_NAME": "New Sharon Rd.", "SUBSTATION_NAME": "Little River", "wmType": "PRIMARY UNDERGROUND", "WKT": "LINESTRING (-79.00047662382902 36.21225014262135, -79.00039449125553 36.212301262016325)" }, "geometry": { "type": "LineString", "coordinates": [ [ -79.000476623829016, 36.21225014262135 ], [ -79.000394491255534, 36.212301262016325 ] ] } },
{ "type": "Feature", "properties": { "FEEDER_NAME": "New Sharon Rd.", "SUBSTATION_NAME": "Little River", "wmType": "PRIMARY UNDERGROUND", "WKT": "LINESTRING (-78.96474909144708 36.190566739724616, -78.96483843813802 36.19060605047761)" }, "geometry": { "type": "LineString", "coordinates": [ [ -78.964749091447075, 36.190566739724616 ], [ -78.964838438138017, 36.190606050477612 ] ] } },
{ "type": "Feature", "properties": { "FEEDER_NAME": "New Sharon Rd.", "SUBSTATION_NAME": "Little River", "wmType": "PRIMARY UNDERGROUND", "WKT": "LINESTRING (-78.96483843813802 36.19060605047761, -78.96485447008706 36.19061310425823, -78.96497655742995 36.19070333122924, -78.96497652871071 36.190769315206246, -78.96506809447355 36.190794085577835, -78.96512913730115 36.19081472240594, -78.96539874515241 36.19089727930493, -78.9655106621815 36.19092205509247, -78.9656276667508 36.19094683220541, -78.96572941775565 36.19095098460757, -78.96581080200211 36.19099224711588, -78.96625339792398 36.191058353853535, -78.96636532061146 36.191070757202326, -78.96645689685225 36.19107490620482, -78.96654339651367 36.19105018565042, -78.96654844284592 36.19114916298985, -78.9666094572305 36.1912399078263, -78.96701128705783 36.19146683762439, -78.96702652026394 36.19154107345845, -78.9670331171676 36.19154206024453)" }, "geometry": { "type": "LineString", "coordinates": [ [ -78.964838438138017, 36.190606050477612 ], [ -78.964854470087062, 36.190613104258233 ], [ -78.964976557429949, 36.190703331229237 ], [ -78.964976528710707, 36.190769315206246 ], [ -78.965068094473551, 36.190794085577835 ], [ -78.965129137301147, 36.190814722405939 ], [ -78.965398745152413, 36.190897279304927 ], [ -78.965510662181501, 36.190922055092472 ], [ -78.965627666750805, 36.190946832205412 ], [ -78.965729417755654, 36.190950984607568 ], [ -78.96581080200211, 36.190992247115879 ], [ -78.966253397923978, 36.191058353853535 ], [ -78.966365320611459, 36.191070757202326 ], [ -78.96645689685225, 36.191074906204818 ], [ -78.966543396513671, 36.191050185650418 ], [ -78.966548442845919, 36.191149162989852 ], [ -78.966609457230504, 36.191239907826301 ], [ -78.967011287057829, 36.19146683762439 ], [ -78.967026520263943, 36.191541073458453 ], [ -78.967033117167603, 36.191542060244529 ] ] } },
{ "type": "Feature", "properties": { "FEEDER_NAME": "New Sharon Rd.", "SUBSTATION_NAME": "Little River", "wmType": "PRIMARY UNDERGROUND", "WKT": "LINESTRING (-78.98691160918376 36.16399765350423, -78.98713362583514 36.16404653882847)" }, "geometry": { "type": "LineString", "coordinates": [ [ -78.986911609183764, 36.163997653504232 ], [ -78.987133625835142, 36.164046538828472 ] ] } },
{ "type": "Feature", "properties": { "FEEDER_NAME": "New Sharon Rd.", "SUBSTATION_NAME": "Little River", "wmType": "PRIMARY UNDERGROUND", "WKT": "LINESTRING (-78.98115676355 36.1964233646002, -78.98105656716059 36.19643733481327)" }, "geometry": { "type": "LineString", "coordinates": [ [ -78.981156763550004, 36.1964233646002 ], [ -78.981056567160593, 36.196437334813268 ] ] } },
{ "type": "Feature", "properties": { "FEEDER_NAME": "New Sharon Rd.", "SUBSTATION_NAME": "Little River", "wmType": "PRIMARY UNDERGROUND", "WKT": "LINESTRING (-78.98105656716059 36.19643733481327, -78.97963240238231 36.19663588948315)" }, "geometry": { "type": "LineString", "coordinates": [ [ -78.981056567160593, 36.196437334813268 ], [ -78.979632402382308, 36.196635889483147 ] ] } },
{ "type": "Feature", "properties": { "FEEDER_NAME": "New Sharon Rd.", "SUBSTATION_NAME": "Little River", "wmType": "PRIMARY UNDERGROUND", "WKT": "LINESTRING (-78.98319688320584 36.19469168804467, -78.98311059092796 36.19473525897682)" }, "geometry": { "type": "LineString", "coordinates": [ [ -78.983196883205835, 36.194691688044671 ], [ -78.983110590927964, 36.19473525897682 ] ] } },
{ "type": "Feature", "properties": { "FEEDER_NAME": "New Sharon Rd.", "SUBSTATION_NAME": "Little River", "wmType": "PRIMARY UNDERGROUND", "WKT": "LINESTRING (-78.98311059092796 36.19473525897682, -78.98272094518663 36.19493199996455, -78.98260284134784 36.19499857000099, -78.98254219172796 36.19505714909902, -78.98251389157463 36.19513738134559, -78.98232152442307 36.19533679945523, -78.9822571574063 36.19541589001146, -78.98225807902658 36.19550202114513, -78.9823000789047 36.19569783027748)" }, "geometry": { "type": "LineString", "coordinates": [ [ -78.983110590927964, 36.19473525897682 ], [ -78.982720945186628, 36.194931999964552 ], [ -78.982602841347841, 36.19499857000099 ], [ -78.982542191727958, 36.195057149099021 ], [ -78.982513891574627, 36.195137381345589 ], [ -78.982321524423071, 36.195336799455227 ], [ -78.982257157406295, 36.195415890011461 ], [ -78.982258079026579, 36.195502021145131 ], [ -78.9823000789047, 36.195697830277481 ] ] } },
{ "type": "Feature", "properties": { "FEEDER_NAME": "New Sharon Rd.", "SUBSTATION_NAME": "Little River", "wmType": "PRIMARY UNDERGROUND", "WKT": "LINESTRING (-78.96810446391223 36.187895292870465, -78.96819614760241 36.18793088798481)" }, "geometry": { "type": "LineString", "coordinates": [ [ -78.968104463912226, 36.187895292870465 ], [ -78.968196147602413, 36.187930887984813 ] ] } },
{ "type": "Feature", "properties": { "FEEDER_NAME": "New Sharon Rd.", "SUBSTATION_NAME": "Little River", "wmType": "PRIMARY UNDERGROUND", "WKT": "LINESTRING (-78.96819614760241 36.18793088798481, -78.96826331255417 36.187956963610084, -78.96854385967293 36.187969670819804, -78.96902704609184 36.18793189040683, -78.96945569126119 36.18786882394303, -78.96990774627231 36.18771732155326, -78.97013378597454 36.18760998266441, -78.97032563868626 36.187529041142604, -78.97047671146404 36.18752794034243, -78.97056241127311 36.18759113420883, -78.97102968512999 36.18845039930198, -78.97139574723823 36.1890569459211, -78.97155454070504 36.18924429003267, -78.97181852629508 36.1891723046673)" }, "geometry": { "type": "LineString", "coordinates": [ [ -78.968196147602413, 36.187930887984813 ], [ -78.968263312554171, 36.187956963610084 ], [ -78.968543859672934, 36.187969670819804 ], [ -78.969027046091838, 36.18793189040683 ], [ -78.969455691261189, 36.187868823943028 ], [ -78.969907746272312, 36.187717321553258 ], [ -78.970133785974539, 36.187609982664412 ], [ -78.970325638686262, 36.187529041142604 ], [ -78.970476711464045, 36.187527940342427 ], [ -78.970562411273107, 36.18759113420883 ], [ -78.971029685129992, 36.188450399301978 ], [ -78.971395747238233, 36.189056945921102 ], [ -78.971554540705043, 36.189244290032669 ], [ -78.971818526295081, 36.189172304667302 ] ] } },
{ "type": "Feature", "properties": { "FEEDER_NAME": "New Sharon Rd.", "SUBSTATION_NAME": "Little River", "wmType": "PRIMARY UNDERGROUND", "WKT": "LINESTRING (-78.9694308468683 36.1875425210952, -78.96932969228054 36.187550699428535)" }, "geometry": { "type": "LineString", "coordinates": [ [ -78.969430846868306, 36.187542521095203 ], [ -78.969329692280539, 36.187550699428535 ] ] } },
{ "type": "Feature", "properties": { "FEEDER_NAME": "New Sharon Rd.", "SUBSTATION_NAME": "Little River", "wmType": "PRIMARY UNDERGROUND", "WKT": "LINESTRING (-78.96932969228054 36.187550699428535, -78.96909899423886 36.18756935034967)" }, "geometry": { "type": "LineString", "coordinates": [ [ -78.969329692280539, 36.187550699428535 ], [ -78.969098994238863, 36.187569350349669 ] ] } },
{ "type": "Feature", "properties": { "FEEDER_NAME": "New Sharon Rd.", "SUBSTATION_NAME": "Little River", "wmType": "PRIMARY UNDERGROUND", "WKT": "LINESTRING (-78.97052539138905 36.186864068384715, -78.97051712523024 36.18688073680208, -78.97045709481753 36.18692298052757)" }, "geometry": { "type": "LineString", "coordinates": [ [ -78.970525391389046, 36.186864068384715 ], [ -78.970517125230245, 36.186880736802081 ], [ -78.970457094817533, 36.186922980527569 ] ] } },
{ "type": "Feature", "properties": { "FEEDER_NAME": "New Sharon Rd.", "SUBSTATION_NAME": "Little River", "wmType": "PRIMARY UNDERGROUND", "WKT": "LINESTRING (-78.97045709481753 36.18692298052757, -78.97021866612674 36.18709076234985, -78.9699325566786 36.18726514049985, -78.96961569257672 36.18721518085003, -78.96930661046618 36.18716638758189, -78.96911834422845 36.187136669127725, -78.96905487004288 36.18712648125533, -78.96880749816945 36.18699961688913, -78.96869971855016 36.1869072686077, -78.96857956650896 36.18675896421454, -78.96849337889527 36.18657646516877, -78.96846487316049 36.186446782264376, -78.96846714639646 36.186319653167196)" }, "geometry": { "type": "LineString", "coordinates": [ [ -78.970457094817533, 36.186922980527569 ], [ -78.97021866612674, 36.187090762349847 ], [ -78.9699325566786, 36.187265140499854 ], [ -78.969615692576724, 36.187215180850032 ], [ -78.969306610466177, 36.18716638758189 ], [ -78.969118344228448, 36.187136669127725 ], [ -78.969054870042882, 36.187126481255333 ], [ -78.968807498169454, 36.186999616889132 ], [ -78.968699718550155, 36.186907268607698 ], [ -78.968579566508964, 36.18675896421454 ], [ -78.968493378895275, 36.18657646516877 ], [ -78.968464873160485, 36.186446782264376 ], [ -78.968467146396463, 36.186319653167196 ] ] } },
{ "type": "Feature", "properties": { "FEEDER_NAME": "New Sharon Rd.", "SUBSTATION_NAME": "Little River", "wmType": "PRIMARY UNDERGROUND", "WKT": "LINESTRING (-78.97052539138905 36.186864068384715, -78.9705005165515 36.186867607717915, -78.9704395107626 36.18690489189373)" }, "geometry": { "type": "LineString", "coordinates": [ [ -78.970525391389046, 36.186864068384715 ], [ -78.970500516551496, 36.186867607717915 ], [ -78.970439510762603, 36.186904891893732 ] ] } },
{ "type": "Feature", "properties": { "FEEDER_NAME": "New Sharon Rd.", "SUBSTATION_NAME": "Little River", "wmType": "PRIMARY UNDERGROUND", "WKT": "LINESTRING (-78.9704395107626 36.18690489189373, -78.9701939536345 36.18705496426083, -78.97005705338246 36.18713224034229, -78.969847532035 36.18709644462004, -78.9694359427567 36.18702805141797, -78.9693378453644 36.1870117503135, -78.96923142866041 36.18697895777516, -78.9691547478424 36.186958857935515, -78.96905803316133 36.1869147008472, -78.9689726530159 36.186860645964906, -78.96889807035458 36.186796956325836, -78.96883728315389 36.186733066479505, -78.9687777401473 36.186625964348885, -78.96874308922816 36.18651990131615, -78.96873315190783 36.18641048129996, -78.96873818037265 36.18633842257365, -78.96875796480735 36.186259920419936, -78.96879609180955 36.18616851954239, -78.96879879733223 36.18614080470188, -78.96879604790946 36.18611544781482)" }, "geometry": { "type": "LineString", "coordinates": [ [ -78.970439510762603, 36.186904891893732 ], [ -78.970193953634507, 36.187054964260831 ], [ -78.970057053382462, 36.187132240342287 ], [ -78.969847532035004, 36.187096444620039 ], [ -78.969435942756704, 36.187028051417968 ], [ -78.969337845364393, 36.187011750313502 ], [ -78.969231428660407, 36.18697895777516 ], [ -78.969154747842396, 36.186958857935515 ], [ -78.969058033161332, 36.186914700847197 ], [ -78.968972653015896, 36.186860645964906 ], [ -78.968898070354584, 36.186796956325836 ], [ -78.968837283153889, 36.186733066479505 ], [ -78.968777740147303, 36.186625964348885 ], [ -78.968743089228155, 36.186519901316153 ], [ -78.968733151907827, 36.186410481299959 ], [ -78.968738180372654, 36.186338422573648 ], [ -78.968757964807352, 36.186259920419936 ], [ -78.968796091809551, 36.186168519542392 ], [ -78.968798797332227, 36.186140804701878 ], [ -78.968796047909464, 36.186115447814821 ] ] } },
{ "type": "Feature", "properties": { "FEEDER_NAME": "New Sharon Rd.", "SUBSTATION_NAME": "Little River", "wmType": "PRIMARY UNDERGROUND", "WKT": "LINESTRING (-78.97097682176457 36.18419105523469, -78.97107602337748 36.184173069994536)" }, "geometry": { "type": "LineString", "coordinates": [ [ -78.970976821764566, 36.184191055234692 ], [ -78.971076023377478, 36.184173069994536 ] ] } },
{ "type": "Feature", "properties": { "FEEDER_NAME": "New Sharon Rd.", "SUBSTATION_NAME": "Little River", "wmType": "PRIMARY UNDERGROUND", "WKT": "LINESTRING (-78.97107602337748 36.184173069994536, -78.9713039578987 36.18413174404698)" }, "geometry": { "type": "LineString", "coordinates": [ [ -78.971076023377478, 36.184173069994536 ], [ -78.971303957898698, 36.184131744046979 ] ] } },
{ "type": "Feature", "properties": { "FEEDER_NAME": "New Sharon Rd.", "SUBSTATION_NAME": "Little River", "wmType": "PRIMARY UNDERGROUND", "WKT": "LINESTRING (-78.97980262679349 36.1836844061449, -78.97987909405121 36.183738701721744)" }, "geometry": { "type": "LineString", "coordinates": [ [ -78.979802626793486, 36.183684406144899 ], [ -78.979879094051213, 36.183738701721744 ] ] } },
{ "type": "Feature", "properties": { "FEEDER_NAME": "New Sharon Rd.", "SUBSTATION_NAME": "Little River", "wmType": "PRIMARY UNDERGROUND", "WKT": "LINESTRING (-78.97987909405121 36.183738701721744, -78.98084475019606 36.1844243547059)" }, "geometry": { "type": "LineString", "coordinates": [ [ -78.979879094051213, 36.183738701721744 ], [ -78.980844750196056, 36.184424354705897 ] ] } },
{ "type": "Feature", "properties": { "FEEDER_NAME": "New Sharon Rd.", "SUBSTATION_NAME": "Little River", "wmType": "PRIMARY UNDERGROUND", "WKT": "LINESTRING (-78.97888972946879 36.19041331298733, -78.97898767689905 36.19043538127164)" }, "geometry": { "type": "LineString", "coordinates": [ [ -78.97888972946879, 36.190413312987332 ], [ -78.978987676899052, 36.190435381271641 ] ] } },
{ "type": "Feature", "properties": { "FEEDER_NAME": "New Sharon Rd.", "SUBSTATION_NAME": "Little River", "wmType": "PRIMARY UNDERGROUND", "WKT": "LINESTRING (-78.97898767689905 36.19043538127164, -78.97909746955551 36.19046011814773, -78.97972278404625 36.19038703780774, -78.98015515872582 36.190520636592616, -78.98029804964911 36.190729564793386, -78.98088145745437 36.190860558202836)" }, "geometry": { "type": "LineString", "coordinates": [ [ -78.978987676899052, 36.190435381271641 ], [ -78.979097469555512, 36.190460118147733 ], [ -78.979722784046245, 36.190387037807739 ], [ -78.980155158725822, 36.190520636592616 ], [ -78.980298049649107, 36.190729564793386 ], [ -78.980881457454373, 36.190860558202836 ] ] } },
{ "type": "Feature", "properties": { "FEEDER_NAME": "New Sharon Rd.", "SUBSTATION_NAME": "Little River", "wmType": "PRIMARY UNDERGROUND", "WKT": "LINESTRING (-78.98123145667421 36.197871269568054, -78.98115628471618 36.1979267527727)" }, "geometry": { "type": "LineString", "coordinates": [ [ -78.981231456674209, 36.197871269568054 ], [ -78.981156284716178, 36.197926752772702 ] ] } },
{ "type": "Feature", "properties": { "FEEDER_NAME": "New Sharon Rd.", "SUBSTATION_NAME": "Little River", "wmType": "PRIMARY UNDERGROUND", "WKT": "LINESTRING (-78.98115628471618 36.1979267527727, -78.98021194407711 36.19862375090751)" }, "geometry": { "type": "LineString", "coordinates": [ [ -78.981156284716178, 36.197926752772702 ], [ -78.980211944077112, 36.198623750907508 ] ] } },
{ "type": "Feature", "properties": { "FEEDER_NAME": "New Sharon Rd.", "SUBSTATION_NAME": "Little River", "wmType": "PRIMARY UNDERGROUND", "WKT": "LINESTRING (-78.99400693818643 36.20965020091831, -78.99409004487181 36.20960271759092)" }, "geometry": { "type": "LineString", "coordinates": [ [ -78.99400693818643, 36.209650200918311 ], [ -78.994090044871811, 36.209602717590919 ] ] } },
{ "type": "Feature", "properties": { "FEEDER_NAME": "New Sharon Rd.", "SUBSTATION_NAME": "Little River", "wmType": "PRIMARY UNDERGROUND", "WKT": "LINESTRING (-78.99409004487181 36.20960271759092, -78.9946917149534 36.2092589452026)" }, "geometry": { "type": "LineString", "coordinates": [ [ -78.994090044871811, 36.209602717590919 ], [ -78.994691714953404, 36.209258945202599 ] ] } },
{ "type": "Feature", "properties": { "FEEDER_NAME": "New Sharon Rd.", "SUBSTATION_NAME": "Little River", "wmType": "SECONDARY UNDERGROUND", "WKT": "LINESTRING (-78.99083942492736 36.19699789206373, -78.99083941957814 36.1970448768351)" }, "geometry": { "type": "LineString", "coordinates": [ [ -78.990839424927358, 36.196997892063727 ], [ -78.990839419578137, 36.197044876835101 ] ] } },
{ "type": "Feature", "properties": { "FEEDER_NAME": "New Sharon Rd.", "SUBSTATION_NAME": "Little River", "wmType": "PRIMARY UNDERGROUND", "WKT": "LINESTRING (-78.98561510464744 36.19814927441517, -78.98561494039181 36.19814136910568, -78.98583002142348 36.1980438271062, -78.9859160050127 36.19795894707087, -78.9859669923816 36.197867588775175, -78.98652259412395 36.197243311519195, -78.98673211988353 36.1972147881042)" }, "geometry": { "type": "LineString", "coordinates": [ [ -78.985615104647437, 36.198149274415172 ], [ -78.985614940391812, 36.198141369105677 ], [ -78.985830021423482, 36.198043827106197 ], [ -78.985916005012697, 36.197958947070873 ], [ -78.985966992381606, 36.197867588775175 ], [ -78.986522594123954, 36.197243311519195 ], [ -78.986732119883527, 36.197214788104198 ] ] } },
{ "type": "Feature", "properties": { "FEEDER_NAME": "New Sharon Rd.", "SUBSTATION_NAME": "Little River", "wmType": "PRIMARY UNDERGROUND", "WKT": "LINESTRING (-78.99419172294361 36.20030564899423, -78.99409098082249 36.200145480193825, -78.99398898610104 36.2000136439101, -78.99394425742527 36.199959306851426, -78.99376558367747 36.19973961264092, -78.99364643070004 36.199572897113526)" }, "geometry": { "type": "LineString", "coordinates": [ [ -78.994191722943611, 36.200305648994231 ], [ -78.994090980822492, 36.200145480193825 ], [ -78.993988986101044, 36.200013643910097 ], [ -78.993944257425269, 36.199959306851426 ], [ -78.993765583677472, 36.199739612640919 ], [ -78.993646430700039, 36.199572897113526 ] ] } },
{ "type": "Feature", "properties": { "FEEDER_NAME": "New Sharon Rd.", "SUBSTATION_NAME": "Little River", "wmType": "PRIMARY UNDERGROUND", "WKT": "LINESTRING (-78.98819941959688 36.1969178913476, -78.98922730192648 36.19666015467579, -78.98926483161245 36.196666633067764, -78.98941308260078 36.196658021522296, -78.98961884648743 36.196561754401024)" }, "geometry": { "type": "LineString", "coordinates": [ [ -78.988199419596882, 36.196917891347603 ], [ -78.989227301926476, 36.19666015467579 ], [ -78.989264831612445, 36.196666633067764 ], [ -78.989413082600777, 36.196658021522296 ], [ -78.989618846487431, 36.196561754401024 ] ] } },
{ "type": "Feature", "properties": { "FEEDER_NAME": "New Sharon Rd.", "SUBSTATION_NAME": "Little River", "wmType": "PRIMARY UNDERGROUND", "WKT": "LINESTRING (-78.99369460662976 36.20547668227282, -78.99529584491968 36.2055165644277)" }, "geometry": { "type": "LineString", "coordinates": [ [ -78.993694606629759, 36.205476682272817 ], [ -78.995295844919681, 36.205516564427697 ] ] } },
{ "type": "Feature", "properties": { "FEEDER_NAME": "New Sharon Rd.", "SUBSTATION_NAME": "Little River", "wmType": "PRIMARY UNDERGROUND", "WKT": "LINESTRING (-78.99157317237956 36.20202853858626, -78.990991424529 36.20149690064154, -78.99092353612775 36.20140030199758, -78.99095942475098 36.20129790011299, -78.99068742469568 36.20100889996118, -78.9905255025627 36.20070669531444, -78.99038142350089 36.20072789911144)" }, "geometry": { "type": "LineString", "coordinates": [ [ -78.99157317237956, 36.202028538586262 ], [ -78.990991424529, 36.201496900641537 ], [ -78.990923536127752, 36.20140030199758 ], [ -78.990959424750983, 36.201297900112991 ], [ -78.990687424695679, 36.201008899961181 ], [ -78.990525502562704, 36.200706695314437 ], [ -78.990381423500892, 36.200727899111442 ] ] } },
{ "type": "Feature", "properties": { "FEEDER_NAME": "New Sharon Rd.", "SUBSTATION_NAME": "Little River", "wmType": "PRIMARY UNDERGROUND", "WKT": "LINESTRING (-78.99338841304736 36.201559733363446, -78.99357438535469 36.201679152424724, -78.99375179161179 36.20173149666552, -78.99396513908358 36.20179444497595, -78.99408343171743 36.20187490216884)" }, "geometry": { "type": "LineString", "coordinates": [ [ -78.993388413047356, 36.201559733363446 ], [ -78.993574385354691, 36.201679152424724 ], [ -78.993751791611786, 36.201731496665523 ], [ -78.993965139083585, 36.201794444975953 ], [ -78.994083431717428, 36.201874902168839 ] ] } },
{ "type": "Feature", "properties": { "FEEDER_NAME": "New Sharon Rd.", "SUBSTATION_NAME": "Little River", "wmType": "PRIMARY UNDERGROUND", "WKT": "LINESTRING (-78.97918316341767 36.19634329275597, -78.97841473975076 36.19701648598756, -78.9783554936226 36.19772230681647)" }, "geometry": { "type": "LineString", "coordinates": [ [ -78.979183163417673, 36.196343292755969 ], [ -78.978414739750761, 36.197016485987561 ], [ -78.978355493622601, 36.197722306816473 ] ] } },
{ "type": "Feature", "properties": { "FEEDER_NAME": "New Sharon Rd.", "SUBSTATION_NAME": "Little River", "wmType": "PRIMARY UNDERGROUND", "WKT": "LINESTRING (-78.98673211988353 36.1972147881042, -78.98819941959688 36.1969178913476)" }, "geometry": { "type": "LineString", "coordinates": [ [ -78.986732119883527, 36.197214788104198 ], [ -78.988199419596882, 36.196917891347603 ] ] } },
{ "type": "Feature", "properties": { "FEEDER_NAME": "New Sharon Rd.", "SUBSTATION_NAME": "Little River", "wmType": "PRIMARY UNDERGROUND", "WKT": "LINESTRING (-78.98961884648743 36.196561754401024, -78.99009649721512 36.19664411104688, -78.99067885068308 36.19677683540063, -78.99084319937451 36.19698103096245, -78.99083942492736 36.19699789206373)" }, "geometry": { "type": "LineString", "coordinates": [ [ -78.989618846487431, 36.196561754401024 ], [ -78.99009649721512, 36.196644111046879 ], [ -78.990678850683082, 36.196776835400627 ], [ -78.99084319937451, 36.196981030962448 ], [ -78.990839424927358, 36.196997892063727 ] ] } },
{ "type": "Feature", "properties": { "FEEDER_NAME": "New Sharon Rd.", "SUBSTATION_NAME": "Little River", "wmType": "PRIMARY UNDERGROUND", "WKT": "LINESTRING (-78.99004142289968 36.20429690595486, -78.98998271567632 36.20425494340811, -78.99020418330542 36.20398717169992, -78.99058524394248 36.20343640288469, -78.99077959463955 36.20317040330046, -78.99089993553119 36.20298445635972, -78.99095185969061 36.202994835651474)" }, "geometry": { "type": "LineString", "coordinates": [ [ -78.990041422899679, 36.204296905954862 ], [ -78.989982715676319, 36.20425494340811 ], [ -78.990204183305423, 36.203987171699922 ], [ -78.990585243942476, 36.203436402884691 ], [ -78.990779594639548, 36.203170403300462 ], [ -78.990899935531189, 36.202984456359722 ], [ -78.990951859690611, 36.202994835651474 ] ] } },
{ "type": "Feature", "properties": { "FEEDER_NAME": "New Sharon Rd.", "SUBSTATION_NAME": "Little River", "wmType": "PRIMARY UNDERGROUND", "WKT": "LINESTRING (-78.9847418526579 36.19865254515273, -78.98474707240614 36.19864944568982, -78.98484550944488 36.19861317757387, -78.98503044491541 36.19848745287519, -78.98530502621267 36.198298864951646, -78.9856097218676 36.19815043001714, -78.98561510464744 36.19814927441517)" }, "geometry": { "type": "LineString", "coordinates": [ [ -78.984741852657905, 36.198652545152733 ], [ -78.984747072406137, 36.198649445689817 ], [ -78.984845509444881, 36.198613177573868 ], [ -78.985030444915409, 36.198487452875192 ], [ -78.985305026212671, 36.198298864951646 ], [ -78.985609721867604, 36.198150430017137 ], [ -78.985615104647437, 36.198149274415172 ] ] } },
{ "type": "Feature", "properties": { "FEEDER_NAME": "New Sharon Rd.", "SUBSTATION_NAME": "Little River", "wmType": "PRIMARY UNDERGROUND", "WKT": "LINESTRING (-78.97963240238231 36.19663588948315, -78.97937371831993 36.19646964572309, -78.97918316341767 36.19634329275597)" }, "geometry": { "type": "LineString", "coordinates": [ [ -78.979632402382308, 36.196635889483147 ], [ -78.979373718319934, 36.196469645723091 ], [ -78.979183163417673, 36.196343292755969 ] ] } },
{ "type": "Feature", "properties": { "FEEDER_NAME": "New Sharon Rd.", "SUBSTATION_NAME": "Little River", "wmType": "PRIMARY UNDERGROUND", "WKT": "LINESTRING (-78.97181852629508 36.1891723046673, -78.9715671271296 36.18925913841567, -78.97173846461475 36.1895813613945, -78.97204237726501 36.18965092083583, -78.97231513748447 36.18966361761668, -78.97262555756255 36.18963656940824, -78.97292301807089 36.189644801306315, -78.97311784550995 36.18965747904341, -78.97331263948892 36.18977123227853, -78.97347615412991 36.190207161652495, -78.97381903272824 36.190289359908945, -78.97547139398785 36.190320876289576)" }, "geometry": { "type": "LineString", "coordinates": [ [ -78.971818526295081, 36.189172304667302 ], [ -78.971567127129603, 36.189259138415672 ], [ -78.971738464614745, 36.189581361394502 ], [ -78.972042377265012, 36.189650920835831 ], [ -78.972315137484472, 36.189663617616681 ], [ -78.972625557562552, 36.189636569408243 ], [ -78.972923018070887, 36.189644801306315 ], [ -78.973117845509947, 36.189657479043412 ], [ -78.973312639488924, 36.189771232278531 ], [ -78.973476154129912, 36.190207161652495 ], [ -78.973819032728244, 36.190289359908945 ], [ -78.975471393987846, 36.190320876289576 ] ] } },
{ "type": "Feature", "properties": { "FEEDER_NAME": "New Sharon Rd.", "SUBSTATION_NAME": "Little River", "wmType": "SECONDARY UNDERGROUND", "WKT": "LINESTRING (-78.98088145745437 36.190860558202836, -78.98097629918219 36.19080010342864, -78.98107796142277 36.19079187861592, -78.98112877932948 36.19084407668696, -78.98119313725958 36.19095945445908, -78.98125750177219 36.1910473636534, -78.98134559108227 36.19111879530361, -78.98145740441161 36.191181990822514, -78.9815684069205 36.19119887892053)" }, "geometry": { "type": "LineString", "coordinates": [ [ -78.980881457454373, 36.190860558202836 ], [ -78.980976299182188, 36.190800103428643 ], [ -78.98107796142277, 36.190791878615919 ], [ -78.981128779329481, 36.190844076686957 ], [ -78.981193137259581, 36.190959454459083 ], [ -78.981257501772191, 36.191047363653396 ], [ -78.981345591082274, 36.191118795303609 ], [ -78.981457404411614, 36.191181990822514 ], [ -78.981568406920502, 36.191198878920531 ] ] } },
{ "type": "Feature", "properties": { "FEEDER_NAME": "New Sharon Rd.", "SUBSTATION_NAME": "Little River", "wmType": "SECONDARY UNDERGROUND", "WKT": "LINESTRING (-78.9713039578987 36.18413174404698, -78.9715049311241 36.18453492727031)" }, "geometry": { "type": "LineString", "coordinates": [ [ -78.971303957898698, 36.184131744046979 ], [ -78.971504931124102, 36.184534927270313 ] ] } },
{ "type": "Feature", "properties": { "FEEDER_NAME": "New Sharon Rd.", "SUBSTATION_NAME": "Little River", "wmType": "SECONDARY UNDERGROUND", "WKT": "LINESTRING (-78.97097682176457 36.18419105523469, -78.97063113785663 36.18437226573417)" }, "geometry": { "type": "LineString", "coordinates": [ [ -78.970976821764566, 36.184191055234692 ], [ -78.970631137856628, 36.184372265734169 ] ] } },
{ "type": "Feature", "properties": { "FEEDER_NAME": "New Sharon Rd.", "SUBSTATION_NAME": "Little River", "wmType": "SECONDARY UNDERGROUND", "WKT": "LINESTRING (-78.98426777184557 36.19029339732977, -78.98432360110246 36.19056252595292, -78.98441561208436 36.190711753712925)" }, "geometry": { "type": "LineString", "coordinates": [ [ -78.984267771845566, 36.190293397329768 ], [ -78.98432360110246, 36.19056252595292 ], [ -78.984415612084362, 36.190711753712925 ] ] } },
{ "type": "Feature", "properties": { "FEEDER_NAME": "New Sharon Rd.", "SUBSTATION_NAME": "Little River", "wmType": "SECONDARY UNDERGROUND", "WKT": "LINESTRING (-78.99529584491968 36.2055165644277, -78.9953397056395 36.20551624978563)" }, "geometry": { "type": "LineString", "coordinates": [ [ -78.995295844919681, 36.205516564427697 ], [ -78.995339705639495, 36.205516249785632 ] ] } },
{ "type": "Feature", "properties": { "FEEDER_NAME": "New Sharon Rd.", "SUBSTATION_NAME": "Little River", "wmType": "SECONDARY UNDERGROUND", "WKT": "LINESTRING (-78.99038142350089 36.20072789911144, -78.99038459470077 36.20061592590326, -78.99039891459361 36.20048838992773, -78.99044184339665 36.200382111763176, -78.99049430318793 36.20031448206522, -78.99052625792704 36.20032575037941)" }, "geometry": { "type": "LineString", "coordinates": [ [ -78.990381423500892, 36.200727899111442 ], [ -78.990384594700771, 36.200615925903257 ], [ -78.990398914593612, 36.200488389927727 ], [ -78.990441843396653, 36.200382111763176 ], [ -78.99049430318793, 36.200314482065217 ], [ -78.990526257927044, 36.200325750379413 ] ] } },
{ "type": "Feature", "properties": { "FEEDER_NAME": "New Sharon Rd.", "SUBSTATION_NAME": "Little River", "wmType": "SECONDARY UNDERGROUND", "WKT": "LINESTRING (-78.97791940032619 36.18798787240049, -78.97753078732327 36.188017486342275, -78.97730398098436 36.188024058424716, -78.97727661422802 36.18801743944267, -78.97724939851274 36.18792487213205)" }, "geometry": { "type": "LineString", "coordinates": [ [ -78.977919400326186, 36.187987872400491 ], [ -78.977530787323275, 36.188017486342275 ], [ -78.97730398098436, 36.188024058424716 ], [ -78.977276614228018, 36.188017439442667 ], [ -78.97724939851274, 36.187924872132051 ] ] } },
{ "type": "Feature", "properties": { "FEEDER_NAME": "New Sharon Rd.", "SUBSTATION_NAME": "Little River", "wmType": "SECONDARY UNDERGROUND", "WKT": "LINESTRING (-78.99408343171743 36.20187490216884, -78.99412674419715 36.201833070812256)" }, "geometry": { "type": "LineString", "coordinates": [ [ -78.994083431717428, 36.201874902168839 ], [ -78.994126744197146, 36.201833070812256 ] ] } },
{ "type": "Feature", "properties": { "FEEDER_NAME": "New Sharon Rd.", "SUBSTATION_NAME": "Little River", "wmType": "SECONDARY UNDERGROUND", "WKT": "LINESTRING (-78.97721746930819 36.18574653477221, -78.97694558665806 36.18548104954793, -78.9769513984298 36.185442866752275)" }, "geometry": { "type": "LineString", "coordinates": [ [ -78.977217469308187, 36.185746534772207 ], [ -78.976945586658061, 36.185481049547931 ], [ -78.976951398429804, 36.185442866752275 ] ] } },
{ "type": "Feature", "properties": { "FEEDER_NAME": "New Sharon Rd.", "SUBSTATION_NAME": "Little River", "wmType": "SECONDARY UNDERGROUND", "WKT": "LINESTRING (-78.99529584491968 36.2055165644277, -78.99542043286579 36.20529890854118)" }, "geometry": { "type": "LineString", "coordinates": [ [ -78.995295844919681, 36.205516564427697 ], [ -78.995420432865785, 36.205298908541181 ] ] } },
{ "type": "Feature", "properties": { "FEEDER_NAME": "New Sharon Rd.", "SUBSTATION_NAME": "Little River", "wmType": "SECONDARY UNDERGROUND", "WKT": "LINESTRING (-78.96445137183211 36.19222887949813, -78.96468580016872 36.1925465845687)" }, "geometry": { "type": "LineString", "coordinates": [ [ -78.964451371832112, 36.192228879498131 ], [ -78.964685800168724, 36.192546584568703 ] ] } },
{ "type": "Feature", "properties": { "FEEDER_NAME": "New Sharon Rd.", "SUBSTATION_NAME": "Little River", "wmType": "SECONDARY UNDERGROUND", "WKT": "LINESTRING (-78.99004142289968 36.20429690595486, -78.99033720946485 36.20453420662808, -78.9905296851764 36.204658595335616, -78.99060342385704 36.20466790673539)" }, "geometry": { "type": "LineString", "coordinates": [ [ -78.990041422899679, 36.204296905954862 ], [ -78.990337209464855, 36.204534206628082 ], [ -78.990529685176398, 36.204658595335616 ], [ -78.990603423857038, 36.204667906735388 ] ] } },
{ "type": "Feature", "properties": { "FEEDER_NAME": "New Sharon Rd.", "SUBSTATION_NAME": "Little River", "wmType": "SECONDARY UNDERGROUND", "WKT": "LINESTRING (-78.9783554936226 36.19772230681647, -78.97828189861977 36.19774502735995)" }, "geometry": { "type": "LineString", "coordinates": [ [ -78.978355493622601, 36.197722306816473 ], [ -78.97828189861977, 36.19774502735995 ] ] } },
{ "type": "Feature", "properties": { "FEEDER_NAME": "New Sharon Rd.", "SUBSTATION_NAME": "Little River", "wmType": "SECONDARY UNDERGROUND", "WKT": "LINESTRING (-78.98593592475763 36.201543114460314, -78.98590344789565 36.201498288918074, -78.98582073275962 36.20144510438883, -78.98577223449034 36.20147515360157, -78.98570662218599 36.201489018049266, -78.985660986632 36.20145895697738, -78.98549837004411 36.20157453675193, -78.9854884139108 36.201586899960716)" }, "geometry": { "type": "LineString", "coordinates": [ [ -78.985935924757626, 36.201543114460314 ], [ -78.985903447895652, 36.201498288918074 ], [ -78.98582073275962, 36.201445104388831 ], [ -78.985772234490341, 36.201475153601571 ], [ -78.985706622185987, 36.201489018049266 ], [ -78.985660986631999, 36.201458956977383 ], [ -78.985498370044112, 36.201574536751927 ], [ -78.985488413910801, 36.201586899960716 ] ] } },
{ "type": "Feature", "properties": { "FEEDER_NAME": "New Sharon Rd.", "SUBSTATION_NAME": "Little River", "wmType": "SECONDARY UNDERGROUND", "WKT": "LINESTRING (-78.99333398302475 36.199927991970995, -78.99269783205688 36.200177129827395, -78.99262392666952 36.200172830303394, -78.99241837487273 36.2002358626519, -78.99243642794062 36.20032789830599, -78.9924588852876 36.200420063095635, -78.99251959159999 36.20047096991206)" }, "geometry": { "type": "LineString", "coordinates": [ [ -78.993333983024755, 36.199927991970995 ], [ -78.992697832056876, 36.200177129827395 ], [ -78.992623926669523, 36.200172830303394 ], [ -78.992418374872727, 36.200235862651901 ], [ -78.992436427940618, 36.200327898305993 ], [ -78.992458885287604, 36.200420063095635 ], [ -78.992519591599986, 36.200470969912061 ] ] } },
{ "type": "Feature", "properties": { "FEEDER_NAME": "New Sharon Rd.", "SUBSTATION_NAME": "Little River", "wmType": "SECONDARY UNDERGROUND", "WKT": "LINESTRING (-78.99364643070004 36.199572897113526, -78.99410173314774 36.19945946931083, -78.99428948467869 36.19933464282642, -78.99423343220303 36.19927189627375)" }, "geometry": { "type": "LineString", "coordinates": [ [ -78.993646430700039, 36.199572897113526 ], [ -78.994101733147744, 36.199459469310831 ], [ -78.994289484678688, 36.199334642826422 ], [ -78.994233432203032, 36.19927189627375 ] ] } },
{ "type": "Feature", "properties": { "FEEDER_NAME": "New Sharon Rd.", "SUBSTATION_NAME": "Little River", "wmType": "SECONDARY UNDERGROUND", "WKT": "LINESTRING (-78.98512429928799 36.19369575000476, -78.985113619655 36.19369948957878, -78.9847069631989 36.1936966926234, -78.98459513757246 36.193671956953075, -78.98442231734866 36.193622491781284, -78.98441241235449 36.193621884014924)" }, "geometry": { "type": "LineString", "coordinates": [ [ -78.985124299287989, 36.193695750004757 ], [ -78.985113619654996, 36.193699489578783 ], [ -78.984706963198903, 36.193696692623398 ], [ -78.984595137572455, 36.193671956953075 ], [ -78.98442231734866, 36.193622491781284 ], [ -78.984412412354487, 36.193621884014924 ] ] } },
{ "type": "Feature", "properties": { "FEEDER_NAME": "New Sharon Rd.", "SUBSTATION_NAME": "Little River", "wmType": "SECONDARY UNDERGROUND", "WKT": "LINESTRING (-78.98018380854673 36.189253693849025, -78.98017818623549 36.18931315949017, -78.98020187106574 36.18934887695619, -78.98023234493189 36.18938189642069, -78.98026972584769 36.189447827892906, -78.98022803061552 36.18945723149283)" }, "geometry": { "type": "LineString", "coordinates": [ [ -78.980183808546727, 36.189253693849025 ], [ -78.980178186235491, 36.189313159490169 ], [ -78.980201871065745, 36.189348876956188 ], [ -78.980232344931892, 36.189381896420691 ], [ -78.980269725847691, 36.189447827892906 ], [ -78.980228030615521, 36.189457231492831 ] ] } },
{ "type": "Feature", "properties": { "FEEDER_NAME": "New Sharon Rd.", "SUBSTATION_NAME": "Little River", "wmType": "SECONDARY UNDERGROUND", "WKT": "LINESTRING (-78.97181852629508 36.1891723046673, -78.97180835131431 36.18912545076132)" }, "geometry": { "type": "LineString", "coordinates": [ [ -78.971818526295081, 36.189172304667302 ], [ -78.971808351314309, 36.189125450761317 ] ] } },
{ "type": "Feature", "properties": { "FEEDER_NAME": "New Sharon Rd.", "SUBSTATION_NAME": "Little River", "wmType": "SECONDARY UNDERGROUND", "WKT": "LINESTRING (-78.979617402454 36.19670589012842, -78.97961088385466 36.196718302123614, -78.97960371453087 36.19673185312227, -78.97959892953709 36.19676089338113, -78.97957623183328 36.19678412154137, -78.9795415973578 36.19678508364583, -78.97954637400696 36.196788956884745)" }, "geometry": { "type": "LineString", "coordinates": [ [ -78.979617402453997, 36.19670589012842 ], [ -78.979610883854662, 36.196718302123614 ], [ -78.979603714530867, 36.196731853122273 ], [ -78.97959892953709, 36.196760893381132 ], [ -78.979576231833278, 36.19678412154137 ], [ -78.979541597357795, 36.196785083645828 ], [ -78.979546374006958, 36.196788956884745 ] ] } },
{ "type": "Feature", "properties": { "FEEDER_NAME": "New Sharon Rd.", "SUBSTATION_NAME": "Little River", "wmType": "PRIMARY UNDERGROUND", "WKT": "LINESTRING (-78.97963240238231 36.19663588948315, -78.979617402454 36.19670589012842)" }, "geometry": { "type": "LineString", "coordinates": [ [ -78.979632402382308, 36.196635889483147 ], [ -78.979617402453997, 36.19670589012842 ] ] } },
{ "type": "Feature", "properties": { "FEEDER_NAME": "New Sharon Rd.", "SUBSTATION_NAME": "Little River", "wmType": "PRIMARY UNDERGROUND", "WKT": "LINESTRING (-78.9930724965895 36.20612036971974, -78.99369460662976 36.20547668227282)" }, "geometry": { "type": "LineString", "coordinates": [ [ -78.993072496589505, 36.206120369719741 ], [ -78.993694606629759, 36.205476682272817 ] ] } },
{ "type": "Feature", "properties": { "FEEDER_NAME": "New Sharon Rd.", "SUBSTATION_NAME": "Little River", "wmType": "SECONDARY UNDERGROUND", "WKT": "LINESTRING (-78.97677082988274 36.18573594736563, -78.9767718973016 36.18573530230824, -78.9765679899187 36.185740348937685, -78.97644877778015 36.185763213869436, -78.97632956296657 36.185791163260184, -78.97632540828394 36.18578824887437)" }, "geometry": { "type": "LineString", "coordinates": [ [ -78.976770829882739, 36.185735947365629 ], [ -78.976771897301603, 36.185735302308238 ], [ -78.976567989918706, 36.185740348937685 ], [ -78.976448777780149, 36.185763213869436 ], [ -78.976329562966569, 36.185791163260184 ], [ -78.976325408283941, 36.185788248874367 ] ] } },
{ "type": "Feature", "properties": { "FEEDER_NAME": "New Sharon Rd.", "SUBSTATION_NAME": "Little River", "wmType": "SECONDARY UNDERGROUND", "WKT": "LINESTRING (-78.980436376307 36.19415808474557, -78.98071640509852 36.19393588482691)" }, "geometry": { "type": "LineString", "coordinates": [ [ -78.980436376306997, 36.194158084745567 ], [ -78.980716405098519, 36.193935884826907 ] ] } },
{ "type": "Feature", "properties": { "FEEDER_NAME": "New Sharon Rd.", "SUBSTATION_NAME": "Little River", "wmType": "SECONDARY UNDERGROUND", "WKT": "LINESTRING (-78.99249651944291 36.20193900550116, -78.99250668892742 36.20191703140176, -78.9925439706347 36.20191703367692, -78.99256430423564 36.20193076911426, -78.9925575241658 36.201949996584105, -78.99251346168391 36.20198844966157, -78.99245584153105 36.202037889248665, -78.9924083890231 36.202084583499314, -78.99238127287377 36.202103808794725, -78.99237110020583 36.202158745862626, -78.99237109551761 36.20220818898105, -78.99238464954696 36.202235657322085, -78.99241853906075 36.2022576350445, -78.9924422637724 36.20226312928916, -78.99267399045436 36.20234119128809)" }, "geometry": { "type": "LineString", "coordinates": [ [ -78.992496519442909, 36.20193900550116 ], [ -78.992506688927421, 36.201917031401763 ], [ -78.992543970634699, 36.201917033676921 ], [ -78.992564304235643, 36.201930769114263 ], [ -78.992557524165804, 36.201949996584105 ], [ -78.992513461683913, 36.20198844966157 ], [ -78.992455841531054, 36.202037889248665 ], [ -78.992408389023097, 36.202084583499314 ], [ -78.992381272873772, 36.202103808794725 ], [ -78.99237110020583, 36.202158745862626 ], [ -78.992371095517612, 36.202208188981047 ], [ -78.992384649546963, 36.202235657322085 ], [ -78.992418539060751, 36.202257635044496 ], [ -78.992442263772404, 36.202263129289157 ], [ -78.992673990454364, 36.202341191288092 ] ] } },
{ "type": "Feature", "properties": { "FEEDER_NAME": "New Sharon Rd.", "SUBSTATION_NAME": "Little River", "wmType": "SECONDARY UNDERGROUND", "WKT": "LINESTRING (-78.99095185969061 36.202994835651474, -78.99130054704659 36.202913263214086, -78.99168013314998 36.20294075797596, -78.99190724822496 36.202769481460535)" }, "geometry": { "type": "LineString", "coordinates": [ [ -78.990951859690611, 36.202994835651474 ], [ -78.991300547046592, 36.202913263214086 ], [ -78.991680133149984, 36.202940757975959 ], [ -78.991907248224962, 36.202769481460535 ] ] } },
{ "type": "Feature", "properties": { "FEEDER_NAME": "New Sharon Rd.", "SUBSTATION_NAME": "Little River", "wmType": "SECONDARY UNDERGROUND", "WKT": "LINESTRING (-78.99095185969061 36.202994835651474, -78.99091849114991 36.202948765052085)" }, "geometry": { "type": "LineString", "coordinates": [ [ -78.990951859690611, 36.202994835651474 ], [ -78.990918491149912, 36.202948765052085 ] ] } },
{ "type": "Feature", "properties": { "FEEDER_NAME": "New Sharon Rd.", "SUBSTATION_NAME": "Little River", "wmType": "SECONDARY UNDERGROUND", "WKT": "LINESTRING (-78.98512429928799 36.19369575000476, -78.98539064670292 36.193384347045345)" }, "geometry": { "type": "LineString", "coordinates": [ [ -78.985124299287989, 36.193695750004757 ], [ -78.985390646702925, 36.193384347045345 ] ] } },
{ "type": "Feature", "properties": { "FEEDER_NAME": "New Sharon Rd.", "SUBSTATION_NAME": "Little River", "wmType": "SECONDARY UNDERGROUND", "WKT": "LINESTRING (-78.9823000789047 36.19569783027748, -78.9824611345986 36.19572169731445, -78.98256409168313 36.1957384030824, -78.98267881138213 36.19577895429416, -78.98288178044886 36.19583382516504, -78.98305238263188 36.19592207245404, -78.98315531824558 36.1960484605756, -78.98315235883466 36.19613191458957, -78.98310528050702 36.19617721216332, -78.98287215590946 36.19613366459942)" }, "geometry": { "type": "LineString", "coordinates": [ [ -78.9823000789047, 36.195697830277481 ], [ -78.982461134598594, 36.195721697314447 ], [ -78.98256409168313, 36.195738403082402 ], [ -78.982678811382129, 36.195778954294163 ], [ -78.982881780448864, 36.195833825165039 ], [ -78.983052382631882, 36.195922072454039 ], [ -78.983155318245579, 36.196048460575597 ], [ -78.983152358834658, 36.196131914589571 ], [ -78.983105280507019, 36.19617721216332 ], [ -78.982872155909462, 36.196133664599422 ] ] } },
{ "type": "Feature", "properties": { "FEEDER_NAME": "New Sharon Rd.", "SUBSTATION_NAME": "Little River", "wmType": "SECONDARY UNDERGROUND", "WKT": "LINESTRING (-78.9823000789047 36.19569783027748, -78.98229294833655 36.19557310810071, -78.98228698479717 36.195490699085695, -78.9828898602852 36.19535235372678)" }, "geometry": { "type": "LineString", "coordinates": [ [ -78.9823000789047, 36.195697830277481 ], [ -78.98229294833655, 36.19557310810071 ], [ -78.98228698479717, 36.195490699085695 ], [ -78.982889860285198, 36.195352353726783 ] ] } },
{ "type": "Feature", "properties": { "FEEDER_NAME": "New Sharon Rd.", "SUBSTATION_NAME": "Little River", "wmType": "SECONDARY UNDERGROUND", "WKT": "LINESTRING (-78.98087633031251 36.192005223856896, -78.98059256244174 36.19193496684851)" }, "geometry": { "type": "LineString", "coordinates": [ [ -78.980876330312512, 36.192005223856896 ], [ -78.980592562441743, 36.191934966848507 ] ] } },
{ "type": "Feature", "properties": { "FEEDER_NAME": "New Sharon Rd.", "SUBSTATION_NAME": "Little River", "wmType": "SECONDARY UNDERGROUND", "WKT": "LINESTRING (-78.97737050598917 36.18890545410468, -78.97720397737224 36.189189475930434)" }, "geometry": { "type": "LineString", "coordinates": [ [ -78.977370505989171, 36.188905454104678 ], [ -78.977203977372241, 36.189189475930434 ] ] } },
{ "type": "Feature", "properties": { "FEEDER_NAME": "New Sharon Rd.", "SUBSTATION_NAME": "Little River", "wmType": "SECONDARY UNDERGROUND", "WKT": "LINESTRING (-78.97737050598917 36.18890545410468, -78.9772687680003 36.18919679670223)" }, "geometry": { "type": "LineString", "coordinates": [ [ -78.977370505989171, 36.188905454104678 ], [ -78.9772687680003, 36.189196796702227 ] ] } },
{ "type": "Feature", "properties": { "FEEDER_NAME": "New Sharon Rd.", "SUBSTATION_NAME": "Little River", "wmType": "SECONDARY UNDERGROUND", "WKT": "LINESTRING (-78.97733042233294 36.18865185629839, -78.97735664761346 36.188350082669096)" }, "geometry": { "type": "LineString", "coordinates": [ [ -78.97733042233294, 36.188651856298392 ], [ -78.977356647613462, 36.188350082669096 ] ] } },
{ "type": "Feature", "properties": { "FEEDER_NAME": "New Sharon Rd.", "SUBSTATION_NAME": "Little River", "wmType": "SECONDARY UNDERGROUND", "WKT": "LINESTRING (-78.9726601723726 36.18712252051344, -78.9724238900505 36.187270614062356)" }, "geometry": { "type": "LineString", "coordinates": [ [ -78.972660172372599, 36.187122520513441 ], [ -78.972423890050493, 36.187270614062356 ] ] } },
{ "type": "Feature", "properties": { "FEEDER_NAME": "New Sharon Rd.", "SUBSTATION_NAME": "Little River", "wmType": "SECONDARY UNDERGROUND", "WKT": "LINESTRING (-78.96504761888446 36.18982171200757, -78.96492440534935 36.18906353730468)" }, "geometry": { "type": "LineString", "coordinates": [ [ -78.965047618884455, 36.189821712007571 ], [ -78.96492440534935, 36.189063537304683 ] ] } },
{ "type": "Feature", "properties": { "FEEDER_NAME": "New Sharon Rd.", "SUBSTATION_NAME": "Little River", "wmType": "SECONDARY UNDERGROUND", "WKT": "LINESTRING (-78.96613699085019 36.1962863113591, -78.96640637531918 36.19651088804537)" }, "geometry": { "type": "LineString", "coordinates": [ [ -78.966136990850188, 36.196286311359103 ], [ -78.966406375319181, 36.196510888045367 ] ] } },
{ "type": "Feature", "properties": { "FEEDER_NAME": "New Sharon Rd.", "SUBSTATION_NAME": "Little River", "wmType": "SECONDARY UNDERGROUND", "WKT": "LINESTRING (-78.96780641526006 36.19090295827912, -78.9684131091382 36.19094016274645)" }, "geometry": { "type": "LineString", "coordinates": [ [ -78.967806415260057, 36.190902958279118 ], [ -78.968413109138197, 36.19094016274645 ] ] } },
{ "type": "Feature", "properties": { "FEEDER_NAME": "New Sharon Rd.", "SUBSTATION_NAME": "Little River", "wmType": "SECONDARY UNDERGROUND", "WKT": "LINESTRING (-78.9670331171676 36.19154206024453, -78.96639221210829 36.19119079074593)" }, "geometry": { "type": "LineString", "coordinates": [ [ -78.967033117167603, 36.191542060244529 ], [ -78.966392212108289, 36.191190790745928 ] ] } },
{ "type": "Feature", "properties": { "FEEDER_NAME": "New Sharon Rd.", "SUBSTATION_NAME": "Little River", "wmType": "SECONDARY UNDERGROUND", "WKT": "LINESTRING (-78.96674738789837 36.188282431686275, -78.96681297411423 36.188305556244416, -78.96690612933223 36.18837974660336, -78.96700268118437 36.18843470980342, -78.9670670512076 36.18846906284659, -78.9671314285888 36.18848281442842, -78.96715514472756 36.1884896879345, -78.96719921753241 36.188437509459725)" }, "geometry": { "type": "LineString", "coordinates": [ [ -78.966747387898366, 36.188282431686275 ], [ -78.966812974114234, 36.188305556244416 ], [ -78.96690612933223, 36.18837974660336 ], [ -78.967002681184368, 36.188434709803417 ], [ -78.967067051207593, 36.188469062846593 ], [ -78.9671314285888, 36.188482814428419 ], [ -78.967155144727556, 36.188489687934499 ], [ -78.967199217532411, 36.188437509459725 ] ] } },
{ "type": "Feature", "properties": { "FEEDER_NAME": "New Sharon Rd.", "SUBSTATION_NAME": "Little River", "wmType": "SECONDARY UNDERGROUND", "WKT": "LINESTRING (-78.96674738789837 36.188282431686275, -78.96741281913768 36.18904412078972)" }, "geometry": { "type": "LineString", "coordinates": [ [ -78.966747387898366, 36.188282431686275 ], [ -78.967412819137678, 36.189044120789717 ] ] } },
{ "type": "Feature", "properties": { "FEEDER_NAME": "New Sharon Rd.", "SUBSTATION_NAME": "Little River", "wmType": "SECONDARY UNDERGROUND", "WKT": "LINESTRING (-78.96909899423886 36.18756935034967, -78.9687615091059 36.18750811107868)" }, "geometry": { "type": "LineString", "coordinates": [ [ -78.969098994238863, 36.187569350349669 ], [ -78.968761509105903, 36.187508111078678 ] ] } },
{ "type": "Feature", "properties": { "FEEDER_NAME": "New Sharon Rd.", "SUBSTATION_NAME": "Little River", "wmType": "SECONDARY UNDERGROUND", "WKT": "LINESTRING (-78.9694308468683 36.1875425210952, -78.96898139617831 36.187173394480425)" }, "geometry": { "type": "LineString", "coordinates": [ [ -78.969430846868306, 36.187542521095203 ], [ -78.968981396178307, 36.187173394480425 ] ] } },
{ "type": "Feature", "properties": { "FEEDER_NAME": "New Sharon Rd.", "SUBSTATION_NAME": "Little River", "wmType": "SECONDARY UNDERGROUND", "WKT": "LINESTRING (-78.96877247574317 36.186062729667576, -78.96881058034514 36.18611202334908, -78.96906210607325 36.18654565663362)" }, "geometry": { "type": "LineString", "coordinates": [ [ -78.968772475743165, 36.186062729667576 ], [ -78.968810580345135, 36.186112023349082 ], [ -78.969062106073252, 36.186545656633619 ] ] } },
{ "type": "Feature", "properties": { "FEEDER_NAME": "New Sharon Rd.", "SUBSTATION_NAME": "Little River", "wmType": "SECONDARY UNDERGROUND", "WKT": "LINESTRING (-78.96846714639646 36.186319653167196, -78.96798019922255 36.18615718630386)" }, "geometry": { "type": "LineString", "coordinates": [ [ -78.968467146396463, 36.186319653167196 ], [ -78.967980199222552, 36.186157186303859 ] ] } },
{ "type": "Feature", "properties": { "FEEDER_NAME": "New Sharon Rd.", "SUBSTATION_NAME": "Little River", "wmType": "SECONDARY UNDERGROUND", "WKT": "LINESTRING (-78.97084810436742 36.185956992496266, -78.97097581068077 36.18583859691996)" }, "geometry": { "type": "LineString", "coordinates": [ [ -78.97084810436742, 36.185956992496266 ], [ -78.97097581068077, 36.185838596919957 ] ] } },
{ "type": "Feature", "properties": { "FEEDER_NAME": "New Sharon Rd.", "SUBSTATION_NAME": "Little River", "wmType": "SECONDARY UNDERGROUND", "WKT": "LINESTRING (-78.97084810436742 36.185956992496266, -78.97010564276913 36.18562546623656)" }, "geometry": { "type": "LineString", "coordinates": [ [ -78.97084810436742, 36.185956992496266 ], [ -78.970105642769127, 36.185625466236559 ] ] } },
{ "type": "Feature", "properties": { "FEEDER_NAME": "New Sharon Rd.", "SUBSTATION_NAME": "Little River", "wmType": "SECONDARY UNDERGROUND", "WKT": "LINESTRING (-78.97084908184027 36.183258607263795, -78.97079965517919 36.183325310568556, -78.97077761137656 36.18337886914926, -78.9707504929819 36.18341045160495, -78.97070474715944 36.18342142812339, -78.97063697421855 36.183433771875265, -78.97055904178924 36.18343375316316, -78.97048111137477 36.18342824157623, -78.97042399939593 36.183400999781554)" }, "geometry": { "type": "LineString", "coordinates": [ [ -78.970849081840271, 36.183258607263795 ], [ -78.970799655179192, 36.183325310568556 ], [ -78.970777611376562, 36.183378869149259 ], [ -78.970750492981907, 36.183410451604949 ], [ -78.970704747159445, 36.183421428123388 ], [ -78.97063697421855, 36.183433771875265 ], [ -78.970559041789244, 36.183433753163158 ], [ -78.970481111374767, 36.18342824157623 ], [ -78.970423999395933, 36.183400999781554 ] ] } },
{ "type": "Feature", "properties": { "FEEDER_NAME": "New Sharon Rd.", "SUBSTATION_NAME": "Little River", "wmType": "SECONDARY UNDERGROUND", "WKT": "LINESTRING (-78.97084908184027 36.183258607263795, -78.97063116652332 36.18322755564727)" }, "geometry": { "type": "LineString", "coordinates": [ [ -78.970849081840271, 36.183258607263795 ], [ -78.970631166523319, 36.183227555647271 ] ] } },
{ "type": "Feature", "properties": { "FEEDER_NAME": "New Sharon Rd.", "SUBSTATION_NAME": "Little River", "wmType": "SECONDARY UNDERGROUND", "WKT": "LINESTRING (-78.97084908184027 36.183258607263795, -78.9710250779882 36.183022709834916)" }, "geometry": { "type": "LineString", "coordinates": [ [ -78.970849081840271, 36.183258607263795 ], [ -78.971025077988202, 36.183022709834916 ] ] } },
{ "type": "Feature", "properties": { "FEEDER_NAME": "New Sharon Rd.", "SUBSTATION_NAME": "Little River", "wmType": "SECONDARY UNDERGROUND", "WKT": "LINESTRING (-78.97084908184027 36.183258607263795, -78.97069966903017 36.18338486154121)" }, "geometry": { "type": "LineString", "coordinates": [ [ -78.970849081840271, 36.183258607263795 ], [ -78.970699669030168, 36.183384861541207 ] ] } },
{ "type": "Feature", "properties": { "FEEDER_NAME": "New Sharon Rd.", "SUBSTATION_NAME": "Little River", "wmType": "SECONDARY UNDERGROUND", "WKT": "LINESTRING (-78.9713039578987 36.18413174404698, -78.97160414414017 36.1840853724004)" }, "geometry": { "type": "LineString", "coordinates": [ [ -78.971303957898698, 36.184131744046979 ], [ -78.971604144140173, 36.184085372400403 ] ] } },
{ "type": "Feature", "properties": { "FEEDER_NAME": "New Sharon Rd.", "SUBSTATION_NAME": "Little River", "wmType": "SECONDARY UNDERGROUND", "WKT": "LINESTRING (-78.97297506075421 36.184191640506384, -78.97269244634505 36.18433891255127)" }, "geometry": { "type": "LineString", "coordinates": [ [ -78.972975060754209, 36.184191640506384 ], [ -78.97269244634505, 36.184338912551269 ] ] } },
{ "type": "Feature", "properties": { "FEEDER_NAME": "New Sharon Rd.", "SUBSTATION_NAME": "Little River", "wmType": "SECONDARY UNDERGROUND", "WKT": "LINESTRING (-78.97545128748618 36.18295660881139, -78.97532817006385 36.182491529488324)" }, "geometry": { "type": "LineString", "coordinates": [ [ -78.97545128748618, 36.182956608811388 ], [ -78.975328170063847, 36.182491529488324 ] ] } },
{ "type": "Feature", "properties": { "FEEDER_NAME": "New Sharon Rd.", "SUBSTATION_NAME": "Little River", "wmType": "SECONDARY UNDERGROUND", "WKT": "LINESTRING (-78.98084475019606 36.1844243547059, -78.98125572894173 36.184726275723655)" }, "geometry": { "type": "LineString", "coordinates": [ [ -78.980844750196056, 36.184424354705897 ], [ -78.981255728941733, 36.184726275723655 ] ] } },
{ "type": "Feature", "properties": { "FEEDER_NAME": "New Sharon Rd.", "SUBSTATION_NAME": "Little River", "wmType": "SECONDARY UNDERGROUND", "WKT": "LINESTRING (-78.97693787567403 36.18349190538412, -78.97639186157035 36.18349485640859)" }, "geometry": { "type": "LineString", "coordinates": [ [ -78.976937875674025, 36.183491905384123 ], [ -78.976391861570349, 36.183494856408593 ] ] } },
{ "type": "Feature", "properties": { "FEEDER_NAME": "New Sharon Rd.", "SUBSTATION_NAME": "Little River", "wmType": "SECONDARY UNDERGROUND", "WKT": "LINESTRING (-78.97704542780085 36.186678868741176, -78.97719048837695 36.18646411991102)" }, "geometry": { "type": "LineString", "coordinates": [ [ -78.977045427800846, 36.186678868741176 ], [ -78.977190488376948, 36.186464119911022 ] ] } },
{ "type": "Feature", "properties": { "FEEDER_NAME": "New Sharon Rd.", "SUBSTATION_NAME": "Little River", "wmType": "SECONDARY UNDERGROUND", "WKT": "LINESTRING (-78.97755536189412 36.187137566169184, -78.97742772932169 36.18736901601903)" }, "geometry": { "type": "LineString", "coordinates": [ [ -78.977555361894119, 36.187137566169184 ], [ -78.97742772932169, 36.187369016019034 ] ] } },
{ "type": "Feature", "properties": { "FEEDER_NAME": "New Sharon Rd.", "SUBSTATION_NAME": "Little River", "wmType": "SECONDARY UNDERGROUND", "WKT": "LINESTRING (-78.98036773203623 36.18887946429009, -78.98021415755402 36.18869561105361)" }, "geometry": { "type": "LineString", "coordinates": [ [ -78.980367732036228, 36.188879464290089 ], [ -78.980214157554016, 36.18869561105361 ] ] } },
{ "type": "Feature", "properties": { "FEEDER_NAME": "New Sharon Rd.", "SUBSTATION_NAME": "Little River", "wmType": "SECONDARY UNDERGROUND", "WKT": "LINESTRING (-78.98140837886551 36.18885111364077, -78.98174224549481 36.188606161908936)" }, "geometry": { "type": "LineString", "coordinates": [ [ -78.98140837886551, 36.188851113640773 ], [ -78.981742245494814, 36.188606161908936 ] ] } },
{ "type": "Feature", "properties": { "FEEDER_NAME": "New Sharon Rd.", "SUBSTATION_NAME": "Little River", "wmType": "SECONDARY UNDERGROUND", "WKT": "LINESTRING (-78.98426777184557 36.19029339732977, -78.98432792320722 36.19045065166154, -78.98442762816153 36.19049881183916)" }, "geometry": { "type": "LineString", "coordinates": [ [ -78.984267771845566, 36.190293397329768 ], [ -78.984327923207218, 36.190450651661543 ], [ -78.984427628161527, 36.190498811839163 ] ] } },
{ "type": "Feature", "properties": { "FEEDER_NAME": "New Sharon Rd.", "SUBSTATION_NAME": "Little River", "wmType": "SECONDARY UNDERGROUND", "WKT": "LINESTRING (-78.98426777184557 36.19029339732977, -78.98443800018401 36.19042800054318)" }, "geometry": { "type": "LineString", "coordinates": [ [ -78.984267771845566, 36.190293397329768 ], [ -78.984438000184014, 36.190428000543179 ] ] } },
{ "type": "Feature", "properties": { "FEEDER_NAME": "New Sharon Rd.", "SUBSTATION_NAME": "Little River", "wmType": "SECONDARY UNDERGROUND", "WKT": "LINESTRING (-78.98217933974398 36.18952393496859, -78.98285603996015 36.189228774292495)" }, "geometry": { "type": "LineString", "coordinates": [ [ -78.982179339743979, 36.189523934968591 ], [ -78.982856039960154, 36.189228774292495 ] ] } },
{ "type": "Feature", "properties": { "FEEDER_NAME": "New Sharon Rd.", "SUBSTATION_NAME": "Little River", "wmType": "SECONDARY UNDERGROUND", "WKT": "LINESTRING (-78.98285603996015 36.189228774292495, -78.98268751703252 36.18927849499561, -78.98270397957148 36.189310689069266)" }, "geometry": { "type": "LineString", "coordinates": [ [ -78.982856039960154, 36.189228774292495 ], [ -78.982687517032517, 36.189278494995612 ], [ -78.982703979571482, 36.189310689069266 ] ] } },
{ "type": "Feature", "properties": { "FEEDER_NAME": "New Sharon Rd.", "SUBSTATION_NAME": "Little River", "wmType": "SECONDARY UNDERGROUND", "WKT": "LINESTRING (-78.98023895575128 36.18919486524486, -78.97984850467722 36.18959669242137)" }, "geometry": { "type": "LineString", "coordinates": [ [ -78.980238955751275, 36.189194865244858 ], [ -78.979848504677221, 36.189596692421368 ] ] } },
{ "type": "Feature", "properties": { "FEEDER_NAME": "New Sharon Rd.", "SUBSTATION_NAME": "Little River", "wmType": "SECONDARY UNDERGROUND", "WKT": "LINESTRING (-78.97765385267722 36.19015557516649, -78.9778969998208 36.19031600029385)" }, "geometry": { "type": "LineString", "coordinates": [ [ -78.977653852677221, 36.190155575166493 ], [ -78.9778969998208, 36.190316000293848 ] ] } },
{ "type": "Feature", "properties": { "FEEDER_NAME": "New Sharon Rd.", "SUBSTATION_NAME": "Little River", "wmType": "SECONDARY UNDERGROUND", "WKT": "LINESTRING (-78.98088145745437 36.190860558202836, -78.98065484500476 36.19112445310732)" }, "geometry": { "type": "LineString", "coordinates": [ [ -78.980881457454373, 36.190860558202836 ], [ -78.980654845004764, 36.191124453107321 ] ] } },
{ "type": "Feature", "properties": { "FEEDER_NAME": "New Sharon Rd.", "SUBSTATION_NAME": "Little River", "wmType": "SECONDARY UNDERGROUND", "WKT": "LINESTRING (-78.98065484500476 36.19112445310732, -78.98070543154907 36.191176854079295)" }, "geometry": { "type": "LineString", "coordinates": [ [ -78.980654845004764, 36.191124453107321 ], [ -78.980705431549069, 36.191176854079295 ] ] } },
{ "type": "Feature", "properties": { "FEEDER_NAME": "New Sharon Rd.", "SUBSTATION_NAME": "Little River", "wmType": "SECONDARY UNDERGROUND", "WKT": "LINESTRING (-78.97974239200168 36.192812507947714, -78.97969194554823 36.19281136318217, -78.97964788904403 36.19282165656259, -78.97959333431443 36.19283435798187, -78.97954999950804 36.192843999881056)" }, "geometry": { "type": "LineString", "coordinates": [ [ -78.979742392001683, 36.192812507947714 ], [ -78.979691945548225, 36.192811363182173 ], [ -78.979647889044031, 36.192821656562593 ], [ -78.97959333431443, 36.192834357981873 ], [ -78.979549999508038, 36.192843999881056 ] ] } },
{ "type": "Feature", "properties": { "FEEDER_NAME": "New Sharon Rd.", "SUBSTATION_NAME": "Little River", "wmType": "SECONDARY UNDERGROUND", "WKT": "LINESTRING (-78.98084478360501 36.19570775247902, -78.98019318552399 36.19554805316836)" }, "geometry": { "type": "LineString", "coordinates": [ [ -78.980844783605008, 36.195707752479017 ], [ -78.980193185523987, 36.195548053168359 ] ] } },
{ "type": "Feature", "properties": { "FEEDER_NAME": "New Sharon Rd.", "SUBSTATION_NAME": "Little River", "wmType": "SECONDARY UNDERGROUND", "WKT": "LINESTRING (-78.97827096032708 36.19906570530081, -78.97762364352822 36.198732704226266)" }, "geometry": { "type": "LineString", "coordinates": [ [ -78.97827096032708, 36.199065705300811 ], [ -78.977623643528219, 36.198732704226266 ] ] } },
{ "type": "Feature", "properties": { "FEEDER_NAME": "New Sharon Rd.", "SUBSTATION_NAME": "Little River", "wmType": "SECONDARY UNDERGROUND", "WKT": "LINESTRING (-78.9786550610062 36.19921218015788, -78.97918013615006 36.19947893425512)" }, "geometry": { "type": "LineString", "coordinates": [ [ -78.978655061006194, 36.199212180157879 ], [ -78.979180136150063, 36.199478934255119 ] ] } },
{ "type": "Feature", "properties": { "FEEDER_NAME": "New Sharon Rd.", "SUBSTATION_NAME": "Little River", "wmType": "SECONDARY UNDERGROUND", "WKT": "LINESTRING (-78.97973211239237 36.19881519994942, -78.97991558916837 36.19914614196569)" }, "geometry": { "type": "LineString", "coordinates": [ [ -78.979732112392369, 36.198815199949422 ], [ -78.979915589168371, 36.199146141965691 ] ] } },
{ "type": "Feature", "properties": { "FEEDER_NAME": "New Sharon Rd.", "SUBSTATION_NAME": "Little River", "wmType": "SECONDARY UNDERGROUND", "WKT": "LINESTRING (-78.98021194407711 36.19862375090751, -78.97998836574625 36.199265613642716)" }, "geometry": { "type": "LineString", "coordinates": [ [ -78.980211944077112, 36.198623750907508 ], [ -78.979988365746252, 36.199265613642716 ] ] } },
{ "type": "Feature", "properties": { "FEEDER_NAME": "New Sharon Rd.", "SUBSTATION_NAME": "Little River", "wmType": "SECONDARY UNDERGROUND", "WKT": "LINESTRING (-78.98375681008544 36.19726984961072, -78.98416442909503 36.19665967409966)" }, "geometry": { "type": "LineString", "coordinates": [ [ -78.983756810085438, 36.19726984961072 ], [ -78.984164429095031, 36.196659674099656 ] ] } },
{ "type": "Feature", "properties": { "FEEDER_NAME": "New Sharon Rd.", "SUBSTATION_NAME": "Little River", "wmType": "SECONDARY UNDERGROUND", "WKT": "LINESTRING (-78.9946045493659 36.20691287608745, -78.99511332771715 36.20699974623783)" }, "geometry": { "type": "LineString", "coordinates": [ [ -78.994604549365903, 36.206912876087451 ], [ -78.995113327717149, 36.206999746237827 ] ] } },
{ "type": "Feature", "properties": { "FEEDER_NAME": "New Sharon Rd.", "SUBSTATION_NAME": "Little River", "wmType": "SECONDARY UNDERGROUND", "WKT": "LINESTRING (-78.99369460662976 36.20547668227282, -78.99359360657364 36.205470525489574, -78.99354474881162 36.205468996303786, -78.9934930214718 36.205475980514926, -78.9934714651145 36.205512661521055, -78.99347842906288 36.205516909213785)" }, "geometry": { "type": "LineString", "coordinates": [ [ -78.993694606629759, 36.205476682272817 ], [ -78.99359360657364, 36.205470525489574 ], [ -78.993544748811615, 36.205468996303786 ], [ -78.993493021471807, 36.205475980514926 ], [ -78.993471465114496, 36.205512661521055 ], [ -78.993478429062876, 36.205516909213785 ] ] } },
{ "type": "Feature", "properties": { "FEEDER_NAME": "New Sharon Rd.", "SUBSTATION_NAME": "Little River", "wmType": "SECONDARY UNDERGROUND", "WKT": "LINESTRING (-78.99369460662976 36.20547668227282, -78.99367621911875 36.205503937902215)" }, "geometry": { "type": "LineString", "coordinates": [ [ -78.993694606629759, 36.205476682272817 ], [ -78.993676219118754, 36.205503937902215 ] ] } },
{ "type": "Feature", "properties": { "FEEDER_NAME": "New Sharon Rd.", "SUBSTATION_NAME": "Little River", "wmType": "SECONDARY UNDERGROUND", "WKT": "LINESTRING (-78.9930724965895 36.20612036971974, -78.99306452862606 36.206101648795396)" }, "geometry": { "type": "LineString", "coordinates": [ [ -78.993072496589505, 36.206120369719741 ], [ -78.993064528626064, 36.206101648795396 ] ] } },
{ "type": "Feature", "properties": { "FEEDER_NAME": "New Sharon Rd.", "SUBSTATION_NAME": "Little River", "wmType": "SECONDARY UNDERGROUND", "WKT": "LINESTRING (-78.9930724965895 36.20612036971974, -78.99312936488244 36.20585521141006)" }, "geometry": { "type": "LineString", "coordinates": [ [ -78.993072496589505, 36.206120369719741 ], [ -78.993129364882435, 36.205855211410061 ] ] } },
{ "type": "Feature", "properties": { "FEEDER_NAME": "New Sharon Rd.", "SUBSTATION_NAME": "Little River", "wmType": "SECONDARY UNDERGROUND", "WKT": "LINESTRING (-78.9930724965895 36.20612036971974, -78.99248937419101 36.20590574787167)" }, "geometry": { "type": "LineString", "coordinates": [ [ -78.993072496589505, 36.206120369719741 ], [ -78.99248937419101, 36.205905747871668 ] ] } },
{ "type": "Feature", "properties": { "FEEDER_NAME": "New Sharon Rd.", "SUBSTATION_NAME": "Little River", "wmType": "SECONDARY UNDERGROUND", "WKT": "LINESTRING (-78.9946917149534 36.2092589452026, -78.99526088244772 36.20885420655615)" }, "geometry": { "type": "LineString", "coordinates": [ [ -78.994691714953404, 36.209258945202599 ], [ -78.995260882447724, 36.208854206556147 ] ] } },
{ "type": "Feature", "properties": { "FEEDER_NAME": "New Sharon Rd.", "SUBSTATION_NAME": "Little River", "wmType": "SECONDARY UNDERGROUND", "WKT": "LINESTRING (-78.97721746930819 36.18574653477221, -78.9776693515461 36.185705352016335, -78.977725851699 36.18567245855725, -78.97774056041334 36.18545609998607)" }, "geometry": { "type": "LineString", "coordinates": [ [ -78.977217469308187, 36.185746534772207 ], [ -78.977669351546098, 36.185705352016335 ], [ -78.977725851699006, 36.185672458557249 ], [ -78.977740560413338, 36.185456099986069 ] ] } },
{ "type": "Feature", "properties": { "FEEDER_NAME": "New Sharon Rd.", "SUBSTATION_NAME": "Little River", "wmType": "SECONDARY UNDERGROUND", "WKT": "LINESTRING (-78.98860682749239 36.20434030855387, -78.98858720849158 36.2043611369096, -78.98856981253778 36.2043958411427, -78.98848506125145 36.20453592279628, -78.9883799713256 36.204695229410845, -78.98831556896373 36.204739172672284, -78.98830341847783 36.20475490724617)" }, "geometry": { "type": "LineString", "coordinates": [ [ -78.98860682749239, 36.204340308553867 ], [ -78.98858720849158, 36.204361136909597 ], [ -78.988569812537776, 36.204395841142698 ], [ -78.988485061251453, 36.204535922796282 ], [ -78.9883799713256, 36.204695229410845 ], [ -78.988315568963728, 36.204739172672284 ], [ -78.988303418477827, 36.204754907246169 ] ] } },
{ "type": "Feature", "properties": { "FEEDER_NAME": "New Sharon Rd.", "SUBSTATION_NAME": "Little River", "wmType": "PRIMARY UNDERGROUND", "WKT": "LINESTRING (-78.99178558247647 36.20762613018483, -78.99350183175855 36.20679612896654)" }, "geometry": { "type": "LineString", "coordinates": [ [ -78.991785582476467, 36.207626130184828 ], [ -78.99350183175855, 36.206796128966538 ] ] } },
{ "type": "Feature", "properties": { "FEEDER_NAME": "New Sharon Rd.", "SUBSTATION_NAME": "Little River", "wmType": "PRIMARY UNDERGROUND", "WKT": "LINESTRING (-78.96877247574317 36.186062729667576, -78.96879604790946 36.18611544781482)" }, "geometry": { "type": "LineString", "coordinates": [ [ -78.968772475743165, 36.186062729667576 ], [ -78.968796047909464, 36.186115447814821 ] ] } },
{ "type": "Feature", "properties": { "FEEDER_NAME": "New Sharon Rd.", "SUBSTATION_NAME": "Little River", "wmType": "PRIMARY UNDERGROUND", "WKT": "LINESTRING (-78.97782141184763 36.185762849236404, -78.97777690239303 36.18579606754481, -78.97721897945692 36.18579596502418, -78.97721745706346 36.185789786107314, -78.97721746930819 36.18574653477221)" }, "geometry": { "type": "LineString", "coordinates": [ [ -78.977821411847628, 36.185762849236404 ], [ -78.977776902393032, 36.185796067544807 ], [ -78.977218979456921, 36.185795965024177 ], [ -78.97721745706346, 36.185789786107314 ], [ -78.977217469308187, 36.185746534772207 ] ] } },
{ "type": "Feature", "properties": { "FEEDER_NAME": "New Sharon Rd.", "SUBSTATION_NAME": "Little River", "wmType": "PRIMARY UNDERGROUND", "WKT": "LINESTRING (-78.98021194407711 36.19862375090751, -78.97998989578217 36.198782447828286, -78.97986195554905 36.198806824927836, -78.97973211239237 36.19881519994942)" }, "geometry": { "type": "LineString", "coordinates": [ [ -78.980211944077112, 36.198623750907508 ], [ -78.979989895782168, 36.198782447828286 ], [ -78.979861955549055, 36.198806824927836 ], [ -78.979732112392369, 36.198815199949422 ] ] } },
{ "type": "Feature", "properties": { "FEEDER_NAME": "New Sharon Rd.", "SUBSTATION_NAME": "Little River", "wmType": "PRIMARY UNDERGROUND", "WKT": "LINESTRING (-78.97973211239237 36.19881519994942, -78.979399126851 36.19883419566874, -78.9786550610062 36.19921218015788)" }, "geometry": { "type": "LineString", "coordinates": [ [ -78.979732112392369, 36.198815199949422 ], [ -78.979399126851007, 36.198834195668738 ], [ -78.978655061006194, 36.199212180157879 ] ] } },
{ "type": "Feature", "properties": { "FEEDER_NAME": "New Sharon Rd.", "SUBSTATION_NAME": "Little River", "wmType": "PRIMARY UNDERGROUND", "WKT": "LINESTRING (-79.00039449125553 36.212301262016325, -78.99975133155387 36.21294381619156)" }, "geometry": { "type": "LineString", "coordinates": [ [ -79.000394491255534, 36.212301262016325 ], [ -78.999751331553867, 36.212943816191562 ] ] } },
{ "type": "Feature", "properties": { "FEEDER_NAME": "New Sharon Rd.", "SUBSTATION_NAME": "Little River", "wmType": "PRIMARY UNDERGROUND", "WKT": "LINESTRING (-78.9670331171676 36.19154206024453, -78.9672234210186 36.19090260627207, -78.96780641526006 36.19090295827912)" }, "geometry": { "type": "LineString", "coordinates": [ [ -78.967033117167603, 36.191542060244529 ], [ -78.967223421018602, 36.190902606272068 ], [ -78.967806415260057, 36.190902958279118 ] ] } },
{ "type": "Feature", "properties": { "FEEDER_NAME": "New Sharon Rd.", "SUBSTATION_NAME": "Little River", "wmType": "PRIMARY UNDERGROUND", "WKT": "LINESTRING (-78.98955182639064 36.20481584973248, -78.98956567666511 36.204621373429504, -78.98970985404925 36.20449620357946, -78.98993641659867 36.20431262229491, -78.98996965692841 36.20427222182068, -78.99004142289968 36.20429690595486)" }, "geometry": { "type": "LineString", "coordinates": [ [ -78.989551826390638, 36.204815849732483 ], [ -78.989565676665109, 36.204621373429504 ], [ -78.989709854049252, 36.20449620357946 ], [ -78.989936416598667, 36.204312622294907 ], [ -78.989969656928409, 36.20427222182068 ], [ -78.990041422899679, 36.204296905954862 ] ] } },
{ "type": "Feature", "properties": { "FEEDER_NAME": "New Sharon Rd.", "SUBSTATION_NAME": "Little River", "wmType": "PRIMARY UNDERGROUND", "WKT": "LINESTRING (-78.99095185969061 36.202994835651474, -78.99090501058706 36.20297314855591, -78.99100782605606 36.20286330601792, -78.99148103088338 36.202276259687906, -78.99163806068809 36.202138832987366, -78.99157317237956 36.20202853858626)" }, "geometry": { "type": "LineString", "coordinates": [ [ -78.990951859690611, 36.202994835651474 ], [ -78.990905010587056, 36.202973148555913 ], [ -78.991007826056062, 36.202863306017917 ], [ -78.991481030883378, 36.202276259687906 ], [ -78.991638060688089, 36.202138832987366 ], [ -78.99157317237956, 36.202028538586262 ] ] } },
{ "type": "Feature", "properties": { "FEEDER_NAME": "New Sharon Rd.", "SUBSTATION_NAME": "Little River", "wmType": "PRIMARY UNDERGROUND", "WKT": "LINESTRING (-78.99157317237956 36.20202853858626, -78.99165690387953 36.202123563536226, -78.99196867538355 36.201962683350494, -78.99242106893882 36.201841950337844, -78.99249651944291 36.20193900550116)" }, "geometry": { "type": "LineString", "coordinates": [ [ -78.99157317237956, 36.202028538586262 ], [ -78.99165690387953, 36.202123563536226 ], [ -78.991968675383546, 36.201962683350494 ], [ -78.992421068938825, 36.201841950337844 ], [ -78.992496519442909, 36.20193900550116 ] ] } },
{ "type": "Feature", "properties": { "FEEDER_NAME": "New Sharon Rd.", "SUBSTATION_NAME": "Little River", "wmType": "PRIMARY UNDERGROUND", "WKT": "LINESTRING (-78.99249651944291 36.20193900550116, -78.99245037859977 36.2018368613011, -78.9926513625233 36.201770699723944, -78.99304914279115 36.20165364607617, -78.99333387031393 36.201543372826386, -78.99338841304736 36.201559733363446)" }, "geometry": { "type": "LineString", "coordinates": [ [ -78.992496519442909, 36.20193900550116 ], [ -78.99245037859977, 36.201836861301103 ], [ -78.992651362523304, 36.201770699723944 ], [ -78.993049142791151, 36.201653646076167 ], [ -78.993333870313933, 36.201543372826386 ], [ -78.993388413047356, 36.201559733363446 ] ] } },
{ "type": "Feature", "properties": { "FEEDER_NAME": "New Sharon Rd.", "SUBSTATION_NAME": "Little River", "wmType": "PRIMARY UNDERGROUND", "WKT": "LINESTRING (-78.99338841304736 36.201559733363446, -78.99338411585632 36.20152810390925, -78.99355579109844 36.20143818466617, -78.99381540216565 36.201243070505186, -78.993951491925 36.201076794276595, -78.99404152204579 36.20094614799011, -78.99417343040412 36.20071369745643, -78.99426137051748 36.200520270047576, -78.99431999067622 36.200481247436436, -78.99437079508935 36.20044389164812, -78.99439638145276 36.20040703034417, -78.99443618060961 36.20037938439904)" }, "geometry": { "type": "LineString", "coordinates": [ [ -78.993388413047356, 36.201559733363446 ], [ -78.993384115856315, 36.201528103909247 ], [ -78.993555791098444, 36.201438184666173 ], [ -78.993815402165652, 36.201243070505186 ], [ -78.993951491925003, 36.201076794276595 ], [ -78.994041522045791, 36.200946147990109 ], [ -78.994173430404118, 36.200713697456429 ], [ -78.994261370517478, 36.200520270047576 ], [ -78.994319990676217, 36.200481247436436 ], [ -78.994370795089353, 36.200443891648121 ], [ -78.994396381452759, 36.200407030344167 ], [ -78.994436180609611, 36.200379384399042 ] ] } },
{ "type": "Feature", "properties": { "FEEDER_NAME": "New Sharon Rd.", "SUBSTATION_NAME": "Little River", "wmType": "PRIMARY UNDERGROUND", "WKT": "LINESTRING (-78.99443618060961 36.20037938439904, -78.99438785587301 36.20038399000402, -78.9943793323903 36.20033100025112, -78.99433101092612 36.200289527735045, -78.99425141898116 36.200271092785385, -78.99419172294361 36.20030564899423)" }, "geometry": { "type": "LineString", "coordinates": [ [ -78.994436180609611, 36.200379384399042 ], [ -78.994387855873015, 36.200383990004021 ], [ -78.994379332390295, 36.200331000251118 ], [ -78.994331010926118, 36.200289527735045 ], [ -78.994251418981165, 36.200271092785385 ], [ -78.994191722943611, 36.200305648994231 ] ] } },
{ "type": "Feature", "properties": { "FEEDER_NAME": "New Sharon Rd.", "SUBSTATION_NAME": "Little River", "wmType": "PRIMARY UNDERGROUND", "WKT": "LINESTRING (-78.99419172294361 36.20030564899423, -78.99404251774946 36.20023302353541, -78.9939667255689 36.2002405411989, -78.99390131288031 36.2002199249259, -78.99375968934251 36.20020074216461, -78.99365510816892 36.20011942917316, -78.99350143354528 36.200079631551574, -78.99343133600323 36.20004004281856, -78.99337677242708 36.19999212694173, -78.99333398302475 36.199927991970995)" }, "geometry": { "type": "LineString", "coordinates": [ [ -78.994191722943611, 36.200305648994231 ], [ -78.994042517749463, 36.200233023535411 ], [ -78.993966725568896, 36.200240541198902 ], [ -78.993901312880311, 36.200219924925896 ], [ -78.993759689342511, 36.200200742164611 ], [ -78.993655108168923, 36.200119429173157 ], [ -78.993501433545276, 36.200079631551574 ], [ -78.993431336003226, 36.200040042818557 ], [ -78.993376772427084, 36.19999212694173 ], [ -78.993333983024755, 36.199927991970995 ] ] } },
{ "type": "Feature", "properties": { "FEEDER_NAME": "New Sharon Rd.", "SUBSTATION_NAME": "Little River", "wmType": "PRIMARY UNDERGROUND", "WKT": "LINESTRING (-78.96320088403019 36.19321436593803, -78.96303072914297 36.19324329361333, -78.96271444074135 36.193173818102686, -78.96243908722506 36.19310435523551, -78.96214884340436 36.19304996869465, -78.96188834240971 36.19305290511615, -78.96165015644522 36.19308601197199, -78.96140451229789 36.19314928091297, -78.96109187394222 36.19323062685247, -78.96089089851425 36.19326977666424, -78.9607085510444 36.19326368567901, -78.9604890022442 36.19323345014744, -78.9602843618819 36.19315797170964, -78.96013925438473 36.19310061197899, -78.96004839090695 36.19322886970614)" }, "geometry": { "type": "LineString", "coordinates": [ [ -78.963200884030186, 36.193214365938033 ], [ -78.963030729142972, 36.193243293613328 ], [ -78.962714440741351, 36.193173818102686 ], [ -78.962439087225064, 36.193104355235512 ], [ -78.962148843404364, 36.193049968694652 ], [ -78.961888342409708, 36.193052905116147 ], [ -78.961650156445216, 36.193086011971992 ], [ -78.961404512297889, 36.193149280912969 ], [ -78.961091873942223, 36.193230626852468 ], [ -78.960890898514251, 36.193269776664238 ], [ -78.960708551044405, 36.193263685679007 ], [ -78.960489002244202, 36.193233450147439 ], [ -78.960284361881904, 36.193157971709638 ], [ -78.960139254384728, 36.193100611978991 ], [ -78.960048390906948, 36.19322886970614 ] ] } },
{ "type": "Feature", "properties": { "FEEDER_NAME": "New Sharon Rd.", "SUBSTATION_NAME": "Little River", "wmType": "PRIMARY UNDERGROUND", "WKT": "LINESTRING (-78.99350183175855 36.20679612896654, -78.9946045493659 36.20691287608745)" }, "geometry": { "type": "LineString", "coordinates": [ [ -78.99350183175855, 36.206796128966538 ], [ -78.994604549365903, 36.206912876087451 ] ] } },
{ "type": "Feature", "properties": { "FEEDER_NAME": "New Sharon Rd.", "SUBSTATION_NAME": "Little River", "wmType": "PRIMARY UNDERGROUND", "WKT": "LINESTRING (-78.99350183175855 36.20679612896654, -78.9930724965895 36.20612036971974)" }, "geometry": { "type": "LineString", "coordinates": [ [ -78.99350183175855, 36.206796128966538 ], [ -78.993072496589505, 36.206120369719741 ] ] } },
{ "type": "Feature", "properties": { "FEEDER_NAME": "New Sharon Rd.", "SUBSTATION_NAME": "Little River", "wmType": "PRIMARY UNDERGROUND", "WKT": "LINESTRING (-78.96004839090695 36.19322886970614, -78.9600834345108 36.19309757748853, -78.959919742304 36.192997979494834, -78.95974490844735 36.19285313116307, -78.95957012068884 36.19261778787004, -78.95953667486837 36.192524265792805, -78.95954047643046 36.19236439357342, -78.95955166682407 36.192313117283064, -78.95939336120796 36.19223787881917)" }, "geometry": { "type": "LineString", "coordinates": [ [ -78.960048390906948, 36.19322886970614 ], [ -78.960083434510807, 36.19309757748853 ], [ -78.959919742303995, 36.192997979494834 ], [ -78.959744908447348, 36.192853131163069 ], [ -78.959570120688838, 36.192617787870041 ], [ -78.959536674868374, 36.192524265792805 ], [ -78.959540476430462, 36.192364393573421 ], [ -78.959551666824069, 36.192313117283064 ], [ -78.959393361207958, 36.192237878819171 ] ] } },
{ "type": "Feature", "properties": { "FEEDER_NAME": "New Sharon Rd.", "SUBSTATION_NAME": "Little River", "wmType": "PRIMARY UNDERGROUND", "WKT": "LINESTRING (-78.96846714639646 36.186319653167196, -78.96846966519381 36.186241061899366, -78.96843095692373 36.18618367157098, -78.9684314567367 36.186096980686656, -78.96849022206338 36.18602456090175, -78.96856164319392 36.18599412227359, -78.96866854619033 36.18599594486411, -78.96871710908691 36.18601514564861, -78.96877247574317 36.186062729667576)" }, "geometry": { "type": "LineString", "coordinates": [ [ -78.968467146396463, 36.186319653167196 ], [ -78.968469665193808, 36.186241061899366 ], [ -78.968430956923726, 36.18618367157098 ], [ -78.968431456736695, 36.186096980686656 ], [ -78.96849022206338, 36.18602456090175 ], [ -78.968561643193922, 36.185994122273591 ], [ -78.968668546190329, 36.185995944864111 ], [ -78.96871710908691, 36.186015145648611 ], [ -78.968772475743165, 36.186062729667576 ] ] } },
{ "type": "Feature", "properties": { "FEEDER_NAME": "New Sharon Rd.", "SUBSTATION_NAME": "Little River", "wmType": "PRIMARY UNDERGROUND", "WKT": "LINESTRING (-78.97721746930819 36.18574653477221, -78.97720145067395 36.18579410709048, -78.97713513897097 36.18579347830549, -78.97712294629916 36.185787914717295, -78.97709170552066 36.18575578016188, -78.97705894168296 36.185719936870704, -78.97704141692009 36.18570016213815, -78.977023890931 36.18568471226619, -78.97699035804176 36.185675437117816, -78.97695682298662 36.18566987040187, -78.97693014623717 36.18566739428599, -78.97688212633273 36.185679124274166, -78.97684782261354 36.18569456527952, -78.97683105270714 36.18570197628829, -78.97682114056444 36.18571433168032, -78.97681503416578 36.18574460546973, -78.97677082988274 36.18573594736563)" }, "geometry": { "type": "LineString", "coordinates": [ [ -78.977217469308187, 36.185746534772207 ], [ -78.977201450673945, 36.18579410709048 ], [ -78.977135138970965, 36.185793478305492 ], [ -78.977122946299161, 36.185787914717295 ], [ -78.977091705520664, 36.185755780161877 ], [ -78.977058941682955, 36.185719936870704 ], [ -78.977041416920088, 36.185700162138147 ], [ -78.977023890930994, 36.185684712266188 ], [ -78.97699035804176, 36.185675437117816 ], [ -78.976956822986622, 36.185669870401867 ], [ -78.976930146237166, 36.185667394285993 ], [ -78.976882126332725, 36.185679124274166 ], [ -78.976847822613536, 36.185694565279519 ], [ -78.976831052707141, 36.185701976288293 ], [ -78.976821140564439, 36.185714331680323 ], [ -78.976815034165782, 36.185744605469729 ], [ -78.976770829882739, 36.185735947365629 ] ] } },
{ "type": "Feature", "properties": { "FEEDER_NAME": "New Sharon Rd.", "SUBSTATION_NAME": "Little River", "wmType": "PRIMARY UNDERGROUND", "WKT": "LINESTRING (-78.9786550610062 36.19921218015788, -78.97854863785464 36.199212222846036, -78.97848466803997 36.19922746075349, -78.97843950338901 36.19926404945648, -78.9783905864822 36.1992701410275, -78.97832285831262 36.19926098012326, -78.9782664180393 36.199251820283884, -78.97824385134919 36.1992182692773, -78.97824014734904 36.199165948816066, -78.97828154706444 36.19912982723781, -78.97827096032708 36.19906570530081)" }, "geometry": { "type": "LineString", "coordinates": [ [ -78.978655061006194, 36.199212180157879 ], [ -78.978548637854644, 36.199212222846036 ], [ -78.978484668039968, 36.199227460753491 ], [ -78.978439503389012, 36.199264049456481 ], [ -78.978390586482206, 36.199270141027498 ], [ -78.978322858312623, 36.199260980123263 ], [ -78.978266418039297, 36.199251820283884 ], [ -78.978243851349191, 36.199218269277303 ], [ -78.978240147349041, 36.199165948816066 ], [ -78.978281547064441, 36.199129827237812 ], [ -78.97827096032708, 36.199065705300811 ] ] } },
{ "type": "Feature", "properties": { "FEEDER_NAME": "New Sharon Rd.", "SUBSTATION_NAME": "Little River", "wmType": "SECONDARY UNDERGROUND", "WKT": "LINESTRING (-78.97828189861977 36.19774502735995, -78.97828168365818 36.197758760648405)" }, "geometry": { "type": "LineString", "coordinates": [ [ -78.97828189861977, 36.19774502735995 ], [ -78.978281683658182, 36.197758760648405 ] ] } },
{ "type": "Feature", "properties": { "FEEDER_NAME": "New Sharon Rd.", "SUBSTATION_NAME": "Little River", "wmType": "SECONDARY UNDERGROUND", "WKT": "LINESTRING (-78.98539064670292 36.193384347045345, -78.9853904329663 36.19339808037346)" }, "geometry": { "type": "LineString", "coordinates": [ [ -78.985390646702925, 36.193384347045345 ], [ -78.985390432966298, 36.193398080373463 ] ] } },
{ "type": "Feature", "properties": { "FEEDER_NAME": "New Sharon Rd.", "SUBSTATION_NAME": "Little River", "wmType": "SECONDARY UNDERGROUND", "WKT": "LINESTRING (-78.98443800018401 36.19042800054318, -78.98443778629262 36.1904417338881)" }, "geometry": { "type": "LineString", "coordinates": [ [ -78.984438000184014, 36.190428000543179 ], [ -78.984437786292617, 36.1904417338881 ] ] } },
{ "type": "Feature", "properties": { "FEEDER_NAME": "New Sharon Rd.", "SUBSTATION_NAME": "Little River", "wmType": "PRIMARY UNDERGROUND", "WKT": "LINESTRING (-78.9641255172933 36.19199171162382, -78.96420116103292 36.19204676724367)" }, "geometry": { "type": "LineString", "coordinates": [ [ -78.964125517293297, 36.191991711623821 ], [ -78.964201161032918, 36.192046767243667 ] ] } },
{ "type": "Feature", "properties": { "FEEDER_NAME": "New Sharon Rd.", "SUBSTATION_NAME": "Little River", "wmType": "PRIMARY UNDERGROUND", "WKT": "LINESTRING (-78.96420116103292 36.19204676724367, -78.96445137183211 36.19222887949813)" }, "geometry": { "type": "LineString", "coordinates": [ [ -78.964201161032918, 36.192046767243667 ], [ -78.964451371832112, 36.192228879498131 ] ] } },
{ "type": "Feature", "properties": { "FEEDER_NAME": "New Sharon Rd.", "SUBSTATION_NAME": "Little River", "wmType": "PRIMARY UNDERGROUND", "WKT": "LINESTRING (-78.98355441002202 36.19875689411312, -78.98355674127914 36.19875319772166, -78.98361638785673 36.198743518763216, -78.98365133192726 36.19874951367994)" }, "geometry": { "type": "LineString", "coordinates": [ [ -78.983554410022023, 36.198756894113117 ], [ -78.983556741279145, 36.198753197721658 ], [ -78.983616387856728, 36.198743518763216 ], [ -78.983651331927263, 36.198749513679942 ] ] } },
{ "type": "Feature", "properties": { "FEEDER_NAME": "New Sharon Rd.", "SUBSTATION_NAME": "Little River", "wmType": "PRIMARY UNDERGROUND", "WKT": "LINESTRING (-78.98365133192726 36.19874951367994, -78.98377152760652 36.19877013279927, -78.98397740592877 36.198796753286686, -78.98418915333774 36.198787184873666, -78.9845620377428 36.198702609271685, -78.98473812540405 36.1986479224558, -78.9847418526579 36.19865254515273)" }, "geometry": { "type": "LineString", "coordinates": [ [ -78.983651331927263, 36.198749513679942 ], [ -78.983771527606521, 36.198770132799268 ], [ -78.983977405928769, 36.198796753286686 ], [ -78.984189153337738, 36.198787184873666 ], [ -78.984562037742805, 36.198702609271685 ], [ -78.98473812540405, 36.198647922455798 ], [ -78.984741852657905, 36.198652545152733 ] ] } }
]
}
