{
"type": "FeatureCollection",
"name": "MT__Tirzah_MT__Tirzah_underground",
"crs": { "type": "name", "properties": { "name": "urn:ogc:def:crs:OGC:1.3:CRS84" } },
"features": [
{ "type": "Feature", "properties": { "FEEDER_NAME": "MT. Tirzah", "SUBSTATION_NAME": "MT. Tirzah", "wmType": "PRIMARY UNDERGROUND", "WKT": "LINESTRING (-78.86654077068972 36.31706168644796, -78.86651514879122 36.31703611739257)" }, "geometry": { "type": "LineString", "coordinates": [ [ -78.866540770689724, 36.317061686447957 ], [ -78.866515148791223, 36.317036117392568 ] ] } }
]
}
