{
"type": "FeatureCollection",
"name": "New_Hope_BLACKWOOD_STATION_underground",
"crs": { "type": "name", "properties": { "name": "urn:ogc:def:crs:OGC:1.3:CRS84" } },
"features": [
{ "type": "Feature", "properties": { "FEEDER_NAME": "BLACKWOOD STATION", "SUBSTATION_NAME": "New Hope", "wmType": "SECONDARY UNDERGROUND", "WKT": "LINESTRING (-79.08557299860425 35.98945043231491, -79.08557280246325 35.989464166996385)" }, "geometry": { "type": "LineString", "coordinates": [ [ -79.085572998604249, 35.989450432314911 ], [ -79.085572802463247, 35.989464166996385 ] ] } },
{ "type": "Feature", "properties": { "FEEDER_NAME": "BLACKWOOD STATION", "SUBSTATION_NAME": "New Hope", "wmType": "SECONDARY UNDERGROUND", "WKT": "LINESTRING (-79.07907064154813 35.98854648510405, -79.07907044430235 35.98856021977988)" }, "geometry": { "type": "LineString", "coordinates": [ [ -79.079070641548128, 35.988546485104052 ], [ -79.079070444302346, 35.988560219779878 ] ] } },
{ "type": "Feature", "properties": { "FEEDER_NAME": "BLACKWOOD STATION", "SUBSTATION_NAME": "New Hope", "wmType": "SECONDARY UNDERGROUND", "WKT": "LINESTRING (-79.0807160032906 35.98926397652594, -79.08065189459921 35.988896796655375, -79.08055187246725 35.98888322905323)" }, "geometry": { "type": "LineString", "coordinates": [ [ -79.080716003290604, 35.98926397652594 ], [ -79.080651894599214, 35.988896796655375 ], [ -79.080551872467254, 35.988883229053229 ] ] } },
{ "type": "Feature", "properties": { "FEEDER_NAME": "BLACKWOOD STATION", "SUBSTATION_NAME": "New Hope", "wmType": "SECONDARY UNDERGROUND", "WKT": "LINESTRING (-79.07452455885803 35.997054285809945, -79.07452803927627 35.99705435128213, -79.07478809336621 35.99698131179696, -79.07491510293903 35.99697167236718, -79.07502061279612 35.99699922443107, -79.07503462004468 35.99701518368533)" }, "geometry": { "type": "LineString", "coordinates": [ [ -79.07452455885803, 35.997054285809945 ], [ -79.074528039276274, 35.997054351282131 ], [ -79.074788093366209, 35.996981311796958 ], [ -79.07491510293903, 35.996971672367181 ], [ -79.075020612796123, 35.996999224431072 ], [ -79.075034620044676, 35.997015183685328 ] ] } },
{ "type": "Feature", "properties": { "FEEDER_NAME": "BLACKWOOD STATION", "SUBSTATION_NAME": "New Hope", "wmType": "SECONDARY UNDERGROUND", "WKT": "LINESTRING (-79.07619164056779 36.001921968322655, -79.07618809240483 36.00191733890151, -79.07613762951671 36.001868944144576, -79.07609753619124 36.00187923731066, -79.07603319890704 36.0018827103117, -79.07601630474848 36.00184929266613, -79.07602103597917 36.001838197774156)" }, "geometry": { "type": "LineString", "coordinates": [ [ -79.076191640567785, 36.001921968322655 ], [ -79.076188092404834, 36.001917338901507 ], [ -79.076137629516708, 36.001868944144576 ], [ -79.076097536191241, 36.001879237310661 ], [ -79.076033198907041, 36.001882710311698 ], [ -79.076016304748478, 36.00184929266613 ], [ -79.076021035979167, 36.001838197774156 ] ] } },
{ "type": "Feature", "properties": { "FEEDER_NAME": "BLACKWOOD STATION", "SUBSTATION_NAME": "New Hope", "wmType": "SECONDARY UNDERGROUND", "WKT": "LINESTRING (-79.06706639358214 36.00803670092554, -79.06699069452594 36.008084297923915, -79.06703737950241 36.008481866285436, -79.06694873424898 36.0085179079715, -79.0669085466682 36.00861119059939, -79.0669130238975 36.008623535532614)" }, "geometry": { "type": "LineString", "coordinates": [ [ -79.067066393582138, 36.008036700925537 ], [ -79.066990694525941, 36.008084297923915 ], [ -79.067037379502409, 36.008481866285436 ], [ -79.066948734248982, 36.008517907971502 ], [ -79.066908546668202, 36.008611190599389 ], [ -79.066913023897499, 36.008623535532614 ] ] } },
{ "type": "Feature", "properties": { "FEEDER_NAME": "BLACKWOOD STATION", "SUBSTATION_NAME": "New Hope", "wmType": "SECONDARY UNDERGROUND", "WKT": "LINESTRING (-79.07994173265875 35.987538034234824, -79.07989769072684 35.98760043679705)" }, "geometry": { "type": "LineString", "coordinates": [ [ -79.079941732658753, 35.987538034234824 ], [ -79.079897690726838, 35.987600436797052 ] ] } },
{ "type": "Feature", "properties": { "FEEDER_NAME": "BLACKWOOD STATION", "SUBSTATION_NAME": "New Hope", "wmType": "SECONDARY UNDERGROUND", "WKT": "LINESTRING (-79.07894671191715 35.987732061995246, -79.0793446422591 35.98777148375261)" }, "geometry": { "type": "LineString", "coordinates": [ [ -79.078946711917155, 35.987732061995246 ], [ -79.079344642259102, 35.98777148375261 ] ] } },
{ "type": "Feature", "properties": { "FEEDER_NAME": "BLACKWOOD STATION", "SUBSTATION_NAME": "New Hope", "wmType": "SECONDARY UNDERGROUND", "WKT": "LINESTRING (-79.07423090818469 36.00993071063657, -79.07413619536389 36.00991933374801, -79.07406334106646 36.00991299154316, -79.07399233091536 36.00990479336735, -79.07386043878687 36.009871908369696, -79.07378603897028 36.00985547092295, -79.07371162271937 36.009819803973805, -79.07364057506386 36.00977039961485, -79.07359321000855 36.00973746335209, -79.07357630216065 36.00973472646821, -79.0735053197549 36.00975674572684, -79.07343775339787 36.009817221825024, -79.07343962684568 36.009819527045295)" }, "geometry": { "type": "LineString", "coordinates": [ [ -79.074230908184688, 36.009930710636567 ], [ -79.074136195363891, 36.009919333748009 ], [ -79.074063341066463, 36.00991299154316 ], [ -79.07399233091536, 36.009904793367348 ], [ -79.073860438786866, 36.009871908369696 ], [ -79.073786038970283, 36.00985547092295 ], [ -79.073711622719372, 36.009819803973805 ], [ -79.073640575063862, 36.009770399614851 ], [ -79.073593210008553, 36.009737463352089 ], [ -79.073576302160646, 36.00973472646821 ], [ -79.073505319754901, 36.00975674572684 ], [ -79.073437753397869, 36.009817221825024 ], [ -79.073439626845683, 36.009819527045295 ] ] } },
{ "type": "Feature", "properties": { "FEEDER_NAME": "BLACKWOOD STATION", "SUBSTATION_NAME": "New Hope", "wmType": "SECONDARY UNDERGROUND", "WKT": "LINESTRING (-79.07233082644757 36.0133162087326, -79.072327571003 36.01330678340327, -79.07236806920749 36.01322160047375, -79.07231047772845 36.01309801673425, -79.07231373056845 36.01308227867996)" }, "geometry": { "type": "LineString", "coordinates": [ [ -79.072330826447569, 36.013316208732597 ], [ -79.072327571003001, 36.013306783403273 ], [ -79.072368069207485, 36.013221600473749 ], [ -79.07231047772845, 36.013098016734247 ], [ -79.072313730568453, 36.01308227867996 ] ] } },
{ "type": "Feature", "properties": { "FEEDER_NAME": "BLACKWOOD STATION", "SUBSTATION_NAME": "New Hope", "wmType": "SECONDARY UNDERGROUND", "WKT": "LINESTRING (-79.0785100433604 36.0051443779445, -79.0786052094749 36.00533235778398)" }, "geometry": { "type": "LineString", "coordinates": [ [ -79.078510043360396, 36.005144377944497 ], [ -79.078605209474901, 36.005332357783978 ] ] } },
{ "type": "Feature", "properties": { "FEEDER_NAME": "BLACKWOOD STATION", "SUBSTATION_NAME": "New Hope", "wmType": "SECONDARY UNDERGROUND", "WKT": "LINESTRING (-79.0785100433604 36.0051443779445, -79.07852579225415 36.00512532037622, -79.07859335059472 36.00505090230473, -79.07866091713048 36.00499866445213, -79.07869133691707 36.00499040364646, -79.07870821445675 36.00496292115229)" }, "geometry": { "type": "LineString", "coordinates": [ [ -79.078510043360396, 36.005144377944497 ], [ -79.078525792254155, 36.005125320376223 ], [ -79.078593350594716, 36.005050902304731 ], [ -79.078660917130478, 36.004998664452131 ], [ -79.078691336917075, 36.00499040364646 ], [ -79.078708214456753, 36.004962921152291 ] ] } },
{ "type": "Feature", "properties": { "FEEDER_NAME": "BLACKWOOD STATION", "SUBSTATION_NAME": "New Hope", "wmType": "SECONDARY UNDERGROUND", "WKT": "LINESTRING (-79.07447672610661 36.01129754174992, -79.07449361954745 36.01129750351202, -79.07469305921234 36.01124518751583, -79.07476394074563 36.01111328503242, -79.0748214224368 36.011115996911144)" }, "geometry": { "type": "LineString", "coordinates": [ [ -79.07447672610661, 36.011297541749919 ], [ -79.074493619547454, 36.011297503512019 ], [ -79.074693059212336, 36.011245187515833 ], [ -79.074763940745626, 36.011113285032422 ], [ -79.074821422436798, 36.011115996911144 ] ] } },
{ "type": "Feature", "properties": { "FEEDER_NAME": "BLACKWOOD STATION", "SUBSTATION_NAME": "New Hope", "wmType": "SECONDARY UNDERGROUND", "WKT": "LINESTRING (-79.07853021031458 36.003071239625946, -79.0784869409459 36.002872764276745)" }, "geometry": { "type": "LineString", "coordinates": [ [ -79.078530210314582, 36.003071239625946 ], [ -79.078486940945893, 36.002872764276745 ] ] } },
{ "type": "Feature", "properties": { "FEEDER_NAME": "BLACKWOOD STATION", "SUBSTATION_NAME": "New Hope", "wmType": "SECONDARY UNDERGROUND", "WKT": "LINESTRING (-79.07994173265875 35.987538034234824, -79.07993169786238 35.987538308481064, -79.07988310819267 35.98754599120497, -79.07985203936275 35.98756847313447, -79.07981408274445 35.987613420269696, -79.07978302386562 35.987647132080156, -79.0796344739231 35.987647229018954, -79.07963673604608 35.98764929507251)" }, "geometry": { "type": "LineString", "coordinates": [ [ -79.079941732658753, 35.987538034234824 ], [ -79.079931697862378, 35.987538308481064 ], [ -79.079883108192675, 35.987545991204968 ], [ -79.079852039362748, 35.987568473134473 ], [ -79.079814082744448, 35.987613420269696 ], [ -79.079783023865616, 35.987647132080156 ], [ -79.079634473923093, 35.987647229018954 ], [ -79.079636736046083, 35.987649295072508 ] ] } },
{ "type": "Feature", "properties": { "FEEDER_NAME": "BLACKWOOD STATION", "SUBSTATION_NAME": "New Hope", "wmType": "SECONDARY UNDERGROUND", "WKT": "LINESTRING (-79.07100228604074 36.01416756787794, -79.07125342612922 36.01376170728722)" }, "geometry": { "type": "LineString", "coordinates": [ [ -79.071002286040738, 36.014167567877941 ], [ -79.071253426129218, 36.013761707287223 ] ] } },
{ "type": "Feature", "properties": { "FEEDER_NAME": "BLACKWOOD STATION", "SUBSTATION_NAME": "New Hope", "wmType": "SECONDARY UNDERGROUND", "WKT": "LINESTRING (-79.07100228604074 36.01416756787794, -79.07095701951071 36.01394556342721)" }, "geometry": { "type": "LineString", "coordinates": [ [ -79.071002286040738, 36.014167567877941 ], [ -79.070957019510715, 36.013945563427207 ] ] } },
{ "type": "Feature", "properties": { "FEEDER_NAME": "BLACKWOOD STATION", "SUBSTATION_NAME": "New Hope", "wmType": "SECONDARY UNDERGROUND", "WKT": "LINESTRING (-79.07233462918985 36.012384817712984, -79.07252998917762 36.01240731380667)" }, "geometry": { "type": "LineString", "coordinates": [ [ -79.072334629189854, 36.012384817712984 ], [ -79.072529989177625, 36.012407313806669 ] ] } },
{ "type": "Feature", "properties": { "FEEDER_NAME": "BLACKWOOD STATION", "SUBSTATION_NAME": "New Hope", "wmType": "SECONDARY UNDERGROUND", "WKT": "LINESTRING (-79.0755075349913 36.00978276831692, -79.07587039621184 36.009730248319165)" }, "geometry": { "type": "LineString", "coordinates": [ [ -79.075507534991303, 36.009782768316917 ], [ -79.07587039621184, 36.009730248319165 ] ] } },
{ "type": "Feature", "properties": { "FEEDER_NAME": "BLACKWOOD STATION", "SUBSTATION_NAME": "New Hope", "wmType": "SECONDARY UNDERGROUND", "WKT": "LINESTRING (-79.07423090818469 36.00993071063657, -79.07420926295117 36.00949799947263)" }, "geometry": { "type": "LineString", "coordinates": [ [ -79.074230908184688, 36.009930710636567 ], [ -79.074209262951172, 36.009497999472629 ] ] } },
{ "type": "Feature", "properties": { "FEEDER_NAME": "BLACKWOOD STATION", "SUBSTATION_NAME": "New Hope", "wmType": "SECONDARY UNDERGROUND", "WKT": "LINESTRING (-79.07423090818469 36.00993071063657, -79.07441995923806 36.0102675330626)" }, "geometry": { "type": "LineString", "coordinates": [ [ -79.074230908184688, 36.009930710636567 ], [ -79.074419959238057, 36.010267533062603 ] ] } },
{ "type": "Feature", "properties": { "FEEDER_NAME": "BLACKWOOD STATION", "SUBSTATION_NAME": "New Hope", "wmType": "SECONDARY UNDERGROUND", "WKT": "LINESTRING (-79.0724449272111 36.01005471477805, -79.0724618488542 36.01006042779861)" }, "geometry": { "type": "LineString", "coordinates": [ [ -79.072444927211095, 36.01005471477805 ], [ -79.072461848854203, 36.010060427798606 ] ] } },
{ "type": "Feature", "properties": { "FEEDER_NAME": "BLACKWOOD STATION", "SUBSTATION_NAME": "New Hope", "wmType": "SECONDARY UNDERGROUND", "WKT": "LINESTRING (-79.0724449272111 36.01005471477805, -79.07176400744413 36.0103205807362)" }, "geometry": { "type": "LineString", "coordinates": [ [ -79.072444927211095, 36.01005471477805 ], [ -79.071764007444131, 36.010320580736199 ] ] } },
{ "type": "Feature", "properties": { "FEEDER_NAME": "BLACKWOOD STATION", "SUBSTATION_NAME": "New Hope", "wmType": "SECONDARY UNDERGROUND", "WKT": "LINESTRING (-79.07294115359232 36.00917673617029, -79.07335629326906 36.009037383989764)" }, "geometry": { "type": "LineString", "coordinates": [ [ -79.072941153592325, 36.009176736170289 ], [ -79.073356293269057, 36.009037383989764 ] ] } },
{ "type": "Feature", "properties": { "FEEDER_NAME": "BLACKWOOD STATION", "SUBSTATION_NAME": "New Hope", "wmType": "SECONDARY UNDERGROUND", "WKT": "LINESTRING (-79.07350413069616 36.011066542670875, -79.07346575450286 36.010811805170384)" }, "geometry": { "type": "LineString", "coordinates": [ [ -79.073504130696165, 36.011066542670875 ], [ -79.073465754502863, 36.010811805170384 ] ] } },
{ "type": "Feature", "properties": { "FEEDER_NAME": "BLACKWOOD STATION", "SUBSTATION_NAME": "New Hope", "wmType": "SECONDARY UNDERGROUND", "WKT": "LINESTRING (-79.07357306916671 36.011546029868235, -79.0740314927653 36.0117477126957)" }, "geometry": { "type": "LineString", "coordinates": [ [ -79.073573069166713, 36.011546029868235 ], [ -79.0740314927653, 36.011747712695701 ] ] } },
{ "type": "Feature", "properties": { "FEEDER_NAME": "BLACKWOOD STATION", "SUBSTATION_NAME": "New Hope", "wmType": "SECONDARY UNDERGROUND", "WKT": "LINESTRING (-79.06790063553528 36.009888544157754, -79.06800051220942 36.0102090878375)" }, "geometry": { "type": "LineString", "coordinates": [ [ -79.067900635535281, 36.009888544157754 ], [ -79.068000512209423, 36.010209087837502 ] ] } },
{ "type": "Feature", "properties": { "FEEDER_NAME": "BLACKWOOD STATION", "SUBSTATION_NAME": "New Hope", "wmType": "SECONDARY UNDERGROUND", "WKT": "LINESTRING (-79.06561270487678 36.00691433823526, -79.06536165441607 36.00720269879876)" }, "geometry": { "type": "LineString", "coordinates": [ [ -79.065612704876784, 36.006914338235262 ], [ -79.065361654416066, 36.007202698798757 ] ] } },
{ "type": "Feature", "properties": { "FEEDER_NAME": "BLACKWOOD STATION", "SUBSTATION_NAME": "New Hope", "wmType": "SECONDARY UNDERGROUND", "WKT": "LINESTRING (-79.06561270487678 36.00691433823526, -79.06556772390316 36.006754270761334)" }, "geometry": { "type": "LineString", "coordinates": [ [ -79.065612704876784, 36.006914338235262 ], [ -79.065567723903158, 36.006754270761334 ] ] } },
{ "type": "Feature", "properties": { "FEEDER_NAME": "BLACKWOOD STATION", "SUBSTATION_NAME": "New Hope", "wmType": "SECONDARY UNDERGROUND", "WKT": "LINESTRING (-79.06561270487678 36.00691433823526, -79.06574039274979 36.007015507405185)" }, "geometry": { "type": "LineString", "coordinates": [ [ -79.065612704876784, 36.006914338235262 ], [ -79.065740392749788, 36.007015507405185 ] ] } },
{ "type": "Feature", "properties": { "FEEDER_NAME": "BLACKWOOD STATION", "SUBSTATION_NAME": "New Hope", "wmType": "SECONDARY UNDERGROUND", "WKT": "LINESTRING (-79.06314498969034 36.00541835625406, -79.06321180472257 36.005472555631464)" }, "geometry": { "type": "LineString", "coordinates": [ [ -79.063144989690343, 36.005418356254062 ], [ -79.06321180472257, 36.005472555631464 ] ] } },
{ "type": "Feature", "properties": { "FEEDER_NAME": "BLACKWOOD STATION", "SUBSTATION_NAME": "New Hope", "wmType": "SECONDARY UNDERGROUND", "WKT": "LINESTRING (-79.06321180472257 36.005472555631464, -79.06334916558164 36.005391991150134)" }, "geometry": { "type": "LineString", "coordinates": [ [ -79.06321180472257, 36.005472555631464 ], [ -79.063349165581641, 36.005391991150134 ] ] } },
{ "type": "Feature", "properties": { "FEEDER_NAME": "BLACKWOOD STATION", "SUBSTATION_NAME": "New Hope", "wmType": "SECONDARY UNDERGROUND", "WKT": "LINESTRING (-79.06355732664983 36.00596095484611, -79.06320956523612 36.006074143692345)" }, "geometry": { "type": "LineString", "coordinates": [ [ -79.063557326649828, 36.00596095484611 ], [ -79.063209565236122, 36.006074143692345 ] ] } },
{ "type": "Feature", "properties": { "FEEDER_NAME": "BLACKWOOD STATION", "SUBSTATION_NAME": "New Hope", "wmType": "SECONDARY UNDERGROUND", "WKT": "LINESTRING (-79.06422728090766 36.00539564427267, -79.06483814566079 36.00563292975536)" }, "geometry": { "type": "LineString", "coordinates": [ [ -79.064227280907659, 36.005395644272667 ], [ -79.064838145660786, 36.005632929755357 ] ] } },
{ "type": "Feature", "properties": { "FEEDER_NAME": "BLACKWOOD STATION", "SUBSTATION_NAME": "New Hope", "wmType": "SECONDARY UNDERGROUND", "WKT": "LINESTRING (-79.06422728090766 36.00539564427267, -79.06422794180772 36.00541072577954, -79.06414196549864 36.00560611853567, -79.06412750153281 36.00566083051631)" }, "geometry": { "type": "LineString", "coordinates": [ [ -79.064227280907659, 36.005395644272667 ], [ -79.064227941807715, 36.005410725779541 ], [ -79.064141965498635, 36.005606118535667 ], [ -79.064127501532809, 36.005660830516312 ] ] } },
{ "type": "Feature", "properties": { "FEEDER_NAME": "BLACKWOOD STATION", "SUBSTATION_NAME": "New Hope", "wmType": "SECONDARY UNDERGROUND", "WKT": "LINESTRING (-79.06412750153281 36.00566083051631, -79.06443912158079 36.00596556258421)" }, "geometry": { "type": "LineString", "coordinates": [ [ -79.064127501532809, 36.005660830516312 ], [ -79.06443912158079, 36.005965562584208 ] ] } },
{ "type": "Feature", "properties": { "FEEDER_NAME": "BLACKWOOD STATION", "SUBSTATION_NAME": "New Hope", "wmType": "SECONDARY UNDERGROUND", "WKT": "LINESTRING (-79.06422728090766 36.00539564427267, -79.06468190299759 36.00564492556106)" }, "geometry": { "type": "LineString", "coordinates": [ [ -79.064227280907659, 36.005395644272667 ], [ -79.064681902997592, 36.005644925561057 ] ] } },
{ "type": "Feature", "properties": { "FEEDER_NAME": "BLACKWOOD STATION", "SUBSTATION_NAME": "New Hope", "wmType": "SECONDARY UNDERGROUND", "WKT": "LINESTRING (-79.06422728090766 36.00539564427267, -79.06470646096031 36.005466385375456)" }, "geometry": { "type": "LineString", "coordinates": [ [ -79.064227280907659, 36.005395644272667 ], [ -79.064706460960309, 36.005466385375456 ] ] } },
{ "type": "Feature", "properties": { "FEEDER_NAME": "BLACKWOOD STATION", "SUBSTATION_NAME": "New Hope", "wmType": "SECONDARY UNDERGROUND", "WKT": "LINESTRING (-79.06416337259637 36.004923237414324, -79.06386167540056 36.004707253737415)" }, "geometry": { "type": "LineString", "coordinates": [ [ -79.064163372596369, 36.004923237414324 ], [ -79.06386167540056, 36.004707253737415 ] ] } },
{ "type": "Feature", "properties": { "FEEDER_NAME": "BLACKWOOD STATION", "SUBSTATION_NAME": "New Hope", "wmType": "SECONDARY UNDERGROUND", "WKT": "LINESTRING (-79.06416337259637 36.004923237414324, -79.06384288160172 36.005002284485336)" }, "geometry": { "type": "LineString", "coordinates": [ [ -79.064163372596369, 36.004923237414324 ], [ -79.063842881601715, 36.005002284485336 ] ] } },
{ "type": "Feature", "properties": { "FEEDER_NAME": "BLACKWOOD STATION", "SUBSTATION_NAME": "New Hope", "wmType": "SECONDARY UNDERGROUND", "WKT": "LINESTRING (-79.06501825452018 36.00492777128159, -79.06512231904443 36.005373859937954)" }, "geometry": { "type": "LineString", "coordinates": [ [ -79.065018254520183, 36.004927771281587 ], [ -79.065122319044434, 36.005373859937954 ] ] } },
{ "type": "Feature", "properties": { "FEEDER_NAME": "BLACKWOOD STATION", "SUBSTATION_NAME": "New Hope", "wmType": "SECONDARY UNDERGROUND", "WKT": "LINESTRING (-79.06501825452018 36.00492777128159, -79.06468732631623 36.00505062605437)" }, "geometry": { "type": "LineString", "coordinates": [ [ -79.065018254520183, 36.004927771281587 ], [ -79.064687326316232, 36.00505062605437 ] ] } },
{ "type": "Feature", "properties": { "FEEDER_NAME": "BLACKWOOD STATION", "SUBSTATION_NAME": "New Hope", "wmType": "SECONDARY UNDERGROUND", "WKT": "LINESTRING (-79.06513978611555 36.00445531738774, -79.06537389275793 36.00461073269508)" }, "geometry": { "type": "LineString", "coordinates": [ [ -79.065139786115552, 36.004455317387738 ], [ -79.065373892757933, 36.004610732695078 ] ] } },
{ "type": "Feature", "properties": { "FEEDER_NAME": "BLACKWOOD STATION", "SUBSTATION_NAME": "New Hope", "wmType": "SECONDARY UNDERGROUND", "WKT": "LINESTRING (-79.06513978611555 36.00445531738774, -79.0648950253787 36.004208884365305)" }, "geometry": { "type": "LineString", "coordinates": [ [ -79.065139786115552, 36.004455317387738 ], [ -79.064895025378704, 36.004208884365305 ] ] } },
{ "type": "Feature", "properties": { "FEEDER_NAME": "BLACKWOOD STATION", "SUBSTATION_NAME": "New Hope", "wmType": "SECONDARY UNDERGROUND", "WKT": "LINESTRING (-79.07646017549956 36.001067678074804, -79.07681798555083 36.000942752745914)" }, "geometry": { "type": "LineString", "coordinates": [ [ -79.076460175499562, 36.001067678074804 ], [ -79.076817985550832, 36.000942752745914 ] ] } },
{ "type": "Feature", "properties": { "FEEDER_NAME": "BLACKWOOD STATION", "SUBSTATION_NAME": "New Hope", "wmType": "SECONDARY UNDERGROUND", "WKT": "LINESTRING (-79.07646017549956 36.001067678074804, -79.07678215822628 36.00114726932548)" }, "geometry": { "type": "LineString", "coordinates": [ [ -79.076460175499562, 36.001067678074804 ], [ -79.07678215822628, 36.001147269325479 ] ] } },
{ "type": "Feature", "properties": { "FEEDER_NAME": "BLACKWOOD STATION", "SUBSTATION_NAME": "New Hope", "wmType": "SECONDARY UNDERGROUND", "WKT": "LINESTRING (-79.07667280220521 36.001863950771316, -79.07710680970943 36.001852901115136)" }, "geometry": { "type": "LineString", "coordinates": [ [ -79.076672802205209, 36.001863950771316 ], [ -79.077106809709434, 36.001852901115136 ] ] } },
{ "type": "Feature", "properties": { "FEEDER_NAME": "BLACKWOOD STATION", "SUBSTATION_NAME": "New Hope", "wmType": "SECONDARY UNDERGROUND", "WKT": "LINESTRING (-79.07863771471223 36.003210172605286, -79.07862280261824 36.003221339937895, -79.0785998658686 36.00323851309386, -79.0785787877231 36.00327806631233, -79.07854760277095 36.003310912457586, -79.07850633129088 36.0033385178768)" }, "geometry": { "type": "LineString", "coordinates": [ [ -79.078637714712229, 36.003210172605286 ], [ -79.078622802618241, 36.003221339937895 ], [ -79.078599865868597, 36.003238513093862 ], [ -79.078578787723103, 36.003278066312333 ], [ -79.078547602770954, 36.003310912457586 ], [ -79.078506331290882, 36.003338517876799 ] ] } },
{ "type": "Feature", "properties": { "FEEDER_NAME": "BLACKWOOD STATION", "SUBSTATION_NAME": "New Hope", "wmType": "SECONDARY UNDERGROUND", "WKT": "LINESTRING (-79.07850633129088 36.0033385178768, -79.07852102323878 36.00335867437255, -79.07852472190199 36.0033855298695, -79.07852000941743 36.00339397239944)" }, "geometry": { "type": "LineString", "coordinates": [ [ -79.078506331290882, 36.003338517876799 ], [ -79.078521023238778, 36.003358674372549 ], [ -79.078524721901985, 36.003385529869497 ], [ -79.078520009417431, 36.003393972399437 ] ] } },
{ "type": "Feature", "properties": { "FEEDER_NAME": "BLACKWOOD STATION", "SUBSTATION_NAME": "New Hope", "wmType": "SECONDARY UNDERGROUND", "WKT": "LINESTRING (-79.07850633129088 36.0033385178768, -79.07863193766656 36.00340090779282, -79.07903299970894 36.003773000050785)" }, "geometry": { "type": "LineString", "coordinates": [ [ -79.078506331290882, 36.003338517876799 ], [ -79.078631937666557, 36.003400907792823 ], [ -79.079032999708943, 36.003773000050785 ] ] } },
{ "type": "Feature", "properties": { "FEEDER_NAME": "BLACKWOOD STATION", "SUBSTATION_NAME": "New Hope", "wmType": "SECONDARY UNDERGROUND", "WKT": "LINESTRING (-79.07863771471223 36.003210172605286, -79.079220358231 36.00356097190342)" }, "geometry": { "type": "LineString", "coordinates": [ [ -79.078637714712229, 36.003210172605286 ], [ -79.079220358230998, 36.003560971903418 ] ] } },
{ "type": "Feature", "properties": { "FEEDER_NAME": "BLACKWOOD STATION", "SUBSTATION_NAME": "New Hope", "wmType": "SECONDARY UNDERGROUND", "WKT": "LINESTRING (-79.0778201760776 36.00330873184631, -79.07800674446588 36.00349898652013)" }, "geometry": { "type": "LineString", "coordinates": [ [ -79.077820176077594, 36.00330873184631 ], [ -79.078006744465881, 36.003498986520128 ] ] } },
{ "type": "Feature", "properties": { "FEEDER_NAME": "BLACKWOOD STATION", "SUBSTATION_NAME": "New Hope", "wmType": "SECONDARY UNDERGROUND", "WKT": "LINESTRING (-79.0778201760776 36.00330873184631, -79.07765978966421 36.00351009130661)" }, "geometry": { "type": "LineString", "coordinates": [ [ -79.077820176077594, 36.00330873184631 ], [ -79.07765978966421, 36.003510091306609 ] ] } },
{ "type": "Feature", "properties": { "FEEDER_NAME": "BLACKWOOD STATION", "SUBSTATION_NAME": "New Hope", "wmType": "SECONDARY UNDERGROUND", "WKT": "LINESTRING (-79.07863771471223 36.003210172605286, -79.07858694656 36.003199165604144, -79.07858578807425 36.003172470701955, -79.07857102625653 36.0031375018681, -79.0785487874804 36.00310143197991, -79.07853021031458 36.003071239625946)" }, "geometry": { "type": "LineString", "coordinates": [ [ -79.078637714712229, 36.003210172605286 ], [ -79.078586946559994, 36.003199165604144 ], [ -79.07858578807425, 36.003172470701955 ], [ -79.078571026256526, 36.003137501868103 ], [ -79.078548787480401, 36.003101431979907 ], [ -79.078530210314582, 36.003071239625946 ] ] } },
{ "type": "Feature", "properties": { "FEEDER_NAME": "BLACKWOOD STATION", "SUBSTATION_NAME": "New Hope", "wmType": "SECONDARY UNDERGROUND", "WKT": "LINESTRING (-79.0778201760776 36.00330873184631, -79.07781603662606 36.0031271049443)" }, "geometry": { "type": "LineString", "coordinates": [ [ -79.077820176077594, 36.00330873184631 ], [ -79.077816036626061, 36.003127104944298 ] ] } },
{ "type": "Feature", "properties": { "FEEDER_NAME": "BLACKWOOD STATION", "SUBSTATION_NAME": "New Hope", "wmType": "SECONDARY UNDERGROUND", "WKT": "LINESTRING (-79.07781603662606 36.0031271049443, -79.07799164901813 36.00274020255653)" }, "geometry": { "type": "LineString", "coordinates": [ [ -79.077816036626061, 36.003127104944298 ], [ -79.077991649018131, 36.002740202556531 ] ] } },
{ "type": "Feature", "properties": { "FEEDER_NAME": "BLACKWOOD STATION", "SUBSTATION_NAME": "New Hope", "wmType": "SECONDARY UNDERGROUND", "WKT": "LINESTRING (-79.07781603662606 36.0031271049443, -79.07764352162091 36.00274656556192)" }, "geometry": { "type": "LineString", "coordinates": [ [ -79.077816036626061, 36.003127104944298 ], [ -79.077643521620914, 36.002746565561921 ] ] } },
{ "type": "Feature", "properties": { "FEEDER_NAME": "BLACKWOOD STATION", "SUBSTATION_NAME": "New Hope", "wmType": "SECONDARY UNDERGROUND", "WKT": "LINESTRING (-79.07666701635941 36.003336232293606, -79.07693682950139 36.002959531475454)" }, "geometry": { "type": "LineString", "coordinates": [ [ -79.076667016359409, 36.003336232293606 ], [ -79.076936829501392, 36.002959531475454 ] ] } },
{ "type": "Feature", "properties": { "FEEDER_NAME": "BLACKWOOD STATION", "SUBSTATION_NAME": "New Hope", "wmType": "SECONDARY UNDERGROUND", "WKT": "LINESTRING (-79.07666701635941 36.003336232293606, -79.0767724996158 36.00345232004758)" }, "geometry": { "type": "LineString", "coordinates": [ [ -79.076667016359409, 36.003336232293606 ], [ -79.076772499615799, 36.003452320047579 ] ] } },
{ "type": "Feature", "properties": { "FEEDER_NAME": "BLACKWOOD STATION", "SUBSTATION_NAME": "New Hope", "wmType": "SECONDARY UNDERGROUND", "WKT": "LINESTRING (-79.07876053039244 36.00804373324137, -79.07864694833694 36.00806512142592)" }, "geometry": { "type": "LineString", "coordinates": [ [ -79.078760530392444, 36.008043733241372 ], [ -79.078646948336939, 36.008065121425922 ] ] } },
{ "type": "Feature", "properties": { "FEEDER_NAME": "BLACKWOOD STATION", "SUBSTATION_NAME": "New Hope", "wmType": "SECONDARY UNDERGROUND", "WKT": "LINESTRING (-79.07853512439468 36.00700425500175, -79.07845263998499 36.00727184086264)" }, "geometry": { "type": "LineString", "coordinates": [ [ -79.078535124394676, 36.007004255001753 ], [ -79.078452639984988, 36.007271840862643 ] ] } },
{ "type": "Feature", "properties": { "FEEDER_NAME": "BLACKWOOD STATION", "SUBSTATION_NAME": "New Hope", "wmType": "SECONDARY UNDERGROUND", "WKT": "LINESTRING (-79.07853512439468 36.00700425500175, -79.07845327481692 36.00694717880746)" }, "geometry": { "type": "LineString", "coordinates": [ [ -79.078535124394676, 36.007004255001753 ], [ -79.078453274816923, 36.006947178807458 ] ] } },
{ "type": "Feature", "properties": { "FEEDER_NAME": "BLACKWOOD STATION", "SUBSTATION_NAME": "New Hope", "wmType": "SECONDARY UNDERGROUND", "WKT": "LINESTRING (-79.07883039708985 36.00592865795155, -79.07849549315051 36.00625498730577)" }, "geometry": { "type": "LineString", "coordinates": [ [ -79.078830397089845, 36.00592865795155 ], [ -79.078495493150513, 36.006254987305773 ] ] } },
{ "type": "Feature", "properties": { "FEEDER_NAME": "BLACKWOOD STATION", "SUBSTATION_NAME": "New Hope", "wmType": "SECONDARY UNDERGROUND", "WKT": "LINESTRING (-79.0779758195618 36.005695520547604, -79.07769922692877 36.0060537506249, -79.07772163635742 36.00621351981742, -79.07773295203445 36.00632448778442, -79.07777999417132 36.00634610724911, -79.0779749174889 36.00634007788047)" }, "geometry": { "type": "LineString", "coordinates": [ [ -79.0779758195618, 36.005695520547604 ], [ -79.077699226928772, 36.006053750624901 ], [ -79.077721636357424, 36.006213519817422 ], [ -79.077732952034452, 36.006324487784418 ], [ -79.077779994171323, 36.006346107249108 ], [ -79.077974917488902, 36.006340077880473 ] ] } },
{ "type": "Feature", "properties": { "FEEDER_NAME": "BLACKWOOD STATION", "SUBSTATION_NAME": "New Hope", "wmType": "SECONDARY UNDERGROUND", "WKT": "LINESTRING (-79.076932036328 36.006109584914086, -79.07662444319548 36.00641608199933)" }, "geometry": { "type": "LineString", "coordinates": [ [ -79.076932036328003, 36.006109584914086 ], [ -79.076624443195485, 36.006416081999333 ] ] } },
{ "type": "Feature", "properties": { "FEEDER_NAME": "BLACKWOOD STATION", "SUBSTATION_NAME": "New Hope", "wmType": "SECONDARY UNDERGROUND", "WKT": "LINESTRING (-79.076932036328 36.006109584914086, -79.07724741127943 36.00632391249529)" }, "geometry": { "type": "LineString", "coordinates": [ [ -79.076932036328003, 36.006109584914086 ], [ -79.07724741127943, 36.00632391249529 ] ] } },
{ "type": "Feature", "properties": { "FEEDER_NAME": "BLACKWOOD STATION", "SUBSTATION_NAME": "New Hope", "wmType": "SECONDARY UNDERGROUND", "WKT": "LINESTRING (-79.07609910936841 36.005647737905925, -79.07593426268797 36.006064699497095)" }, "geometry": { "type": "LineString", "coordinates": [ [ -79.076099109368414, 36.005647737905925 ], [ -79.075934262687966, 36.006064699497095 ] ] } },
{ "type": "Feature", "properties": { "FEEDER_NAME": "BLACKWOOD STATION", "SUBSTATION_NAME": "New Hope", "wmType": "SECONDARY UNDERGROUND", "WKT": "LINESTRING (-79.07626146803646 36.004833643616664, -79.07578149122735 36.00484019889799)" }, "geometry": { "type": "LineString", "coordinates": [ [ -79.076261468036463, 36.004833643616664 ], [ -79.075781491227346, 36.004840198897988 ] ] } },
{ "type": "Feature", "properties": { "FEEDER_NAME": "BLACKWOOD STATION", "SUBSTATION_NAME": "New Hope", "wmType": "SECONDARY UNDERGROUND", "WKT": "LINESTRING (-79.07578149122735 36.00484019889799, -79.07568302603786 36.00495635527572)" }, "geometry": { "type": "LineString", "coordinates": [ [ -79.075781491227346, 36.004840198897988 ], [ -79.075683026037865, 36.004956355275723 ] ] } },
{ "type": "Feature", "properties": { "FEEDER_NAME": "BLACKWOOD STATION", "SUBSTATION_NAME": "New Hope", "wmType": "SECONDARY UNDERGROUND", "WKT": "LINESTRING (-79.07578149122735 36.00484019889799, -79.07581310665263 36.004673458673864)" }, "geometry": { "type": "LineString", "coordinates": [ [ -79.075781491227346, 36.004840198897988 ], [ -79.075813106652632, 36.004673458673864 ] ] } },
{ "type": "Feature", "properties": { "FEEDER_NAME": "BLACKWOOD STATION", "SUBSTATION_NAME": "New Hope", "wmType": "SECONDARY UNDERGROUND", "WKT": "LINESTRING (-79.07623576161913 36.00395523900803, -79.0759035502547 36.00388028798989)" }, "geometry": { "type": "LineString", "coordinates": [ [ -79.076235761619131, 36.003955239008029 ], [ -79.075903550254694, 36.003880287989887 ] ] } },
{ "type": "Feature", "properties": { "FEEDER_NAME": "BLACKWOOD STATION", "SUBSTATION_NAME": "New Hope", "wmType": "SECONDARY UNDERGROUND", "WKT": "LINESTRING (-79.07623576161913 36.00395523900803, -79.07588605286512 36.00408913319665)" }, "geometry": { "type": "LineString", "coordinates": [ [ -79.076235761619131, 36.003955239008029 ], [ -79.075886052865116, 36.004089133196651 ] ] } },
{ "type": "Feature", "properties": { "FEEDER_NAME": "BLACKWOOD STATION", "SUBSTATION_NAME": "New Hope", "wmType": "SECONDARY UNDERGROUND", "WKT": "LINESTRING (-79.08024564101198 36.00724652235592, -79.08037415154185 36.00723148401802, -79.08069545056406 36.00718130494165, -79.08097518268525 36.00712120165757, -79.08095562339562 36.00708244470363)" }, "geometry": { "type": "LineString", "coordinates": [ [ -79.080245641011985, 36.007246522355921 ], [ -79.080374151541847, 36.007231484018021 ], [ -79.080695450564065, 36.007181304941653 ], [ -79.080975182685251, 36.007121201657569 ], [ -79.080955623395624, 36.007082444703627 ] ] } },
{ "type": "Feature", "properties": { "FEEDER_NAME": "BLACKWOOD STATION", "SUBSTATION_NAME": "New Hope", "wmType": "SECONDARY UNDERGROUND", "WKT": "LINESTRING (-79.08029813679502 36.00757172358791, -79.08037116256067 36.00823712688661)" }, "geometry": { "type": "LineString", "coordinates": [ [ -79.080298136795022, 36.007571723587908 ], [ -79.080371162560667, 36.008237126886613 ] ] } },
{ "type": "Feature", "properties": { "FEEDER_NAME": "BLACKWOOD STATION", "SUBSTATION_NAME": "New Hope", "wmType": "SECONDARY UNDERGROUND", "WKT": "LINESTRING (-79.0795073467358 36.00647658977701, -79.07983692013437 36.006363427719165)" }, "geometry": { "type": "LineString", "coordinates": [ [ -79.079507346735795, 36.006476589777009 ], [ -79.079836920134369, 36.006363427719165 ] ] } },
{ "type": "Feature", "properties": { "FEEDER_NAME": "BLACKWOOD STATION", "SUBSTATION_NAME": "New Hope", "wmType": "SECONDARY UNDERGROUND", "WKT": "LINESTRING (-79.07936753583768 36.00566813605353, -79.0793563082176 36.00542112141443)" }, "geometry": { "type": "LineString", "coordinates": [ [ -79.079367535837676, 36.005668136053529 ], [ -79.079356308217598, 36.005421121414429 ] ] } },
{ "type": "Feature", "properties": { "FEEDER_NAME": "BLACKWOOD STATION", "SUBSTATION_NAME": "New Hope", "wmType": "SECONDARY UNDERGROUND", "WKT": "LINESTRING (-79.07936753583768 36.00566813605353, -79.07975975117415 36.005784692448486)" }, "geometry": { "type": "LineString", "coordinates": [ [ -79.079367535837676, 36.005668136053529 ], [ -79.079759751174151, 36.005784692448486 ] ] } },
{ "type": "Feature", "properties": { "FEEDER_NAME": "BLACKWOOD STATION", "SUBSTATION_NAME": "New Hope", "wmType": "SECONDARY UNDERGROUND", "WKT": "LINESTRING (-79.0785100433604 36.0051443779445, -79.07811535078008 36.00517582480666)" }, "geometry": { "type": "LineString", "coordinates": [ [ -79.078510043360396, 36.005144377944497 ], [ -79.078115350780081, 36.005175824806663 ] ] } },
{ "type": "Feature", "properties": { "FEEDER_NAME": "BLACKWOOD STATION", "SUBSTATION_NAME": "New Hope", "wmType": "SECONDARY UNDERGROUND", "WKT": "LINESTRING (-79.0785100433604 36.0051443779445, -79.07874741651763 36.00516782043238)" }, "geometry": { "type": "LineString", "coordinates": [ [ -79.078510043360396, 36.005144377944497 ], [ -79.078747416517629, 36.005167820432384 ] ] } },
{ "type": "Feature", "properties": { "FEEDER_NAME": "BLACKWOOD STATION", "SUBSTATION_NAME": "New Hope", "wmType": "SECONDARY UNDERGROUND", "WKT": "LINESTRING (-79.0775063101152 36.0055453098928, -79.07736249833975 36.00528675451688)" }, "geometry": { "type": "LineString", "coordinates": [ [ -79.077506310115197, 36.005545309892803 ], [ -79.077362498339753, 36.005286754516881 ] ] } },
{ "type": "Feature", "properties": { "FEEDER_NAME": "BLACKWOOD STATION", "SUBSTATION_NAME": "New Hope", "wmType": "SECONDARY UNDERGROUND", "WKT": "LINESTRING (-79.07687233916741 36.004564208113806, -79.07694461448466 36.004473082920626)" }, "geometry": { "type": "LineString", "coordinates": [ [ -79.076872339167409, 36.004564208113806 ], [ -79.07694461448466, 36.004473082920626 ] ] } },
{ "type": "Feature", "properties": { "FEEDER_NAME": "BLACKWOOD STATION", "SUBSTATION_NAME": "New Hope", "wmType": "SECONDARY UNDERGROUND", "WKT": "LINESTRING (-79.07646902690874 36.004021141048455, -79.07677893880076 36.00407028313663)" }, "geometry": { "type": "LineString", "coordinates": [ [ -79.07646902690874, 36.004021141048455 ], [ -79.076778938800757, 36.004070283136627 ] ] } },
{ "type": "Feature", "properties": { "FEEDER_NAME": "BLACKWOOD STATION", "SUBSTATION_NAME": "New Hope", "wmType": "SECONDARY UNDERGROUND", "WKT": "LINESTRING (-79.07621968152793 36.00354665612386, -79.07578035608991 36.003437154624656)" }, "geometry": { "type": "LineString", "coordinates": [ [ -79.076219681527931, 36.003546656123859 ], [ -79.075780356089908, 36.003437154624656 ] ] } },
{ "type": "Feature", "properties": { "FEEDER_NAME": "BLACKWOOD STATION", "SUBSTATION_NAME": "New Hope", "wmType": "SECONDARY UNDERGROUND", "WKT": "LINESTRING (-79.07620790332487 36.00313957380816, -79.07576796045815 36.00282618348334)" }, "geometry": { "type": "LineString", "coordinates": [ [ -79.076207903324871, 36.003139573808163 ], [ -79.075767960458151, 36.002826183483343 ] ] } },
{ "type": "Feature", "properties": { "FEEDER_NAME": "BLACKWOOD STATION", "SUBSTATION_NAME": "New Hope", "wmType": "SECONDARY UNDERGROUND", "WKT": "LINESTRING (-79.07641296708901 36.0023375180783, -79.07682658732557 36.0021763231568)" }, "geometry": { "type": "LineString", "coordinates": [ [ -79.076412967089013, 36.002337518078299 ], [ -79.07682658732557, 36.002176323156803 ] ] } },
{ "type": "Feature", "properties": { "FEEDER_NAME": "BLACKWOOD STATION", "SUBSTATION_NAME": "New Hope", "wmType": "SECONDARY UNDERGROUND", "WKT": "LINESTRING (-79.07641296708901 36.0023375180783, -79.07694687842327 36.002668567786515)" }, "geometry": { "type": "LineString", "coordinates": [ [ -79.076412967089013, 36.002337518078299 ], [ -79.076946878423271, 36.002668567786515 ] ] } },
{ "type": "Feature", "properties": { "FEEDER_NAME": "BLACKWOOD STATION", "SUBSTATION_NAME": "New Hope", "wmType": "SECONDARY UNDERGROUND", "WKT": "LINESTRING (-79.07619164056779 36.001921968322655, -79.0756838440483 36.00184077837616)" }, "geometry": { "type": "LineString", "coordinates": [ [ -79.076191640567785, 36.001921968322655 ], [ -79.075683844048299, 36.001840778376163 ] ] } },
{ "type": "Feature", "properties": { "FEEDER_NAME": "BLACKWOOD STATION", "SUBSTATION_NAME": "New Hope", "wmType": "SECONDARY UNDERGROUND", "WKT": "LINESTRING (-79.07619164056779 36.001921968322655, -79.07578194170084 36.00209777459636)" }, "geometry": { "type": "LineString", "coordinates": [ [ -79.076191640567785, 36.001921968322655 ], [ -79.075781941700839, 36.002097774596358 ] ] } },
{ "type": "Feature", "properties": { "FEEDER_NAME": "BLACKWOOD STATION", "SUBSTATION_NAME": "New Hope", "wmType": "SECONDARY UNDERGROUND", "WKT": "LINESTRING (-79.07615999934688 36.00120771951424, -79.07562776564501 36.00126576849253)" }, "geometry": { "type": "LineString", "coordinates": [ [ -79.076159999346885, 36.001207719514241 ], [ -79.07562776564501, 36.00126576849253 ] ] } },
{ "type": "Feature", "properties": { "FEEDER_NAME": "BLACKWOOD STATION", "SUBSTATION_NAME": "New Hope", "wmType": "SECONDARY UNDERGROUND", "WKT": "LINESTRING (-79.07552596566457 36.000579553551944, -79.07524212081105 36.00053762488168)" }, "geometry": { "type": "LineString", "coordinates": [ [ -79.075525965664568, 36.000579553551944 ], [ -79.075242120811055, 36.00053762488168 ] ] } },
{ "type": "Feature", "properties": { "FEEDER_NAME": "BLACKWOOD STATION", "SUBSTATION_NAME": "New Hope", "wmType": "SECONDARY UNDERGROUND", "WKT": "LINESTRING (-79.07552596566457 36.000579553551944, -79.07519640624707 36.00087088027859)" }, "geometry": { "type": "LineString", "coordinates": [ [ -79.075525965664568, 36.000579553551944 ], [ -79.075196406247073, 36.00087088027859 ] ] } },
{ "type": "Feature", "properties": { "FEEDER_NAME": "BLACKWOOD STATION", "SUBSTATION_NAME": "New Hope", "wmType": "SECONDARY UNDERGROUND", "WKT": "LINESTRING (-79.076360932383 36.00043701567572, -79.0767013920567 36.00013755214039)" }, "geometry": { "type": "LineString", "coordinates": [ [ -79.076360932382997, 36.000437015675722 ], [ -79.076701392056705, 36.000137552140387 ] ] } },
{ "type": "Feature", "properties": { "FEEDER_NAME": "BLACKWOOD STATION", "SUBSTATION_NAME": "New Hope", "wmType": "SECONDARY UNDERGROUND", "WKT": "LINESTRING (-79.076360932383 36.00043701567572, -79.07711677608263 36.00065496955565)" }, "geometry": { "type": "LineString", "coordinates": [ [ -79.076360932382997, 36.000437015675722 ], [ -79.077116776082633, 36.000654969555647 ] ] } },
{ "type": "Feature", "properties": { "FEEDER_NAME": "BLACKWOOD STATION", "SUBSTATION_NAME": "New Hope", "wmType": "SECONDARY UNDERGROUND", "WKT": "LINESTRING (-79.07593502050982 35.999673009612934, -79.07616487884134 35.999591687126994)" }, "geometry": { "type": "LineString", "coordinates": [ [ -79.075935020509817, 35.999673009612934 ], [ -79.07616487884134, 35.999591687126994 ] ] } },
{ "type": "Feature", "properties": { "FEEDER_NAME": "BLACKWOOD STATION", "SUBSTATION_NAME": "New Hope", "wmType": "SECONDARY UNDERGROUND", "WKT": "LINESTRING (-79.07502667801667 35.999896523951996, -79.0748893400258 35.99974612640757)" }, "geometry": { "type": "LineString", "coordinates": [ [ -79.07502667801667, 35.999896523951996 ], [ -79.074889340025805, 35.999746126407572 ] ] } },
{ "type": "Feature", "properties": { "FEEDER_NAME": "BLACKWOOD STATION", "SUBSTATION_NAME": "New Hope", "wmType": "SECONDARY UNDERGROUND", "WKT": "LINESTRING (-79.07502667801667 35.999896523951996, -79.07491176952418 36.0000357112294)" }, "geometry": { "type": "LineString", "coordinates": [ [ -79.07502667801667, 35.999896523951996 ], [ -79.074911769524178, 36.000035711229401 ] ] } },
{ "type": "Feature", "properties": { "FEEDER_NAME": "BLACKWOOD STATION", "SUBSTATION_NAME": "New Hope", "wmType": "SECONDARY UNDERGROUND", "WKT": "LINESTRING (-79.07529066982106 35.99887804546248, -79.07497738757957 35.99912298589105)" }, "geometry": { "type": "LineString", "coordinates": [ [ -79.075290669821058, 35.998878045462483 ], [ -79.074977387579565, 35.999122985891049 ] ] } },
{ "type": "Feature", "properties": { "FEEDER_NAME": "BLACKWOOD STATION", "SUBSTATION_NAME": "New Hope", "wmType": "SECONDARY UNDERGROUND", "WKT": "LINESTRING (-79.0753308777182 35.99852872887912, -79.07549887891587 35.99822463940319)" }, "geometry": { "type": "LineString", "coordinates": [ [ -79.075330877718201, 35.998528728879123 ], [ -79.075498878915866, 35.99822463940319 ] ] } },
{ "type": "Feature", "properties": { "FEEDER_NAME": "BLACKWOOD STATION", "SUBSTATION_NAME": "New Hope", "wmType": "SECONDARY UNDERGROUND", "WKT": "LINESTRING (-79.07509975385726 35.99850164733902, -79.07457680590576 35.99857379822929)" }, "geometry": { "type": "LineString", "coordinates": [ [ -79.075099753857259, 35.998501647339019 ], [ -79.074576805905764, 35.998573798229287 ] ] } },
{ "type": "Feature", "properties": { "FEEDER_NAME": "BLACKWOOD STATION", "SUBSTATION_NAME": "New Hope", "wmType": "SECONDARY UNDERGROUND", "WKT": "LINESTRING (-79.07468492298997 35.99773873359458, -79.07430109930296 35.997693492117236)" }, "geometry": { "type": "LineString", "coordinates": [ [ -79.074684922989974, 35.997738733594581 ], [ -79.074301099302957, 35.997693492117236 ] ] } },
{ "type": "Feature", "properties": { "FEEDER_NAME": "BLACKWOOD STATION", "SUBSTATION_NAME": "New Hope", "wmType": "SECONDARY UNDERGROUND", "WKT": "LINESTRING (-79.07468492298997 35.99773873359458, -79.07442988750103 35.9979670455757)" }, "geometry": { "type": "LineString", "coordinates": [ [ -79.074684922989974, 35.997738733594581 ], [ -79.074429887501026, 35.997967045575699 ] ] } },
{ "type": "Feature", "properties": { "FEEDER_NAME": "BLACKWOOD STATION", "SUBSTATION_NAME": "New Hope", "wmType": "SECONDARY UNDERGROUND", "WKT": "LINESTRING (-79.07493512197517 35.99777736936103, -79.07533958769392 35.99779368868956)" }, "geometry": { "type": "LineString", "coordinates": [ [ -79.074935121975173, 35.997777369361032 ], [ -79.075339587693918, 35.997793688689562 ] ] } },
{ "type": "Feature", "properties": { "FEEDER_NAME": "BLACKWOOD STATION", "SUBSTATION_NAME": "New Hope", "wmType": "SECONDARY UNDERGROUND", "WKT": "LINESTRING (-79.07403938815997 35.99654414471738, -79.07392840321587 35.9966516734556, -79.07391435098944 35.996750939186185)" }, "geometry": { "type": "LineString", "coordinates": [ [ -79.074039388159974, 35.996544144717383 ], [ -79.073928403215874, 35.996651673455602 ], [ -79.07391435098944, 35.996750939186185 ] ] } },
{ "type": "Feature", "properties": { "FEEDER_NAME": "BLACKWOOD STATION", "SUBSTATION_NAME": "New Hope", "wmType": "SECONDARY UNDERGROUND", "WKT": "LINESTRING (-79.07403938815997 35.99654414471738, -79.07370046513023 35.99651671301698)" }, "geometry": { "type": "LineString", "coordinates": [ [ -79.074039388159974, 35.996544144717383 ], [ -79.07370046513023, 35.99651671301698 ] ] } },
{ "type": "Feature", "properties": { "FEEDER_NAME": "BLACKWOOD STATION", "SUBSTATION_NAME": "New Hope", "wmType": "SECONDARY UNDERGROUND", "WKT": "LINESTRING (-79.07381977490215 35.996195727258346, -79.07425101118848 35.99619010963783)" }, "geometry": { "type": "LineString", "coordinates": [ [ -79.073819774902148, 35.996195727258346 ], [ -79.07425101118848, 35.99619010963783 ] ] } },
{ "type": "Feature", "properties": { "FEEDER_NAME": "BLACKWOOD STATION", "SUBSTATION_NAME": "New Hope", "wmType": "SECONDARY UNDERGROUND", "WKT": "LINESTRING (-79.07818484079522 35.98713892260151, -79.07818878586994 35.98710052118203)" }, "geometry": { "type": "LineString", "coordinates": [ [ -79.078184840795217, 35.98713892260151 ], [ -79.078188785869941, 35.987100521182029 ] ] } },
{ "type": "Feature", "properties": { "FEEDER_NAME": "BLACKWOOD STATION", "SUBSTATION_NAME": "New Hope", "wmType": "SECONDARY UNDERGROUND", "WKT": "LINESTRING (-79.07842402864158 35.99063195134805, -79.07872522178215 35.99036240059862)" }, "geometry": { "type": "LineString", "coordinates": [ [ -79.078424028641578, 35.99063195134805 ], [ -79.07872522178215, 35.99036240059862 ] ] } },
{ "type": "Feature", "properties": { "FEEDER_NAME": "BLACKWOOD STATION", "SUBSTATION_NAME": "New Hope", "wmType": "SECONDARY UNDERGROUND", "WKT": "LINESTRING (-79.07872522178215 35.99036240059862, -79.0787749744434 35.990360451510135)" }, "geometry": { "type": "LineString", "coordinates": [ [ -79.07872522178215, 35.99036240059862 ], [ -79.078774974443405, 35.990360451510135 ] ] } },
{ "type": "Feature", "properties": { "FEEDER_NAME": "BLACKWOOD STATION", "SUBSTATION_NAME": "New Hope", "wmType": "SECONDARY UNDERGROUND", "WKT": "LINESTRING (-79.07933022766275 35.99085363332553, -79.07976066320498 35.99051827953715)" }, "geometry": { "type": "LineString", "coordinates": [ [ -79.079330227662751, 35.990853633325528 ], [ -79.079760663204979, 35.990518279537149 ] ] } },
{ "type": "Feature", "properties": { "FEEDER_NAME": "BLACKWOOD STATION", "SUBSTATION_NAME": "New Hope", "wmType": "SECONDARY UNDERGROUND", "WKT": "LINESTRING (-79.07869981653873 35.9909000548275, -79.07909080185395 35.991199308707)" }, "geometry": { "type": "LineString", "coordinates": [ [ -79.07869981653873, 35.990900054827499 ], [ -79.079090801853951, 35.991199308707003 ] ] } },
{ "type": "Feature", "properties": { "FEEDER_NAME": "BLACKWOOD STATION", "SUBSTATION_NAME": "New Hope", "wmType": "SECONDARY UNDERGROUND", "WKT": "LINESTRING (-79.08180923102604 35.98833946371525, -79.08174437167051 35.9885096059107)" }, "geometry": { "type": "LineString", "coordinates": [ [ -79.081809231026043, 35.988339463715249 ], [ -79.08174437167051, 35.9885096059107 ] ] } },
{ "type": "Feature", "properties": { "FEEDER_NAME": "BLACKWOOD STATION", "SUBSTATION_NAME": "New Hope", "wmType": "SECONDARY UNDERGROUND", "WKT": "LINESTRING (-79.08180923102604 35.98833946371525, -79.08131272512072 35.988267198338875)" }, "geometry": { "type": "LineString", "coordinates": [ [ -79.081809231026043, 35.988339463715249 ], [ -79.081312725120725, 35.988267198338875 ] ] } },
{ "type": "Feature", "properties": { "FEEDER_NAME": "BLACKWOOD STATION", "SUBSTATION_NAME": "New Hope", "wmType": "SECONDARY UNDERGROUND", "WKT": "LINESTRING (-79.08180923102604 35.98833946371525, -79.08221928706585 35.98845409480667)" }, "geometry": { "type": "LineString", "coordinates": [ [ -79.081809231026043, 35.988339463715249 ], [ -79.082219287065854, 35.98845409480667 ] ] } },
{ "type": "Feature", "properties": { "FEEDER_NAME": "BLACKWOOD STATION", "SUBSTATION_NAME": "New Hope", "wmType": "SECONDARY UNDERGROUND", "WKT": "LINESTRING (-79.08402696208746 35.98906559546432, -79.08427769650734 35.988801689505785)" }, "geometry": { "type": "LineString", "coordinates": [ [ -79.084026962087464, 35.989065595464318 ], [ -79.084277696507343, 35.988801689505785 ] ] } },
{ "type": "Feature", "properties": { "FEEDER_NAME": "BLACKWOOD STATION", "SUBSTATION_NAME": "New Hope", "wmType": "SECONDARY UNDERGROUND", "WKT": "LINESTRING (-79.08402696208746 35.98906559546432, -79.0837582144041 35.98898832077101)" }, "geometry": { "type": "LineString", "coordinates": [ [ -79.084026962087464, 35.989065595464318 ], [ -79.083758214404099, 35.988988320771007 ] ] } },
{ "type": "Feature", "properties": { "FEEDER_NAME": "BLACKWOOD STATION", "SUBSTATION_NAME": "New Hope", "wmType": "SECONDARY UNDERGROUND", "WKT": "LINESTRING (-79.08547397507668 35.98972558637092, -79.08557299860425 35.98945043231491)" }, "geometry": { "type": "LineString", "coordinates": [ [ -79.085473975076681, 35.989725586370923 ], [ -79.085572998604249, 35.989450432314911 ] ] } },
{ "type": "Feature", "properties": { "FEEDER_NAME": "BLACKWOOD STATION", "SUBSTATION_NAME": "New Hope", "wmType": "SECONDARY UNDERGROUND", "WKT": "LINESTRING (-79.08557299860425 35.98945043231491, -79.0855092001735 35.989444061710785)" }, "geometry": { "type": "LineString", "coordinates": [ [ -79.085572998604249, 35.989450432314911 ], [ -79.085509200173504, 35.989444061710785 ] ] } },
{ "type": "Feature", "properties": { "FEEDER_NAME": "BLACKWOOD STATION", "SUBSTATION_NAME": "New Hope", "wmType": "SECONDARY UNDERGROUND", "WKT": "LINESTRING (-79.0807160032906 35.98926397652594, -79.081187536948 35.98896710636009)" }, "geometry": { "type": "LineString", "coordinates": [ [ -79.080716003290604, 35.98926397652594 ], [ -79.081187536947994, 35.988967106360093 ] ] } },
{ "type": "Feature", "properties": { "FEEDER_NAME": "BLACKWOOD STATION", "SUBSTATION_NAME": "New Hope", "wmType": "SECONDARY UNDERGROUND", "WKT": "LINESTRING (-79.07994173265875 35.987538034234824, -79.07989562199238 35.98720238662626)" }, "geometry": { "type": "LineString", "coordinates": [ [ -79.079941732658753, 35.987538034234824 ], [ -79.079895621992378, 35.987202386626258 ] ] } },
{ "type": "Feature", "properties": { "FEEDER_NAME": "BLACKWOOD STATION", "SUBSTATION_NAME": "New Hope", "wmType": "SECONDARY UNDERGROUND", "WKT": "LINESTRING (-79.07994173265875 35.987538034234824, -79.07995402402513 35.9875431697752)" }, "geometry": { "type": "LineString", "coordinates": [ [ -79.079941732658753, 35.987538034234824 ], [ -79.079954024025128, 35.987543169775201 ] ] } },
{ "type": "Feature", "properties": { "FEEDER_NAME": "BLACKWOOD STATION", "SUBSTATION_NAME": "New Hope", "wmType": "SECONDARY UNDERGROUND", "WKT": "LINESTRING (-79.07994173265875 35.987538034234824, -79.08029048867802 35.98768899913235)" }, "geometry": { "type": "LineString", "coordinates": [ [ -79.079941732658753, 35.987538034234824 ], [ -79.080290488678017, 35.987688999132352 ] ] } },
{ "type": "Feature", "properties": { "FEEDER_NAME": "BLACKWOOD STATION", "SUBSTATION_NAME": "New Hope", "wmType": "SECONDARY UNDERGROUND", "WKT": "LINESTRING (-79.07889430677749 35.98833925241234, -79.07870275645622 35.98837512240292)" }, "geometry": { "type": "LineString", "coordinates": [ [ -79.078894306777485, 35.988339252412338 ], [ -79.078702756456224, 35.988375122402921 ] ] } },
{ "type": "Feature", "properties": { "FEEDER_NAME": "BLACKWOOD STATION", "SUBSTATION_NAME": "New Hope", "wmType": "SECONDARY UNDERGROUND", "WKT": "LINESTRING (-79.07889430677749 35.98833925241234, -79.07886538071368 35.98840225408054, -79.07881440639645 35.98849536808851, -79.07881082381893 35.98856177192535, -79.0788531829505 35.9886109524653, -79.07905375926526 35.98857228695134, -79.07907064154813 35.98854648510405)" }, "geometry": { "type": "LineString", "coordinates": [ [ -79.078894306777485, 35.988339252412338 ], [ -79.07886538071368, 35.98840225408054 ], [ -79.078814406396447, 35.988495368088508 ], [ -79.078810823818927, 35.988561771925347 ], [ -79.078853182950496, 35.988610952465301 ], [ -79.079053759265264, 35.988572286951339 ], [ -79.079070641548128, 35.988546485104052 ] ] } },
{ "type": "Feature", "properties": { "FEEDER_NAME": "BLACKWOOD STATION", "SUBSTATION_NAME": "New Hope", "wmType": "SECONDARY UNDERGROUND", "WKT": "LINESTRING (-79.07889430677749 35.98833925241234, -79.07862632340445 35.98801570657417)" }, "geometry": { "type": "LineString", "coordinates": [ [ -79.078894306777485, 35.988339252412338 ], [ -79.07862632340445, 35.988015706574167 ] ] } },
{ "type": "Feature", "properties": { "FEEDER_NAME": "BLACKWOOD STATION", "SUBSTATION_NAME": "New Hope", "wmType": "SECONDARY UNDERGROUND", "WKT": "LINESTRING (-79.07889430677749 35.98833925241234, -79.07887814111203 35.98839137644932, -79.07894808311529 35.988397813242386)" }, "geometry": { "type": "LineString", "coordinates": [ [ -79.078894306777485, 35.988339252412338 ], [ -79.078878141112028, 35.988391376449322 ], [ -79.078948083115293, 35.988397813242386 ] ] } },
{ "type": "Feature", "properties": { "FEEDER_NAME": "BLACKWOOD STATION", "SUBSTATION_NAME": "New Hope", "wmType": "SECONDARY UNDERGROUND", "WKT": "LINESTRING (-79.07889430677749 35.98833925241234, -79.07908022777555 35.98820272131239)" }, "geometry": { "type": "LineString", "coordinates": [ [ -79.078894306777485, 35.988339252412338 ], [ -79.079080227775549, 35.988202721312391 ] ] } },
{ "type": "Feature", "properties": { "FEEDER_NAME": "BLACKWOOD STATION", "SUBSTATION_NAME": "New Hope", "wmType": "SECONDARY UNDERGROUND", "WKT": "LINESTRING (-79.07823416417419 35.988040063015454, -79.0782346847381 35.98802795132995)" }, "geometry": { "type": "LineString", "coordinates": [ [ -79.078234164174191, 35.988040063015454 ], [ -79.078234684738106, 35.988027951329947 ] ] } },
{ "type": "Feature", "properties": { "FEEDER_NAME": "BLACKWOOD STATION", "SUBSTATION_NAME": "New Hope", "wmType": "SECONDARY UNDERGROUND", "WKT": "LINESTRING (-79.07823416417419 35.988040063015454, -79.07843422449166 35.987845944879226)" }, "geometry": { "type": "LineString", "coordinates": [ [ -79.078234164174191, 35.988040063015454 ], [ -79.078434224491659, 35.987845944879226 ] ] } },
{ "type": "Feature", "properties": { "FEEDER_NAME": "BLACKWOOD STATION", "SUBSTATION_NAME": "New Hope", "wmType": "SECONDARY UNDERGROUND", "WKT": "LINESTRING (-79.07823416417419 35.988040063015454, -79.07797860992845 35.987785937593316)" }, "geometry": { "type": "LineString", "coordinates": [ [ -79.078234164174191, 35.988040063015454 ], [ -79.077978609928451, 35.987785937593316 ] ] } },
{ "type": "Feature", "properties": { "FEEDER_NAME": "BLACKWOOD STATION", "SUBSTATION_NAME": "New Hope", "wmType": "SECONDARY UNDERGROUND", "WKT": "LINESTRING (-79.07823416417419 35.988040063015454, -79.07832267931889 35.988030871854036)" }, "geometry": { "type": "LineString", "coordinates": [ [ -79.078234164174191, 35.988040063015454 ], [ -79.078322679318887, 35.988030871854036 ] ] } },
{ "type": "Feature", "properties": { "FEEDER_NAME": "BLACKWOOD STATION", "SUBSTATION_NAME": "New Hope", "wmType": "SECONDARY UNDERGROUND", "WKT": "LINESTRING (-79.07823416417419 35.988040063015454, -79.07865384850611 35.98781126944421)" }, "geometry": { "type": "LineString", "coordinates": [ [ -79.078234164174191, 35.988040063015454 ], [ -79.078653848506107, 35.987811269444208 ] ] } },
{ "type": "Feature", "properties": { "FEEDER_NAME": "BLACKWOOD STATION", "SUBSTATION_NAME": "New Hope", "wmType": "SECONDARY UNDERGROUND", "WKT": "LINESTRING (-79.07377842901286 35.98961432761057, -79.0747600422907 35.98994227822674)" }, "geometry": { "type": "LineString", "coordinates": [ [ -79.073778429012862, 35.989614327610568 ], [ -79.074760042290706, 35.989942278226742 ] ] } },
{ "type": "Feature", "properties": { "FEEDER_NAME": "BLACKWOOD STATION", "SUBSTATION_NAME": "New Hope", "wmType": "SECONDARY UNDERGROUND", "WKT": "LINESTRING (-79.07156262568947 35.99358349408521, -79.07166364212469 35.99330947537805)" }, "geometry": { "type": "LineString", "coordinates": [ [ -79.071562625689467, 35.993583494085208 ], [ -79.07166364212469, 35.993309475378048 ] ] } },
{ "type": "Feature", "properties": { "FEEDER_NAME": "BLACKWOOD STATION", "SUBSTATION_NAME": "New Hope", "wmType": "SECONDARY UNDERGROUND", "WKT": "LINESTRING (-79.07156262568947 35.99358349408521, -79.07162968900292 35.99372213386405)" }, "geometry": { "type": "LineString", "coordinates": [ [ -79.071562625689467, 35.993583494085208 ], [ -79.071629689002918, 35.993722133864047 ] ] } },
{ "type": "Feature", "properties": { "FEEDER_NAME": "BLACKWOOD STATION", "SUBSTATION_NAME": "New Hope", "wmType": "SECONDARY UNDERGROUND", "WKT": "LINESTRING (-79.06591208449605 36.00159210240611, -79.06598461681135 36.00098023592274)" }, "geometry": { "type": "LineString", "coordinates": [ [ -79.065912084496048, 36.001592102406107 ], [ -79.065984616811349, 36.000980235922739 ] ] } },
{ "type": "Feature", "properties": { "FEEDER_NAME": "BLACKWOOD STATION", "SUBSTATION_NAME": "New Hope", "wmType": "SECONDARY UNDERGROUND", "WKT": "LINESTRING (-79.06591208449605 36.00159210240611, -79.06584117860204 36.00114314426492)" }, "geometry": { "type": "LineString", "coordinates": [ [ -79.065912084496048, 36.001592102406107 ], [ -79.065841178602042, 36.001143144264923 ] ] } },
{ "type": "Feature", "properties": { "FEEDER_NAME": "BLACKWOOD STATION", "SUBSTATION_NAME": "New Hope", "wmType": "SECONDARY UNDERGROUND", "WKT": "LINESTRING (-79.06633759216224 36.00176410957982, -79.06584736678919 36.00188526232379)" }, "geometry": { "type": "LineString", "coordinates": [ [ -79.066337592162242, 36.001764109579817 ], [ -79.065847366789185, 36.001885262323789 ] ] } },
{ "type": "Feature", "properties": { "FEEDER_NAME": "BLACKWOOD STATION", "SUBSTATION_NAME": "New Hope", "wmType": "SECONDARY UNDERGROUND", "WKT": "LINESTRING (-79.06378393100431 36.00415578802251, -79.06403380987605 36.00431483700925)" }, "geometry": { "type": "LineString", "coordinates": [ [ -79.063783931004309, 36.004155788022508 ], [ -79.064033809876051, 36.004314837009247 ] ] } },
{ "type": "Feature", "properties": { "FEEDER_NAME": "BLACKWOOD STATION", "SUBSTATION_NAME": "New Hope", "wmType": "SECONDARY UNDERGROUND", "WKT": "LINESTRING (-79.06378393100431 36.00415578802251, -79.0639437325544 36.00388774591821)" }, "geometry": { "type": "LineString", "coordinates": [ [ -79.063783931004309, 36.004155788022508 ], [ -79.063943732554407, 36.003887745918213 ] ] } },
{ "type": "Feature", "properties": { "FEEDER_NAME": "BLACKWOOD STATION", "SUBSTATION_NAME": "New Hope", "wmType": "SECONDARY UNDERGROUND", "WKT": "LINESTRING (-79.06476503463323 36.00352872020084, -79.06450769485133 36.00372284586908)" }, "geometry": { "type": "LineString", "coordinates": [ [ -79.064765034633226, 36.00352872020084 ], [ -79.064507694851329, 36.003722845869078 ] ] } },
{ "type": "Feature", "properties": { "FEEDER_NAME": "BLACKWOOD STATION", "SUBSTATION_NAME": "New Hope", "wmType": "SECONDARY UNDERGROUND", "WKT": "LINESTRING (-79.06476503463323 36.00352872020084, -79.0648282985838 36.00386021007656)" }, "geometry": { "type": "LineString", "coordinates": [ [ -79.064765034633226, 36.00352872020084 ], [ -79.064828298583805, 36.00386021007656 ] ] } },
{ "type": "Feature", "properties": { "FEEDER_NAME": "BLACKWOOD STATION", "SUBSTATION_NAME": "New Hope", "wmType": "SECONDARY UNDERGROUND", "WKT": "LINESTRING (-79.06490277775947 36.003044277090304, -79.06482959402199 36.003201792315515)" }, "geometry": { "type": "LineString", "coordinates": [ [ -79.064902777759471, 36.003044277090304 ], [ -79.064829594021987, 36.003201792315515 ] ] } },
{ "type": "Feature", "properties": { "FEEDER_NAME": "BLACKWOOD STATION", "SUBSTATION_NAME": "New Hope", "wmType": "SECONDARY UNDERGROUND", "WKT": "LINESTRING (-79.06490277775947 36.003044277090304, -79.06436098679892 36.00270852120528)" }, "geometry": { "type": "LineString", "coordinates": [ [ -79.064902777759471, 36.003044277090304 ], [ -79.064360986798917, 36.002708521205278 ] ] } },
{ "type": "Feature", "properties": { "FEEDER_NAME": "BLACKWOOD STATION", "SUBSTATION_NAME": "New Hope", "wmType": "SECONDARY UNDERGROUND", "WKT": "LINESTRING (-79.06490277775947 36.003044277090304, -79.06471474501977 36.00285258456472)" }, "geometry": { "type": "LineString", "coordinates": [ [ -79.064902777759471, 36.003044277090304 ], [ -79.064714745019771, 36.002852584564721 ] ] } },
{ "type": "Feature", "properties": { "FEEDER_NAME": "BLACKWOOD STATION", "SUBSTATION_NAME": "New Hope", "wmType": "SECONDARY UNDERGROUND", "WKT": "LINESTRING (-79.06504550904903 36.00203944517233, -79.06504126990544 36.002404098179206)" }, "geometry": { "type": "LineString", "coordinates": [ [ -79.065045509049028, 36.002039445172329 ], [ -79.065041269905436, 36.002404098179206 ] ] } },
{ "type": "Feature", "properties": { "FEEDER_NAME": "BLACKWOOD STATION", "SUBSTATION_NAME": "New Hope", "wmType": "SECONDARY UNDERGROUND", "WKT": "LINESTRING (-79.06504550904903 36.00203944517233, -79.0646128263547 36.00175247563772)" }, "geometry": { "type": "LineString", "coordinates": [ [ -79.065045509049028, 36.002039445172329 ], [ -79.064612826354704, 36.001752475637723 ] ] } },
{ "type": "Feature", "properties": { "FEEDER_NAME": "BLACKWOOD STATION", "SUBSTATION_NAME": "New Hope", "wmType": "SECONDARY UNDERGROUND", "WKT": "LINESTRING (-79.06504550904903 36.00203944517233, -79.06525639296903 36.001810257466815)" }, "geometry": { "type": "LineString", "coordinates": [ [ -79.065045509049028, 36.002039445172329 ], [ -79.065256392969033, 36.001810257466815 ] ] } },
{ "type": "Feature", "properties": { "FEEDER_NAME": "BLACKWOOD STATION", "SUBSTATION_NAME": "New Hope", "wmType": "SECONDARY UNDERGROUND", "WKT": "LINESTRING (-79.06504550904903 36.00203944517233, -79.0652191242207 36.00195059991617)" }, "geometry": { "type": "LineString", "coordinates": [ [ -79.065045509049028, 36.002039445172329 ], [ -79.065219124220704, 36.001950599916171 ] ] } },
{ "type": "Feature", "properties": { "FEEDER_NAME": "BLACKWOOD STATION", "SUBSTATION_NAME": "New Hope", "wmType": "SECONDARY UNDERGROUND", "WKT": "LINESTRING (-79.06504550904903 36.00203944517233, -79.06556393423111 36.00221492496826)" }, "geometry": { "type": "LineString", "coordinates": [ [ -79.065045509049028, 36.002039445172329 ], [ -79.065563934231108, 36.002214924968257 ] ] } },
{ "type": "Feature", "properties": { "FEEDER_NAME": "BLACKWOOD STATION", "SUBSTATION_NAME": "New Hope", "wmType": "SECONDARY UNDERGROUND", "WKT": "LINESTRING (-79.06504550904903 36.00203944517233, -79.06523230301983 36.00176502830917)" }, "geometry": { "type": "LineString", "coordinates": [ [ -79.065045509049028, 36.002039445172329 ], [ -79.065232303019826, 36.001765028309173 ] ] } },
{ "type": "Feature", "properties": { "FEEDER_NAME": "BLACKWOOD STATION", "SUBSTATION_NAME": "New Hope", "wmType": "SECONDARY UNDERGROUND", "WKT": "LINESTRING (-79.06504550904903 36.00203944517233, -79.06482645494643 36.001603493150384)" }, "geometry": { "type": "LineString", "coordinates": [ [ -79.065045509049028, 36.002039445172329 ], [ -79.064826454946427, 36.001603493150384 ] ] } },
{ "type": "Feature", "properties": { "FEEDER_NAME": "BLACKWOOD STATION", "SUBSTATION_NAME": "New Hope", "wmType": "SECONDARY UNDERGROUND", "WKT": "LINESTRING (-79.06504550904903 36.00203944517233, -79.06489703667091 36.001809072647106)" }, "geometry": { "type": "LineString", "coordinates": [ [ -79.065045509049028, 36.002039445172329 ], [ -79.064897036670914, 36.001809072647106 ] ] } },
{ "type": "Feature", "properties": { "FEEDER_NAME": "BLACKWOOD STATION", "SUBSTATION_NAME": "New Hope", "wmType": "SECONDARY UNDERGROUND", "WKT": "LINESTRING (-79.06504550904903 36.00203944517233, -79.06472432025934 36.0024140002364)" }, "geometry": { "type": "LineString", "coordinates": [ [ -79.065045509049028, 36.002039445172329 ], [ -79.064724320259344, 36.002414000236399 ] ] } },
{ "type": "Feature", "properties": { "FEEDER_NAME": "BLACKWOOD STATION", "SUBSTATION_NAME": "New Hope", "wmType": "SECONDARY UNDERGROUND", "WKT": "LINESTRING (-79.06612203576465 36.0030453654353, -79.06573070878605 36.00325698502616)" }, "geometry": { "type": "LineString", "coordinates": [ [ -79.06612203576465, 36.003045365435298 ], [ -79.065730708786049, 36.003256985026162 ] ] } },
{ "type": "Feature", "properties": { "FEEDER_NAME": "BLACKWOOD STATION", "SUBSTATION_NAME": "New Hope", "wmType": "SECONDARY UNDERGROUND", "WKT": "LINESTRING (-79.06573070878605 36.00325698502616, -79.06572425783315 36.00328021514907)" }, "geometry": { "type": "LineString", "coordinates": [ [ -79.065730708786049, 36.003256985026162 ], [ -79.065724257833153, 36.003280215149069 ] ] } },
{ "type": "Feature", "properties": { "FEEDER_NAME": "BLACKWOOD STATION", "SUBSTATION_NAME": "New Hope", "wmType": "SECONDARY UNDERGROUND", "WKT": "LINESTRING (-79.06602333417005 36.00378816152842, -79.06567334636492 36.003824004434705)" }, "geometry": { "type": "LineString", "coordinates": [ [ -79.066023334170055, 36.003788161528419 ], [ -79.065673346364918, 36.003824004434705 ] ] } },
{ "type": "Feature", "properties": { "FEEDER_NAME": "BLACKWOOD STATION", "SUBSTATION_NAME": "New Hope", "wmType": "SECONDARY UNDERGROUND", "WKT": "LINESTRING (-79.06595395743851 36.004220863884235, -79.06558301301607 36.00416020347537)" }, "geometry": { "type": "LineString", "coordinates": [ [ -79.065953957438509, 36.004220863884235 ], [ -79.065583013016067, 36.004160203475372 ] ] } },
{ "type": "Feature", "properties": { "FEEDER_NAME": "BLACKWOOD STATION", "SUBSTATION_NAME": "New Hope", "wmType": "SECONDARY UNDERGROUND", "WKT": "LINESTRING (-79.06586741247678 36.00484741520677, -79.0656167696174 36.00462698037796)" }, "geometry": { "type": "LineString", "coordinates": [ [ -79.065867412476777, 36.004847415206768 ], [ -79.065616769617407, 36.004626980377957 ] ] } },
{ "type": "Feature", "properties": { "FEEDER_NAME": "BLACKWOOD STATION", "SUBSTATION_NAME": "New Hope", "wmType": "SECONDARY UNDERGROUND", "WKT": "LINESTRING (-79.0658060212782 36.00522688847935, -79.06552358707454 36.00530092640896)" }, "geometry": { "type": "LineString", "coordinates": [ [ -79.065806021278206, 36.005226888479349 ], [ -79.065523587074537, 36.005300926408957 ] ] } },
{ "type": "Feature", "properties": { "FEEDER_NAME": "BLACKWOOD STATION", "SUBSTATION_NAME": "New Hope", "wmType": "SECONDARY UNDERGROUND", "WKT": "LINESTRING (-79.0718493859435 36.01379761267346, -79.07194198314016 36.0137046114057)" }, "geometry": { "type": "LineString", "coordinates": [ [ -79.071849385943494, 36.013797612673457 ], [ -79.071941983140164, 36.0137046114057 ] ] } },
{ "type": "Feature", "properties": { "FEEDER_NAME": "BLACKWOOD STATION", "SUBSTATION_NAME": "New Hope", "wmType": "SECONDARY UNDERGROUND", "WKT": "LINESTRING (-79.07233082644757 36.0133162087326, -79.07246564742428 36.013284515093495)" }, "geometry": { "type": "LineString", "coordinates": [ [ -79.072330826447569, 36.013316208732597 ], [ -79.072465647424281, 36.013284515093495 ] ] } },
{ "type": "Feature", "properties": { "FEEDER_NAME": "BLACKWOOD STATION", "SUBSTATION_NAME": "New Hope", "wmType": "SECONDARY UNDERGROUND", "WKT": "LINESTRING (-79.07246564742428 36.013284515093495, -79.07248579357498 36.01321878723386, -79.07251689125138 36.013149727193266, -79.07254233281624 36.01309217788342, -79.07255642622815 36.01301392237782, -79.07255920714678 36.012947174660745)" }, "geometry": { "type": "LineString", "coordinates": [ [ -79.072465647424281, 36.013284515093495 ], [ -79.072485793574984, 36.01321878723386 ], [ -79.072516891251382, 36.013149727193266 ], [ -79.072542332816241, 36.013092177883422 ], [ -79.072556426228147, 36.013013922377823 ], [ -79.072559207146782, 36.012947174660745 ] ] } },
{ "type": "Feature", "properties": { "FEEDER_NAME": "BLACKWOOD STATION", "SUBSTATION_NAME": "New Hope", "wmType": "SECONDARY UNDERGROUND", "WKT": "LINESTRING (-79.07781641744367 35.987544899090615, -79.07791486690361 35.987512276814044, -79.07807264293021 35.98748093511978, -79.07819908525127 35.98747509958473, -79.07825774994757 35.987468485397756)" }, "geometry": { "type": "LineString", "coordinates": [ [ -79.077816417443671, 35.987544899090615 ], [ -79.077914866903612, 35.987512276814044 ], [ -79.078072642930209, 35.987480935119777 ], [ -79.078199085251271, 35.987475099584728 ], [ -79.078257749947568, 35.987468485397756 ] ] } },
{ "type": "Feature", "properties": { "FEEDER_NAME": "BLACKWOOD STATION", "SUBSTATION_NAME": "New Hope", "wmType": "SECONDARY UNDERGROUND", "WKT": "LINESTRING (-79.07862632340445 35.98801570657417, -79.07894671191715 35.987732061995246)" }, "geometry": { "type": "LineString", "coordinates": [ [ -79.07862632340445, 35.988015706574167 ], [ -79.078946711917155, 35.987732061995246 ] ] } },
{ "type": "Feature", "properties": { "FEEDER_NAME": "BLACKWOOD STATION", "SUBSTATION_NAME": "New Hope", "wmType": "SECONDARY UNDERGROUND", "WKT": "LINESTRING (-79.07737572949023 35.98763283810447, -79.0774937190935 35.98755728409888, -79.07762382458348 35.987495053961005, -79.07781641744367 35.987544899090615)" }, "geometry": { "type": "LineString", "coordinates": [ [ -79.077375729490228, 35.987632838104467 ], [ -79.077493719093496, 35.987557284098877 ], [ -79.077623824583483, 35.987495053961005 ], [ -79.077816417443671, 35.987544899090615 ] ] } }
]
}
