{
"type": "FeatureCollection",
"name": "Willardsville_FOX_RUN_underground",
"crs": { "type": "name", "properties": { "name": "urn:ogc:def:crs:OGC:1.3:CRS84" } },
"features": [
{ "type": "Feature", "properties": { "FEEDER_NAME": "FOX RUN", "SUBSTATION_NAME": "Willardsville", "wmType": "SECONDARY UNDERGROUND", "WKT": "LINESTRING (-78.96445000069076 36.142948115117065, -78.96444682313177 36.142952659938594, -78.96456334586412 36.143138059885885, -78.9646356091646 36.143257249756694, -78.96446649784521 36.14330448948948, -78.9644275484619 36.14317704684084)" }, "geometry": { "type": "LineString", "coordinates": [ [ -78.964450000690761, 36.142948115117065 ], [ -78.964446823131766, 36.142952659938594 ], [ -78.964563345864121, 36.143138059885885 ], [ -78.964635609164603, 36.143257249756694 ], [ -78.964466497845208, 36.143304489489481 ], [ -78.964427548461899, 36.14317704684084 ] ] } },
{ "type": "Feature", "properties": { "FEEDER_NAME": "FOX RUN", "SUBSTATION_NAME": "Willardsville", "wmType": "SECONDARY UNDERGROUND", "WKT": "LINESTRING (-78.95921337037804 36.13909677289969, -78.95928323146114 36.138830804748586, -78.9595113708418 36.1388547717752)" }, "geometry": { "type": "LineString", "coordinates": [ [ -78.959213370378038, 36.139096772899691 ], [ -78.959283231461143, 36.138830804748586 ], [ -78.959511370841795, 36.1388547717752 ] ] } },
{ "type": "Feature", "properties": { "FEEDER_NAME": "FOX RUN", "SUBSTATION_NAME": "Willardsville", "wmType": "SECONDARY UNDERGROUND", "WKT": "LINESTRING (-78.95183233157572 36.125427362945764, -78.95183286571681 36.125381240255926)" }, "geometry": { "type": "LineString", "coordinates": [ [ -78.951832331575716, 36.125427362945764 ], [ -78.95183286571681, 36.125381240255926 ] ] } },
{ "type": "Feature", "properties": { "FEEDER_NAME": "FOX RUN", "SUBSTATION_NAME": "Willardsville", "wmType": "SECONDARY UNDERGROUND", "WKT": "LINESTRING (-78.95183286571681 36.125381240255926, -78.9518668321739 36.12543233326018, -78.95209490075385 36.125468603345595)" }, "geometry": { "type": "LineString", "coordinates": [ [ -78.95183286571681, 36.125381240255926 ], [ -78.951866832173906, 36.125432333260179 ], [ -78.952094900753849, 36.125468603345595 ] ] } },
{ "type": "Feature", "properties": { "FEEDER_NAME": "FOX RUN", "SUBSTATION_NAME": "Willardsville", "wmType": "SECONDARY UNDERGROUND", "WKT": "LINESTRING (-78.97347662833569 36.141917589893716, -78.97348790185744 36.142085265847676, -78.97349720211177 36.14213817028878, -78.97351395861648 36.14218200647916, -78.97354002747664 36.14224549484699, -78.9735716901772 36.14229386918024)" }, "geometry": { "type": "LineString", "coordinates": [ [ -78.973476628335689, 36.141917589893716 ], [ -78.973487901857439, 36.142085265847676 ], [ -78.973497202111773, 36.142138170288781 ], [ -78.973513958616479, 36.14218200647916 ], [ -78.973540027476645, 36.142245494846989 ], [ -78.973571690177195, 36.142293869180243 ] ] } },
{ "type": "Feature", "properties": { "FEEDER_NAME": "FOX RUN", "SUBSTATION_NAME": "Willardsville", "wmType": "SECONDARY UNDERGROUND", "WKT": "LINESTRING (-78.959086370112 36.13955777374777, -78.95938073952034 36.13963509189687, -78.95957603452288 36.13969282108902, -78.95963449977103 36.139775037009784, -78.95973702758002 36.13986000711058, -78.95966437067449 36.139912773915604)" }, "geometry": { "type": "LineString", "coordinates": [ [ -78.959086370112004, 36.139557773747768 ], [ -78.959380739520341, 36.139635091896871 ], [ -78.959576034522883, 36.139692821089021 ], [ -78.959634499771028, 36.139775037009784 ], [ -78.959737027580019, 36.139860007110578 ], [ -78.959664370674489, 36.139912773915604 ] ] } },
{ "type": "Feature", "properties": { "FEEDER_NAME": "FOX RUN", "SUBSTATION_NAME": "Willardsville", "wmType": "SECONDARY UNDERGROUND", "WKT": "LINESTRING (-78.97227299002294 36.14427143189892, -78.9722786170719 36.1443254359365, -78.97240354824166 36.14434407611539, -78.97242647868511 36.14439578323616, -78.9724290173977 36.144428872011744, -78.97241368848579 36.14451572700513, -78.97241378532992 36.14451521423415)" }, "geometry": { "type": "LineString", "coordinates": [ [ -78.972272990022944, 36.144271431898922 ], [ -78.972278617071893, 36.144325435936501 ], [ -78.972403548241658, 36.144344076115388 ], [ -78.972426478685108, 36.144395783236163 ], [ -78.972429017397701, 36.144428872011744 ], [ -78.972413688485787, 36.144515727005128 ], [ -78.97241378532992, 36.144515214234147 ] ] } },
{ "type": "Feature", "properties": { "FEEDER_NAME": "FOX RUN", "SUBSTATION_NAME": "Willardsville", "wmType": "SECONDARY UNDERGROUND", "WKT": "LINESTRING (-78.94598365058947 36.12854683837902, -78.94596017659303 36.128516038599976)" }, "geometry": { "type": "LineString", "coordinates": [ [ -78.945983650589469, 36.128546838379023 ], [ -78.945960176593033, 36.128516038599976 ] ] } },
{ "type": "Feature", "properties": { "FEEDER_NAME": "FOX RUN", "SUBSTATION_NAME": "Willardsville", "wmType": "SECONDARY UNDERGROUND", "WKT": "LINESTRING (-78.94613893427038 36.12844643928191, -78.9466843532795 36.12843302819947)" }, "geometry": { "type": "LineString", "coordinates": [ [ -78.94613893427038, 36.128446439281909 ], [ -78.946684353279494, 36.128433028199467 ] ] } },
{ "type": "Feature", "properties": { "FEEDER_NAME": "FOX RUN", "SUBSTATION_NAME": "Willardsville", "wmType": "SECONDARY UNDERGROUND", "WKT": "LINESTRING (-78.95013801071133 36.13030072272582, -78.95017063808427 36.13027149853198)" }, "geometry": { "type": "LineString", "coordinates": [ [ -78.950138010711328, 36.130300722725821 ], [ -78.950170638084273, 36.130271498531982 ] ] } },
{ "type": "Feature", "properties": { "FEEDER_NAME": "FOX RUN", "SUBSTATION_NAME": "Willardsville", "wmType": "SECONDARY UNDERGROUND", "WKT": "LINESTRING (-78.95013801071133 36.13030072272582, -78.95015643040392 36.13062498401579)" }, "geometry": { "type": "LineString", "coordinates": [ [ -78.950138010711328, 36.130300722725821 ], [ -78.950156430403922, 36.130624984015789 ] ] } },
{ "type": "Feature", "properties": { "FEEDER_NAME": "FOX RUN", "SUBSTATION_NAME": "Willardsville", "wmType": "SECONDARY UNDERGROUND", "WKT": "LINESTRING (-78.94947120041769 36.13172270068784, -78.94928304286454 36.131362092296946)" }, "geometry": { "type": "LineString", "coordinates": [ [ -78.94947120041769, 36.131722700687838 ], [ -78.949283042864536, 36.131362092296946 ] ] } },
{ "type": "Feature", "properties": { "FEEDER_NAME": "FOX RUN", "SUBSTATION_NAME": "Willardsville", "wmType": "SECONDARY UNDERGROUND", "WKT": "LINESTRING (-78.94947120041769 36.13172270068784, -78.949656982191 36.131233872017496)" }, "geometry": { "type": "LineString", "coordinates": [ [ -78.94947120041769, 36.131722700687838 ], [ -78.949656982191001, 36.131233872017496 ] ] } },
{ "type": "Feature", "properties": { "FEEDER_NAME": "FOX RUN", "SUBSTATION_NAME": "Willardsville", "wmType": "SECONDARY UNDERGROUND", "WKT": "LINESTRING (-78.94872838303525 36.13170264142121, -78.94862422455748 36.131874714139585, -78.94859594799162 36.13206169423449)" }, "geometry": { "type": "LineString", "coordinates": [ [ -78.948728383035245, 36.131702641421207 ], [ -78.948624224557477, 36.131874714139585 ], [ -78.94859594799162, 36.132061694234487 ] ] } },
{ "type": "Feature", "properties": { "FEEDER_NAME": "FOX RUN", "SUBSTATION_NAME": "Willardsville", "wmType": "SECONDARY UNDERGROUND", "WKT": "LINESTRING (-78.94872838303525 36.13170264142121, -78.94858256189796 36.13182701655695)" }, "geometry": { "type": "LineString", "coordinates": [ [ -78.948728383035245, 36.131702641421207 ], [ -78.948582561897965, 36.131827016556947 ] ] } },
{ "type": "Feature", "properties": { "FEEDER_NAME": "FOX RUN", "SUBSTATION_NAME": "Willardsville", "wmType": "SECONDARY UNDERGROUND", "WKT": "LINESTRING (-78.94747776968357 36.13173724431294, -78.94773703807243 36.1314971343997)" }, "geometry": { "type": "LineString", "coordinates": [ [ -78.947477769683573, 36.131737244312937 ], [ -78.947737038072432, 36.131497134399702 ] ] } },
{ "type": "Feature", "properties": { "FEEDER_NAME": "FOX RUN", "SUBSTATION_NAME": "Willardsville", "wmType": "SECONDARY UNDERGROUND", "WKT": "LINESTRING (-78.94875876399811 36.1333408420833, -78.94877424434063 36.13331117943331)" }, "geometry": { "type": "LineString", "coordinates": [ [ -78.948758763998114, 36.1333408420833 ], [ -78.948774244340626, 36.133311179433313 ] ] } },
{ "type": "Feature", "properties": { "FEEDER_NAME": "FOX RUN", "SUBSTATION_NAME": "Willardsville", "wmType": "SECONDARY UNDERGROUND", "WKT": "LINESTRING (-78.95487117251633 36.14554950507833, -78.95441202031813 36.14567911289573)" }, "geometry": { "type": "LineString", "coordinates": [ [ -78.954871172516334, 36.145549505078328 ], [ -78.954412020318131, 36.145679112895728 ] ] } },
{ "type": "Feature", "properties": { "FEEDER_NAME": "FOX RUN", "SUBSTATION_NAME": "Willardsville", "wmType": "SECONDARY UNDERGROUND", "WKT": "LINESTRING (-78.95487117251633 36.14554950507833, -78.95443920853242 36.14557977824664)" }, "geometry": { "type": "LineString", "coordinates": [ [ -78.954871172516334, 36.145549505078328 ], [ -78.95443920853242, 36.145579778246642 ] ] } },
{ "type": "Feature", "properties": { "FEEDER_NAME": "FOX RUN", "SUBSTATION_NAME": "Willardsville", "wmType": "SECONDARY UNDERGROUND", "WKT": "LINESTRING (-78.95701016011157 36.143413116819254, -78.95693556658198 36.14341074292251)" }, "geometry": { "type": "LineString", "coordinates": [ [ -78.957010160111565, 36.143413116819254 ], [ -78.956935566581976, 36.143410742922512 ] ] } },
{ "type": "Feature", "properties": { "FEEDER_NAME": "FOX RUN", "SUBSTATION_NAME": "Willardsville", "wmType": "SECONDARY UNDERGROUND", "WKT": "LINESTRING (-78.96147753348615 36.14171788697789, -78.9617262779427 36.141428825207754)" }, "geometry": { "type": "LineString", "coordinates": [ [ -78.961477533486146, 36.141717886977887 ], [ -78.961726277942702, 36.141428825207754 ] ] } },
{ "type": "Feature", "properties": { "FEEDER_NAME": "FOX RUN", "SUBSTATION_NAME": "Willardsville", "wmType": "SECONDARY UNDERGROUND", "WKT": "LINESTRING (-78.9656363110809 36.1397107964816, -78.96586244097696 36.13982793267777)" }, "geometry": { "type": "LineString", "coordinates": [ [ -78.9656363110809, 36.139710796481602 ], [ -78.965862440976963, 36.139827932677768 ] ] } },
{ "type": "Feature", "properties": { "FEEDER_NAME": "FOX RUN", "SUBSTATION_NAME": "Willardsville", "wmType": "SECONDARY UNDERGROUND", "WKT": "LINESTRING (-78.965529993651 36.139979772466695, -78.96553331248973 36.14039490293812)" }, "geometry": { "type": "LineString", "coordinates": [ [ -78.965529993651003, 36.139979772466695 ], [ -78.965533312489725, 36.14039490293812 ] ] } },
{ "type": "Feature", "properties": { "FEEDER_NAME": "FOX RUN", "SUBSTATION_NAME": "Willardsville", "wmType": "SECONDARY UNDERGROUND", "WKT": "LINESTRING (-78.96549488662869 36.139952595315954, -78.96551839041975 36.1394616518213)" }, "geometry": { "type": "LineString", "coordinates": [ [ -78.96549488662869, 36.139952595315954 ], [ -78.965518390419746, 36.1394616518213 ] ] } },
{ "type": "Feature", "properties": { "FEEDER_NAME": "FOX RUN", "SUBSTATION_NAME": "Willardsville", "wmType": "SECONDARY UNDERGROUND", "WKT": "LINESTRING (-78.96318812884937 36.13968626805778, -78.96314218745862 36.14001145024547)" }, "geometry": { "type": "LineString", "coordinates": [ [ -78.963188128849367, 36.13968626805778 ], [ -78.963142187458615, 36.140011450245467 ] ] } },
{ "type": "Feature", "properties": { "FEEDER_NAME": "FOX RUN", "SUBSTATION_NAME": "Willardsville", "wmType": "SECONDARY UNDERGROUND", "WKT": "LINESTRING (-78.96318812884937 36.13968626805778, -78.96310765405558 36.13981315445071, -78.96307999211338 36.139938538172565, -78.9630799592601 36.140010189608596, -78.963102000804 36.14010200076602)" }, "geometry": { "type": "LineString", "coordinates": [ [ -78.963188128849367, 36.13968626805778 ], [ -78.963107654055577, 36.139813154450707 ], [ -78.963079992113379, 36.139938538172565 ], [ -78.963079959260099, 36.140010189608596 ], [ -78.963102000804, 36.140102000766021 ] ] } },
{ "type": "Feature", "properties": { "FEEDER_NAME": "FOX RUN", "SUBSTATION_NAME": "Willardsville", "wmType": "SECONDARY UNDERGROUND", "WKT": "LINESTRING (-78.96358502009038 36.13963477215161, -78.96378930302193 36.1394287283615)" }, "geometry": { "type": "LineString", "coordinates": [ [ -78.963585020090377, 36.139634772151609 ], [ -78.963789303021926, 36.139428728361501 ] ] } },
{ "type": "Feature", "properties": { "FEEDER_NAME": "FOX RUN", "SUBSTATION_NAME": "Willardsville", "wmType": "SECONDARY UNDERGROUND", "WKT": "LINESTRING (-78.9651873715648 36.13756555087468, -78.9656273723919 36.13783719398434)" }, "geometry": { "type": "LineString", "coordinates": [ [ -78.965187371564795, 36.137565550874683 ], [ -78.965627372391907, 36.137837193984339 ] ] } },
{ "type": "Feature", "properties": { "FEEDER_NAME": "FOX RUN", "SUBSTATION_NAME": "Willardsville", "wmType": "SECONDARY UNDERGROUND", "WKT": "LINESTRING (-78.9651873715648 36.13756555087468, -78.9655848901061 36.137196464858576)" }, "geometry": { "type": "LineString", "coordinates": [ [ -78.965187371564795, 36.137565550874683 ], [ -78.965584890106101, 36.137196464858576 ] ] } },
{ "type": "Feature", "properties": { "FEEDER_NAME": "FOX RUN", "SUBSTATION_NAME": "Willardsville", "wmType": "SECONDARY UNDERGROUND", "WKT": "LINESTRING (-78.96445130450934 36.139687932934415, -78.96460741055098 36.139533047730446)" }, "geometry": { "type": "LineString", "coordinates": [ [ -78.964451304509339, 36.139687932934415 ], [ -78.964607410550983, 36.139533047730446 ] ] } },
{ "type": "Feature", "properties": { "FEEDER_NAME": "FOX RUN", "SUBSTATION_NAME": "Willardsville", "wmType": "SECONDARY UNDERGROUND", "WKT": "LINESTRING (-78.96430879612049 36.14023156195627, -78.96404635221374 36.14036775399343)" }, "geometry": { "type": "LineString", "coordinates": [ [ -78.964308796120491, 36.14023156195627 ], [ -78.964046352213742, 36.140367753993431 ] ] } },
{ "type": "Feature", "properties": { "FEEDER_NAME": "FOX RUN", "SUBSTATION_NAME": "Willardsville", "wmType": "SECONDARY UNDERGROUND", "WKT": "LINESTRING (-78.96453928559289 36.14038358893872, -78.96470128032269 36.14020857393202)" }, "geometry": { "type": "LineString", "coordinates": [ [ -78.964539285592892, 36.140383588938718 ], [ -78.964701280322686, 36.140208573932021 ] ] } },
{ "type": "Feature", "properties": { "FEEDER_NAME": "FOX RUN", "SUBSTATION_NAME": "Willardsville", "wmType": "SECONDARY UNDERGROUND", "WKT": "LINESTRING (-78.96430879612049 36.14023156195627, -78.96396705390895 36.14015878839577)" }, "geometry": { "type": "LineString", "coordinates": [ [ -78.964308796120491, 36.14023156195627 ], [ -78.963967053908945, 36.140158788395773 ] ] } },
{ "type": "Feature", "properties": { "FEEDER_NAME": "FOX RUN", "SUBSTATION_NAME": "Willardsville", "wmType": "SECONDARY UNDERGROUND", "WKT": "LINESTRING (-78.96453707334652 36.14079249484492, -78.96435198213196 36.140902235684614)" }, "geometry": { "type": "LineString", "coordinates": [ [ -78.96453707334652, 36.140792494844924 ], [ -78.964351982131959, 36.140902235684614 ] ] } },
{ "type": "Feature", "properties": { "FEEDER_NAME": "FOX RUN", "SUBSTATION_NAME": "Willardsville", "wmType": "SECONDARY UNDERGROUND", "WKT": "LINESTRING (-78.96453707334652 36.14079249484492, -78.96444661179893 36.1410231365024)" }, "geometry": { "type": "LineString", "coordinates": [ [ -78.96453707334652, 36.140792494844924 ], [ -78.964446611798934, 36.141023136502398 ] ] } },
{ "type": "Feature", "properties": { "FEEDER_NAME": "FOX RUN", "SUBSTATION_NAME": "Willardsville", "wmType": "SECONDARY UNDERGROUND", "WKT": "LINESTRING (-78.96473526646109 36.140767719923666, -78.96485257379011 36.140616101027994)" }, "geometry": { "type": "LineString", "coordinates": [ [ -78.964735266461091, 36.140767719923666 ], [ -78.964852573790111, 36.140616101027994 ] ] } },
{ "type": "Feature", "properties": { "FEEDER_NAME": "FOX RUN", "SUBSTATION_NAME": "Willardsville", "wmType": "SECONDARY UNDERGROUND", "WKT": "LINESTRING (-78.96628689024642 36.142963138188954, -78.96570360622445 36.14303376501406)" }, "geometry": { "type": "LineString", "coordinates": [ [ -78.966286890246423, 36.142963138188954 ], [ -78.965703606224452, 36.14303376501406 ] ] } },
{ "type": "Feature", "properties": { "FEEDER_NAME": "FOX RUN", "SUBSTATION_NAME": "Willardsville", "wmType": "SECONDARY UNDERGROUND", "WKT": "LINESTRING (-78.96628689024642 36.142963138188954, -78.96702602927245 36.143124024048866)" }, "geometry": { "type": "LineString", "coordinates": [ [ -78.966286890246423, 36.142963138188954 ], [ -78.967026029272446, 36.143124024048866 ] ] } },
{ "type": "Feature", "properties": { "FEEDER_NAME": "FOX RUN", "SUBSTATION_NAME": "Willardsville", "wmType": "SECONDARY UNDERGROUND", "WKT": "LINESTRING (-78.96659045772853 36.14234464321643, -78.96626773787169 36.14229519225828)" }, "geometry": { "type": "LineString", "coordinates": [ [ -78.966590457728529, 36.142344643216433 ], [ -78.966267737871689, 36.142295192258281 ] ] } },
{ "type": "Feature", "properties": { "FEEDER_NAME": "FOX RUN", "SUBSTATION_NAME": "Willardsville", "wmType": "SECONDARY UNDERGROUND", "WKT": "LINESTRING (-78.96659045772853 36.14234464321643, -78.96633840620179 36.14214348798067)" }, "geometry": { "type": "LineString", "coordinates": [ [ -78.966590457728529, 36.142344643216433 ], [ -78.966338406201785, 36.142143487980668 ] ] } },
{ "type": "Feature", "properties": { "FEEDER_NAME": "FOX RUN", "SUBSTATION_NAME": "Willardsville", "wmType": "SECONDARY UNDERGROUND", "WKT": "LINESTRING (-78.97417463941308 36.14090712866713, -78.9740226900113 36.14115879613882)" }, "geometry": { "type": "LineString", "coordinates": [ [ -78.974174639413079, 36.140907128667131 ], [ -78.974022690011296, 36.141158796138818 ] ] } },
{ "type": "Feature", "properties": { "FEEDER_NAME": "FOX RUN", "SUBSTATION_NAME": "Willardsville", "wmType": "SECONDARY UNDERGROUND", "WKT": "LINESTRING (-78.97417463941308 36.14090712866713, -78.97429258213889 36.14058606087273)" }, "geometry": { "type": "LineString", "coordinates": [ [ -78.974174639413079, 36.140907128667131 ], [ -78.974292582138887, 36.140586060872728 ] ] } },
{ "type": "Feature", "properties": { "FEEDER_NAME": "FOX RUN", "SUBSTATION_NAME": "Willardsville", "wmType": "SECONDARY UNDERGROUND", "WKT": "LINESTRING (-78.97119981218962 36.145290977399014, -78.97140977336748 36.14544191652079)" }, "geometry": { "type": "LineString", "coordinates": [ [ -78.971199812189624, 36.145290977399014 ], [ -78.971409773367483, 36.145441916520788 ] ] } },
{ "type": "Feature", "properties": { "FEEDER_NAME": "FOX RUN", "SUBSTATION_NAME": "Willardsville", "wmType": "SECONDARY UNDERGROUND", "WKT": "LINESTRING (-78.97119981218962 36.145290977399014, -78.97116969888094 36.145335098411195, -78.97115385284015 36.145338290393845, -78.9711359114404 36.14533766342294, -78.97109776401068 36.14530889027041)" }, "geometry": { "type": "LineString", "coordinates": [ [ -78.971199812189624, 36.145290977399014 ], [ -78.971169698880942, 36.145335098411195 ], [ -78.971153852840146, 36.145338290393845 ], [ -78.971135911440399, 36.145337663422943 ], [ -78.971097764010679, 36.145308890270407 ] ] } },
{ "type": "Feature", "properties": { "FEEDER_NAME": "FOX RUN", "SUBSTATION_NAME": "Willardsville", "wmType": "SECONDARY UNDERGROUND", "WKT": "LINESTRING (-78.97177942286822 36.145002521006006, -78.9720568267622 36.1449372004324)" }, "geometry": { "type": "LineString", "coordinates": [ [ -78.971779422868224, 36.145002521006006 ], [ -78.972056826762199, 36.144937200432402 ] ] } },
{ "type": "Feature", "properties": { "FEEDER_NAME": "FOX RUN", "SUBSTATION_NAME": "Willardsville", "wmType": "SECONDARY UNDERGROUND", "WKT": "LINESTRING (-78.97177942286822 36.145002521006006, -78.97194602409839 36.145409302093164)" }, "geometry": { "type": "LineString", "coordinates": [ [ -78.971779422868224, 36.145002521006006 ], [ -78.971946024098386, 36.145409302093164 ] ] } },
{ "type": "Feature", "properties": { "FEEDER_NAME": "FOX RUN", "SUBSTATION_NAME": "Willardsville", "wmType": "SECONDARY UNDERGROUND", "WKT": "LINESTRING (-78.97169214479723 36.14269651879005, -78.97137655260032 36.14276580945427)" }, "geometry": { "type": "LineString", "coordinates": [ [ -78.971692144797231, 36.142696518790054 ], [ -78.971376552600319, 36.142765809454268 ] ] } },
{ "type": "Feature", "properties": { "FEEDER_NAME": "FOX RUN", "SUBSTATION_NAME": "Willardsville", "wmType": "SECONDARY UNDERGROUND", "WKT": "LINESTRING (-78.97169214479723 36.14269651879005, -78.97181612929265 36.14236475936882)" }, "geometry": { "type": "LineString", "coordinates": [ [ -78.971692144797231, 36.142696518790054 ], [ -78.971816129292648, 36.142364759368817 ] ] } },
{ "type": "Feature", "properties": { "FEEDER_NAME": "FOX RUN", "SUBSTATION_NAME": "Willardsville", "wmType": "SECONDARY UNDERGROUND", "WKT": "LINESTRING (-78.97248112946922 36.14211723604354, -78.97266844433715 36.14194276335813)" }, "geometry": { "type": "LineString", "coordinates": [ [ -78.972481129469216, 36.142117236043539 ], [ -78.972668444337145, 36.141942763358131 ] ] } },
{ "type": "Feature", "properties": { "FEEDER_NAME": "FOX RUN", "SUBSTATION_NAME": "Willardsville", "wmType": "SECONDARY UNDERGROUND", "WKT": "LINESTRING (-78.97248112946922 36.14211723604354, -78.97233288626421 36.1421702816866)" }, "geometry": { "type": "LineString", "coordinates": [ [ -78.972481129469216, 36.142117236043539 ], [ -78.972332886264212, 36.142170281686603 ] ] } },
{ "type": "Feature", "properties": { "FEEDER_NAME": "FOX RUN", "SUBSTATION_NAME": "Willardsville", "wmType": "SECONDARY UNDERGROUND", "WKT": "LINESTRING (-78.97333356399008 36.140014327682934, -78.97323571431497 36.13974695148446)" }, "geometry": { "type": "LineString", "coordinates": [ [ -78.973333563990082, 36.140014327682934 ], [ -78.973235714314967, 36.139746951484462 ] ] } },
{ "type": "Feature", "properties": { "FEEDER_NAME": "FOX RUN", "SUBSTATION_NAME": "Willardsville", "wmType": "SECONDARY UNDERGROUND", "WKT": "LINESTRING (-78.97333356399008 36.140014327682934, -78.973117834791 36.14010605615575)" }, "geometry": { "type": "LineString", "coordinates": [ [ -78.973333563990082, 36.140014327682934 ], [ -78.973117834790997, 36.140106056155751 ] ] } },
{ "type": "Feature", "properties": { "FEEDER_NAME": "FOX RUN", "SUBSTATION_NAME": "Willardsville", "wmType": "SECONDARY UNDERGROUND", "WKT": "LINESTRING (-78.9727695509304 36.14096972017878, -78.97261523751087 36.14126909950129)" }, "geometry": { "type": "LineString", "coordinates": [ [ -78.972769550930394, 36.140969720178781 ], [ -78.972615237510865, 36.141269099501287 ] ] } },
{ "type": "Feature", "properties": { "FEEDER_NAME": "FOX RUN", "SUBSTATION_NAME": "Willardsville", "wmType": "SECONDARY UNDERGROUND", "WKT": "LINESTRING (-78.97261523751087 36.14126909950129, -78.97267834571197 36.14138165510674)" }, "geometry": { "type": "LineString", "coordinates": [ [ -78.972615237510865, 36.141269099501287 ], [ -78.972678345711969, 36.141381655106741 ] ] } },
{ "type": "Feature", "properties": { "FEEDER_NAME": "FOX RUN", "SUBSTATION_NAME": "Willardsville", "wmType": "SECONDARY UNDERGROUND", "WKT": "LINESTRING (-78.9727695509304 36.14096972017878, -78.97297405313542 36.141242142697024)" }, "geometry": { "type": "LineString", "coordinates": [ [ -78.972769550930394, 36.140969720178781 ], [ -78.972974053135417, 36.141242142697024 ] ] } },
{ "type": "Feature", "properties": { "FEEDER_NAME": "FOX RUN", "SUBSTATION_NAME": "Willardsville", "wmType": "SECONDARY UNDERGROUND", "WKT": "LINESTRING (-78.97107074977949 36.14112200410905, -78.97123563469371 36.14132744426694)" }, "geometry": { "type": "LineString", "coordinates": [ [ -78.971070749779486, 36.14112200410905 ], [ -78.971235634693713, 36.141327444266942 ] ] } },
{ "type": "Feature", "properties": { "FEEDER_NAME": "FOX RUN", "SUBSTATION_NAME": "Willardsville", "wmType": "SECONDARY UNDERGROUND", "WKT": "LINESTRING (-78.97098791159242 36.140940495230055, -78.9704475223059 36.14079519848216)" }, "geometry": { "type": "LineString", "coordinates": [ [ -78.970987911592417, 36.140940495230055 ], [ -78.970447522305903, 36.140795198482159 ] ] } },
{ "type": "Feature", "properties": { "FEEDER_NAME": "FOX RUN", "SUBSTATION_NAME": "Willardsville", "wmType": "SECONDARY UNDERGROUND", "WKT": "LINESTRING (-78.97098791159242 36.140940495230055, -78.97126008260089 36.140522504659174)" }, "geometry": { "type": "LineString", "coordinates": [ [ -78.970987911592417, 36.140940495230055 ], [ -78.971260082600892, 36.140522504659174 ] ] } },
{ "type": "Feature", "properties": { "FEEDER_NAME": "FOX RUN", "SUBSTATION_NAME": "Willardsville", "wmType": "SECONDARY UNDERGROUND", "WKT": "LINESTRING (-78.97063880142866 36.14127663511632, -78.97092703805521 36.14136086965223)" }, "geometry": { "type": "LineString", "coordinates": [ [ -78.970638801428663, 36.14127663511632 ], [ -78.970927038055208, 36.141360869652232 ] ] } },
{ "type": "Feature", "properties": { "FEEDER_NAME": "FOX RUN", "SUBSTATION_NAME": "Willardsville", "wmType": "SECONDARY UNDERGROUND", "WKT": "LINESTRING (-78.97063880142866 36.14127663511632, -78.97083819562256 36.14144938064371)" }, "geometry": { "type": "LineString", "coordinates": [ [ -78.970638801428663, 36.14127663511632 ], [ -78.970838195622562, 36.141449380643706 ] ] } },
{ "type": "Feature", "properties": { "FEEDER_NAME": "FOX RUN", "SUBSTATION_NAME": "Willardsville", "wmType": "SECONDARY UNDERGROUND", "WKT": "LINESTRING (-78.97026169656863 36.14237102991601, -78.96993884209336 36.142265142592436)" }, "geometry": { "type": "LineString", "coordinates": [ [ -78.970261696568627, 36.142371029916013 ], [ -78.969938842093356, 36.142265142592436 ] ] } },
{ "type": "Feature", "properties": { "FEEDER_NAME": "FOX RUN", "SUBSTATION_NAME": "Willardsville", "wmType": "SECONDARY UNDERGROUND", "WKT": "LINESTRING (-78.97026169656863 36.14237102991601, -78.97040862278078 36.1426259562126)" }, "geometry": { "type": "LineString", "coordinates": [ [ -78.970261696568627, 36.142371029916013 ], [ -78.970408622780781, 36.142625956212598 ] ] } },
{ "type": "Feature", "properties": { "FEEDER_NAME": "FOX RUN", "SUBSTATION_NAME": "Willardsville", "wmType": "SECONDARY UNDERGROUND", "WKT": "LINESTRING (-78.97054740726774 36.14180377474249, -78.97085342892198 36.14217303758984)" }, "geometry": { "type": "LineString", "coordinates": [ [ -78.970547407267745, 36.141803774742492 ], [ -78.970853428921984, 36.142173037589842 ] ] } },
{ "type": "Feature", "properties": { "FEEDER_NAME": "FOX RUN", "SUBSTATION_NAME": "Willardsville", "wmType": "SECONDARY UNDERGROUND", "WKT": "LINESTRING (-78.97132481186905 36.13979194914322, -78.9710196314878 36.139398050647294)" }, "geometry": { "type": "LineString", "coordinates": [ [ -78.971324811869053, 36.139791949143223 ], [ -78.971019631487806, 36.139398050647294 ] ] } },
{ "type": "Feature", "properties": { "FEEDER_NAME": "FOX RUN", "SUBSTATION_NAME": "Willardsville", "wmType": "SECONDARY UNDERGROUND", "WKT": "LINESTRING (-78.97132481186905 36.13979194914322, -78.97164177880846 36.13944891882848)" }, "geometry": { "type": "LineString", "coordinates": [ [ -78.971324811869053, 36.139791949143223 ], [ -78.971641778808461, 36.139448918828478 ] ] } },
{ "type": "Feature", "properties": { "FEEDER_NAME": "FOX RUN", "SUBSTATION_NAME": "Willardsville", "wmType": "SECONDARY UNDERGROUND", "WKT": "LINESTRING (-78.96945444274668 36.13832455786238, -78.96965273292182 36.138169505423384)" }, "geometry": { "type": "LineString", "coordinates": [ [ -78.969454442746681, 36.138324557862383 ], [ -78.969652732921816, 36.138169505423384 ] ] } },
{ "type": "Feature", "properties": { "FEEDER_NAME": "FOX RUN", "SUBSTATION_NAME": "Willardsville", "wmType": "SECONDARY UNDERGROUND", "WKT": "LINESTRING (-78.96948674782827 36.13859642883151, -78.96962421032808 36.13887308164191)" }, "geometry": { "type": "LineString", "coordinates": [ [ -78.96948674782827, 36.138596428831512 ], [ -78.969624210328078, 36.138873081641911 ] ] } },
{ "type": "Feature", "properties": { "FEEDER_NAME": "FOX RUN", "SUBSTATION_NAME": "Willardsville", "wmType": "SECONDARY UNDERGROUND", "WKT": "LINESTRING (-78.96948674782827 36.13859642883151, -78.97016395042783 36.138419725984065)" }, "geometry": { "type": "LineString", "coordinates": [ [ -78.96948674782827, 36.138596428831512 ], [ -78.970163950427832, 36.138419725984065 ] ] } },
{ "type": "Feature", "properties": { "FEEDER_NAME": "FOX RUN", "SUBSTATION_NAME": "Willardsville", "wmType": "SECONDARY UNDERGROUND", "WKT": "LINESTRING (-78.9686891777937 36.138643831614765, -78.96848738834375 36.138784096147766)" }, "geometry": { "type": "LineString", "coordinates": [ [ -78.968689177793706, 36.138643831614765 ], [ -78.968487388343746, 36.138784096147766 ] ] } },
{ "type": "Feature", "properties": { "FEEDER_NAME": "FOX RUN", "SUBSTATION_NAME": "Willardsville", "wmType": "SECONDARY UNDERGROUND", "WKT": "LINESTRING (-78.96869950332962 36.138476656160364, -78.96872844123787 36.13827184149009)" }, "geometry": { "type": "LineString", "coordinates": [ [ -78.968699503329617, 36.138476656160364 ], [ -78.968728441237872, 36.138271841490088 ] ] } },
{ "type": "Feature", "properties": { "FEEDER_NAME": "FOX RUN", "SUBSTATION_NAME": "Willardsville", "wmType": "SECONDARY UNDERGROUND", "WKT": "LINESTRING (-78.96846078676899 36.1374499870678, -78.96805500526587 36.137370669957264)" }, "geometry": { "type": "LineString", "coordinates": [ [ -78.968460786768986, 36.137449987067797 ], [ -78.968055005265867, 36.137370669957264 ] ] } },
{ "type": "Feature", "properties": { "FEEDER_NAME": "FOX RUN", "SUBSTATION_NAME": "Willardsville", "wmType": "SECONDARY UNDERGROUND", "WKT": "LINESTRING (-78.96846078676899 36.1374499870678, -78.96833015437478 36.13694519868511)" }, "geometry": { "type": "LineString", "coordinates": [ [ -78.968460786768986, 36.137449987067797 ], [ -78.968330154374783, 36.136945198685112 ] ] } },
{ "type": "Feature", "properties": { "FEEDER_NAME": "FOX RUN", "SUBSTATION_NAME": "Willardsville", "wmType": "SECONDARY UNDERGROUND", "WKT": "LINESTRING (-78.97095548360261 36.13714239889451, -78.97121958296695 36.137338792157166)" }, "geometry": { "type": "LineString", "coordinates": [ [ -78.970955483602609, 36.137142398894511 ], [ -78.971219582966953, 36.137338792157166 ] ] } },
{ "type": "Feature", "properties": { "FEEDER_NAME": "FOX RUN", "SUBSTATION_NAME": "Willardsville", "wmType": "SECONDARY UNDERGROUND", "WKT": "LINESTRING (-78.97067082138774 36.13723311724889, -78.97055972595554 36.13760109849865)" }, "geometry": { "type": "LineString", "coordinates": [ [ -78.970670821387742, 36.13723311724889 ], [ -78.970559725955539, 36.137601098498649 ] ] } },
{ "type": "Feature", "properties": { "FEEDER_NAME": "FOX RUN", "SUBSTATION_NAME": "Willardsville", "wmType": "SECONDARY UNDERGROUND", "WKT": "LINESTRING (-78.96863683783435 36.136953799606424, -78.96843584615657 36.1367275298485)" }, "geometry": { "type": "LineString", "coordinates": [ [ -78.968636837834353, 36.136953799606424 ], [ -78.968435846156567, 36.1367275298485 ] ] } },
{ "type": "Feature", "properties": { "FEEDER_NAME": "FOX RUN", "SUBSTATION_NAME": "Willardsville", "wmType": "SECONDARY UNDERGROUND", "WKT": "LINESTRING (-78.96855236990584 36.13767319784394, -78.9683947916653 36.1379445416915)" }, "geometry": { "type": "LineString", "coordinates": [ [ -78.968552369905836, 36.137673197843938 ], [ -78.968394791665304, 36.137944541691503 ] ] } },
{ "type": "Feature", "properties": { "FEEDER_NAME": "FOX RUN", "SUBSTATION_NAME": "Willardsville", "wmType": "SECONDARY UNDERGROUND", "WKT": "LINESTRING (-78.96757168238412 36.137856738569084, -78.96765796431771 36.13772193435082)" }, "geometry": { "type": "LineString", "coordinates": [ [ -78.967571682384119, 36.137856738569084 ], [ -78.967657964317709, 36.137721934350822 ] ] } },
{ "type": "Feature", "properties": { "FEEDER_NAME": "FOX RUN", "SUBSTATION_NAME": "Willardsville", "wmType": "SECONDARY UNDERGROUND", "WKT": "LINESTRING (-78.96755138393391 36.137974686686725, -78.96744199655242 36.13779011027218)" }, "geometry": { "type": "LineString", "coordinates": [ [ -78.967551383933909, 36.137974686686725 ], [ -78.967441996552424, 36.137790110272178 ] ] } },
{ "type": "Feature", "properties": { "FEEDER_NAME": "FOX RUN", "SUBSTATION_NAME": "Willardsville", "wmType": "SECONDARY UNDERGROUND", "WKT": "LINESTRING (-78.96748038151136 36.138533693726245, -78.96777971006983 36.138451067042794)" }, "geometry": { "type": "LineString", "coordinates": [ [ -78.967480381511365, 36.138533693726245 ], [ -78.967779710069834, 36.138451067042794 ] ] } },
{ "type": "Feature", "properties": { "FEEDER_NAME": "FOX RUN", "SUBSTATION_NAME": "Willardsville", "wmType": "SECONDARY UNDERGROUND", "WKT": "LINESTRING (-78.96724180793733 36.13843869649235, -78.9671177613696 36.13811025233957)" }, "geometry": { "type": "LineString", "coordinates": [ [ -78.967241807937327, 36.138438696492351 ], [ -78.967117761369593, 36.138110252339573 ] ] } },
{ "type": "Feature", "properties": { "FEEDER_NAME": "FOX RUN", "SUBSTATION_NAME": "Willardsville", "wmType": "SECONDARY UNDERGROUND", "WKT": "LINESTRING (-78.96736445295504 36.13914098047334, -78.96811304052368 36.139473783720256)" }, "geometry": { "type": "LineString", "coordinates": [ [ -78.967364452955039, 36.139140980473343 ], [ -78.968113040523676, 36.139473783720256 ] ] } },
{ "type": "Feature", "properties": { "FEEDER_NAME": "FOX RUN", "SUBSTATION_NAME": "Willardsville", "wmType": "SECONDARY UNDERGROUND", "WKT": "LINESTRING (-78.96718287623382 36.13912175846958, -78.96681448069897 36.13873648501044)" }, "geometry": { "type": "LineString", "coordinates": [ [ -78.967182876233821, 36.139121758469578 ], [ -78.966814480698972, 36.13873648501044 ] ] } },
{ "type": "Feature", "properties": { "FEEDER_NAME": "FOX RUN", "SUBSTATION_NAME": "Willardsville", "wmType": "SECONDARY UNDERGROUND", "WKT": "LINESTRING (-78.96718287623382 36.13912175846958, -78.9670064669311 36.13935789637487)" }, "geometry": { "type": "LineString", "coordinates": [ [ -78.967182876233821, 36.139121758469578 ], [ -78.967006466931096, 36.139357896374868 ] ] } },
{ "type": "Feature", "properties": { "FEEDER_NAME": "FOX RUN", "SUBSTATION_NAME": "Willardsville", "wmType": "SECONDARY UNDERGROUND", "WKT": "LINESTRING (-78.96736445295504 36.13914098047334, -78.96762272204761 36.1388883704907)" }, "geometry": { "type": "LineString", "coordinates": [ [ -78.967364452955039, 36.139140980473343 ], [ -78.967622722047608, 36.138888370490697 ] ] } },
{ "type": "Feature", "properties": { "FEEDER_NAME": "FOX RUN", "SUBSTATION_NAME": "Willardsville", "wmType": "SECONDARY UNDERGROUND", "WKT": "LINESTRING (-78.96760279344481 36.13990367198926, -78.9678762074096 36.140195723800915)" }, "geometry": { "type": "LineString", "coordinates": [ [ -78.967602793444811, 36.139903671989259 ], [ -78.967876207409603, 36.140195723800915 ] ] } },
{ "type": "Feature", "properties": { "FEEDER_NAME": "FOX RUN", "SUBSTATION_NAME": "Willardsville", "wmType": "SECONDARY UNDERGROUND", "WKT": "LINESTRING (-78.96878481835584 36.13976388642669, -78.96858456813852 36.139543224770215)" }, "geometry": { "type": "LineString", "coordinates": [ [ -78.968784818355843, 36.139763886426692 ], [ -78.968584568138525, 36.139543224770215 ] ] } },
{ "type": "Feature", "properties": { "FEEDER_NAME": "FOX RUN", "SUBSTATION_NAME": "Willardsville", "wmType": "SECONDARY UNDERGROUND", "WKT": "LINESTRING (-78.96868771065931 36.13989096149467, -78.96856872411286 36.14019857032127)" }, "geometry": { "type": "LineString", "coordinates": [ [ -78.96868771065931, 36.139890961494672 ], [ -78.968568724112856, 36.140198570321267 ] ] } },
{ "type": "Feature", "properties": { "FEEDER_NAME": "FOX RUN", "SUBSTATION_NAME": "Willardsville", "wmType": "SECONDARY UNDERGROUND", "WKT": "LINESTRING (-78.96944730630405 36.14151386959703, -78.96940624075843 36.14177614281615)" }, "geometry": { "type": "LineString", "coordinates": [ [ -78.969447306304048, 36.141513869597027 ], [ -78.969406240758431, 36.141776142816148 ] ] } },
{ "type": "Feature", "properties": { "FEEDER_NAME": "FOX RUN", "SUBSTATION_NAME": "Willardsville", "wmType": "SECONDARY UNDERGROUND", "WKT": "LINESTRING (-78.96944730630405 36.14151386959703, -78.96974008052496 36.14177767046539)" }, "geometry": { "type": "LineString", "coordinates": [ [ -78.969447306304048, 36.141513869597027 ], [ -78.969740080524957, 36.141777670465387 ] ] } },
{ "type": "Feature", "properties": { "FEEDER_NAME": "FOX RUN", "SUBSTATION_NAME": "Willardsville", "wmType": "SECONDARY UNDERGROUND", "WKT": "LINESTRING (-78.96808046966969 36.14117246350199, -78.96812658268267 36.14083095048893)" }, "geometry": { "type": "LineString", "coordinates": [ [ -78.968080469669687, 36.141172463501988 ], [ -78.968126582682672, 36.140830950488933 ] ] } },
{ "type": "Feature", "properties": { "FEEDER_NAME": "FOX RUN", "SUBSTATION_NAME": "Willardsville", "wmType": "SECONDARY UNDERGROUND", "WKT": "LINESTRING (-78.96775987702898 36.14121698890197, -78.96743604859294 36.14164053817921)" }, "geometry": { "type": "LineString", "coordinates": [ [ -78.967759877028982, 36.141216988901967 ], [ -78.967436048592944, 36.14164053817921 ] ] } },
{ "type": "Feature", "properties": { "FEEDER_NAME": "FOX RUN", "SUBSTATION_NAME": "Willardsville", "wmType": "SECONDARY UNDERGROUND", "WKT": "LINESTRING (-78.96775987702898 36.14121698890197, -78.9679563786808 36.14174612891774)" }, "geometry": { "type": "LineString", "coordinates": [ [ -78.967759877028982, 36.141216988901967 ], [ -78.967956378680796, 36.141746128917738 ] ] } },
{ "type": "Feature", "properties": { "FEEDER_NAME": "FOX RUN", "SUBSTATION_NAME": "Willardsville", "wmType": "SECONDARY UNDERGROUND", "WKT": "LINESTRING (-78.96840992597271 36.141411695511266, -78.96849198999014 36.14175497014669)" }, "geometry": { "type": "LineString", "coordinates": [ [ -78.968409925972708, 36.141411695511266 ], [ -78.968491989990142, 36.141754970146692 ] ] } },
{ "type": "Feature", "properties": { "FEEDER_NAME": "FOX RUN", "SUBSTATION_NAME": "Willardsville", "wmType": "SECONDARY UNDERGROUND", "WKT": "LINESTRING (-78.96808046966969 36.14117246350199, -78.96843560944717 36.1409310127157)" }, "geometry": { "type": "LineString", "coordinates": [ [ -78.968080469669687, 36.141172463501988 ], [ -78.96843560944717, 36.140931012715697 ] ] } },
{ "type": "Feature", "properties": { "FEEDER_NAME": "FOX RUN", "SUBSTATION_NAME": "Willardsville", "wmType": "SECONDARY UNDERGROUND", "WKT": "LINESTRING (-78.96708241097835 36.14091313653855, -78.96706991284756 36.14065670932408)" }, "geometry": { "type": "LineString", "coordinates": [ [ -78.96708241097835, 36.140913136538551 ], [ -78.967069912847563, 36.140656709324077 ] ] } },
{ "type": "Feature", "properties": { "FEEDER_NAME": "FOX RUN", "SUBSTATION_NAME": "Willardsville", "wmType": "SECONDARY UNDERGROUND", "WKT": "LINESTRING (-78.96566709490884 36.14121801306826, -78.96579370903285 36.140994968902746)" }, "geometry": { "type": "LineString", "coordinates": [ [ -78.965667094908838, 36.141218013068261 ], [ -78.965793709032852, 36.140994968902746 ] ] } },
{ "type": "Feature", "properties": { "FEEDER_NAME": "FOX RUN", "SUBSTATION_NAME": "Willardsville", "wmType": "SECONDARY UNDERGROUND", "WKT": "LINESTRING (-78.96552907092472 36.14134359065967, -78.96559251233312 36.14164919647232)" }, "geometry": { "type": "LineString", "coordinates": [ [ -78.965529070924717, 36.141343590659673 ], [ -78.965592512333117, 36.141649196472322 ] ] } },
{ "type": "Feature", "properties": { "FEEDER_NAME": "FOX RUN", "SUBSTATION_NAME": "Willardsville", "wmType": "SECONDARY UNDERGROUND", "WKT": "LINESTRING (-78.96243755083083 36.14394074457985, -78.96262347510822 36.14414668649953)" }, "geometry": { "type": "LineString", "coordinates": [ [ -78.962437550830828, 36.143940744579851 ], [ -78.962623475108217, 36.144146686499532 ] ] } },
{ "type": "Feature", "properties": { "FEEDER_NAME": "FOX RUN", "SUBSTATION_NAME": "Willardsville", "wmType": "SECONDARY UNDERGROUND", "WKT": "LINESTRING (-78.96325608764585 36.14326917924591, -78.96331007106461 36.14298892651864)" }, "geometry": { "type": "LineString", "coordinates": [ [ -78.963256087645846, 36.143269179245912 ], [ -78.963310071064612, 36.14298892651864 ] ] } },
{ "type": "Feature", "properties": { "FEEDER_NAME": "FOX RUN", "SUBSTATION_NAME": "Willardsville", "wmType": "SECONDARY UNDERGROUND", "WKT": "LINESTRING (-78.96308644767635 36.14363883575773, -78.96354099184973 36.143740242762206)" }, "geometry": { "type": "LineString", "coordinates": [ [ -78.963086447676346, 36.143638835757727 ], [ -78.963540991849726, 36.143740242762206 ] ] } },
{ "type": "Feature", "properties": { "FEEDER_NAME": "FOX RUN", "SUBSTATION_NAME": "Willardsville", "wmType": "SECONDARY UNDERGROUND", "WKT": "LINESTRING (-78.96299001042233 36.143457235548674, -78.96288841130323 36.14316005787156)" }, "geometry": { "type": "LineString", "coordinates": [ [ -78.962990010422331, 36.143457235548674 ], [ -78.962888411303226, 36.143160057871562 ] ] } },
{ "type": "Feature", "properties": { "FEEDER_NAME": "FOX RUN", "SUBSTATION_NAME": "Willardsville", "wmType": "SECONDARY UNDERGROUND", "WKT": "LINESTRING (-78.9640263623575 36.14302495986998, -78.96413353646425 36.14265154090798)" }, "geometry": { "type": "LineString", "coordinates": [ [ -78.964026362357501, 36.143024959869983 ], [ -78.964133536464246, 36.142651540907977 ] ] } },
{ "type": "Feature", "properties": { "FEEDER_NAME": "FOX RUN", "SUBSTATION_NAME": "Willardsville", "wmType": "SECONDARY UNDERGROUND", "WKT": "LINESTRING (-78.9640263623575 36.14302495986998, -78.9639269643729 36.14256910704006)" }, "geometry": { "type": "LineString", "coordinates": [ [ -78.964026362357501, 36.143024959869983 ], [ -78.963926964372902, 36.14256910704006 ] ] } },
{ "type": "Feature", "properties": { "FEEDER_NAME": "FOX RUN", "SUBSTATION_NAME": "Willardsville", "wmType": "SECONDARY UNDERGROUND", "WKT": "LINESTRING (-78.96393477104442 36.143211476053985, -78.96392275274783 36.14349527057565)" }, "geometry": { "type": "LineString", "coordinates": [ [ -78.963934771044421, 36.143211476053985 ], [ -78.963922752747834, 36.143495270575649 ] ] } },
{ "type": "Feature", "properties": { "FEEDER_NAME": "FOX RUN", "SUBSTATION_NAME": "Willardsville", "wmType": "SECONDARY UNDERGROUND", "WKT": "LINESTRING (-78.96445000069076 36.142948115117065, -78.96461615971987 36.1430611769269)" }, "geometry": { "type": "LineString", "coordinates": [ [ -78.964450000690761, 36.142948115117065 ], [ -78.964616159719867, 36.143061176926899 ] ] } },
{ "type": "Feature", "properties": { "FEEDER_NAME": "FOX RUN", "SUBSTATION_NAME": "Willardsville", "wmType": "SECONDARY UNDERGROUND", "WKT": "LINESTRING (-78.96501830902733 36.14255928062482, -78.96505502738762 36.14286209775292)" }, "geometry": { "type": "LineString", "coordinates": [ [ -78.965018309027329, 36.142559280624823 ], [ -78.965055027387621, 36.142862097752918 ] ] } },
{ "type": "Feature", "properties": { "FEEDER_NAME": "FOX RUN", "SUBSTATION_NAME": "Willardsville", "wmType": "SECONDARY UNDERGROUND", "WKT": "LINESTRING (-78.96482120835783 36.14233967020852, -78.96449602476689 36.14236927956563)" }, "geometry": { "type": "LineString", "coordinates": [ [ -78.964821208357833, 36.142339670208521 ], [ -78.964496024766888, 36.142369279565628 ] ] } },
{ "type": "Feature", "properties": { "FEEDER_NAME": "FOX RUN", "SUBSTATION_NAME": "Willardsville", "wmType": "SECONDARY UNDERGROUND", "WKT": "LINESTRING (-78.96539628716818 36.142346432876096, -78.96553481269382 36.14225029573403)" }, "geometry": { "type": "LineString", "coordinates": [ [ -78.965396287168176, 36.142346432876096 ], [ -78.965534812693818, 36.14225029573403 ] ] } },
{ "type": "Feature", "properties": { "FEEDER_NAME": "FOX RUN", "SUBSTATION_NAME": "Willardsville", "wmType": "SECONDARY UNDERGROUND", "WKT": "LINESTRING (-78.96525096366288 36.14197123877369, -78.96539628716818 36.142346432876096)" }, "geometry": { "type": "LineString", "coordinates": [ [ -78.965250963662882, 36.141971238773692 ], [ -78.965396287168176, 36.142346432876096 ] ] } },
{ "type": "Feature", "properties": { "FEEDER_NAME": "FOX RUN", "SUBSTATION_NAME": "Willardsville", "wmType": "SECONDARY UNDERGROUND", "WKT": "LINESTRING (-78.96448513266702 36.14161600638481, -78.96447633381023 36.14191849697179)" }, "geometry": { "type": "LineString", "coordinates": [ [ -78.964485132667022, 36.141616006384808 ], [ -78.964476333810225, 36.14191849697179 ] ] } },
{ "type": "Feature", "properties": { "FEEDER_NAME": "FOX RUN", "SUBSTATION_NAME": "Willardsville", "wmType": "SECONDARY UNDERGROUND", "WKT": "LINESTRING (-78.96381579092008 36.14179197063766, -78.96373021203355 36.142026755109356)" }, "geometry": { "type": "LineString", "coordinates": [ [ -78.96381579092008, 36.141791970637662 ], [ -78.963730212033553, 36.142026755109356 ] ] } },
{ "type": "Feature", "properties": { "FEEDER_NAME": "FOX RUN", "SUBSTATION_NAME": "Willardsville", "wmType": "SECONDARY UNDERGROUND", "WKT": "LINESTRING (-78.96392566921911 36.14160350958115, -78.96392580428254 36.1416021226453, -78.96394921851979 36.14136093996985)" }, "geometry": { "type": "LineString", "coordinates": [ [ -78.963925669219108, 36.141603509581152 ], [ -78.963925804282539, 36.141602122645303 ], [ -78.963949218519787, 36.14136093996985 ] ] } },
{ "type": "Feature", "properties": { "FEEDER_NAME": "FOX RUN", "SUBSTATION_NAME": "Willardsville", "wmType": "SECONDARY UNDERGROUND", "WKT": "LINESTRING (-78.96293861473606 36.14114678608447, -78.962704337807 36.14088093643293)" }, "geometry": { "type": "LineString", "coordinates": [ [ -78.962938614736061, 36.14114678608447 ], [ -78.962704337806997, 36.140880936432929 ] ] } },
{ "type": "Feature", "properties": { "FEEDER_NAME": "FOX RUN", "SUBSTATION_NAME": "Willardsville", "wmType": "SECONDARY UNDERGROUND", "WKT": "LINESTRING (-78.96344491247231 36.141886793894365, -78.96330206708315 36.14214929954411)" }, "geometry": { "type": "LineString", "coordinates": [ [ -78.963444912472312, 36.141886793894365 ], [ -78.963302067083148, 36.142149299544108 ] ] } },
{ "type": "Feature", "properties": { "FEEDER_NAME": "FOX RUN", "SUBSTATION_NAME": "Willardsville", "wmType": "SECONDARY UNDERGROUND", "WKT": "LINESTRING (-78.9624278783106 36.14195290661177, -78.96262628617583 36.14216721674901)" }, "geometry": { "type": "LineString", "coordinates": [ [ -78.962427878310606, 36.14195290661177 ], [ -78.962626286175833, 36.142167216749009 ] ] } },
{ "type": "Feature", "properties": { "FEEDER_NAME": "FOX RUN", "SUBSTATION_NAME": "Willardsville", "wmType": "SECONDARY UNDERGROUND", "WKT": "LINESTRING (-78.9624939312478 36.14177772816875, -78.96255282606131 36.141490662080145)" }, "geometry": { "type": "LineString", "coordinates": [ [ -78.962493931247806, 36.141777728168748 ], [ -78.962552826061312, 36.141490662080145 ] ] } },
{ "type": "Feature", "properties": { "FEEDER_NAME": "FOX RUN", "SUBSTATION_NAME": "Willardsville", "wmType": "SECONDARY UNDERGROUND", "WKT": "LINESTRING (-78.95918986271158 36.1420736405882, -78.95952749195719 36.14230367787793)" }, "geometry": { "type": "LineString", "coordinates": [ [ -78.959189862711582, 36.142073640588201 ], [ -78.959527491957189, 36.142303677877933 ] ] } },
{ "type": "Feature", "properties": { "FEEDER_NAME": "FOX RUN", "SUBSTATION_NAME": "Willardsville", "wmType": "SECONDARY UNDERGROUND", "WKT": "LINESTRING (-78.95918986271158 36.1420736405882, -78.95922776778868 36.142038587708754)" }, "geometry": { "type": "LineString", "coordinates": [ [ -78.959189862711582, 36.142073640588201 ], [ -78.959227767788676, 36.142038587708754 ] ] } },
{ "type": "Feature", "properties": { "FEEDER_NAME": "FOX RUN", "SUBSTATION_NAME": "Willardsville", "wmType": "SECONDARY UNDERGROUND", "WKT": "LINESTRING (-78.95835029764105 36.14204259195859, -78.95819169915984 36.14236439455457)" }, "geometry": { "type": "LineString", "coordinates": [ [ -78.958350297641047, 36.142042591958592 ], [ -78.95819169915984, 36.142364394554569 ] ] } },
{ "type": "Feature", "properties": { "FEEDER_NAME": "FOX RUN", "SUBSTATION_NAME": "Willardsville", "wmType": "SECONDARY UNDERGROUND", "WKT": "LINESTRING (-78.95698492401152 36.14227000451684, -78.95689866051924 36.142257293122725)" }, "geometry": { "type": "LineString", "coordinates": [ [ -78.956984924011522, 36.142270004516838 ], [ -78.956898660519244, 36.142257293122725 ] ] } },
{ "type": "Feature", "properties": { "FEEDER_NAME": "FOX RUN", "SUBSTATION_NAME": "Willardsville", "wmType": "SECONDARY UNDERGROUND", "WKT": "LINESTRING (-78.9571539861228 36.14207720215424, -78.9573202039683 36.14234796103606)" }, "geometry": { "type": "LineString", "coordinates": [ [ -78.957153986122805, 36.14207720215424 ], [ -78.957320203968294, 36.142347961036059 ] ] } },
{ "type": "Feature", "properties": { "FEEDER_NAME": "FOX RUN", "SUBSTATION_NAME": "Willardsville", "wmType": "SECONDARY UNDERGROUND", "WKT": "LINESTRING (-78.95399016888716 36.14220785777976, -78.95408735926033 36.14279977937777)" }, "geometry": { "type": "LineString", "coordinates": [ [ -78.953990168887159, 36.142207857779759 ], [ -78.954087359260328, 36.142799779377768 ] ] } },
{ "type": "Feature", "properties": { "FEEDER_NAME": "FOX RUN", "SUBSTATION_NAME": "Willardsville", "wmType": "SECONDARY UNDERGROUND", "WKT": "LINESTRING (-78.95408735926033 36.14279977937777, -78.95400999087786 36.142812895499624)" }, "geometry": { "type": "LineString", "coordinates": [ [ -78.954087359260328, 36.142799779377768 ], [ -78.954009990877864, 36.142812895499624 ] ] } },
{ "type": "Feature", "properties": { "FEEDER_NAME": "FOX RUN", "SUBSTATION_NAME": "Willardsville", "wmType": "SECONDARY UNDERGROUND", "WKT": "LINESTRING (-78.95332835831555 36.13960777321933, -78.95336183509417 36.139702955665, -78.9535613434564 36.139810949861015, -78.95370911497504 36.139915927613934, -78.95376130406244 36.13998946161271)" }, "geometry": { "type": "LineString", "coordinates": [ [ -78.953328358315545, 36.139607773219332 ], [ -78.953361835094171, 36.139702955665001 ], [ -78.9535613434564, 36.139810949861015 ], [ -78.953709114975041, 36.139915927613934 ], [ -78.953761304062439, 36.139989461612707 ] ] } },
{ "type": "Feature", "properties": { "FEEDER_NAME": "FOX RUN", "SUBSTATION_NAME": "Willardsville", "wmType": "SECONDARY UNDERGROUND", "WKT": "LINESTRING (-78.95376130406244 36.13998946161271, -78.95381613742425 36.14018726481891)" }, "geometry": { "type": "LineString", "coordinates": [ [ -78.953761304062439, 36.139989461612707 ], [ -78.953816137424255, 36.140187264818913 ] ] } },
{ "type": "Feature", "properties": { "FEEDER_NAME": "FOX RUN", "SUBSTATION_NAME": "Willardsville", "wmType": "SECONDARY UNDERGROUND", "WKT": "LINESTRING (-78.95332835831555 36.13960777321933, -78.95335281550386 36.13970864523116, -78.95335299866426 36.13971468437286, -78.95355102201081 36.139821875032595, -78.95369584041158 36.139924755443836, -78.95374045810648 36.139987660308456)" }, "geometry": { "type": "LineString", "coordinates": [ [ -78.953328358315545, 36.139607773219332 ], [ -78.953352815503862, 36.13970864523116 ], [ -78.953352998664258, 36.139714684372862 ], [ -78.953551022010814, 36.139821875032595 ], [ -78.953695840411584, 36.139924755443836 ], [ -78.953740458106481, 36.139987660308456 ] ] } },
{ "type": "Feature", "properties": { "FEEDER_NAME": "FOX RUN", "SUBSTATION_NAME": "Willardsville", "wmType": "SECONDARY UNDERGROUND", "WKT": "LINESTRING (-78.95332835831555 36.13960777321933, -78.95345456620848 36.13961175240357, -78.95347276023332 36.13961306518892, -78.95366124959426 36.13960414253103, -78.95374995319007 36.139595182814965, -78.95377809711027 36.13957852088572, -78.95375303443868 36.139538614427245, -78.95372779862474 36.13949843212428)" }, "geometry": { "type": "LineString", "coordinates": [ [ -78.953328358315545, 36.139607773219332 ], [ -78.953454566208478, 36.139611752403567 ], [ -78.953472760233325, 36.139613065188918 ], [ -78.953661249594262, 36.139604142531027 ], [ -78.953749953190069, 36.139595182814965 ], [ -78.953778097110273, 36.139578520885721 ], [ -78.953753034438677, 36.139538614427245 ], [ -78.95372779862474, 36.139498432124277 ] ] } },
{ "type": "Feature", "properties": { "FEEDER_NAME": "FOX RUN", "SUBSTATION_NAME": "Willardsville", "wmType": "SECONDARY UNDERGROUND", "WKT": "LINESTRING (-78.94707204935163 36.13101631925844, -78.94762221519987 36.13105369177223)" }, "geometry": { "type": "LineString", "coordinates": [ [ -78.947072049351632, 36.131016319258443 ], [ -78.947622215199871, 36.13105369177223 ] ] } },
{ "type": "Feature", "properties": { "FEEDER_NAME": "FOX RUN", "SUBSTATION_NAME": "Willardsville", "wmType": "SECONDARY UNDERGROUND", "WKT": "LINESTRING (-78.95088077919239 36.129047074308545, -78.95101449475266 36.12939243625639)" }, "geometry": { "type": "LineString", "coordinates": [ [ -78.950880779192389, 36.129047074308545 ], [ -78.951014494752656, 36.129392436256389 ] ] } },
{ "type": "Feature", "properties": { "FEEDER_NAME": "FOX RUN", "SUBSTATION_NAME": "Willardsville", "wmType": "SECONDARY UNDERGROUND", "WKT": "LINESTRING (-78.95058712651758 36.12890095693434, -78.95086476362108 36.12876579413734)" }, "geometry": { "type": "LineString", "coordinates": [ [ -78.950587126517576, 36.128900956934338 ], [ -78.950864763621084, 36.128765794137337 ] ] } },
{ "type": "Feature", "properties": { "FEEDER_NAME": "FOX RUN", "SUBSTATION_NAME": "Willardsville", "wmType": "SECONDARY UNDERGROUND", "WKT": "LINESTRING (-78.95058712651758 36.12890095693434, -78.95048596037849 36.12867780997366)" }, "geometry": { "type": "LineString", "coordinates": [ [ -78.950587126517576, 36.128900956934338 ], [ -78.950485960378487, 36.128677809973659 ] ] } },
{ "type": "Feature", "properties": { "FEEDER_NAME": "FOX RUN", "SUBSTATION_NAME": "Willardsville", "wmType": "SECONDARY UNDERGROUND", "WKT": "LINESTRING (-78.95048952246516 36.1290944111199, -78.95039708368763 36.12923202027916)" }, "geometry": { "type": "LineString", "coordinates": [ [ -78.950489522465162, 36.129094411119901 ], [ -78.950397083687633, 36.129232020279161 ] ] } },
{ "type": "Feature", "properties": { "FEEDER_NAME": "FOX RUN", "SUBSTATION_NAME": "Willardsville", "wmType": "SECONDARY UNDERGROUND", "WKT": "LINESTRING (-78.94889452433691 36.12911842277842, -78.94904420004453 36.12937580167116)" }, "geometry": { "type": "LineString", "coordinates": [ [ -78.948894524336907, 36.129118422778419 ], [ -78.949044200044526, 36.129375801671159 ] ] } },
{ "type": "Feature", "properties": { "FEEDER_NAME": "FOX RUN", "SUBSTATION_NAME": "Willardsville", "wmType": "SECONDARY UNDERGROUND", "WKT": "LINESTRING (-78.94889452433691 36.12911842277842, -78.94874077591082 36.12933394739125)" }, "geometry": { "type": "LineString", "coordinates": [ [ -78.948894524336907, 36.129118422778419 ], [ -78.948740775910821, 36.129333947391252 ] ] } },
{ "type": "Feature", "properties": { "FEEDER_NAME": "FOX RUN", "SUBSTATION_NAME": "Willardsville", "wmType": "SECONDARY UNDERGROUND", "WKT": "LINESTRING (-78.9488918551583 36.12894805703328, -78.94906413639387 36.128643803606494)" }, "geometry": { "type": "LineString", "coordinates": [ [ -78.948891855158294, 36.128948057033277 ], [ -78.949064136393872, 36.128643803606494 ] ] } },
{ "type": "Feature", "properties": { "FEEDER_NAME": "FOX RUN", "SUBSTATION_NAME": "Willardsville", "wmType": "SECONDARY UNDERGROUND", "WKT": "LINESTRING (-78.94795681998451 36.12905773299551, -78.94824059899685 36.128797735843285)" }, "geometry": { "type": "LineString", "coordinates": [ [ -78.947956819984512, 36.129057732995513 ], [ -78.948240598996847, 36.128797735843285 ] ] } },
{ "type": "Feature", "properties": { "FEEDER_NAME": "FOX RUN", "SUBSTATION_NAME": "Willardsville", "wmType": "SECONDARY UNDERGROUND", "WKT": "LINESTRING (-78.94807173020838 36.12923666209823, -78.94784436851072 36.12956870595071)" }, "geometry": { "type": "LineString", "coordinates": [ [ -78.948071730208383, 36.129236662098229 ], [ -78.947844368510715, 36.12956870595071 ] ] } },
{ "type": "Feature", "properties": { "FEEDER_NAME": "FOX RUN", "SUBSTATION_NAME": "Willardsville", "wmType": "SECONDARY UNDERGROUND", "WKT": "LINESTRING (-78.94807173020838 36.12923666209823, -78.94831703246112 36.12940485136386)" }, "geometry": { "type": "LineString", "coordinates": [ [ -78.948071730208383, 36.129236662098229 ], [ -78.948317032461119, 36.129404851363859 ] ] } },
{ "type": "Feature", "properties": { "FEEDER_NAME": "FOX RUN", "SUBSTATION_NAME": "Willardsville", "wmType": "SECONDARY UNDERGROUND", "WKT": "LINESTRING (-78.94727854799723 36.12922011622742, -78.94746195279036 36.12885295184348)" }, "geometry": { "type": "LineString", "coordinates": [ [ -78.947278547997229, 36.129220116227422 ], [ -78.947461952790363, 36.128852951843477 ] ] } },
{ "type": "Feature", "properties": { "FEEDER_NAME": "FOX RUN", "SUBSTATION_NAME": "Willardsville", "wmType": "SECONDARY UNDERGROUND", "WKT": "LINESTRING (-78.94730867806042 36.12933437372128, -78.94751501371285 36.12950540107685)" }, "geometry": { "type": "LineString", "coordinates": [ [ -78.947308678060423, 36.129334373721278 ], [ -78.947515013712845, 36.129505401076848 ] ] } },
{ "type": "Feature", "properties": { "FEEDER_NAME": "FOX RUN", "SUBSTATION_NAME": "Willardsville", "wmType": "SECONDARY UNDERGROUND", "WKT": "LINESTRING (-78.94730867806042 36.12933437372128, -78.94706969576477 36.12957716024979)" }, "geometry": { "type": "LineString", "coordinates": [ [ -78.947308678060423, 36.129334373721278 ], [ -78.947069695764768, 36.129577160249788 ] ] } },
{ "type": "Feature", "properties": { "FEEDER_NAME": "FOX RUN", "SUBSTATION_NAME": "Willardsville", "wmType": "SECONDARY UNDERGROUND", "WKT": "LINESTRING (-78.94727854799723 36.12922011622742, -78.94681794901364 36.12897815193773)" }, "geometry": { "type": "LineString", "coordinates": [ [ -78.947278547997229, 36.129220116227422 ], [ -78.946817949013635, 36.12897815193773 ] ] } },
{ "type": "Feature", "properties": { "FEEDER_NAME": "FOX RUN", "SUBSTATION_NAME": "Willardsville", "wmType": "SECONDARY UNDERGROUND", "WKT": "LINESTRING (-78.94727854799723 36.12922011622742, -78.94684344186908 36.12885095978308)" }, "geometry": { "type": "LineString", "coordinates": [ [ -78.947278547997229, 36.129220116227422 ], [ -78.946843441869078, 36.12885095978308 ] ] } },
{ "type": "Feature", "properties": { "FEEDER_NAME": "FOX RUN", "SUBSTATION_NAME": "Willardsville", "wmType": "SECONDARY UNDERGROUND", "WKT": "LINESTRING (-78.95362327103666 36.12675483717778, -78.9531742526086 36.12634647537914)" }, "geometry": { "type": "LineString", "coordinates": [ [ -78.953623271036662, 36.126754837177778 ], [ -78.953174252608605, 36.126346475379137 ] ] } },
{ "type": "Feature", "properties": { "FEEDER_NAME": "FOX RUN", "SUBSTATION_NAME": "Willardsville", "wmType": "SECONDARY UNDERGROUND", "WKT": "LINESTRING (-78.95143364904473 36.12669420767784, -78.9515142472825 36.12696890044884)" }, "geometry": { "type": "LineString", "coordinates": [ [ -78.951433649044731, 36.126694207677843 ], [ -78.951514247282503, 36.126968900448837 ] ] } },
{ "type": "Feature", "properties": { "FEEDER_NAME": "FOX RUN", "SUBSTATION_NAME": "Willardsville", "wmType": "SECONDARY UNDERGROUND", "WKT": "LINESTRING (-78.95143364904473 36.12669420767784, -78.95105063774227 36.12642206274643)" }, "geometry": { "type": "LineString", "coordinates": [ [ -78.951433649044731, 36.126694207677843 ], [ -78.95105063774227, 36.126422062746428 ] ] } },
{ "type": "Feature", "properties": { "FEEDER_NAME": "FOX RUN", "SUBSTATION_NAME": "Willardsville", "wmType": "SECONDARY UNDERGROUND", "WKT": "LINESTRING (-78.95239111538538 36.12673081948817, -78.95277710352408 36.12663109173872)" }, "geometry": { "type": "LineString", "coordinates": [ [ -78.952391115385382, 36.126730819488174 ], [ -78.952777103524085, 36.126631091738723 ] ] } },
{ "type": "Feature", "properties": { "FEEDER_NAME": "FOX RUN", "SUBSTATION_NAME": "Willardsville", "wmType": "SECONDARY UNDERGROUND", "WKT": "LINESTRING (-78.95239111538538 36.12673081948817, -78.95224950659755 36.127000064629264)" }, "geometry": { "type": "LineString", "coordinates": [ [ -78.952391115385382, 36.126730819488174 ], [ -78.952249506597553, 36.127000064629264 ] ] } },
{ "type": "Feature", "properties": { "FEEDER_NAME": "FOX RUN", "SUBSTATION_NAME": "Willardsville", "wmType": "SECONDARY UNDERGROUND", "WKT": "LINESTRING (-78.95227769206582 36.126505199674064, -78.95216274509214 36.126476222773555, -78.95215594650571 36.12642009814806)" }, "geometry": { "type": "LineString", "coordinates": [ [ -78.95227769206582, 36.126505199674064 ], [ -78.952162745092139, 36.126476222773555 ], [ -78.952155946505712, 36.12642009814806 ] ] } },
{ "type": "Feature", "properties": { "FEEDER_NAME": "FOX RUN", "SUBSTATION_NAME": "Willardsville", "wmType": "SECONDARY UNDERGROUND", "WKT": "LINESTRING (-78.95266027423838 36.127424391818835, -78.95214699701754 36.12748799975408)" }, "geometry": { "type": "LineString", "coordinates": [ [ -78.952660274238383, 36.127424391818835 ], [ -78.952146997017536, 36.127487999754081 ] ] } },
{ "type": "Feature", "properties": { "FEEDER_NAME": "FOX RUN", "SUBSTATION_NAME": "Willardsville", "wmType": "SECONDARY UNDERGROUND", "WKT": "LINESTRING (-78.95141661072017 36.12806536872673, -78.95145510791882 36.1281318664048)" }, "geometry": { "type": "LineString", "coordinates": [ [ -78.951416610720173, 36.12806536872673 ], [ -78.951455107918818, 36.1281318664048 ] ] } },
{ "type": "Feature", "properties": { "FEEDER_NAME": "FOX RUN", "SUBSTATION_NAME": "Willardsville", "wmType": "SECONDARY UNDERGROUND", "WKT": "LINESTRING (-78.95133160061417 36.12787292809854, -78.95160020762977 36.127758664779606)" }, "geometry": { "type": "LineString", "coordinates": [ [ -78.951331600614168, 36.12787292809854 ], [ -78.951600207629767, 36.127758664779606 ] ] } },
{ "type": "Feature", "properties": { "FEEDER_NAME": "FOX RUN", "SUBSTATION_NAME": "Willardsville", "wmType": "SECONDARY UNDERGROUND", "WKT": "LINESTRING (-78.95068432352771 36.12774416969637, -78.95092842026928 36.12747841387594)" }, "geometry": { "type": "LineString", "coordinates": [ [ -78.95068432352771, 36.127744169696371 ], [ -78.950928420269278, 36.127478413875941 ] ] } },
{ "type": "Feature", "properties": { "FEEDER_NAME": "FOX RUN", "SUBSTATION_NAME": "Willardsville", "wmType": "SECONDARY UNDERGROUND", "WKT": "LINESTRING (-78.95022009509564 36.126728559543146, -78.95061229781051 36.1268519266869)" }, "geometry": { "type": "LineString", "coordinates": [ [ -78.950220095095645, 36.126728559543146 ], [ -78.950612297810508, 36.126851926686903 ] ] } },
{ "type": "Feature", "properties": { "FEEDER_NAME": "FOX RUN", "SUBSTATION_NAME": "Willardsville", "wmType": "SECONDARY UNDERGROUND", "WKT": "LINESTRING (-78.95022009509564 36.126728559543146, -78.95032375913165 36.12640525487002)" }, "geometry": { "type": "LineString", "coordinates": [ [ -78.950220095095645, 36.126728559543146 ], [ -78.950323759131649, 36.126405254870022 ] ] } },
{ "type": "Feature", "properties": { "FEEDER_NAME": "FOX RUN", "SUBSTATION_NAME": "Willardsville", "wmType": "SECONDARY UNDERGROUND", "WKT": "LINESTRING (-78.9488859285336 36.12653246718656, -78.94889057828588 36.12642983044672)" }, "geometry": { "type": "LineString", "coordinates": [ [ -78.948885928533599, 36.126532467186557 ], [ -78.948890578285884, 36.126429830446718 ] ] } },
{ "type": "Feature", "properties": { "FEEDER_NAME": "FOX RUN", "SUBSTATION_NAME": "Willardsville", "wmType": "SECONDARY UNDERGROUND", "WKT": "LINESTRING (-78.94761853802463 36.12691184155378, -78.9474019270283 36.127250175559794)" }, "geometry": { "type": "LineString", "coordinates": [ [ -78.947618538024628, 36.126911841553778 ], [ -78.947401927028295, 36.127250175559794 ] ] } },
{ "type": "Feature", "properties": { "FEEDER_NAME": "FOX RUN", "SUBSTATION_NAME": "Willardsville", "wmType": "SECONDARY UNDERGROUND", "WKT": "LINESTRING (-78.94749655134648 36.12676867841237, -78.94759693976232 36.126704115354826)" }, "geometry": { "type": "LineString", "coordinates": [ [ -78.947496551346475, 36.126768678412368 ], [ -78.94759693976232, 36.126704115354826 ] ] } },
{ "type": "Feature", "properties": { "FEEDER_NAME": "FOX RUN", "SUBSTATION_NAME": "Willardsville", "wmType": "SECONDARY UNDERGROUND", "WKT": "LINESTRING (-78.94749655134648 36.12676867841237, -78.94712695910864 36.12673852110863)" }, "geometry": { "type": "LineString", "coordinates": [ [ -78.947496551346475, 36.126768678412368 ], [ -78.947126959108644, 36.126738521108628 ] ] } },
{ "type": "Feature", "properties": { "FEEDER_NAME": "FOX RUN", "SUBSTATION_NAME": "Willardsville", "wmType": "SECONDARY UNDERGROUND", "WKT": "LINESTRING (-78.94607681304147 36.127011687242174, -78.94615919245754 36.12657098322076)" }, "geometry": { "type": "LineString", "coordinates": [ [ -78.946076813041472, 36.127011687242174 ], [ -78.946159192457543, 36.126570983220759 ] ] } },
{ "type": "Feature", "properties": { "FEEDER_NAME": "FOX RUN", "SUBSTATION_NAME": "Willardsville", "wmType": "SECONDARY UNDERGROUND", "WKT": "LINESTRING (-78.94607681304147 36.127011687242174, -78.94594003196819 36.12724742957389)" }, "geometry": { "type": "LineString", "coordinates": [ [ -78.946076813041472, 36.127011687242174 ], [ -78.945940031968192, 36.127247429573892 ] ] } },
{ "type": "Feature", "properties": { "FEEDER_NAME": "FOX RUN", "SUBSTATION_NAME": "Willardsville", "wmType": "SECONDARY UNDERGROUND", "WKT": "LINESTRING (-78.94625546181155 36.12747133893499, -78.94639210165055 36.12750536421583, -78.94651057561592 36.127560354696605, -78.94660876388627 36.12757138530485)" }, "geometry": { "type": "LineString", "coordinates": [ [ -78.946255461811546, 36.127471338934988 ], [ -78.946392101650545, 36.127505364215828 ], [ -78.946510575615918, 36.127560354696605 ], [ -78.946608763886275, 36.127571385304847 ] ] } },
{ "type": "Feature", "properties": { "FEEDER_NAME": "FOX RUN", "SUBSTATION_NAME": "Willardsville", "wmType": "SECONDARY UNDERGROUND", "WKT": "LINESTRING (-78.94625546181155 36.12747133893499, -78.94593726727413 36.127606051666305)" }, "geometry": { "type": "LineString", "coordinates": [ [ -78.946255461811546, 36.127471338934988 ], [ -78.945937267274132, 36.127606051666305 ] ] } },
{ "type": "Feature", "properties": { "FEEDER_NAME": "FOX RUN", "SUBSTATION_NAME": "Willardsville", "wmType": "SECONDARY UNDERGROUND", "WKT": "LINESTRING (-78.94625546181155 36.12747133893499, -78.946482380783 36.12728490026233)" }, "geometry": { "type": "LineString", "coordinates": [ [ -78.946255461811546, 36.127471338934988 ], [ -78.946482380782996, 36.127284900262332 ] ] } },
{ "type": "Feature", "properties": { "FEEDER_NAME": "FOX RUN", "SUBSTATION_NAME": "Willardsville", "wmType": "SECONDARY UNDERGROUND", "WKT": "LINESTRING (-78.9456914630583 36.125898022092876, -78.9453475324405 36.12616222977536)" }, "geometry": { "type": "LineString", "coordinates": [ [ -78.945691463058296, 36.125898022092876 ], [ -78.945347532440493, 36.12616222977536 ] ] } },
{ "type": "Feature", "properties": { "FEEDER_NAME": "FOX RUN", "SUBSTATION_NAME": "Willardsville", "wmType": "SECONDARY UNDERGROUND", "WKT": "LINESTRING (-78.95080299621117 36.12543887933295, -78.95036369535084 36.12572571687107)" }, "geometry": { "type": "LineString", "coordinates": [ [ -78.950802996211166, 36.125438879332947 ], [ -78.950363695350845, 36.125725716871067 ] ] } },
{ "type": "Feature", "properties": { "FEEDER_NAME": "FOX RUN", "SUBSTATION_NAME": "Willardsville", "wmType": "SECONDARY UNDERGROUND", "WKT": "LINESTRING (-78.95080299621117 36.12543887933295, -78.95103891362503 36.125678150983845)" }, "geometry": { "type": "LineString", "coordinates": [ [ -78.950802996211166, 36.125438879332947 ], [ -78.951038913625027, 36.125678150983845 ] ] } },
{ "type": "Feature", "properties": { "FEEDER_NAME": "FOX RUN", "SUBSTATION_NAME": "Willardsville", "wmType": "SECONDARY UNDERGROUND", "WKT": "LINESTRING (-78.95365213752612 36.12540731957346, -78.95357608618004 36.125675558411956)" }, "geometry": { "type": "LineString", "coordinates": [ [ -78.95365213752612, 36.125407319573462 ], [ -78.953576086180036, 36.125675558411956 ] ] } },
{ "type": "Feature", "properties": { "FEEDER_NAME": "FOX RUN", "SUBSTATION_NAME": "Willardsville", "wmType": "SECONDARY UNDERGROUND", "WKT": "LINESTRING (-78.95286138666854 36.125415903581136, -78.95308123932979 36.12567775070508)" }, "geometry": { "type": "LineString", "coordinates": [ [ -78.952861386668545, 36.125415903581136 ], [ -78.953081239329791, 36.12567775070508 ] ] } },
{ "type": "Feature", "properties": { "FEEDER_NAME": "FOX RUN", "SUBSTATION_NAME": "Willardsville", "wmType": "SECONDARY UNDERGROUND", "WKT": "LINESTRING (-78.95286138666854 36.125415903581136, -78.95258884672245 36.12561329455383)" }, "geometry": { "type": "LineString", "coordinates": [ [ -78.952861386668545, 36.125415903581136 ], [ -78.952588846722449, 36.12561329455383 ] ] } },
{ "type": "Feature", "properties": { "FEEDER_NAME": "FOX RUN", "SUBSTATION_NAME": "Willardsville", "wmType": "SECONDARY UNDERGROUND", "WKT": "LINESTRING (-78.95183233157572 36.125427362945764, -78.95159823463086 36.12562200728789)" }, "geometry": { "type": "LineString", "coordinates": [ [ -78.951832331575716, 36.125427362945764 ], [ -78.951598234630865, 36.125622007287888 ] ] } },
{ "type": "Feature", "properties": { "FEEDER_NAME": "FOX RUN", "SUBSTATION_NAME": "Willardsville", "wmType": "SECONDARY UNDERGROUND", "WKT": "LINESTRING (-78.95183233157572 36.125427362945764, -78.95212048520969 36.125700242620766)" }, "geometry": { "type": "LineString", "coordinates": [ [ -78.951832331575716, 36.125427362945764 ], [ -78.95212048520969, 36.125700242620766 ] ] } },
{ "type": "Feature", "properties": { "FEEDER_NAME": "FOX RUN", "SUBSTATION_NAME": "Willardsville", "wmType": "SECONDARY UNDERGROUND", "WKT": "LINESTRING (-78.9497735205779 36.12545039511469, -78.94996569167893 36.12566005193639)" }, "geometry": { "type": "LineString", "coordinates": [ [ -78.949773520577907, 36.12545039511469 ], [ -78.949965691678926, 36.125660051936393 ] ] } },
{ "type": "Feature", "properties": { "FEEDER_NAME": "FOX RUN", "SUBSTATION_NAME": "Willardsville", "wmType": "SECONDARY UNDERGROUND", "WKT": "LINESTRING (-78.94925882269723 36.12545606235535, -78.94899823412284 36.12573128368532)" }, "geometry": { "type": "LineString", "coordinates": [ [ -78.949258822697232, 36.125456062355347 ], [ -78.94899823412284, 36.125731283685319 ] ] } },
{ "type": "Feature", "properties": { "FEEDER_NAME": "FOX RUN", "SUBSTATION_NAME": "Willardsville", "wmType": "SECONDARY UNDERGROUND", "WKT": "LINESTRING (-78.94869163792686 36.12546249580818, -78.94885983671634 36.12575126466026)" }, "geometry": { "type": "LineString", "coordinates": [ [ -78.948691637926856, 36.125462495808179 ], [ -78.948859836716338, 36.125751264660259 ] ] } },
{ "type": "Feature", "properties": { "FEEDER_NAME": "FOX RUN", "SUBSTATION_NAME": "Willardsville", "wmType": "SECONDARY UNDERGROUND", "WKT": "LINESTRING (-78.94692739588429 36.125771321340906, -78.94708360323928 36.126072690125696)" }, "geometry": { "type": "LineString", "coordinates": [ [ -78.946927395884288, 36.125771321340906 ], [ -78.947083603239278, 36.126072690125696 ] ] } },
{ "type": "Feature", "properties": { "FEEDER_NAME": "FOX RUN", "SUBSTATION_NAME": "Willardsville", "wmType": "SECONDARY UNDERGROUND", "WKT": "LINESTRING (-78.94692739588429 36.125771321340906, -78.94663715081721 36.126087414217395)" }, "geometry": { "type": "LineString", "coordinates": [ [ -78.946927395884288, 36.125771321340906 ], [ -78.94663715081721, 36.126087414217395 ] ] } },
{ "type": "Feature", "properties": { "FEEDER_NAME": "FOX RUN", "SUBSTATION_NAME": "Willardsville", "wmType": "SECONDARY UNDERGROUND", "WKT": "LINESTRING (-78.94692739588429 36.125771321340906, -78.94725689729421 36.12578010836255, -78.94744372298861 36.125943287939535)" }, "geometry": { "type": "LineString", "coordinates": [ [ -78.946927395884288, 36.125771321340906 ], [ -78.94725689729421, 36.125780108362548 ], [ -78.947443722988609, 36.125943287939535 ] ] } },
{ "type": "Feature", "properties": { "FEEDER_NAME": "FOX RUN", "SUBSTATION_NAME": "Willardsville", "wmType": "SECONDARY UNDERGROUND", "WKT": "LINESTRING (-78.94489704498085 36.12598789847095, -78.94500653317769 36.125872023159836)" }, "geometry": { "type": "LineString", "coordinates": [ [ -78.944897044980848, 36.125987898470953 ], [ -78.94500653317769, 36.125872023159836 ] ] } },
{ "type": "Feature", "properties": { "FEEDER_NAME": "FOX RUN", "SUBSTATION_NAME": "Willardsville", "wmType": "SECONDARY UNDERGROUND", "WKT": "LINESTRING (-78.9641744192437 36.13847700853051, -78.96413900542228 36.13848010826861)" }, "geometry": { "type": "LineString", "coordinates": [ [ -78.964174419243705, 36.138477008530508 ], [ -78.964139005422282, 36.13848010826861 ] ] } },
{ "type": "Feature", "properties": { "FEEDER_NAME": "FOX RUN", "SUBSTATION_NAME": "Willardsville", "wmType": "SECONDARY UNDERGROUND", "WKT": "LINESTRING (-78.95885136924278 36.13613976679727, -78.95827636828025 36.13583776582712)" }, "geometry": { "type": "LineString", "coordinates": [ [ -78.95885136924278, 36.136139766797271 ], [ -78.958276368280252, 36.135837765827119 ] ] } },
{ "type": "Feature", "properties": { "FEEDER_NAME": "FOX RUN", "SUBSTATION_NAME": "Willardsville", "wmType": "SECONDARY UNDERGROUND", "WKT": "LINESTRING (-78.9603783726463 36.136151766681806, -78.96045623857233 36.1357890540366, -78.96035337309692 36.13549176559621)" }, "geometry": { "type": "LineString", "coordinates": [ [ -78.960378372646304, 36.136151766681806 ], [ -78.960456238572334, 36.1357890540366 ], [ -78.960353373096922, 36.135491765596207 ] ] } },
{ "type": "Feature", "properties": { "FEEDER_NAME": "FOX RUN", "SUBSTATION_NAME": "Willardsville", "wmType": "SECONDARY UNDERGROUND", "WKT": "LINESTRING (-78.95781636617177 36.14370578129312, -78.95772947468774 36.14347864168505, -78.9579293665769 36.14330278108258)" }, "geometry": { "type": "LineString", "coordinates": [ [ -78.95781636617177, 36.143705781293122 ], [ -78.957729474687739, 36.14347864168505 ], [ -78.957929366576906, 36.143302781082582 ] ] } }
]
}
