{
"type": "FeatureCollection",
"crs": { "type": "name", "properties": { "name": "urn:ogc:def:crs:OGC:1.3:CRS84" } },
"features": [
{ "type": "Feature", "properties": { "wmUplineSo": "BABBITT", "wmType": "Underground" }, "geometry": { "type": "LineString", "coordinates": [ [ -91.944869999999696, 47.788265000009702 ], [ -91.944855274530596, 47.788266345459597 ], [ -91.944855274530596, 47.788266345459597 ] ] } },
{ "type": "Feature", "properties": { "wmUplineSo": "BABBITT", "wmType": "Underground" }, "geometry": { "type": "LineString", "coordinates": [ [ -91.941921999999707, 47.774381000009697 ], [ -91.941898, 47.774419000000101 ] ] } },
{ "type": "Feature", "properties": { "wmUplineSo": "BABBITT", "wmType": "Underground" }, "geometry": { "type": "LineString", "coordinates": [ [ -91.954570999999703, 47.784522000009702 ], [ -91.954569833484001, 47.7845091729099 ] ] } },
{ "type": "Feature", "properties": { "wmUplineSo": "BABBITT", "wmType": "Underground" }, "geometry": { "type": "LineString", "coordinates": [ [ -91.9545529999303, 47.784324003778003 ], [ -91.954441999930296, 47.784088003777903 ] ] } },
{ "type": "Feature", "properties": { "wmUplineSo": "BABBITT", "wmType": "Underground" }, "geometry": { "type": "LineString", "coordinates": [ [ -91.954441999930296, 47.784088003777903 ], [ -91.954544012991406, 47.783913054662598 ] ] } },
{ "type": "Feature", "properties": { "wmUplineSo": "BABBITT", "wmType": "Underground" }, "geometry": { "type": "LineString", "coordinates": [ [ -91.954544012991406, 47.783913054662598 ], [ -91.954647824638997, 47.783855437086402 ] ] } },
{ "type": "Feature", "properties": { "wmUplineSo": "BABBITT", "wmType": "Underground" }, "geometry": { "type": "LineString", "coordinates": [ [ -91.954569833484001, 47.7845091729099 ], [ -91.9545529999303, 47.784324003778003 ] ] } },
{ "type": "Feature", "properties": { "wmUplineSo": "BABBITT", "wmType": "Underground" }, "geometry": { "type": "LineString", "coordinates": [ [ -91.954544012991406, 47.783913054662598 ], [ -91.954849011028003, 47.783827749402299 ] ] } },
{ "type": "Feature", "properties": { "wmUplineSo": "BABBITT", "wmType": "Underground" }, "geometry": { "type": "LineString", "coordinates": [ [ -91.975939999999696, 47.7361140000096 ], [ -91.976073999932197, 47.736156003764698 ] ] } },
{ "type": "Feature", "properties": { "wmUplineSo": "BABBITT", "wmType": "Underground" }, "geometry": { "type": "LineString", "coordinates": [ [ -91.976073999932197, 47.736156003764698 ], [ -91.976531999932206, 47.735986003764403 ] ] } },
{ "type": "Feature", "properties": { "wmUplineSo": "BABBITT", "wmType": "Underground" }, "geometry": { "type": "LineString", "coordinates": [ [ -91.976531999932206, 47.735986003764403 ], [ -91.977228999932294, 47.735870003764397 ] ] } },
{ "type": "Feature", "properties": { "wmUplineSo": "BABBITT", "wmType": "Underground" }, "geometry": { "type": "LineString", "coordinates": [ [ -91.977228999932294, 47.735870003764397 ], [ -91.977257299999707, 47.735897300009597 ] ] } },
{ "type": "Feature", "properties": { "wmUplineSo": "BABBITT", "wmType": "Underground" }, "geometry": { "type": "LineString", "coordinates": [ [ -92.0129595129428, 47.750834668369002 ], [ -92.013008398359204, 47.750836587711703 ], [ -92.013267750989598, 47.750791915357503 ], [ -92.013588296595003, 47.750691352684299 ], [ -92.013826072227104, 47.750547041452897 ], [ -92.014039572112296, 47.750367538116599 ], [ -92.014194325837394, 47.750097611723298 ], [ -92.014192718017895, 47.750079810870403 ] ] } },
{ "type": "Feature", "properties": { "wmUplineSo": "BABBITT", "wmType": "Underground" }, "geometry": { "type": "LineString", "coordinates": [ [ -92.014192718017895, 47.750079810870403 ], [ -92.014282109765503, 47.749777827051702 ] ] } },
{ "type": "Feature", "properties": { "wmUplineSo": "BABBITT", "wmType": "Underground" }, "geometry": { "type": "LineString", "coordinates": [ [ -92.014282109765503, 47.749777827051702 ], [ -92.014271866379403, 47.749314695312997 ] ] } },
{ "type": "Feature", "properties": { "wmUplineSo": "BABBITT", "wmType": "Underground" }, "geometry": { "type": "LineString", "coordinates": [ [ -92.014271866379403, 47.749314695312997 ], [ -92.014593559354196, 47.749307000783602 ] ] } },
{ "type": "Feature", "properties": { "wmUplineSo": "BABBITT", "wmType": "Underground" }, "geometry": { "type": "LineString", "coordinates": [ [ -92.014593559354196, 47.749307000783602 ], [ -92.014822204215093, 47.749205205611297 ] ] } },
{ "type": "Feature", "properties": { "wmUplineSo": "BABBITT", "wmType": "Underground" }, "geometry": { "type": "LineString", "coordinates": [ [ -92.014822204215093, 47.749205205611297 ], [ -92.015136767613399, 47.749362238951299 ] ] } },
{ "type": "Feature", "properties": { "wmUplineSo": "BABBITT", "wmType": "Underground" }, "geometry": { "type": "LineString", "coordinates": [ [ -92.039105076031205, 47.746127162961798 ], [ -92.03815, 47.745662000000102 ] ] } },
{ "type": "Feature", "properties": { "wmUplineSo": "BABBITT", "wmType": "Underground" }, "geometry": { "type": "LineString", "coordinates": [ [ -92.03815, 47.745662000000102 ], [ -92.038089439044001, 47.745597585932401 ] ] } },
{ "type": "Feature", "properties": { "wmUplineSo": "BABBITT", "wmType": "Underground" }, "geometry": { "type": "LineString", "coordinates": [ [ -92.038089439044001, 47.745597585932401 ], [ -92.038031, 47.745628000000103 ] ] } },
{ "type": "Feature", "properties": { "wmUplineSo": "BABBITT", "wmType": "Underground" }, "geometry": { "type": "LineString", "coordinates": [ [ -92.005996999999695, 47.763981000009601 ], [ -92.005583158126896, 47.763882602308399 ] ] } },
{ "type": "Feature", "properties": { "wmUplineSo": "BABBITT", "wmType": "Underground" }, "geometry": { "type": "LineString", "coordinates": [ [ -91.983573, 47.741029 ], [ -91.983557735495395, 47.741063009618102 ] ] } },
{ "type": "Feature", "properties": { "wmUplineSo": "BABBITT", "wmType": "Underground" }, "geometry": { "type": "LineString", "coordinates": [ [ -91.963929429233005, 47.765542349140297 ], [ -91.964488499999703, 47.765677600009603 ] ] } },
{ "type": "Feature", "properties": { "wmUplineSo": "BABBITT", "wmType": "Underground" }, "geometry": { "type": "LineString", "coordinates": [ [ -91.964123974871299, 47.764182728182 ], [ -91.965286099999702, 47.764109600009597 ] ] } },
{ "type": "Feature", "properties": { "wmUplineSo": "BABBITT", "wmType": "Underground" }, "geometry": { "type": "LineString", "coordinates": [ [ -91.9656497453133, 47.764061720889302 ], [ -91.965995874316505, 47.764139861519197 ] ] } },
{ "type": "Feature", "properties": { "wmUplineSo": "BABBITT", "wmType": "Underground" }, "geometry": { "type": "LineString", "coordinates": [ [ -91.963929429233005, 47.765542349140297 ], [ -91.964501499999699, 47.765596000009602 ] ] } },
{ "type": "Feature", "properties": { "wmUplineSo": "BABBITT", "wmType": "Underground" }, "geometry": { "type": "LineString", "coordinates": [ [ -91.963641821228094, 47.764950770961399 ], [ -91.963729499999701, 47.765071600009598 ] ] } },
{ "type": "Feature", "properties": { "wmUplineSo": "BABBITT", "wmType": "Underground" }, "geometry": { "type": "LineString", "coordinates": [ [ -91.965227745898801, 47.766195688757499 ], [ -91.965176299999698, 47.766370000009601 ] ] } },
{ "type": "Feature", "properties": { "wmUplineSo": "BABBITT", "wmType": "Underground" }, "geometry": { "type": "LineString", "coordinates": [ [ -91.964089027419206, 47.7667176472034 ], [ -91.964039899999705, 47.766679900009599 ] ] } },
{ "type": "Feature", "properties": { "wmUplineSo": "BABBITT", "wmType": "Underground" }, "geometry": { "type": "LineString", "coordinates": [ [ -91.964794476850798, 47.766448559656801 ], [ -91.964098799999704, 47.766507800009599 ] ] } },
{ "type": "Feature", "properties": { "wmUplineSo": "BABBITT", "wmType": "Underground" }, "geometry": { "type": "LineString", "coordinates": [ [ -91.963660227668001, 47.766082209834401 ], [ -91.963433917717495, 47.766192813813099 ] ] } },
{ "type": "Feature", "properties": { "wmUplineSo": "BABBITT", "wmType": "Underground" }, "geometry": { "type": "LineString", "coordinates": [ [ -91.965492371561197, 47.792611627468503 ], [ -91.9653430999997, 47.793331100009702 ] ] } },
{ "type": "Feature", "properties": { "wmUplineSo": "BABBITT", "wmType": "Underground" }, "geometry": { "type": "LineString", "coordinates": [ [ -91.962425782717901, 47.7926092622521 ], [ -91.962715899999694, 47.792805100009701 ] ] } },
{ "type": "Feature", "properties": { "wmUplineSo": "BABBITT", "wmType": "Underground" }, "geometry": { "type": "LineString", "coordinates": [ [ -91.963641821228094, 47.764950770961399 ], [ -91.964154840122703, 47.7649408004254 ] ] } },
{ "type": "Feature", "properties": { "wmUplineSo": "BABBITT", "wmType": "Underground" }, "geometry": { "type": "LineString", "coordinates": [ [ -91.945205999929698, 47.787627003779001 ], [ -91.945184999929694, 47.787637003779103 ] ] } },
{ "type": "Feature", "properties": { "wmUplineSo": "BABBITT", "wmType": "Underground" }, "geometry": { "type": "LineString", "coordinates": [ [ -92.035475277871697, 47.721416887197698 ], [ -92.035649467864303, 47.721337803380301 ] ] } },
{ "type": "Feature", "properties": { "wmUplineSo": "BABBITT", "wmType": "Underground" }, "geometry": { "type": "LineString", "coordinates": [ [ -91.936743432241897, 47.774100900550302 ], [ -91.9364693287162, 47.774182726050697 ] ] } },
{ "type": "Feature", "properties": { "wmUplineSo": "BABBITT", "wmType": "Underground" }, "geometry": { "type": "LineString", "coordinates": [ [ -91.936743432241897, 47.774100900550302 ], [ -91.936999197958002, 47.773942465691498 ] ] } },
{ "type": "Feature", "properties": { "wmUplineSo": "BABBITT", "wmType": "Underground" }, "geometry": { "type": "LineString", "coordinates": [ [ -91.939436627175198, 47.7762646301506 ], [ -91.939216158335697, 47.776285918410998 ] ] } },
{ "type": "Feature", "properties": { "wmUplineSo": "BABBITT", "wmType": "Underground" }, "geometry": { "type": "LineString", "coordinates": [ [ -91.939795546333499, 47.776255477366597 ], [ -91.940250499999706, 47.775227800009603 ] ] } },
{ "type": "Feature", "properties": { "wmUplineSo": "BABBITT", "wmType": "Underground" }, "geometry": { "type": "LineString", "coordinates": [ [ -92.019942999999799, 47.736889000009597 ], [ -92.020418113895204, 47.736586958291099 ] ] } },
{ "type": "Feature", "properties": { "wmUplineSo": "BABBITT", "wmType": "Underground" }, "geometry": { "type": "LineString", "coordinates": [ [ -91.935227993741407, 47.773953148736403 ], [ -91.935691499999706, 47.7740693000097 ] ] } },
{ "type": "Feature", "properties": { "wmUplineSo": "BABBITT", "wmType": "Underground" }, "geometry": { "type": "LineString", "coordinates": [ [ -91.964910999999702, 47.781221000009701 ], [ -91.9650429999311, 47.780238003777001 ] ] } },
{ "type": "Feature", "properties": { "wmUplineSo": "BABBITT", "wmType": "Underground" }, "geometry": { "type": "LineString", "coordinates": [ [ -91.948703790187693, 47.7783190857227 ], [ -91.948732599999701, 47.7784063000096 ] ] } },
{ "type": "Feature", "properties": { "wmUplineSo": "BABBITT", "wmType": "Underground" }, "geometry": { "type": "LineString", "coordinates": [ [ -91.948703790187693, 47.7783190857227 ], [ -91.948694099999699, 47.778402800009701 ] ] } },
{ "type": "Feature", "properties": { "wmUplineSo": "BABBITT", "wmType": "Underground" }, "geometry": { "type": "LineString", "coordinates": [ [ -91.946155292007205, 47.777763071841598 ], [ -91.946056299999697, 47.7779363000096 ] ] } },
{ "type": "Feature", "properties": { "wmUplineSo": "BABBITT", "wmType": "Underground" }, "geometry": { "type": "LineString", "coordinates": [ [ -91.9650429999311, 47.780238003777001 ], [ -91.965041599999694, 47.780223300009702 ] ] } },
{ "type": "Feature", "properties": { "wmUplineSo": "BABBITT", "wmType": "Underground" }, "geometry": { "type": "LineString", "coordinates": [ [ -91.9650429999311, 47.780238003777001 ], [ -91.964959999999706, 47.780235800009699 ] ] } },
{ "type": "Feature", "properties": { "wmUplineSo": "BABBITT", "wmType": "Underground" }, "geometry": { "type": "LineString", "coordinates": [ [ -91.953287999999702, 47.784525000009701 ], [ -91.9536209999997, 47.7840920000097 ] ] } },
{ "type": "Feature", "properties": { "wmUplineSo": "BABBITT", "wmType": "Underground" }, "geometry": { "type": "LineString", "coordinates": [ [ -91.953287999999702, 47.784525000009701 ], [ -91.953460999999706, 47.7843930000097 ] ] } },
{ "type": "Feature", "properties": { "wmUplineSo": "BABBITT", "wmType": "Underground" }, "geometry": { "type": "LineString", "coordinates": [ [ -91.949256078839397, 47.785050352952098 ], [ -91.9492249999997, 47.785066400009697 ] ] } },
{ "type": "Feature", "properties": { "wmUplineSo": "BABBITT", "wmType": "Underground" }, "geometry": { "type": "LineString", "coordinates": [ [ -91.949861249032693, 47.787160006058201 ], [ -91.949900980266307, 47.787203690079501 ] ] } },
{ "type": "Feature", "properties": { "wmUplineSo": "BABBITT", "wmType": "Underground" }, "geometry": { "type": "LineString", "coordinates": [ [ -91.959734609457399, 47.792754591123199 ], [ -91.959829099999695, 47.793236500009698 ] ] } },
{ "type": "Feature", "properties": { "wmUplineSo": "BABBITT", "wmType": "Underground" }, "geometry": { "type": "LineString", "coordinates": [ [ -91.956505266975796, 47.792797463589601 ], [ -91.956818199999702, 47.792790300009699 ] ] } },
{ "type": "Feature", "properties": { "wmUplineSo": "BABBITT", "wmType": "Underground" }, "geometry": { "type": "LineString", "coordinates": [ [ -91.949225095796905, 47.7864098434071 ], [ -91.948518365530802, 47.786753261478097 ] ] } },
{ "type": "Feature", "properties": { "wmUplineSo": "BABBITT", "wmType": "Underground" }, "geometry": { "type": "LineString", "coordinates": [ [ -91.956505266975796, 47.792797463589601 ], [ -91.956835799999695, 47.792880900009699 ] ] } },
{ "type": "Feature", "properties": { "wmUplineSo": "BABBITT", "wmType": "Underground" }, "geometry": { "type": "LineString", "coordinates": [ [ -91.994999749847295, 47.756460383145303 ], [ -91.9948595999997, 47.756452800009598 ] ] } },
{ "type": "Feature", "properties": { "wmUplineSo": "BABBITT", "wmType": "Underground" }, "geometry": { "type": "LineString", "coordinates": [ [ -92.044425325620793, 47.734614494077498 ], [ -92.044870799999799, 47.734100000009597 ] ] } },
{ "type": "Feature", "properties": { "wmUplineSo": "BABBITT", "wmType": "Underground" }, "geometry": { "type": "LineString", "coordinates": [ [ -92.044425325620793, 47.734614494077498 ], [ -92.044851299999806, 47.734111700009599 ] ] } },
{ "type": "Feature", "properties": { "wmUplineSo": "BABBITT", "wmType": "Underground" }, "geometry": { "type": "LineString", "coordinates": [ [ -92.038946744209099, 47.734137546062499 ], [ -92.038582499999805, 47.733820900009597 ] ] } },
{ "type": "Feature", "properties": { "wmUplineSo": "BABBITT", "wmType": "Underground" }, "geometry": { "type": "LineString", "coordinates": [ [ -91.972933234167002, 47.7338799989598 ], [ -91.972734299999701, 47.733848900009598 ] ] } },
{ "type": "Feature", "properties": { "wmUplineSo": "BABBITT", "wmType": "Underground" }, "geometry": { "type": "LineString", "coordinates": [ [ -91.977866427330895, 47.733133256487498 ], [ -91.977385899999703, 47.7331408000096 ] ] } },
{ "type": "Feature", "properties": { "wmUplineSo": "BABBITT", "wmType": "Underground" }, "geometry": { "type": "LineString", "coordinates": [ [ -91.948308426880502, 47.7865444683991 ], [ -91.948116599999693, 47.786399300009698 ] ] } },
{ "type": "Feature", "properties": { "wmUplineSo": "BABBITT", "wmType": "Underground" }, "geometry": { "type": "LineString", "coordinates": [ [ -92.012941164781395, 47.750786687366997 ], [ -92.012919699999699, 47.750757400009597 ] ] } },
{ "type": "Feature", "properties": { "wmUplineSo": "BABBITT", "wmType": "Underground" }, "geometry": { "type": "LineString", "coordinates": [ [ -91.9954243814949, 47.759970907931098 ], [ -91.9954323999997, 47.760005600009599 ] ] } },
{ "type": "Feature", "properties": { "wmUplineSo": "BABBITT", "wmType": "Underground" }, "geometry": { "type": "LineString", "coordinates": [ [ -92.039242200825896, 47.7398216151092 ], [ -92.039286173675507, 47.739759806524098 ] ] } },
{ "type": "Feature", "properties": { "wmUplineSo": "BABBITT", "wmType": "Underground" }, "geometry": { "type": "LineString", "coordinates": [ [ -92.054414110749804, 47.744295091993003 ], [ -92.0542173999998, 47.744591400009597 ] ] } },
{ "type": "Feature", "properties": { "wmUplineSo": "BABBITT", "wmType": "Underground" }, "geometry": { "type": "LineString", "coordinates": [ [ -92.012172511963698, 47.751112888163398 ], [ -92.012193599999705, 47.751146500009597 ] ] } },
{ "type": "Feature", "properties": { "wmUplineSo": "BABBITT", "wmType": "Underground" }, "geometry": { "type": "LineString", "coordinates": [ [ -91.988432999932996, 47.742750003766403 ], [ -91.988389942326506, 47.7427811469516 ] ] } },
{ "type": "Feature", "properties": { "wmUplineSo": "BABBITT", "wmType": "Underground" }, "geometry": { "type": "LineString", "coordinates": [ [ -91.981108999999705, 47.741527000009597 ], [ -91.981315999932505, 47.741698003765997 ] ] } },
{ "type": "Feature", "properties": { "wmUplineSo": "BABBITT", "wmType": "Underground" }, "geometry": { "type": "LineString", "coordinates": [ [ -91.981315999932505, 47.741698003765997 ], [ -91.982033999932497, 47.741983003766201 ] ] } },
{ "type": "Feature", "properties": { "wmUplineSo": "BABBITT", "wmType": "Underground" }, "geometry": { "type": "LineString", "coordinates": [ [ -91.982033999932497, 47.741983003766201 ], [ -91.984172999932696, 47.742054003766199 ] ] } },
{ "type": "Feature", "properties": { "wmUplineSo": "BABBITT", "wmType": "Underground" }, "geometry": { "type": "LineString", "coordinates": [ [ -91.984172999932696, 47.742054003766199 ], [ -91.985567999932798, 47.742100003766197 ] ] } },
{ "type": "Feature", "properties": { "wmUplineSo": "BABBITT", "wmType": "Underground" }, "geometry": { "type": "LineString", "coordinates": [ [ -91.985567999932798, 47.742100003766197 ], [ -91.986736999932901, 47.742144003766199 ] ] } },
{ "type": "Feature", "properties": { "wmUplineSo": "BABBITT", "wmType": "Underground" }, "geometry": { "type": "LineString", "coordinates": [ [ -91.986736999932901, 47.742144003766199 ], [ -91.987041999932899, 47.742136003766099 ] ] } },
{ "type": "Feature", "properties": { "wmUplineSo": "BABBITT", "wmType": "Underground" }, "geometry": { "type": "LineString", "coordinates": [ [ -91.987041999932899, 47.742136003766099 ], [ -91.987471999932893, 47.742367003766297 ] ] } },
{ "type": "Feature", "properties": { "wmUplineSo": "BABBITT", "wmType": "Underground" }, "geometry": { "type": "LineString", "coordinates": [ [ -91.987471999932893, 47.742367003766297 ], [ -91.987917999932904, 47.7424730037663 ] ] } },
{ "type": "Feature", "properties": { "wmUplineSo": "BABBITT", "wmType": "Underground" }, "geometry": { "type": "LineString", "coordinates": [ [ -91.987917999932904, 47.7424730037663 ], [ -91.988349999932893, 47.742691003766403 ] ] } },
{ "type": "Feature", "properties": { "wmUplineSo": "BABBITT", "wmType": "Underground" }, "geometry": { "type": "LineString", "coordinates": [ [ -91.988349999932893, 47.742691003766403 ], [ -91.988432999932996, 47.742750003766403 ] ] } },
{ "type": "Feature", "properties": { "wmUplineSo": "BABBITT", "wmType": "Underground" }, "geometry": { "type": "LineString", "coordinates": [ [ -92.048117237934505, 47.741498675777898 ], [ -92.048001, 47.742580000000103 ] ] } },
{ "type": "Feature", "properties": { "wmUplineSo": "BABBITT", "wmType": "Underground" }, "geometry": { "type": "LineString", "coordinates": [ [ -91.9684698896789, 47.725939273687302 ], [ -91.968470009062699, 47.725935519677698 ] ] } },
{ "type": "Feature", "properties": { "wmUplineSo": "BABBITT", "wmType": "Underground" }, "geometry": { "type": "LineString", "coordinates": [ [ -92.015136767613399, 47.749362238951299 ], [ -92.015343689492695, 47.749401448417302 ] ] } },
{ "type": "Feature", "properties": { "wmUplineSo": "BABBITT", "wmType": "Underground" }, "geometry": { "type": "LineString", "coordinates": [ [ -91.945482999929695, 47.787663003778903 ], [ -91.945205999929698, 47.787627003779001 ] ] } },
{ "type": "Feature", "properties": { "wmUplineSo": "BABBITT", "wmType": "Underground" }, "geometry": { "type": "LineString", "coordinates": [ [ -92.020418113895204, 47.736586958291099 ], [ -92.020476233240601, 47.736563190160702 ] ] } },
{ "type": "Feature", "properties": { "wmUplineSo": "BABBITT", "wmType": "Underground" }, "geometry": { "type": "LineString", "coordinates": [ [ -91.988432999932996, 47.742750003766403 ], [ -91.988389942326506, 47.7427811469516 ] ] } },
{ "type": "Feature", "properties": { "wmUplineSo": "BABBITT", "wmType": "Underground" }, "geometry": { "type": "LineString", "coordinates": [ [ -91.983267999999697, 47.7405690000096 ], [ -91.983503, 47.740598 ] ] } },
{ "type": "Feature", "properties": { "wmUplineSo": "BABBITT", "wmType": "Underground" }, "geometry": { "type": "LineString", "coordinates": [ [ -91.983503, 47.740598 ], [ -91.983441, 47.74093 ] ] } },
{ "type": "Feature", "properties": { "wmUplineSo": "BABBITT", "wmType": "Underground" }, "geometry": { "type": "LineString", "coordinates": [ [ -91.983441, 47.74093 ], [ -91.983573, 47.741029 ] ] } },
{ "type": "Feature", "properties": { "wmUplineSo": "BABBITT", "wmType": "Underground" }, "geometry": { "type": "LineString", "coordinates": [ [ -92.015343689492695, 47.749401448417302 ], [ -92.015353799999701, 47.749393600009597 ] ] } },
{ "type": "Feature", "properties": { "wmUplineSo": "BABBITT", "wmType": "Underground" }, "geometry": { "type": "LineString", "coordinates": [ [ -91.983573, 47.741029 ], [ -91.983621999999698, 47.741064000009601 ] ] } },
{ "type": "Feature", "properties": { "wmUplineSo": "BABBITT", "wmType": "Underground" }, "geometry": { "type": "LineString", "coordinates": [ [ -91.9456159999297, 47.788033003779098 ], [ -91.944869999999696, 47.788265000009702 ] ] } },
{ "type": "Feature", "properties": { "wmUplineSo": "BABBITT", "wmType": "Underground" }, "geometry": { "type": "LineString", "coordinates": [ [ -91.962425782717901, 47.7926092622521 ], [ -91.964255286433399, 47.7916528744842 ], [ -91.965675855166594, 47.791645110888403 ], [ -91.965801398391093, 47.792390089830199 ], [ -91.965492371561197, 47.792611627468503 ] ] } },
{ "type": "Feature", "properties": { "wmUplineSo": "BABBITT", "wmType": "Underground" }, "geometry": { "type": "LineString", "coordinates": [ [ -91.963523999999694, 47.764908000009598 ], [ -91.963641821228094, 47.764950770961399 ] ] } },
{ "type": "Feature", "properties": { "wmUplineSo": "BABBITT", "wmType": "Underground" }, "geometry": { "type": "LineString", "coordinates": [ [ -91.962638999999697, 47.7645610000096 ], [ -91.964123974871299, 47.764182728182 ] ] } },
{ "type": "Feature", "properties": { "wmUplineSo": "BABBITT", "wmType": "Underground" }, "geometry": { "type": "LineString", "coordinates": [ [ -91.964123974871299, 47.764182728182 ], [ -91.9656497453133, 47.764061720889302 ] ] } },
{ "type": "Feature", "properties": { "wmUplineSo": "BABBITT", "wmType": "Underground" }, "geometry": { "type": "LineString", "coordinates": [ [ -91.963929429233005, 47.765542349140297 ], [ -91.965157960751597, 47.766090148185 ] ] } },
{ "type": "Feature", "properties": { "wmUplineSo": "BABBITT", "wmType": "Underground" }, "geometry": { "type": "LineString", "coordinates": [ [ -91.965157960751597, 47.766090148185 ], [ -91.965227745898801, 47.766195688757499 ] ] } },
{ "type": "Feature", "properties": { "wmUplineSo": "BABBITT", "wmType": "Underground" }, "geometry": { "type": "LineString", "coordinates": [ [ -91.962425782717901, 47.7926092622521 ], [ -91.961577311315907, 47.792036784001198 ], [ -91.959734609457399, 47.792754591123199 ] ] } },
{ "type": "Feature", "properties": { "wmUplineSo": "BABBITT", "wmType": "Underground" }, "geometry": { "type": "LineString", "coordinates": [ [ -91.959734609457399, 47.792754591123199 ], [ -91.959120346311295, 47.792168305887103 ], [ -91.956505266975796, 47.792797463589601 ] ] } },
{ "type": "Feature", "properties": { "wmUplineSo": "BABBITT", "wmType": "Underground" }, "geometry": { "type": "LineString", "coordinates": [ [ -91.963523999999694, 47.764908000009598 ], [ -91.963929429233005, 47.765542349140297 ] ] } },
{ "type": "Feature", "properties": { "wmUplineSo": "BABBITT", "wmType": "Underground" }, "geometry": { "type": "LineString", "coordinates": [ [ -91.965157960751597, 47.766090148185 ], [ -91.964794476850798, 47.766448559656801 ] ] } },
{ "type": "Feature", "properties": { "wmUplineSo": "BABBITT", "wmType": "Underground" }, "geometry": { "type": "LineString", "coordinates": [ [ -91.964148478503105, 47.766485922728201 ], [ -91.963660227668001, 47.766082209834401 ] ] } },
{ "type": "Feature", "properties": { "wmUplineSo": "BABBITT", "wmType": "Underground" }, "geometry": { "type": "LineString", "coordinates": [ [ -91.939771999999707, 47.771708000009703 ], [ -91.939039580980904, 47.771249069035598 ], [ -91.935227993741407, 47.773953148736403 ] ] } },
{ "type": "Feature", "properties": { "wmUplineSo": "BABBITT", "wmType": "Underground" }, "geometry": { "type": "LineString", "coordinates": [ [ -91.935227993741407, 47.773953148736403 ], [ -91.936743432241897, 47.774100900550302 ] ] } },
{ "type": "Feature", "properties": { "wmUplineSo": "BABBITT", "wmType": "Underground" }, "geometry": { "type": "LineString", "coordinates": [ [ -91.936743432241897, 47.774100900550302 ], [ -91.939436627175198, 47.7762646301506 ] ] } },
{ "type": "Feature", "properties": { "wmUplineSo": "BABBITT", "wmType": "Underground" }, "geometry": { "type": "LineString", "coordinates": [ [ -91.939436627175198, 47.7762646301506 ], [ -91.939795546333499, 47.776255477366597 ] ] } },
{ "type": "Feature", "properties": { "wmUplineSo": "BABBITT", "wmType": "Underground" }, "geometry": { "type": "LineString", "coordinates": [ [ -92.038946744209099, 47.734137546062499 ], [ -92.040078094130493, 47.734077549107298 ], [ -92.044425325620793, 47.734614494077498 ] ] } },
{ "type": "Feature", "properties": { "wmUplineSo": "BABBITT", "wmType": "Underground" }, "geometry": { "type": "LineString", "coordinates": [ [ -92.033004999999704, 47.730606000009601 ], [ -92.033833336012407, 47.731507045376802 ], [ -92.0353384124993, 47.732792365135602 ], [ -92.035955769244893, 47.733319557807803 ], [ -92.036568947835505, 47.733597305750997 ], [ -92.037047123511698, 47.733695055988903 ], [ -92.037501558382502, 47.7338367186128 ], [ -92.038946744209099, 47.734137546062499 ] ] } },
{ "type": "Feature", "properties": { "wmUplineSo": "BABBITT", "wmType": "Underground" }, "geometry": { "type": "LineString", "coordinates": [ [ -91.966811999999706, 47.785782000009704 ], [ -91.964125568442299, 47.789772548768603 ], [ -91.962425782717901, 47.7926092622521 ] ] } },
{ "type": "Feature", "properties": { "wmUplineSo": "BABBITT", "wmType": "Underground" }, "geometry": { "type": "LineString", "coordinates": [ [ -91.946421864577701, 47.777216336846202 ], [ -91.946465139370503, 47.777892652317703 ] ] } },
{ "type": "Feature", "properties": { "wmUplineSo": "BABBITT", "wmType": "Underground" }, "geometry": { "type": "LineString", "coordinates": [ [ -91.946465139370503, 47.777892652317703 ], [ -91.946547265156994, 47.7780976318233 ], [ -91.946899005329399, 47.778161526073099 ], [ -91.947471711206703, 47.778114461955802 ], [ -91.948225333911694, 47.777973396756401 ], [ -91.948645132752603, 47.778107911124302 ], [ -91.948703790187693, 47.7783190857227 ] ] } },
{ "type": "Feature", "properties": { "wmUplineSo": "BABBITT", "wmType": "Underground" }, "geometry": { "type": "LineString", "coordinates": [ [ -91.950058492436099, 47.785809178802801 ], [ -91.949256078839397, 47.785050352952098 ] ] } },
{ "type": "Feature", "properties": { "wmUplineSo": "BABBITT", "wmType": "Underground" }, "geometry": { "type": "LineString", "coordinates": [ [ -91.949225095796905, 47.7864098434071 ], [ -91.949799623902194, 47.787114778420502 ], [ -91.949861249032693, 47.787160006058201 ] ] } },
{ "type": "Feature", "properties": { "wmUplineSo": "BABBITT", "wmType": "Underground" }, "geometry": { "type": "LineString", "coordinates": [ [ -91.951029999999705, 47.784451000009597 ], [ -91.950058492436099, 47.785809178802801 ] ] } },
{ "type": "Feature", "properties": { "wmUplineSo": "BABBITT", "wmType": "Underground" }, "geometry": { "type": "LineString", "coordinates": [ [ -91.950058492436099, 47.785809178802801 ], [ -91.949225095796905, 47.7864098434071 ] ] } },
{ "type": "Feature", "properties": { "wmUplineSo": "BABBITT", "wmType": "Underground" }, "geometry": { "type": "LineString", "coordinates": [ [ -91.948518365530802, 47.786753261478097 ], [ -91.9456159999297, 47.788033003779098 ], [ -91.9456159999297, 47.788033003779098 ] ] } },
{ "type": "Feature", "properties": { "wmUplineSo": "BABBITT", "wmType": "Underground" }, "geometry": { "type": "LineString", "coordinates": [ [ -91.994292999999701, 47.7558590000096 ], [ -91.994902997249298, 47.756229174069702 ], [ -91.994999749847295, 47.756460383145303 ] ] } },
{ "type": "Feature", "properties": { "wmUplineSo": "BABBITT", "wmType": "Underground" }, "geometry": { "type": "LineString", "coordinates": [ [ -92.0201110617719, 47.743853204594203 ], [ -92.018486688051496, 47.744040255802801 ], [ -92.017927525211107, 47.7446155523795 ] ] } },
{ "type": "Feature", "properties": { "wmUplineSo": "BABBITT", "wmType": "Underground" }, "geometry": { "type": "LineString", "coordinates": [ [ -92.033906378366893, 47.721522157956201 ], [ -92.035475277871697, 47.721416887197698 ] ] } },
{ "type": "Feature", "properties": { "wmUplineSo": "BABBITT", "wmType": "Underground" }, "geometry": { "type": "LineString", "coordinates": [ [ -91.946465139370503, 47.777892652317703 ], [ -91.946530648889706, 47.779274042788401 ], [ -91.948415256362594, 47.779640487872499 ], [ -91.951555748003003, 47.779985515065903 ], [ -91.953413823457595, 47.780801377370601 ], [ -91.953016057783898, 47.7827059523242 ], [ -91.951920547101807, 47.783792120584103 ], [ -91.951286935387202, 47.784017433618203 ] ] } },
{ "type": "Feature", "properties": { "wmUplineSo": "BABBITT", "wmType": "Underground" }, "geometry": { "type": "LineString", "coordinates": [ [ -91.951286935387202, 47.784017433618203 ], [ -91.951107999999707, 47.784113000009597 ] ] } },
{ "type": "Feature", "properties": { "wmUplineSo": "BABBITT", "wmType": "Underground" }, "geometry": { "type": "LineString", "coordinates": [ [ -91.946465139370503, 47.777892652317703 ], [ -91.946257904659205, 47.777884030801403 ], [ -91.946155292007205, 47.777763071841598 ] ] } },
{ "type": "Feature", "properties": { "wmUplineSo": "BABBITT", "wmType": "Underground" }, "geometry": { "type": "LineString", "coordinates": [ [ -91.971996999999703, 47.734236000009602 ], [ -91.972754245923696, 47.733760614570699 ], [ -91.972933234167002, 47.7338799989598 ] ] } },
{ "type": "Feature", "properties": { "wmUplineSo": "BABBITT", "wmType": "Underground" }, "geometry": { "type": "LineString", "coordinates": [ [ -91.964148478503105, 47.766485922728201 ], [ -91.964089027419206, 47.7667176472034 ] ] } },
{ "type": "Feature", "properties": { "wmUplineSo": "BABBITT", "wmType": "Underground" }, "geometry": { "type": "LineString", "coordinates": [ [ -91.964794476850798, 47.766448559656801 ], [ -91.964148478503105, 47.766485922728201 ] ] } },
{ "type": "Feature", "properties": { "wmUplineSo": "BABBITT", "wmType": "Underground" }, "geometry": { "type": "LineString", "coordinates": [ [ -91.977355999999702, 47.732700000009601 ], [ -91.977866427330895, 47.733133256487498 ] ] } },
{ "type": "Feature", "properties": { "wmUplineSo": "BABBITT", "wmType": "Underground" }, "geometry": { "type": "LineString", "coordinates": [ [ -91.946380999999704, 47.776802000009702 ], [ -91.946599655052097, 47.7769622879077 ] ] } },
{ "type": "Feature", "properties": { "wmUplineSo": "BABBITT", "wmType": "Underground" }, "geometry": { "type": "LineString", "coordinates": [ [ -91.946599655052097, 47.7769622879077 ], [ -91.946421864577701, 47.777216336846202 ] ] } },
{ "type": "Feature", "properties": { "wmUplineSo": "BABBITT", "wmType": "Underground" }, "geometry": { "type": "LineString", "coordinates": [ [ -92.007050630588395, 47.752883202025998 ], [ -92.007237380502403, 47.752791787007403 ] ] } },
{ "type": "Feature", "properties": { "wmUplineSo": "BABBITT", "wmType": "Underground" }, "geometry": { "type": "LineString", "coordinates": [ [ -92.0129595129428, 47.750834668369002 ], [ -92.012941164781395, 47.750786687366997 ] ] } },
{ "type": "Feature", "properties": { "wmUplineSo": "BABBITT", "wmType": "Underground" }, "geometry": { "type": "LineString", "coordinates": [ [ -92.007237380502403, 47.752791787007403 ], [ -92.007566389127106, 47.752630735067299 ], [ -92.0077425626978, 47.752228412126598 ], [ -92.008432956565599, 47.751800122922099 ], [ -92.009704269800295, 47.751442588786702 ], [ -92.012088827428599, 47.750997280362903 ] ] } },
{ "type": "Feature", "properties": { "wmUplineSo": "BABBITT", "wmType": "Underground" }, "geometry": { "type": "LineString", "coordinates": [ [ -92.0455481074695, 47.740353639973399 ], [ -92.046520976036305, 47.741344134430797 ], [ -92.047772484652896, 47.741295421683702 ], [ -92.048117237934505, 47.741498675777898 ] ] } },
{ "type": "Feature", "properties": { "wmUplineSo": "BABBITT", "wmType": "Underground" }, "geometry": { "type": "LineString", "coordinates": [ [ -92.042207712490296, 47.746492758267202 ], [ -92.0393264193563, 47.746682719542903 ], [ -92.039105076031205, 47.746127162961798 ] ] } },
{ "type": "Feature", "properties": { "wmUplineSo": "BABBITT", "wmType": "Underground" }, "geometry": { "type": "LineString", "coordinates": [ [ -92.039105076031205, 47.746127162961798 ], [ -92.038960256866503, 47.745922451238201 ] ] } },
{ "type": "Feature", "properties": { "wmUplineSo": "BABBITT", "wmType": "Underground" }, "geometry": { "type": "LineString", "coordinates": [ [ -91.995730986243004, 47.7597431448878 ], [ -91.9954243814949, 47.759970907931098 ] ] } },
{ "type": "Feature", "properties": { "wmUplineSo": "BABBITT", "wmType": "Underground" }, "geometry": { "type": "LineString", "coordinates": [ [ -91.948518365530802, 47.786753261478097 ], [ -91.948308426880502, 47.7865444683991 ] ] } },
{ "type": "Feature", "properties": { "wmUplineSo": "BABBITT", "wmType": "Underground" }, "geometry": { "type": "LineString", "coordinates": [ [ -92.012088827428599, 47.750997280362903 ], [ -92.012172511963698, 47.751112888163398 ] ] } },
{ "type": "Feature", "properties": { "wmUplineSo": "BABBITT", "wmType": "Underground" }, "geometry": { "type": "LineString", "coordinates": [ [ -92.046958222952298, 47.745594380982801 ], [ -92.045110806448406, 47.746264539948498 ], [ -92.042207712490296, 47.746492758267202 ] ] } },
{ "type": "Feature", "properties": { "wmUplineSo": "BABBITT", "wmType": "Underground" }, "geometry": { "type": "LineString", "coordinates": [ [ -92.044425325620793, 47.734614494077498 ], [ -92.045746796538893, 47.734934466498899 ], [ -92.047388887603404, 47.734767337638203 ], [ -92.047770402180205, 47.736697846481903 ], [ -92.046151330786202, 47.738336202952503 ], [ -92.0455481074695, 47.740353639973399 ] ] } },
{ "type": "Feature", "properties": { "wmUplineSo": "BABBITT", "wmType": "Underground" }, "geometry": { "type": "LineString", "coordinates": [ [ -92.0455481074695, 47.740353639973399 ], [ -92.045181056201102, 47.7405760496667 ], [ -92.044991258739998, 47.740558200360702 ], [ -92.044633998183897, 47.740494360836301 ], [ -92.044327895550794, 47.740217281019099 ], [ -92.044154031234001, 47.739814167827497 ], [ -92.043917887408895, 47.739381322291898 ], [ -92.043865638839407, 47.739109017179402 ], [ -92.043575981299398, 47.738946485808803 ], [ -92.043259267960906, 47.738926245079398 ], [ -92.042987814903995, 47.738835455159503 ], [ -92.042546543761702, 47.738755747469597 ], [ -92.041807354782506, 47.738713267646702 ], [ -92.0409377014238, 47.738754005513997 ], [ -92.040448216993397, 47.7388161822158 ], [ -92.039888768115105, 47.7390341189016 ], [ -92.039540851758105, 47.739256042148597 ], [ -92.039318671829093, 47.739508895377803 ], [ -92.039242200825896, 47.7398216151092 ] ] } },
{ "type": "Feature", "properties": { "wmUplineSo": "BABBITT", "wmType": "Underground" }, "geometry": { "type": "LineString", "coordinates": [ [ -92.050111716398007, 47.744396926821601 ], [ -92.047264847534393, 47.745483147225897 ], [ -92.046958222952298, 47.745594380982801 ] ] } },
{ "type": "Feature", "properties": { "wmUplineSo": "BABBITT", "wmType": "Underground" }, "geometry": { "type": "LineString", "coordinates": [ [ -92.050111716398007, 47.744396926821601 ], [ -92.050546663720596, 47.744698868201901 ], [ -92.050784362931907, 47.744708864164501 ], [ -92.051670010330596, 47.7437397304234 ], [ -92.0534735750213, 47.743806757474204 ], [ -92.054028049148101, 47.744099574536897 ], [ -92.054414110749804, 47.744295091993003 ] ] } },
{ "type": "Feature", "properties": { "wmUplineSo": "BABBITT", "wmType": "Underground" }, "geometry": { "type": "LineString", "coordinates": [ [ -92.012088827428599, 47.750997280362903 ], [ -92.0129595129428, 47.750834668369002 ] ] } },
{ "type": "Feature", "properties": { "wmUplineSo": "BABBITT", "wmType": "Underground" }, "geometry": { "type": "LineString", "coordinates": [ [ -92.005583158126896, 47.763882602308399 ], [ -92.005005799999694, 47.763659600009603 ] ] } },
{ "type": "Feature", "properties": { "wmUplineSo": "BABBITT", "wmType": "Underground" }, "geometry": { "type": "LineString", "coordinates": [ [ -91.968202162137601, 47.725722176519902 ], [ -91.9682034172599, 47.725724282474197 ] ] } },
{ "type": "Feature", "properties": { "wmUplineSo": "BABBITT", "wmType": "Underground" }, "geometry": { "type": "LineString", "coordinates": [ [ -91.9682034172599, 47.725724282474197 ], [ -91.968325584749095, 47.725940771205401 ] ] } },
{ "type": "Feature", "properties": { "wmUplineSo": "BABBITT", "wmType": "Underground" }, "geometry": { "type": "LineString", "coordinates": [ [ -91.968325584749095, 47.725940771205401 ], [ -91.9684698896789, 47.725939273687302 ] ] } },
{ "type": "Feature", "properties": { "wmUplineSo": "BABBITT", "wmType": "Underground" }, "geometry": { "type": "LineString", "coordinates": [ [ -92.048001, 47.742580000000103 ], [ -92.047940868061104, 47.743419197654703 ], [ -92.050111716398007, 47.744396926821601 ] ] } },
{ "type": "Feature", "properties": { "wmUplineSo": "BABBITT", "wmType": "Underground" }, "geometry": { "type": "LineString", "coordinates": [ [ -91.9456159999297, 47.788033003779098 ], [ -91.945516999929694, 47.787977003779098 ] ] } },
{ "type": "Feature", "properties": { "wmUplineSo": "BABBITT", "wmType": "Underground" }, "geometry": { "type": "LineString", "coordinates": [ [ -91.945516999929694, 47.787977003779098 ], [ -91.945482999929695, 47.787663003778903 ] ] } },
{ "type": "Feature", "properties": { "wmUplineSo": "BABBITT", "wmType": "Underground" }, "geometry": { "type": "LineString", "coordinates": [ [ -92.048001, 47.742580000000103 ], [ -92.048036, 47.742578 ] ] } },
{ "type": "Feature", "properties": { "wmUplineSo": "BABBITT", "wmType": "Underground" }, "geometry": { "type": "LineString", "coordinates": [ [ -91.941357999999695, 47.7790320000097 ], [ -91.941415972361099, 47.778991802372097 ] ] } }
]
}
