{
"type": "FeatureCollection",
"crs": { "type": "name", "properties": { "name": "urn:ogc:def:crs:OGC:1.3:CRS84" } },
"features": [
{ "type": "Feature", "properties": { "wmUplineSo": "BALL CLUB", "wmType": "Underground" }, "geometry": { "type": "LineString", "coordinates": [ [ -93.882205000000198, 47.362912000009203 ], [ -93.882152000055498, 47.3629060036601 ] ] } },
{ "type": "Feature", "properties": { "wmUplineSo": "BALL CLUB", "wmType": "Underground" }, "geometry": { "type": "LineString", "coordinates": [ [ -93.847797000000199, 47.336350000009098 ], [ -93.847722000000203, 47.336308000009097 ] ] } },
{ "type": "Feature", "properties": { "wmUplineSo": "BALL CLUB", "wmType": "Underground" }, "geometry": { "type": "LineString", "coordinates": [ [ -93.847722000000203, 47.336308000009097 ], [ -93.847797000000199, 47.336350000009098 ] ] } },
{ "type": "Feature", "properties": { "wmUplineSo": "BALL CLUB", "wmType": "Underground" }, "geometry": { "type": "LineString", "coordinates": [ [ -93.849075203135101, 47.333097101851997 ], [ -93.848920800000201, 47.332563100009097 ] ] } },
{ "type": "Feature", "properties": { "wmUplineSo": "BALL CLUB", "wmType": "Underground" }, "geometry": { "type": "LineString", "coordinates": [ [ -93.8449077828855, 47.335667174635603 ], [ -93.844947500000202, 47.335517700009099 ] ] } },
{ "type": "Feature", "properties": { "wmUplineSo": "BALL CLUB", "wmType": "Underground" }, "geometry": { "type": "LineString", "coordinates": [ [ -93.882152000055498, 47.3629060036601 ], [ -93.882065000055405, 47.362659003659999 ] ] } },
{ "type": "Feature", "properties": { "wmUplineSo": "BALL CLUB", "wmType": "Underground" }, "geometry": { "type": "LineString", "coordinates": [ [ -93.847797000000199, 47.336350000009098 ], [ -93.847797000000199, 47.336350000009098 ] ] } },
{ "type": "Feature", "properties": { "wmUplineSo": "BALL CLUB", "wmType": "Underground" }, "geometry": { "type": "LineString", "coordinates": [ [ -93.882065000055405, 47.362659003659999 ], [ -93.8819662333878, 47.362644950911303 ] ] } },
{ "type": "Feature", "properties": { "wmUplineSo": "BALL CLUB", "wmType": "Underground" }, "geometry": { "type": "LineString", "coordinates": [ [ -93.847797000000199, 47.336350000009098 ], [ -93.847824743064905, 47.336359313671998 ], [ -93.847722000000203, 47.336308000009097 ] ] } },
{ "type": "Feature", "properties": { "wmUplineSo": "BALL CLUB", "wmType": "Underground" }, "geometry": { "type": "LineString", "coordinates": [ [ -93.848464000000206, 47.333901000009099 ], [ -93.849034025443899, 47.333586331465298 ], [ -93.849075203135101, 47.333097101851997 ] ] } },
{ "type": "Feature", "properties": { "wmUplineSo": "BALL CLUB", "wmType": "Underground" }, "geometry": { "type": "LineString", "coordinates": [ [ -93.848387000000201, 47.335557000009103 ], [ -93.848234302941506, 47.335664036343999 ], [ -93.847907895552098, 47.3357956304555 ], [ -93.846331314821398, 47.335809799400501 ], [ -93.845275797595306, 47.335771697752598 ], [ -93.8449077828855, 47.335667174635603 ] ] } },
{ "type": "Feature", "properties": { "wmUplineSo": "BALL CLUB", "wmType": "Underground" }, "geometry": { "type": "LineString", "coordinates": [ [ -93.847722000000203, 47.336308000009097 ], [ -93.847797000000199, 47.336350000009098 ] ] } }
]
}
