{
"type": "FeatureCollection",
"crs": { "type": "name", "properties": { "name": "urn:ogc:def:crs:OGC:1.3:CRS84" } },
"features": [
{ "type": "Feature", "properties": { "wmUplineSo": "BALL CLUB", "wmType": "Overhead" }, "geometry": { "type": "LineString", "coordinates": [ [ -93.848387000000201, 47.335557000009103 ], [ -93.848220000000197, 47.335582000009097 ] ] } },
{ "type": "Feature", "properties": { "wmUplineSo": "BALL CLUB", "wmType": "Overhead" }, "geometry": { "type": "LineString", "coordinates": [ [ -93.848387000000201, 47.335557000009103 ], [ -93.848510000000203, 47.334799000009099 ] ] } },
{ "type": "Feature", "properties": { "wmUplineSo": "BALL CLUB", "wmType": "Overhead" }, "geometry": { "type": "LineString", "coordinates": [ [ -93.881462000000198, 47.335047000009098 ], [ -93.881433722434593, 47.333921452256703 ], [ -93.881434000000198, 47.333921000009099 ] ] } },
{ "type": "Feature", "properties": { "wmUplineSo": "BALL CLUB", "wmType": "Overhead" }, "geometry": { "type": "LineString", "coordinates": [ [ -93.881482000000204, 47.333547000009098 ], [ -93.881040000000198, 47.3335910000091 ] ] } },
{ "type": "Feature", "properties": { "wmUplineSo": "BALL CLUB", "wmType": "Overhead" }, "geometry": { "type": "LineString", "coordinates": [ [ -93.848407000000194, 47.336301000009101 ], [ -93.847797000000199, 47.336350000009098 ] ] } },
{ "type": "Feature", "properties": { "wmUplineSo": "BALL CLUB", "wmType": "Overhead" }, "geometry": { "type": "LineString", "coordinates": [ [ -93.878062000000199, 47.333821000009102 ], [ -93.876460000000193, 47.333931000009102 ] ] } },
{ "type": "Feature", "properties": { "wmUplineSo": "BALL CLUB", "wmType": "Overhead" }, "geometry": { "type": "LineString", "coordinates": [ [ -93.848407000000194, 47.336301000009101 ], [ -93.848387000000201, 47.335557000009103 ] ] } },
{ "type": "Feature", "properties": { "wmUplineSo": "BALL CLUB", "wmType": "Overhead" }, "geometry": { "type": "LineString", "coordinates": [ [ -93.860766622108699, 47.3352368620954 ], [ -93.858925000000198, 47.3354570000091 ], [ -93.857289000000193, 47.335571000009097 ], [ -93.855764000000207, 47.335627000009097 ], [ -93.854144000000204, 47.335821000009098 ], [ -93.852532000000195, 47.335939000009198 ], [ -93.850992000000204, 47.336115000009102 ], [ -93.849402000000197, 47.336196000009103 ], [ -93.848407000000194, 47.336301000009101 ] ] } },
{ "type": "Feature", "properties": { "wmUplineSo": "BALL CLUB", "wmType": "Overhead" }, "geometry": { "type": "LineString", "coordinates": [ [ -93.848220000000197, 47.335582000009097 ], [ -93.848293000000197, 47.334663000009101 ] ] } },
{ "type": "Feature", "properties": { "wmUplineSo": "BALL CLUB", "wmType": "Overhead" }, "geometry": { "type": "LineString", "coordinates": [ [ -93.8483387575736, 47.332050562557797 ], [ -93.847294000000204, 47.332481000009103 ] ] } },
{ "type": "Feature", "properties": { "wmUplineSo": "BALL CLUB", "wmType": "Overhead" }, "geometry": { "type": "LineString", "coordinates": [ [ -93.8483387575736, 47.332050562557797 ], [ -93.849284763359506, 47.331965589565897 ], [ -93.849285000000194, 47.331966000009103 ] ] } },
{ "type": "Feature", "properties": { "wmUplineSo": "BALL CLUB", "wmType": "Overhead" }, "geometry": { "type": "LineString", "coordinates": [ [ -93.882045188536495, 47.3631247744636 ], [ -93.882205000000198, 47.362912000009203 ] ] } },
{ "type": "Feature", "properties": { "wmUplineSo": "BALL CLUB", "wmType": "Overhead" }, "geometry": { "type": "LineString", "coordinates": [ [ -93.881434000000198, 47.358606000009097 ], [ -93.881263085558203, 47.3582459414543 ], [ -93.880895535785001, 47.347994912661797 ], [ -93.8810860545032, 47.347694245128899 ], [ -93.881086000000195, 47.347694000009199 ] ] } },
{ "type": "Feature", "properties": { "wmUplineSo": "BALL CLUB", "wmType": "Overhead" }, "geometry": { "type": "LineString", "coordinates": [ [ -93.882325000000193, 47.3622240000091 ], [ -93.881609000000196, 47.3615060000092 ] ] } },
{ "type": "Feature", "properties": { "wmUplineSo": "BALL CLUB", "wmType": "Overhead" }, "geometry": { "type": "LineString", "coordinates": [ [ -93.882205000000198, 47.362912000009203 ], [ -93.882325000000193, 47.3622240000091 ] ] } },
{ "type": "Feature", "properties": { "wmUplineSo": "BALL CLUB", "wmType": "Overhead" }, "geometry": { "type": "LineString", "coordinates": [ [ -93.868719000000198, 47.334592000009103 ], [ -93.868718666808107, 47.3345920908545 ], [ -93.867107000000203, 47.334719000009201 ] ] } },
{ "type": "Feature", "properties": { "wmUplineSo": "BALL CLUB", "wmType": "Overhead" }, "geometry": { "type": "LineString", "coordinates": [ [ -93.867107000000203, 47.334719000009201 ], [ -93.867106658042601, 47.334719043964 ], [ -93.865530000000206, 47.334881000009098 ] ] } },
{ "type": "Feature", "properties": { "wmUplineSo": "BALL CLUB", "wmType": "Overhead" }, "geometry": { "type": "LineString", "coordinates": [ [ -93.863934000000199, 47.334997000009103 ], [ -93.863933639005296, 47.334996952588803 ], [ -93.862317000000203, 47.335102000009101 ] ] } },
{ "type": "Feature", "properties": { "wmUplineSo": "BALL CLUB", "wmType": "Overhead" }, "geometry": { "type": "LineString", "coordinates": [ [ -93.873510000000195, 47.334212000009103 ], [ -93.873509693796393, 47.334212228360897 ], [ -93.871900000000196, 47.334347000009103 ] ] } },
{ "type": "Feature", "properties": { "wmUplineSo": "BALL CLUB", "wmType": "Overhead" }, "geometry": { "type": "LineString", "coordinates": [ [ -93.871900000000196, 47.334347000009103 ], [ -93.871899683794396, 47.334347182434897 ], [ -93.870365000000206, 47.334466000009101 ] ] } },
{ "type": "Feature", "properties": { "wmUplineSo": "BALL CLUB", "wmType": "Overhead" }, "geometry": { "type": "LineString", "coordinates": [ [ -93.876460000000193, 47.333931000009102 ], [ -93.876459712278901, 47.333931314727899 ], [ -93.8753540000002, 47.334089000009101 ] ] } },
{ "type": "Feature", "properties": { "wmUplineSo": "BALL CLUB", "wmType": "Overhead" }, "geometry": { "type": "LineString", "coordinates": [ [ -93.870365000000206, 47.334466000009101 ], [ -93.870364677073596, 47.334466137383799 ], [ -93.868719000000198, 47.334592000009103 ] ] } },
{ "type": "Feature", "properties": { "wmUplineSo": "BALL CLUB", "wmType": "Overhead" }, "geometry": { "type": "LineString", "coordinates": [ [ -93.865530000000206, 47.334881000009098 ], [ -93.865529647525904, 47.3348809978486 ], [ -93.863934000000199, 47.334997000009103 ] ] } },
{ "type": "Feature", "properties": { "wmUplineSo": "BALL CLUB", "wmType": "Overhead" }, "geometry": { "type": "LineString", "coordinates": [ [ -93.862317000000203, 47.335102000009101 ], [ -93.862316631058206, 47.335101906221702 ], [ -93.860766622108699, 47.3352368620954 ] ] } },
{ "type": "Feature", "properties": { "wmUplineSo": "BALL CLUB", "wmType": "Overhead" }, "geometry": { "type": "LineString", "coordinates": [ [ -93.8753540000002, 47.334089000009101 ], [ -93.875353703560606, 47.334089281527604 ], [ -93.873510000000195, 47.334212000009103 ] ] } },
{ "type": "Feature", "properties": { "wmUplineSo": "BALL CLUB", "wmType": "Overhead" }, "geometry": { "type": "LineString", "coordinates": [ [ -93.848510000000203, 47.334799000009099 ], [ -93.848464000000206, 47.333901000009099 ] ] } },
{ "type": "Feature", "properties": { "wmUplineSo": "BALL CLUB", "wmType": "Overhead" }, "geometry": { "type": "LineString", "coordinates": [ [ -93.848339000000195, 47.332051000009102 ], [ -93.8483387575736, 47.332050562557797 ] ] } },
{ "type": "Feature", "properties": { "wmUplineSo": "BALL CLUB", "wmType": "Overhead" }, "geometry": { "type": "LineString", "coordinates": [ [ -93.849285000000194, 47.331966000009103 ], [ -93.850575000000205, 47.331992000009102 ] ] } },
{ "type": "Feature", "properties": { "wmUplineSo": "BALL CLUB", "wmType": "Overhead" }, "geometry": { "type": "LineString", "coordinates": [ [ -93.848319000000203, 47.3331410000091 ], [ -93.848318704091895, 47.333140546353299 ], [ -93.848339000000195, 47.332051000009102 ] ] } },
{ "type": "Feature", "properties": { "wmUplineSo": "BALL CLUB", "wmType": "Overhead" }, "geometry": { "type": "LineString", "coordinates": [ [ -93.881434000000198, 47.333921000009099 ], [ -93.881482000000204, 47.333547000009098 ] ] } },
{ "type": "Feature", "properties": { "wmUplineSo": "BALL CLUB", "wmType": "Overhead" }, "geometry": { "type": "LineString", "coordinates": [ [ -93.848269000000201, 47.333857000009097 ], [ -93.848268668456598, 47.333856535285697 ], [ -93.848319000000203, 47.3331410000091 ] ] } },
{ "type": "Feature", "properties": { "wmUplineSo": "BALL CLUB", "wmType": "Overhead" }, "geometry": { "type": "LineString", "coordinates": [ [ -93.879575000000202, 47.333712000009101 ], [ -93.878062000000199, 47.333821000009102 ] ] } },
{ "type": "Feature", "properties": { "wmUplineSo": "BALL CLUB", "wmType": "Overhead" }, "geometry": { "type": "LineString", "coordinates": [ [ -93.848293000000197, 47.334663000009101 ], [ -93.848269000000201, 47.333857000009097 ] ] } },
{ "type": "Feature", "properties": { "wmUplineSo": "BALL CLUB", "wmType": "Overhead" }, "geometry": { "type": "LineString", "coordinates": [ [ -93.881040000000198, 47.3335910000091 ], [ -93.879575000000202, 47.333712000009101 ] ] } },
{ "type": "Feature", "properties": { "wmUplineSo": "BALL CLUB", "wmType": "Overhead" }, "geometry": { "type": "LineString", "coordinates": [ [ -93.881609000000196, 47.3615060000092 ], [ -93.881549023683704, 47.360068103381103 ], [ -93.881518357537701, 47.3593328652357 ], [ -93.881518357537701, 47.3593328652357 ], [ -93.881491256508596, 47.358683082798599 ], [ -93.881433528039693, 47.358606099318202 ], [ -93.881434000000198, 47.358606000009097 ] ] } },
{ "type": "Feature", "properties": { "wmUplineSo": "BALL CLUB", "wmType": "Overhead" }, "geometry": { "type": "LineString", "coordinates": [ [ -93.881086000000195, 47.347694000009199 ], [ -93.880888444369802, 47.347518574151998 ], [ -93.881318111692195, 47.335405343950903 ], [ -93.881462000000198, 47.335047000009098 ] ] } },
{ "type": "Feature", "properties": { "wmUplineSo": "BALL CLUB", "wmType": "Overhead" }, "geometry": { "type": "LineString", "coordinates": [ [ -93.847294000000204, 47.332481000009103 ], [ -93.847025000000201, 47.332759000009098 ] ] } },
{ "type": "Feature", "properties": { "wmUplineSo": "BALL CLUB", "wmType": "Overhead" }, "geometry": { "type": "LineString", "coordinates": [ [ -93.878062000000199, 47.333821000009102 ], [ -93.877686072709494, 47.333521939429801 ] ] } }
]
}
