{
"type": "FeatureCollection",
"crs": { "type": "name", "properties": { "name": "urn:ogc:def:crs:OGC:1.3:CRS84" } },
"features": [
{ "type": "Feature", "properties": { "wmUplineSo": "BENA", "wmType": "Overhead" }, "geometry": { "type": "LineString", "coordinates": [ [ -94.249669, 47.287638 ], [ -94.249706371050195, 47.287574330153703 ] ] } },
{ "type": "Feature", "properties": { "wmUplineSo": "BENA", "wmType": "Overhead" }, "geometry": { "type": "LineString", "coordinates": [ [ -94.218619005193403, 47.243074092605603 ], [ -94.218104959001394, 47.243165641432597 ] ] } },
{ "type": "Feature", "properties": { "wmUplineSo": "BENA", "wmType": "Overhead" }, "geometry": { "type": "LineString", "coordinates": [ [ -94.214019400000495, 47.245197900009003 ], [ -94.213762979870694, 47.245212712098102 ] ] } },
{ "type": "Feature", "properties": { "wmUplineSo": "BENA", "wmType": "Overhead" }, "geometry": { "type": "LineString", "coordinates": [ [ -94.214320204113804, 47.245879645210103 ], [ -94.214315883542199, 47.246213836850401 ] ] } },
{ "type": "Feature", "properties": { "wmUplineSo": "BENA", "wmType": "Overhead" }, "geometry": { "type": "LineString", "coordinates": [ [ -94.217241931828994, 47.245908627511596 ], [ -94.217239492273706, 47.245895993725703 ], [ -94.217121714870004, 47.245791296410701 ], [ -94.217105416535006, 47.245794322355103 ] ] } },
{ "type": "Feature", "properties": { "wmUplineSo": "BENA", "wmType": "Overhead" }, "geometry": { "type": "LineString", "coordinates": [ [ -94.214893006326804, 47.334473294616203 ], [ -94.215582237055003, 47.333807876628804 ] ] } },
{ "type": "Feature", "properties": { "wmUplineSo": "BENA", "wmType": "Overhead" }, "geometry": { "type": "LineString", "coordinates": [ [ -94.248892170000502, 47.2874620000091 ], [ -94.248804360617498, 47.287374393358803 ] ] } },
{ "type": "Feature", "properties": { "wmUplineSo": "BENA", "wmType": "Overhead" }, "geometry": { "type": "LineString", "coordinates": [ [ -94.212096486965095, 47.245875000975097 ], [ -94.211857444728594, 47.245859712156303 ] ] } },
{ "type": "Feature", "properties": { "wmUplineSo": "BENA", "wmType": "Overhead" }, "geometry": { "type": "LineString", "coordinates": [ [ -94.255710427393197, 47.2915433051894 ], [ -94.256235607964896, 47.291581642930502 ] ] } },
{ "type": "Feature", "properties": { "wmUplineSo": "BENA", "wmType": "Overhead" }, "geometry": { "type": "LineString", "coordinates": [ [ -94.255379718372396, 47.290933847298 ], [ -94.255561326685395, 47.290711866827699 ] ] } },
{ "type": "Feature", "properties": { "wmUplineSo": "BENA", "wmType": "Overhead" }, "geometry": { "type": "LineString", "coordinates": [ [ -94.228368519742503, 47.287545848632597 ], [ -94.229560550772007, 47.2876058189159 ] ] } },
{ "type": "Feature", "properties": { "wmUplineSo": "BENA", "wmType": "Overhead" }, "geometry": { "type": "LineString", "coordinates": [ [ -94.229560550772007, 47.2876058189159 ], [ -94.230662442926999, 47.288001094470197 ] ] } },
{ "type": "Feature", "properties": { "wmUplineSo": "BENA", "wmType": "Overhead" }, "geometry": { "type": "LineString", "coordinates": [ [ -94.230662442926999, 47.288001094470197 ], [ -94.231741551958507, 47.288356817649301 ] ] } },
{ "type": "Feature", "properties": { "wmUplineSo": "BENA", "wmType": "Overhead" }, "geometry": { "type": "LineString", "coordinates": [ [ -94.231741551958507, 47.288356817649301 ], [ -94.232876543206601, 47.288895816776503 ] ] } },
{ "type": "Feature", "properties": { "wmUplineSo": "BENA", "wmType": "Overhead" }, "geometry": { "type": "LineString", "coordinates": [ [ -94.232876543206601, 47.288895816776503 ], [ -94.233979760132499, 47.289447700873303 ] ] } },
{ "type": "Feature", "properties": { "wmUplineSo": "BENA", "wmType": "Overhead" }, "geometry": { "type": "LineString", "coordinates": [ [ -94.233979760132499, 47.289447700873303 ], [ -94.235273556218303, 47.289498817299901 ] ] } },
{ "type": "Feature", "properties": { "wmUplineSo": "BENA", "wmType": "Overhead" }, "geometry": { "type": "LineString", "coordinates": [ [ -94.235273556218303, 47.289498817299901 ], [ -94.236731586484197, 47.289443818725601 ] ] } },
{ "type": "Feature", "properties": { "wmUplineSo": "BENA", "wmType": "Overhead" }, "geometry": { "type": "LineString", "coordinates": [ [ -94.236731586484197, 47.289443818725601 ], [ -94.23787858803, 47.2898168190804 ] ] } },
{ "type": "Feature", "properties": { "wmUplineSo": "BENA", "wmType": "Overhead" }, "geometry": { "type": "LineString", "coordinates": [ [ -94.23787858803, 47.2898168190804 ], [ -94.238703585616506, 47.2901588191135 ] ] } },
{ "type": "Feature", "properties": { "wmUplineSo": "BENA", "wmType": "Overhead" }, "geometry": { "type": "LineString", "coordinates": [ [ -94.238703585616506, 47.2901588191135 ], [ -94.239641581656002, 47.290535817719302 ] ] } },
{ "type": "Feature", "properties": { "wmUplineSo": "BENA", "wmType": "Overhead" }, "geometry": { "type": "LineString", "coordinates": [ [ -94.239641581656002, 47.290535817719302 ], [ -94.240818249651795, 47.290937453954797 ] ] } },
{ "type": "Feature", "properties": { "wmUplineSo": "BENA", "wmType": "Overhead" }, "geometry": { "type": "LineString", "coordinates": [ [ -94.240818249651795, 47.290937453954797 ], [ -94.242138581832293, 47.291385817979801 ] ] } },
{ "type": "Feature", "properties": { "wmUplineSo": "BENA", "wmType": "Overhead" }, "geometry": { "type": "LineString", "coordinates": [ [ -94.242138581832293, 47.291385817979801 ], [ -94.243191575299505, 47.291868818335601 ] ] } },
{ "type": "Feature", "properties": { "wmUplineSo": "BENA", "wmType": "Overhead" }, "geometry": { "type": "LineString", "coordinates": [ [ -94.243191575299505, 47.291868818335601 ], [ -94.244028569466593, 47.292248817037901 ] ] } },
{ "type": "Feature", "properties": { "wmUplineSo": "BENA", "wmType": "Overhead" }, "geometry": { "type": "LineString", "coordinates": [ [ -94.244028569466593, 47.292248817037901 ], [ -94.244400576202096, 47.2922368185192 ] ] } },
{ "type": "Feature", "properties": { "wmUplineSo": "BENA", "wmType": "Overhead" }, "geometry": { "type": "LineString", "coordinates": [ [ -94.244400576202096, 47.2922368185192 ], [ -94.244793589141096, 47.2921618189079 ] ] } },
{ "type": "Feature", "properties": { "wmUplineSo": "BENA", "wmType": "Overhead" }, "geometry": { "type": "LineString", "coordinates": [ [ -94.244793589141096, 47.2921618189079 ], [ -94.245870629405005, 47.291825823139803 ] ] } },
{ "type": "Feature", "properties": { "wmUplineSo": "BENA", "wmType": "Overhead" }, "geometry": { "type": "LineString", "coordinates": [ [ -94.245870629405005, 47.291825823139803 ], [ -94.247068658998501, 47.291708825325998 ] ] } },
{ "type": "Feature", "properties": { "wmUplineSo": "BENA", "wmType": "Overhead" }, "geometry": { "type": "LineString", "coordinates": [ [ -94.247068658998501, 47.291708825325998 ], [ -94.2483216769904, 47.291820826712097 ] ] } },
{ "type": "Feature", "properties": { "wmUplineSo": "BENA", "wmType": "Overhead" }, "geometry": { "type": "LineString", "coordinates": [ [ -94.2483216769904, 47.291820826712097 ], [ -94.249508682869703, 47.292123827520101 ] ] } },
{ "type": "Feature", "properties": { "wmUplineSo": "BENA", "wmType": "Overhead" }, "geometry": { "type": "LineString", "coordinates": [ [ -94.249508682869703, 47.292123827520101 ], [ -94.250821700720905, 47.292331830861002 ] ] } },
{ "type": "Feature", "properties": { "wmUplineSo": "BENA", "wmType": "Overhead" }, "geometry": { "type": "LineString", "coordinates": [ [ -94.250821700720905, 47.292331830861002 ], [ -94.252238878721698, 47.2923624409719 ] ] } },
{ "type": "Feature", "properties": { "wmUplineSo": "BENA", "wmType": "Overhead" }, "geometry": { "type": "LineString", "coordinates": [ [ -94.252238878721698, 47.2923624409719 ], [ -94.253532548111593, 47.292108306201897 ] ] } },
{ "type": "Feature", "properties": { "wmUplineSo": "BENA", "wmType": "Overhead" }, "geometry": { "type": "LineString", "coordinates": [ [ -94.253532548111593, 47.292108306201897 ], [ -94.254778000079099, 47.291788718959502 ] ] } },
{ "type": "Feature", "properties": { "wmUplineSo": "BENA", "wmType": "Overhead" }, "geometry": { "type": "LineString", "coordinates": [ [ -94.218961254041503, 47.289196792247601 ], [ -94.220281819852303, 47.289232747668301 ] ] } },
{ "type": "Feature", "properties": { "wmUplineSo": "BENA", "wmType": "Overhead" }, "geometry": { "type": "LineString", "coordinates": [ [ -94.220281819852303, 47.289232747668301 ], [ -94.221603303642794, 47.289223797203597 ] ] } },
{ "type": "Feature", "properties": { "wmUplineSo": "BENA", "wmType": "Overhead" }, "geometry": { "type": "LineString", "coordinates": [ [ -94.221603303642794, 47.289223797203597 ], [ -94.222788351527498, 47.288825801314999 ] ] } },
{ "type": "Feature", "properties": { "wmUplineSo": "BENA", "wmType": "Overhead" }, "geometry": { "type": "LineString", "coordinates": [ [ -94.222788351527498, 47.288825801314999 ], [ -94.223390397637303, 47.288183805246199 ] ] } },
{ "type": "Feature", "properties": { "wmUplineSo": "BENA", "wmType": "Overhead" }, "geometry": { "type": "LineString", "coordinates": [ [ -94.223390397637303, 47.288183805246199 ], [ -94.224696452276902, 47.287676811018599 ] ] } },
{ "type": "Feature", "properties": { "wmUplineSo": "BENA", "wmType": "Overhead" }, "geometry": { "type": "LineString", "coordinates": [ [ -94.224696452276902, 47.287676811018599 ], [ -94.225948494104401, 47.2873518146571 ] ] } },
{ "type": "Feature", "properties": { "wmUplineSo": "BENA", "wmType": "Overhead" }, "geometry": { "type": "LineString", "coordinates": [ [ -94.220444626927502, 47.330166499542301 ], [ -94.221380665434495, 47.3295179461809 ] ] } },
{ "type": "Feature", "properties": { "wmUplineSo": "BENA", "wmType": "Overhead" }, "geometry": { "type": "LineString", "coordinates": [ [ -94.221380665434495, 47.3295179461809 ], [ -94.222143434569304, 47.328807468264102 ] ] } },
{ "type": "Feature", "properties": { "wmUplineSo": "BENA", "wmType": "Overhead" }, "geometry": { "type": "LineString", "coordinates": [ [ -94.222143434569304, 47.328807468264102 ], [ -94.222326134305604, 47.328061565563303 ] ] } },
{ "type": "Feature", "properties": { "wmUplineSo": "BENA", "wmType": "Overhead" }, "geometry": { "type": "LineString", "coordinates": [ [ -94.222326134305604, 47.328061565563303 ], [ -94.222503179455501, 47.327320570840897 ] ] } },
{ "type": "Feature", "properties": { "wmUplineSo": "BENA", "wmType": "Overhead" }, "geometry": { "type": "LineString", "coordinates": [ [ -94.222503179455501, 47.327320570840897 ], [ -94.222599230504997, 47.326436575243797 ] ] } },
{ "type": "Feature", "properties": { "wmUplineSo": "BENA", "wmType": "Overhead" }, "geometry": { "type": "LineString", "coordinates": [ [ -94.222599230504997, 47.326436575243797 ], [ -94.222349271343305, 47.325635580686999 ] ] } },
{ "type": "Feature", "properties": { "wmUplineSo": "BENA", "wmType": "Overhead" }, "geometry": { "type": "LineString", "coordinates": [ [ -94.222349271343305, 47.325635580686999 ], [ -94.221993297382895, 47.325058582700201 ] ] } },
{ "type": "Feature", "properties": { "wmUplineSo": "BENA", "wmType": "Overhead" }, "geometry": { "type": "LineString", "coordinates": [ [ -94.221993297382895, 47.325058582700201 ], [ -94.221533331281094, 47.324295585675102 ] ] } },
{ "type": "Feature", "properties": { "wmUplineSo": "BENA", "wmType": "Overhead" }, "geometry": { "type": "LineString", "coordinates": [ [ -94.221533331281094, 47.324295585675102 ], [ -94.221036369219803, 47.323486588975399 ] ] } },
{ "type": "Feature", "properties": { "wmUplineSo": "BENA", "wmType": "Overhead" }, "geometry": { "type": "LineString", "coordinates": [ [ -94.221036369219803, 47.323486588975399 ], [ -94.220569400115807, 47.322795591549799 ] ] } },
{ "type": "Feature", "properties": { "wmUplineSo": "BENA", "wmType": "Overhead" }, "geometry": { "type": "LineString", "coordinates": [ [ -94.220569400115807, 47.322795591549799 ], [ -94.220183516414295, 47.321894072112499 ] ] } },
{ "type": "Feature", "properties": { "wmUplineSo": "BENA", "wmType": "Overhead" }, "geometry": { "type": "LineString", "coordinates": [ [ -94.220183516414295, 47.321894072112499 ], [ -94.219429480991806, 47.320971599709502 ] ] } },
{ "type": "Feature", "properties": { "wmUplineSo": "BENA", "wmType": "Overhead" }, "geometry": { "type": "LineString", "coordinates": [ [ -94.219429480991806, 47.320971599709502 ], [ -94.219023507734306, 47.320361601968102 ] ] } },
{ "type": "Feature", "properties": { "wmUplineSo": "BENA", "wmType": "Overhead" }, "geometry": { "type": "LineString", "coordinates": [ [ -94.219023507734306, 47.320361601968102 ], [ -94.218644537444206, 47.319706604734598 ] ] } },
{ "type": "Feature", "properties": { "wmUplineSo": "BENA", "wmType": "Overhead" }, "geometry": { "type": "LineString", "coordinates": [ [ -94.218644537444206, 47.319706604734598 ], [ -94.218093574928602, 47.318873608718597 ] ] } },
{ "type": "Feature", "properties": { "wmUplineSo": "BENA", "wmType": "Overhead" }, "geometry": { "type": "LineString", "coordinates": [ [ -94.218093574928602, 47.318873608718597 ], [ -94.217619606072006, 47.318151611975203 ] ] } },
{ "type": "Feature", "properties": { "wmUplineSo": "BENA", "wmType": "Overhead" }, "geometry": { "type": "LineString", "coordinates": [ [ -94.217619606072006, 47.318151611975203 ], [ -94.217161637674195, 47.317431615526203 ] ] } },
{ "type": "Feature", "properties": { "wmUplineSo": "BENA", "wmType": "Overhead" }, "geometry": { "type": "LineString", "coordinates": [ [ -94.217161637674195, 47.317431615526203 ], [ -94.216614672687001, 47.316650617649799 ] ] } },
{ "type": "Feature", "properties": { "wmUplineSo": "BENA", "wmType": "Overhead" }, "geometry": { "type": "LineString", "coordinates": [ [ -94.216614672687001, 47.316650617649799 ], [ -94.216146709832799, 47.315828622141801 ] ] } },
{ "type": "Feature", "properties": { "wmUplineSo": "BENA", "wmType": "Overhead" }, "geometry": { "type": "LineString", "coordinates": [ [ -94.216146709832799, 47.315828622141801 ], [ -94.215693738160397, 47.315163624989701 ] ] } },
{ "type": "Feature", "properties": { "wmUplineSo": "BENA", "wmType": "Overhead" }, "geometry": { "type": "LineString", "coordinates": [ [ -94.215693738160397, 47.315163624989701 ], [ -94.215206771904505, 47.314378628578901 ] ] } },
{ "type": "Feature", "properties": { "wmUplineSo": "BENA", "wmType": "Overhead" }, "geometry": { "type": "LineString", "coordinates": [ [ -94.215206771904505, 47.314378628578901 ], [ -94.214904799233906, 47.313815630860198 ] ] } },
{ "type": "Feature", "properties": { "wmUplineSo": "BENA", "wmType": "Overhead" }, "geometry": { "type": "LineString", "coordinates": [ [ -94.214904799233906, 47.313815630860198 ], [ -94.214564838891704, 47.312991636203797 ] ] } },
{ "type": "Feature", "properties": { "wmUplineSo": "BENA", "wmType": "Overhead" }, "geometry": { "type": "LineString", "coordinates": [ [ -94.214564838891704, 47.312991636203797 ], [ -94.214448857699693, 47.312623637479497 ] ] } },
{ "type": "Feature", "properties": { "wmUplineSo": "BENA", "wmType": "Overhead" }, "geometry": { "type": "LineString", "coordinates": [ [ -94.214448857699693, 47.312623637479497 ], [ -94.213886885840097, 47.311936639865898 ] ] } },
{ "type": "Feature", "properties": { "wmUplineSo": "BENA", "wmType": "Overhead" }, "geometry": { "type": "LineString", "coordinates": [ [ -94.213886885840097, 47.311936639865898 ], [ -94.213438931513707, 47.310966645410303 ] ] } },
{ "type": "Feature", "properties": { "wmUplineSo": "BENA", "wmType": "Overhead" }, "geometry": { "type": "LineString", "coordinates": [ [ -94.213438931513707, 47.310966645410303 ], [ -94.213043967803003, 47.310183649665298 ] ] } },
{ "type": "Feature", "properties": { "wmUplineSo": "BENA", "wmType": "Overhead" }, "geometry": { "type": "LineString", "coordinates": [ [ -94.213043967803003, 47.310183649665298 ], [ -94.212642007521296, 47.3093456534979 ] ] } },
{ "type": "Feature", "properties": { "wmUplineSo": "BENA", "wmType": "Overhead" }, "geometry": { "type": "LineString", "coordinates": [ [ -94.212642007521296, 47.3093456534979 ], [ -94.212340039853999, 47.3086606573316 ] ] } },
{ "type": "Feature", "properties": { "wmUplineSo": "BENA", "wmType": "Overhead" }, "geometry": { "type": "LineString", "coordinates": [ [ -94.212340039853999, 47.3086606573316 ], [ -94.211904075252903, 47.307895661070397 ] ] } },
{ "type": "Feature", "properties": { "wmUplineSo": "BENA", "wmType": "Overhead" }, "geometry": { "type": "LineString", "coordinates": [ [ -94.211904075252903, 47.307895661070397 ], [ -94.211480114218602, 47.307040665369001 ] ] } },
{ "type": "Feature", "properties": { "wmUplineSo": "BENA", "wmType": "Overhead" }, "geometry": { "type": "LineString", "coordinates": [ [ -94.211480114218602, 47.307040665369001 ], [ -94.210945155190004, 47.306096670477601 ] ] } },
{ "type": "Feature", "properties": { "wmUplineSo": "BENA", "wmType": "Overhead" }, "geometry": { "type": "LineString", "coordinates": [ [ -94.210945155190004, 47.306096670477601 ], [ -94.210585312593196, 47.305272891135303 ] ] } },
{ "type": "Feature", "properties": { "wmUplineSo": "BENA", "wmType": "Overhead" }, "geometry": { "type": "LineString", "coordinates": [ [ -94.210022698026705, 47.304644324976202 ], [ -94.208877245696499, 47.303783680334398 ] ] } },
{ "type": "Feature", "properties": { "wmUplineSo": "BENA", "wmType": "Overhead" }, "geometry": { "type": "LineString", "coordinates": [ [ -94.208877245696499, 47.303783680334398 ], [ -94.208315258993295, 47.3033456825044 ] ] } },
{ "type": "Feature", "properties": { "wmUplineSo": "BENA", "wmType": "Overhead" }, "geometry": { "type": "LineString", "coordinates": [ [ -94.208315258993295, 47.3033456825044 ], [ -94.207655297034094, 47.302466686591004 ] ] } },
{ "type": "Feature", "properties": { "wmUplineSo": "BENA", "wmType": "Overhead" }, "geometry": { "type": "LineString", "coordinates": [ [ -94.207655297034094, 47.302466686591004 ], [ -94.207329327188006, 47.3018086905712 ] ] } },
{ "type": "Feature", "properties": { "wmUplineSo": "BENA", "wmType": "Overhead" }, "geometry": { "type": "LineString", "coordinates": [ [ -94.207329327188006, 47.3018086905712 ], [ -94.207184370230394, 47.300976695771901 ] ] } },
{ "type": "Feature", "properties": { "wmUplineSo": "BENA", "wmType": "Overhead" }, "geometry": { "type": "LineString", "coordinates": [ [ -94.207184370230394, 47.300976695771901 ], [ -94.207187398146999, 47.300453698306697 ] ] } },
{ "type": "Feature", "properties": { "wmUplineSo": "BENA", "wmType": "Overhead" }, "geometry": { "type": "LineString", "coordinates": [ [ -94.207187398146999, 47.300453698306697 ], [ -94.207509451075893, 47.299635704789402 ] ] } },
{ "type": "Feature", "properties": { "wmUplineSo": "BENA", "wmType": "Overhead" }, "geometry": { "type": "LineString", "coordinates": [ [ -94.207509451075893, 47.299635704789402 ], [ -94.208012502385401, 47.298871711936897 ] ] } },
{ "type": "Feature", "properties": { "wmUplineSo": "BENA", "wmType": "Overhead" }, "geometry": { "type": "LineString", "coordinates": [ [ -94.208012502385401, 47.298871711936897 ], [ -94.208812552146199, 47.298250716882201 ] ] } },
{ "type": "Feature", "properties": { "wmUplineSo": "BENA", "wmType": "Overhead" }, "geometry": { "type": "LineString", "coordinates": [ [ -94.208812552146199, 47.298250716882201 ], [ -94.2097175997758, 47.297723723009398 ] ] } },
{ "type": "Feature", "properties": { "wmUplineSo": "BENA", "wmType": "Overhead" }, "geometry": { "type": "LineString", "coordinates": [ [ -94.2097175997758, 47.297723723009398 ], [ -94.210524651798394, 47.297056727765103 ] ] } },
{ "type": "Feature", "properties": { "wmUplineSo": "BENA", "wmType": "Overhead" }, "geometry": { "type": "LineString", "coordinates": [ [ -94.210524651798394, 47.297056727765103 ], [ -94.211435703539706, 47.296448734543503 ] ] } },
{ "type": "Feature", "properties": { "wmUplineSo": "BENA", "wmType": "Overhead" }, "geometry": { "type": "LineString", "coordinates": [ [ -94.211435703539706, 47.296448734543503 ], [ -94.212292753002401, 47.295828739486197 ] ] } },
{ "type": "Feature", "properties": { "wmUplineSo": "BENA", "wmType": "Overhead" }, "geometry": { "type": "LineString", "coordinates": [ [ -94.212292753002401, 47.295828739486197 ], [ -94.212907803921595, 47.295176744685499 ] ] } },
{ "type": "Feature", "properties": { "wmUplineSo": "BENA", "wmType": "Overhead" }, "geometry": { "type": "LineString", "coordinates": [ [ -94.212907803921595, 47.295176744685499 ], [ -94.213342846902293, 47.294540749889201 ] ] } },
{ "type": "Feature", "properties": { "wmUplineSo": "BENA", "wmType": "Overhead" }, "geometry": { "type": "LineString", "coordinates": [ [ -94.213342846902293, 47.294540749889201 ], [ -94.213645887468601, 47.2939117547077 ] ] } },
{ "type": "Feature", "properties": { "wmUplineSo": "BENA", "wmType": "Overhead" }, "geometry": { "type": "LineString", "coordinates": [ [ -94.213645887468601, 47.2939117547077 ], [ -94.213922928745006, 47.293295759039097 ] ] } },
{ "type": "Feature", "properties": { "wmUplineSo": "BENA", "wmType": "Overhead" }, "geometry": { "type": "LineString", "coordinates": [ [ -94.213922928745006, 47.293295759039097 ], [ -94.214340980916802, 47.2924917646327 ] ] } },
{ "type": "Feature", "properties": { "wmUplineSo": "BENA", "wmType": "Overhead" }, "geometry": { "type": "LineString", "coordinates": [ [ -94.214340980916802, 47.2924917646327 ], [ -94.214706030478098, 47.291716768985196 ] ] } },
{ "type": "Feature", "properties": { "wmUplineSo": "BENA", "wmType": "Overhead" }, "geometry": { "type": "LineString", "coordinates": [ [ -94.214706030478098, 47.291716768985196 ], [ -94.215130087140096, 47.290851775806701 ] ] } },
{ "type": "Feature", "properties": { "wmUplineSo": "BENA", "wmType": "Overhead" }, "geometry": { "type": "LineString", "coordinates": [ [ -94.215130087140096, 47.290851775806701 ], [ -94.215596140523999, 47.290053782499299 ] ] } },
{ "type": "Feature", "properties": { "wmUplineSo": "BENA", "wmType": "Overhead" }, "geometry": { "type": "LineString", "coordinates": [ [ -94.215596140523999, 47.290053782499299 ], [ -94.216423203905507, 47.289216787725302 ] ] } },
{ "type": "Feature", "properties": { "wmUplineSo": "BENA", "wmType": "Overhead" }, "geometry": { "type": "LineString", "coordinates": [ [ -94.211670644140298, 47.242944057448597 ], [ -94.210670268223296, 47.242948461560303 ] ] } },
{ "type": "Feature", "properties": { "wmUplineSo": "BENA", "wmType": "Overhead" }, "geometry": { "type": "LineString", "coordinates": [ [ -94.210670268223296, 47.242948461560303 ], [ -94.209697607096302, 47.242867058428502 ] ] } },
{ "type": "Feature", "properties": { "wmUplineSo": "BENA", "wmType": "Overhead" }, "geometry": { "type": "LineString", "coordinates": [ [ -94.217714962935602, 47.247052589946797 ], [ -94.217705340479696, 47.246709053885603 ] ] } },
{ "type": "Feature", "properties": { "wmUplineSo": "BENA", "wmType": "Overhead" }, "geometry": { "type": "LineString", "coordinates": [ [ -94.214732593157507, 47.245306047777099 ], [ -94.2147494000005, 47.245197400008998 ] ] } },
{ "type": "Feature", "properties": { "wmUplineSo": "BENA", "wmType": "Overhead" }, "geometry": { "type": "LineString", "coordinates": [ [ -94.219793733658904, 47.247068175924198 ], [ -94.220569713785594, 47.247101015109102 ] ] } },
{ "type": "Feature", "properties": { "wmUplineSo": "BENA", "wmType": "Overhead" }, "geometry": { "type": "LineString", "coordinates": [ [ -94.212099599362801, 47.245032325115702 ], [ -94.211397817350303, 47.245034872906302 ] ] } },
{ "type": "Feature", "properties": { "wmUplineSo": "BENA", "wmType": "Overhead" }, "geometry": { "type": "LineString", "coordinates": [ [ -94.216590550040294, 47.247006041603903 ], [ -94.216592587193901, 47.2462490448587 ] ] } },
{ "type": "Feature", "properties": { "wmUplineSo": "BENA", "wmType": "Overhead" }, "geometry": { "type": "LineString", "coordinates": [ [ -94.215733338406906, 47.247010680169602 ], [ -94.215734000076097, 47.246495003627501 ] ] } },
{ "type": "Feature", "properties": { "wmUplineSo": "BENA", "wmType": "Overhead" }, "geometry": { "type": "LineString", "coordinates": [ [ -94.215197717581702, 47.242989057959299 ], [ -94.214420701806404, 47.242984057571199 ] ] } },
{ "type": "Feature", "properties": { "wmUplineSo": "BENA", "wmType": "Overhead" }, "geometry": { "type": "LineString", "coordinates": [ [ -94.220528483121498, 47.256309413685997 ], [ -94.220223193786396, 47.255085999690003 ] ] } },
{ "type": "Feature", "properties": { "wmUplineSo": "BENA", "wmType": "Overhead" }, "geometry": { "type": "LineString", "coordinates": [ [ -94.220223193786396, 47.255085999690003 ], [ -94.220073240070505, 47.254204005136501 ] ] } },
{ "type": "Feature", "properties": { "wmUplineSo": "BENA", "wmType": "Overhead" }, "geometry": { "type": "LineString", "coordinates": [ [ -94.220073240070505, 47.254204005136501 ], [ -94.219927284754505, 47.253346009708999 ] ] } },
{ "type": "Feature", "properties": { "wmUplineSo": "BENA", "wmType": "Overhead" }, "geometry": { "type": "LineString", "coordinates": [ [ -94.219927284754505, 47.253346009708999 ], [ -94.219817333935495, 47.252449014502801 ] ] } },
{ "type": "Feature", "properties": { "wmUplineSo": "BENA", "wmType": "Overhead" }, "geometry": { "type": "LineString", "coordinates": [ [ -94.219817333935495, 47.252449014502801 ], [ -94.219655381764696, 47.251539019648497 ] ] } },
{ "type": "Feature", "properties": { "wmUplineSo": "BENA", "wmType": "Overhead" }, "geometry": { "type": "LineString", "coordinates": [ [ -94.219655381764696, 47.251539019648497 ], [ -94.219548427246295, 47.250664025478301 ] ] } },
{ "type": "Feature", "properties": { "wmUplineSo": "BENA", "wmType": "Overhead" }, "geometry": { "type": "LineString", "coordinates": [ [ -94.219548427246295, 47.250664025478301 ], [ -94.219345472384603, 47.2497610312167 ] ] } },
{ "type": "Feature", "properties": { "wmUplineSo": "BENA", "wmType": "Overhead" }, "geometry": { "type": "LineString", "coordinates": [ [ -94.219345472384603, 47.2497610312167 ], [ -94.219208512676005, 47.248889034282499 ] ] } },
{ "type": "Feature", "properties": { "wmUplineSo": "BENA", "wmType": "Overhead" }, "geometry": { "type": "LineString", "coordinates": [ [ -94.219208512676005, 47.248889034282499 ], [ -94.219085560321503, 47.247882037866503 ] ] } },
{ "type": "Feature", "properties": { "wmUplineSo": "BENA", "wmType": "Overhead" }, "geometry": { "type": "LineString", "coordinates": [ [ -94.219085560321503, 47.247882037866503 ], [ -94.218979284491297, 47.247066664012202 ] ] } },
{ "type": "Feature", "properties": { "wmUplineSo": "BENA", "wmType": "Overhead" }, "geometry": { "type": "LineString", "coordinates": [ [ -94.215866707023395, 47.243510302350003 ], [ -94.215901900218796, 47.243017249412098 ] ] } },
{ "type": "Feature", "properties": { "wmUplineSo": "BENA", "wmType": "Overhead" }, "geometry": { "type": "LineString", "coordinates": [ [ -94.215871309796796, 47.244367343644697 ], [ -94.215869847117304, 47.243940506388903 ] ] } },
{ "type": "Feature", "properties": { "wmUplineSo": "BENA", "wmType": "Overhead" }, "geometry": { "type": "LineString", "coordinates": [ [ -94.212938354071397, 47.245889362502602 ], [ -94.213707401640505, 47.2458830669663 ] ] } },
{ "type": "Feature", "properties": { "wmUplineSo": "BENA", "wmType": "Overhead" }, "geometry": { "type": "LineString", "coordinates": [ [ -94.213707401640505, 47.2458830669663 ], [ -94.213715488992193, 47.2457208585692 ] ] } },
{ "type": "Feature", "properties": { "wmUplineSo": "BENA", "wmType": "Overhead" }, "geometry": { "type": "LineString", "coordinates": [ [ -94.227486337953593, 47.272983898008803 ], [ -94.227446384006598, 47.2721289043441 ] ] } },
{ "type": "Feature", "properties": { "wmUplineSo": "BENA", "wmType": "Overhead" }, "geometry": { "type": "LineString", "coordinates": [ [ -94.227446384006598, 47.2721289043441 ], [ -94.227499437081704, 47.271181907828399 ] ] } },
{ "type": "Feature", "properties": { "wmUplineSo": "BENA", "wmType": "Overhead" }, "geometry": { "type": "LineString", "coordinates": [ [ -94.227499437081704, 47.271181907828399 ], [ -94.227426485575194, 47.2703119146014 ] ] } },
{ "type": "Feature", "properties": { "wmUplineSo": "BENA", "wmType": "Overhead" }, "geometry": { "type": "LineString", "coordinates": [ [ -94.227426485575194, 47.2703119146014 ], [ -94.227389539552306, 47.269365919334398 ] ] } },
{ "type": "Feature", "properties": { "wmUplineSo": "BENA", "wmType": "Overhead" }, "geometry": { "type": "LineString", "coordinates": [ [ -94.227389539552306, 47.269365919334398 ], [ -94.227434580953897, 47.2686389227663 ] ] } },
{ "type": "Feature", "properties": { "wmUplineSo": "BENA", "wmType": "Overhead" }, "geometry": { "type": "LineString", "coordinates": [ [ -94.227434580953897, 47.2686389227663 ], [ -94.227482652348002, 47.267383930382401 ] ] } },
{ "type": "Feature", "properties": { "wmUplineSo": "BENA", "wmType": "Overhead" }, "geometry": { "type": "LineString", "coordinates": [ [ -94.227482652348002, 47.267383930382401 ], [ -94.227552677890799, 47.266691112860499 ] ] } },
{ "type": "Feature", "properties": { "wmUplineSo": "BENA", "wmType": "Overhead" }, "geometry": { "type": "LineString", "coordinates": [ [ -94.227552677890799, 47.266691112860499 ], [ -94.227544320106702, 47.265724573642601 ] ] } },
{ "type": "Feature", "properties": { "wmUplineSo": "BENA", "wmType": "Overhead" }, "geometry": { "type": "LineString", "coordinates": [ [ -94.227544320106702, 47.265724573642601 ], [ -94.227619994037696, 47.265015184084497 ] ] } },
{ "type": "Feature", "properties": { "wmUplineSo": "BENA", "wmType": "Overhead" }, "geometry": { "type": "LineString", "coordinates": [ [ -94.226877223181503, 47.264256221431502 ], [ -94.2261883273286, 47.263348710221898 ] ] } },
{ "type": "Feature", "properties": { "wmUplineSo": "BENA", "wmType": "Overhead" }, "geometry": { "type": "LineString", "coordinates": [ [ -94.2261883273286, 47.263348710221898 ], [ -94.225621796164305, 47.2627452715749 ] ] } },
{ "type": "Feature", "properties": { "wmUplineSo": "BENA", "wmType": "Overhead" }, "geometry": { "type": "LineString", "coordinates": [ [ -94.225621796164305, 47.2627452715749 ], [ -94.224835527632905, 47.262015612846497 ] ] } },
{ "type": "Feature", "properties": { "wmUplineSo": "BENA", "wmType": "Overhead" }, "geometry": { "type": "LineString", "coordinates": [ [ -94.224835527632905, 47.262015612846497 ], [ -94.224197779369504, 47.261355787708403 ] ] } },
{ "type": "Feature", "properties": { "wmUplineSo": "BENA", "wmType": "Overhead" }, "geometry": { "type": "LineString", "coordinates": [ [ -94.224197779369504, 47.261355787708403 ], [ -94.223516115279807, 47.260610716946402 ] ] } },
{ "type": "Feature", "properties": { "wmUplineSo": "BENA", "wmType": "Overhead" }, "geometry": { "type": "LineString", "coordinates": [ [ -94.223516115279807, 47.260610716946402 ], [ -94.222862770457098, 47.259879624984698 ] ] } },
{ "type": "Feature", "properties": { "wmUplineSo": "BENA", "wmType": "Overhead" }, "geometry": { "type": "LineString", "coordinates": [ [ -94.222862770457098, 47.259879624984698 ], [ -94.222251399876797, 47.259148081476198 ] ] } },
{ "type": "Feature", "properties": { "wmUplineSo": "BENA", "wmType": "Overhead" }, "geometry": { "type": "LineString", "coordinates": [ [ -94.222251399876797, 47.259148081476198 ], [ -94.221684520755403, 47.258525579887603 ] ] } },
{ "type": "Feature", "properties": { "wmUplineSo": "BENA", "wmType": "Overhead" }, "geometry": { "type": "LineString", "coordinates": [ [ -94.221684520755403, 47.258525579887603 ], [ -94.221117326617005, 47.257888793635203 ] ] } },
{ "type": "Feature", "properties": { "wmUplineSo": "BENA", "wmType": "Overhead" }, "geometry": { "type": "LineString", "coordinates": [ [ -94.221117326617005, 47.257888793635203 ], [ -94.221030570421703, 47.257765913411497 ] ] } },
{ "type": "Feature", "properties": { "wmUplineSo": "BENA", "wmType": "Overhead" }, "geometry": { "type": "LineString", "coordinates": [ [ -94.221259418501504, 47.24313026035 ], [ -94.222186354799703, 47.243150136797802 ] ] } },
{ "type": "Feature", "properties": { "wmUplineSo": "BENA", "wmType": "Overhead" }, "geometry": { "type": "LineString", "coordinates": [ [ -94.222097927016904, 47.242442361309102 ], [ -94.222158920355895, 47.2418940612447 ] ] } },
{ "type": "Feature", "properties": { "wmUplineSo": "BENA", "wmType": "Overhead" }, "geometry": { "type": "LineString", "coordinates": [ [ -94.223348370562405, 47.242048491086898 ], [ -94.223166955300599, 47.241257406650703 ] ] } },
{ "type": "Feature", "properties": { "wmUplineSo": "BENA", "wmType": "Overhead" }, "geometry": { "type": "LineString", "coordinates": [ [ -94.219793571447596, 47.283840826180999 ], [ -94.220430625196201, 47.283081831472302 ] ] } },
{ "type": "Feature", "properties": { "wmUplineSo": "BENA", "wmType": "Overhead" }, "geometry": { "type": "LineString", "coordinates": [ [ -94.220430625196201, 47.283081831472302 ], [ -94.221266686916707, 47.282313837490001 ] ] } },
{ "type": "Feature", "properties": { "wmUplineSo": "BENA", "wmType": "Overhead" }, "geometry": { "type": "LineString", "coordinates": [ [ -94.221266686916707, 47.282313837490001 ], [ -94.222181737516607, 47.281720842951799 ] ] } },
{ "type": "Feature", "properties": { "wmUplineSo": "BENA", "wmType": "Overhead" }, "geometry": { "type": "LineString", "coordinates": [ [ -94.222181737516607, 47.281720842951799 ], [ -94.222978790720603, 47.281066847258202 ] ] } },
{ "type": "Feature", "properties": { "wmUplineSo": "BENA", "wmType": "Overhead" }, "geometry": { "type": "LineString", "coordinates": [ [ -94.222978790720603, 47.281066847258202 ], [ -94.2238618442789, 47.280430851389198 ] ] } },
{ "type": "Feature", "properties": { "wmUplineSo": "BENA", "wmType": "Overhead" }, "geometry": { "type": "LineString", "coordinates": [ [ -94.2238618442789, 47.280430851389198 ], [ -94.224733891435704, 47.279903855628902 ] ] } },
{ "type": "Feature", "properties": { "wmUplineSo": "BENA", "wmType": "Overhead" }, "geometry": { "type": "LineString", "coordinates": [ [ -94.224733891435704, 47.279903855628902 ], [ -94.225703952254804, 47.279155861612701 ] ] } },
{ "type": "Feature", "properties": { "wmUplineSo": "BENA", "wmType": "Overhead" }, "geometry": { "type": "LineString", "coordinates": [ [ -94.225703952254804, 47.279155861612701 ], [ -94.2264489973617, 47.278610865115397 ] ] } },
{ "type": "Feature", "properties": { "wmUplineSo": "BENA", "wmType": "Overhead" }, "geometry": { "type": "LineString", "coordinates": [ [ -94.2264489973617, 47.278610865115397 ], [ -94.2270960514942, 47.2779158703825 ] ] } },
{ "type": "Feature", "properties": { "wmUplineSo": "BENA", "wmType": "Overhead" }, "geometry": { "type": "LineString", "coordinates": [ [ -94.2270960514942, 47.2779158703825 ], [ -94.227457099530696, 47.277171874583502 ] ] } },
{ "type": "Feature", "properties": { "wmUplineSo": "BENA", "wmType": "Overhead" }, "geometry": { "type": "LineString", "coordinates": [ [ -94.227457099530696, 47.277171874583502 ], [ -94.227509143282006, 47.276418879352804 ] ] } },
{ "type": "Feature", "properties": { "wmUplineSo": "BENA", "wmType": "Overhead" }, "geometry": { "type": "LineString", "coordinates": [ [ -94.227509143282006, 47.276418879352804 ], [ -94.227522189467393, 47.275603883415897 ] ] } },
{ "type": "Feature", "properties": { "wmUplineSo": "BENA", "wmType": "Overhead" }, "geometry": { "type": "LineString", "coordinates": [ [ -94.227522189467393, 47.275603883415897 ], [ -94.227487238996304, 47.274713888913702 ] ] } },
{ "type": "Feature", "properties": { "wmUplineSo": "BENA", "wmType": "Overhead" }, "geometry": { "type": "LineString", "coordinates": [ [ -94.227487238996304, 47.274713888913702 ], [ -94.2274642862224, 47.273856893921497 ] ] } },
{ "type": "Feature", "properties": { "wmUplineSo": "BENA", "wmType": "Overhead" }, "geometry": { "type": "LineString", "coordinates": [ [ -94.216745246303503, 47.288566793240101 ], [ -94.217140295760899, 47.287828797030699 ] ] } },
{ "type": "Feature", "properties": { "wmUplineSo": "BENA", "wmType": "Overhead" }, "geometry": { "type": "LineString", "coordinates": [ [ -94.217140295760899, 47.287828797030699 ], [ -94.217665351488904, 47.287000804647498 ] ] } },
{ "type": "Feature", "properties": { "wmUplineSo": "BENA", "wmType": "Overhead" }, "geometry": { "type": "LineString", "coordinates": [ [ -94.217665351488904, 47.287000804647498 ], [ -94.218280416163907, 47.286088810217798 ] ] } },
{ "type": "Feature", "properties": { "wmUplineSo": "BENA", "wmType": "Overhead" }, "geometry": { "type": "LineString", "coordinates": [ [ -94.218280416163907, 47.286088810217798 ], [ -94.218728456039301, 47.285530813977999 ] ] } },
{ "type": "Feature", "properties": { "wmUplineSo": "BENA", "wmType": "Overhead" }, "geometry": { "type": "LineString", "coordinates": [ [ -94.218728456039301, 47.285530813977999 ], [ -94.219251515601499, 47.284655821107897 ] ] } },
{ "type": "Feature", "properties": { "wmUplineSo": "BENA", "wmType": "Overhead" }, "geometry": { "type": "LineString", "coordinates": [ [ -94.254833221676904, 47.290852768944497 ], [ -94.254814394840295, 47.290836353444298 ] ] } },
{ "type": "Feature", "properties": { "wmUplineSo": "BENA", "wmType": "Overhead" }, "geometry": { "type": "LineString", "coordinates": [ [ -94.211587311064207, 47.339420455862196 ], [ -94.211845342730896, 47.338936459842003 ] ] } },
{ "type": "Feature", "properties": { "wmUplineSo": "BENA", "wmType": "Overhead" }, "geometry": { "type": "LineString", "coordinates": [ [ -94.213061332855204, 47.3387948000832 ], [ -94.213972365952699, 47.339131466961398 ] ] } },
{ "type": "Feature", "properties": { "wmUplineSo": "BENA", "wmType": "Overhead" }, "geometry": { "type": "LineString", "coordinates": [ [ -94.212608118849602, 47.336866412937397 ], [ -94.213213076798993, 47.336213614912197 ] ] } },
{ "type": "Feature", "properties": { "wmUplineSo": "BENA", "wmType": "Overhead" }, "geometry": { "type": "LineString", "coordinates": [ [ -94.213213076798993, 47.336213614912197 ], [ -94.213981272089896, 47.335390719461401 ] ] } },
{ "type": "Feature", "properties": { "wmUplineSo": "BENA", "wmType": "Overhead" }, "geometry": { "type": "LineString", "coordinates": [ [ -94.217749517817296, 47.332013712860302 ], [ -94.218700196902105, 47.331373216493297 ] ] } },
{ "type": "Feature", "properties": { "wmUplineSo": "BENA", "wmType": "Overhead" }, "geometry": { "type": "LineString", "coordinates": [ [ -94.218700196902105, 47.331373216493297 ], [ -94.219302111776898, 47.330989690036297 ] ] } },
{ "type": "Feature", "properties": { "wmUplineSo": "BENA", "wmType": "Overhead" }, "geometry": { "type": "LineString", "coordinates": [ [ -94.219302111776898, 47.330989690036297 ], [ -94.219614184550494, 47.330763854637098 ] ] } },
{ "type": "Feature", "properties": { "wmUplineSo": "BENA", "wmType": "Overhead" }, "geometry": { "type": "LineString", "coordinates": [ [ -94.215582237055003, 47.333807876628804 ], [ -94.216020126498194, 47.333355634758398 ] ] } },
{ "type": "Feature", "properties": { "wmUplineSo": "BENA", "wmType": "Overhead" }, "geometry": { "type": "LineString", "coordinates": [ [ -94.216020126498194, 47.333355634758398 ], [ -94.216862286304107, 47.332650302299498 ] ] } },
{ "type": "Feature", "properties": { "wmUplineSo": "BENA", "wmType": "Overhead" }, "geometry": { "type": "LineString", "coordinates": [ [ -94.210246471943506, 47.342291227616798 ], [ -94.2102578319722, 47.341755370309798 ] ] } },
{ "type": "Feature", "properties": { "wmUplineSo": "BENA", "wmType": "Overhead" }, "geometry": { "type": "LineString", "coordinates": [ [ -94.210585312593196, 47.305272891135303 ], [ -94.210022698026705, 47.304644324976202 ] ] } },
{ "type": "Feature", "properties": { "wmUplineSo": "BENA", "wmType": "Overhead" }, "geometry": { "type": "LineString", "coordinates": [ [ -94.215869847117304, 47.243940506388903 ], [ -94.215674100000498, 47.244101300009 ] ] } },
{ "type": "Feature", "properties": { "wmUplineSo": "BENA", "wmType": "Overhead" }, "geometry": { "type": "LineString", "coordinates": [ [ -94.215869847117304, 47.243940506388903 ], [ -94.216019900000504, 47.244258100008999 ] ] } },
{ "type": "Feature", "properties": { "wmUplineSo": "BENA", "wmType": "Overhead" }, "geometry": { "type": "LineString", "coordinates": [ [ -94.213857725740297, 47.242242058938601 ], [ -94.213913100000497, 47.242205800009003 ] ] } },
{ "type": "Feature", "properties": { "wmUplineSo": "BENA", "wmType": "Overhead" }, "geometry": { "type": "LineString", "coordinates": [ [ -94.214381000076003, 47.244335003626901 ], [ -94.214338121782404, 47.245041476887799 ] ] } },
{ "type": "Feature", "properties": { "wmUplineSo": "BENA", "wmType": "Overhead" }, "geometry": { "type": "LineString", "coordinates": [ [ -94.222097000076502, 47.246717003627801 ], [ -94.223116000076601, 47.246530003627498 ] ] } },
{ "type": "Feature", "properties": { "wmUplineSo": "BENA", "wmType": "Overhead" }, "geometry": { "type": "LineString", "coordinates": [ [ -94.227204627453503, 47.287417090869603 ], [ -94.228368519742503, 47.287545848632597 ] ] } },
{ "type": "Feature", "properties": { "wmUplineSo": "BENA", "wmType": "Overhead" }, "geometry": { "type": "LineString", "coordinates": [ [ -94.217705340479696, 47.246709053885603 ], [ -94.217690643407906, 47.2463001516711 ] ] } },
{ "type": "Feature", "properties": { "wmUplineSo": "BENA", "wmType": "Overhead" }, "geometry": { "type": "LineString", "coordinates": [ [ -94.210758800000505, 47.334042800009101 ], [ -94.211406, 47.334096 ] ] } },
{ "type": "Feature", "properties": { "wmUplineSo": "BENA", "wmType": "Overhead" }, "geometry": { "type": "LineString", "coordinates": [ [ -94.223230893824507, 47.240390087758001 ], [ -94.223727300000505, 47.239298400008998 ] ] } },
{ "type": "Feature", "properties": { "wmUplineSo": "BENA", "wmType": "Overhead" }, "geometry": { "type": "LineString", "coordinates": [ [ -94.216765803570297, 47.332208521172099 ], [ -94.216789400000494, 47.332262300009099 ] ] } },
{ "type": "Feature", "properties": { "wmUplineSo": "BENA", "wmType": "Overhead" }, "geometry": { "type": "LineString", "coordinates": [ [ -94.219614184550494, 47.330763854637098 ], [ -94.219311900000505, 47.330992600009097 ] ] } },
{ "type": "Feature", "properties": { "wmUplineSo": "BENA", "wmType": "Overhead" }, "geometry": { "type": "LineString", "coordinates": [ [ -94.220281819852303, 47.289232747668301 ], [ -94.220547928619794, 47.289278185149598 ] ] } },
{ "type": "Feature", "properties": { "wmUplineSo": "BENA", "wmType": "Overhead" }, "geometry": { "type": "LineString", "coordinates": [ [ -94.210710234660695, 47.341003884220697 ], [ -94.210353900000499, 47.340731800009102 ] ] } },
{ "type": "Feature", "properties": { "wmUplineSo": "BENA", "wmType": "Overhead" }, "geometry": { "type": "LineString", "coordinates": [ [ -94.2102578319722, 47.341755370309798 ], [ -94.209810500000501, 47.3416114000091 ] ] } },
{ "type": "Feature", "properties": { "wmUplineSo": "BENA", "wmType": "Overhead" }, "geometry": { "type": "LineString", "coordinates": [ [ -94.210711589968795, 47.334078606374803 ], [ -94.210712529998901, 47.3335790807431 ] ] } },
{ "type": "Feature", "properties": { "wmUplineSo": "BENA", "wmType": "Overhead" }, "geometry": { "type": "LineString", "coordinates": [ [ -94.210711589968795, 47.334078606374803 ], [ -94.209729583070398, 47.333443599474499 ] ] } },
{ "type": "Feature", "properties": { "wmUplineSo": "BENA", "wmType": "Overhead" }, "geometry": { "type": "LineString", "coordinates": [ [ -94.210711589968795, 47.334078606374803 ], [ -94.210758800000505, 47.334042800009101 ] ] } },
{ "type": "Feature", "properties": { "wmUplineSo": "BENA", "wmType": "Overhead" }, "geometry": { "type": "LineString", "coordinates": [ [ -94.227204627453503, 47.287417090869603 ], [ -94.227173600000498, 47.287398300009102 ] ] } },
{ "type": "Feature", "properties": { "wmUplineSo": "BENA", "wmType": "Overhead" }, "geometry": { "type": "LineString", "coordinates": [ [ -94.255561326685395, 47.290711866827699 ], [ -94.255835100000496, 47.2908414000091 ] ] } },
{ "type": "Feature", "properties": { "wmUplineSo": "BENA", "wmType": "Overhead" }, "geometry": { "type": "LineString", "coordinates": [ [ -94.253386506038595, 47.289570964224502 ], [ -94.253352500000503, 47.289563600009103 ] ] } },
{ "type": "Feature", "properties": { "wmUplineSo": "BENA", "wmType": "Overhead" }, "geometry": { "type": "LineString", "coordinates": [ [ -94.252327864518193, 47.289268846933403 ], [ -94.252353800000506, 47.289280300009104 ] ] } },
{ "type": "Feature", "properties": { "wmUplineSo": "BENA", "wmType": "Overhead" }, "geometry": { "type": "LineString", "coordinates": [ [ -94.251266917752602, 47.288763848201398 ], [ -94.2511755000005, 47.2884379000091 ] ] } },
{ "type": "Feature", "properties": { "wmUplineSo": "BENA", "wmType": "Overhead" }, "geometry": { "type": "LineString", "coordinates": [ [ -94.250475170236797, 47.288383776893497 ], [ -94.250611600000497, 47.288298300009103 ] ] } },
{ "type": "Feature", "properties": { "wmUplineSo": "BENA", "wmType": "Overhead" }, "geometry": { "type": "LineString", "coordinates": [ [ -94.2274642862224, 47.273856893921497 ], [ -94.227991800000495, 47.274332000009103 ] ] } },
{ "type": "Feature", "properties": { "wmUplineSo": "BENA", "wmType": "Overhead" }, "geometry": { "type": "LineString", "coordinates": [ [ -94.223116000076601, 47.246530003627498 ], [ -94.223156100000494, 47.246551800009001 ] ] } },
{ "type": "Feature", "properties": { "wmUplineSo": "BENA", "wmType": "Overhead" }, "geometry": { "type": "LineString", "coordinates": [ [ -94.221487681678695, 47.2472980344916 ], [ -94.221818600000503, 47.247311000008999 ] ] } },
{ "type": "Feature", "properties": { "wmUplineSo": "BENA", "wmType": "Overhead" }, "geometry": { "type": "LineString", "coordinates": [ [ -94.223509831607899, 47.243167950606399 ], [ -94.223562800000494, 47.243296500009002 ] ] } },
{ "type": "Feature", "properties": { "wmUplineSo": "BENA", "wmType": "Overhead" }, "geometry": { "type": "LineString", "coordinates": [ [ -94.222745731546397, 47.243278140212801 ], [ -94.222800100000498, 47.243272100009001 ] ] } },
{ "type": "Feature", "properties": { "wmUplineSo": "BENA", "wmType": "Overhead" }, "geometry": { "type": "LineString", "coordinates": [ [ -94.220456325217199, 47.243101563147398 ], [ -94.220582500000504, 47.242629000009003 ] ] } },
{ "type": "Feature", "properties": { "wmUplineSo": "BENA", "wmType": "Overhead" }, "geometry": { "type": "LineString", "coordinates": [ [ -94.220456325217199, 47.243101563147398 ], [ -94.2205524000005, 47.242235100008998 ] ] } },
{ "type": "Feature", "properties": { "wmUplineSo": "BENA", "wmType": "Overhead" }, "geometry": { "type": "LineString", "coordinates": [ [ -94.214381000076003, 47.244335003626901 ], [ -94.214074657691796, 47.244264671676703 ] ] } },
{ "type": "Feature", "properties": { "wmUplineSo": "BENA", "wmType": "Overhead" }, "geometry": { "type": "LineString", "coordinates": [ [ -94.214391453008801, 47.243911853616602 ], [ -94.2147689253176, 47.243435007228598 ] ] } },
{ "type": "Feature", "properties": { "wmUplineSo": "BENA", "wmType": "Overhead" }, "geometry": { "type": "LineString", "coordinates": [ [ -94.214391453008801, 47.243911853616602 ], [ -94.214082800000497, 47.243732300009 ] ] } },
{ "type": "Feature", "properties": { "wmUplineSo": "BENA", "wmType": "Overhead" }, "geometry": { "type": "LineString", "coordinates": [ [ -94.214391453008801, 47.243911853616602 ], [ -94.213995202805904, 47.243733896153998 ] ] } },
{ "type": "Feature", "properties": { "wmUplineSo": "BENA", "wmType": "Overhead" }, "geometry": { "type": "LineString", "coordinates": [ [ -94.214525822409996, 47.246581876349801 ], [ -94.214515100000497, 47.246578000009002 ] ] } },
{ "type": "Feature", "properties": { "wmUplineSo": "BENA", "wmType": "Overhead" }, "geometry": { "type": "LineString", "coordinates": [ [ -94.214525822409996, 47.246581876349801 ], [ -94.214856900000498, 47.246205600008999 ] ] } },
{ "type": "Feature", "properties": { "wmUplineSo": "BENA", "wmType": "Overhead" }, "geometry": { "type": "LineString", "coordinates": [ [ -94.214381000076003, 47.244335003626901 ], [ -94.214033612525, 47.244649050668301 ] ] } },
{ "type": "Feature", "properties": { "wmUplineSo": "BENA", "wmType": "Overhead" }, "geometry": { "type": "LineString", "coordinates": [ [ -94.214381000076003, 47.244335003626901 ], [ -94.214673300000499, 47.244316800009003 ] ] } },
{ "type": "Feature", "properties": { "wmUplineSo": "BENA", "wmType": "Overhead" }, "geometry": { "type": "LineString", "coordinates": [ [ -94.214381000076003, 47.244335003626901 ], [ -94.214710710000503, 47.244442510009002 ] ] } },
{ "type": "Feature", "properties": { "wmUplineSo": "BENA", "wmType": "Overhead" }, "geometry": { "type": "LineString", "coordinates": [ [ -94.218619005193403, 47.243074092605603 ], [ -94.218631713326801, 47.243322619484303 ] ] } },
{ "type": "Feature", "properties": { "wmUplineSo": "BENA", "wmType": "Overhead" }, "geometry": { "type": "LineString", "coordinates": [ [ -94.211397817350303, 47.245034872906302 ], [ -94.211374800000499, 47.245041100008997 ] ] } },
{ "type": "Feature", "properties": { "wmUplineSo": "BENA", "wmType": "Overhead" }, "geometry": { "type": "LineString", "coordinates": [ [ -94.211397817350303, 47.245034872906302 ], [ -94.211696300000497, 47.244659000009001 ] ] } },
{ "type": "Feature", "properties": { "wmUplineSo": "BENA", "wmType": "Overhead" }, "geometry": { "type": "LineString", "coordinates": [ [ -94.211397817350303, 47.245034872906302 ], [ -94.211682300000504, 47.245335400008997 ] ] } },
{ "type": "Feature", "properties": { "wmUplineSo": "BENA", "wmType": "Overhead" }, "geometry": { "type": "LineString", "coordinates": [ [ -94.212703621244302, 47.243877053757302 ], [ -94.212736600000497, 47.243913800008997 ] ] } },
{ "type": "Feature", "properties": { "wmUplineSo": "BENA", "wmType": "Overhead" }, "geometry": { "type": "LineString", "coordinates": [ [ -94.213120972191504, 47.2452217544581 ], [ -94.213164600000496, 47.245130300009002 ] ] } },
{ "type": "Feature", "properties": { "wmUplineSo": "BENA", "wmType": "Overhead" }, "geometry": { "type": "LineString", "coordinates": [ [ -94.213715488992193, 47.2457208585692 ], [ -94.213749036871107, 47.245657280731898 ] ] } },
{ "type": "Feature", "properties": { "wmUplineSo": "BENA", "wmType": "Overhead" }, "geometry": { "type": "LineString", "coordinates": [ [ -94.217378779230899, 47.245083447722102 ], [ -94.2173603800005, 47.245252010008997 ] ] } },
{ "type": "Feature", "properties": { "wmUplineSo": "BENA", "wmType": "Overhead" }, "geometry": { "type": "LineString", "coordinates": [ [ -94.217378779230899, 47.245083447722102 ], [ -94.217099160000501, 47.244469830009002 ] ] } },
{ "type": "Feature", "properties": { "wmUplineSo": "BENA", "wmType": "Overhead" }, "geometry": { "type": "LineString", "coordinates": [ [ -94.216642414208707, 47.245064552651897 ], [ -94.216818300000497, 47.245139800008999 ] ] } },
{ "type": "Feature", "properties": { "wmUplineSo": "BENA", "wmType": "Overhead" }, "geometry": { "type": "LineString", "coordinates": [ [ -94.217378779230899, 47.245083447722102 ], [ -94.217209738189396, 47.244745435050497 ] ] } },
{ "type": "Feature", "properties": { "wmUplineSo": "BENA", "wmType": "Overhead" }, "geometry": { "type": "LineString", "coordinates": [ [ -94.215871309796796, 47.244367343644697 ], [ -94.215859300000503, 47.244374800008998 ] ] } },
{ "type": "Feature", "properties": { "wmUplineSo": "BENA", "wmType": "Overhead" }, "geometry": { "type": "LineString", "coordinates": [ [ -94.215869847117304, 47.243940506388903 ], [ -94.215463600000504, 47.243611400009001 ] ] } },
{ "type": "Feature", "properties": { "wmUplineSo": "BENA", "wmType": "Overhead" }, "geometry": { "type": "LineString", "coordinates": [ [ -94.215869847117304, 47.243940506388903 ], [ -94.215448300000503, 47.243759100009001 ] ] } },
{ "type": "Feature", "properties": { "wmUplineSo": "BENA", "wmType": "Overhead" }, "geometry": { "type": "LineString", "coordinates": [ [ -94.215868689038004, 47.244747481577797 ], [ -94.2158931000005, 47.244721600009001 ] ] } },
{ "type": "Feature", "properties": { "wmUplineSo": "BENA", "wmType": "Overhead" }, "geometry": { "type": "LineString", "coordinates": [ [ -94.215768375638007, 47.245051963421197 ], [ -94.215448000000507, 47.245145500009002 ] ] } },
{ "type": "Feature", "properties": { "wmUplineSo": "BENA", "wmType": "Overhead" }, "geometry": { "type": "LineString", "coordinates": [ [ -94.215768375638007, 47.245051963421197 ], [ -94.216233300000496, 47.245125800008999 ] ] } },
{ "type": "Feature", "properties": { "wmUplineSo": "BENA", "wmType": "Overhead" }, "geometry": { "type": "LineString", "coordinates": [ [ -94.215755716634504, 47.245603283001003 ], [ -94.215920300000505, 47.245701400008997 ] ] } },
{ "type": "Feature", "properties": { "wmUplineSo": "BENA", "wmType": "Overhead" }, "geometry": { "type": "LineString", "coordinates": [ [ -94.215755716634504, 47.245603283001003 ], [ -94.215489000000503, 47.245392800009 ] ] } },
{ "type": "Feature", "properties": { "wmUplineSo": "BENA", "wmType": "Overhead" }, "geometry": { "type": "LineString", "coordinates": [ [ -94.215755716634504, 47.245603283001003 ], [ -94.2154524819871, 47.245697640697202 ] ] } },
{ "type": "Feature", "properties": { "wmUplineSo": "BENA", "wmType": "Overhead" }, "geometry": { "type": "LineString", "coordinates": [ [ -94.217721460943096, 47.247345488543203 ], [ -94.217393600000506, 47.247345300009002 ] ] } },
{ "type": "Feature", "properties": { "wmUplineSo": "BENA", "wmType": "Overhead" }, "geometry": { "type": "LineString", "coordinates": [ [ -94.212740131909996, 47.245431246478297 ], [ -94.213063867071298, 47.245423999696101 ] ] } },
{ "type": "Feature", "properties": { "wmUplineSo": "BENA", "wmType": "Overhead" }, "geometry": { "type": "LineString", "coordinates": [ [ -94.212779058817901, 47.246276775086898 ], [ -94.212970300000507, 47.246174300009002 ] ] } },
{ "type": "Feature", "properties": { "wmUplineSo": "BENA", "wmType": "Overhead" }, "geometry": { "type": "LineString", "coordinates": [ [ -94.212779058817901, 47.246276775086898 ], [ -94.212990600000495, 47.246480000009001 ] ] } },
{ "type": "Feature", "properties": { "wmUplineSo": "BENA", "wmType": "Overhead" }, "geometry": { "type": "LineString", "coordinates": [ [ -94.214325577122807, 47.245464047201999 ], [ -94.214419900000493, 47.245716700008998 ] ] } },
{ "type": "Feature", "properties": { "wmUplineSo": "BENA", "wmType": "Overhead" }, "geometry": { "type": "LineString", "coordinates": [ [ -94.214325577122807, 47.245464047201999 ], [ -94.214019400000495, 47.245197900009003 ] ] } },
{ "type": "Feature", "properties": { "wmUplineSo": "BENA", "wmType": "Overhead" }, "geometry": { "type": "LineString", "coordinates": [ [ -94.214315883542199, 47.246213836850401 ], [ -94.214755552554806, 47.2461240451469 ] ] } },
{ "type": "Feature", "properties": { "wmUplineSo": "BENA", "wmType": "Overhead" }, "geometry": { "type": "LineString", "coordinates": [ [ -94.214325577122807, 47.245464047201999 ], [ -94.214732593157507, 47.245306047777099 ] ] } },
{ "type": "Feature", "properties": { "wmUplineSo": "BENA", "wmType": "Overhead" }, "geometry": { "type": "LineString", "coordinates": [ [ -94.217714962935602, 47.247052589946797 ], [ -94.217721460943096, 47.247345488543203 ] ] } },
{ "type": "Feature", "properties": { "wmUplineSo": "BENA", "wmType": "Overhead" }, "geometry": { "type": "LineString", "coordinates": [ [ -94.217378779230899, 47.245083447722102 ], [ -94.217241300000495, 47.244389000009001 ] ] } },
{ "type": "Feature", "properties": { "wmUplineSo": "BENA", "wmType": "Overhead" }, "geometry": { "type": "LineString", "coordinates": [ [ -94.216623643310498, 47.247051872861199 ], [ -94.216910000000496, 47.247240800009003 ] ] } },
{ "type": "Feature", "properties": { "wmUplineSo": "BENA", "wmType": "Overhead" }, "geometry": { "type": "LineString", "coordinates": [ [ -94.216623643310498, 47.247051872861199 ], [ -94.216257400000501, 47.247092100008999 ] ] } },
{ "type": "Feature", "properties": { "wmUplineSo": "BENA", "wmType": "Overhead" }, "geometry": { "type": "LineString", "coordinates": [ [ -94.210246471943506, 47.342291227616798 ], [ -94.210400180672195, 47.342160078017102 ] ] } },
{ "type": "Feature", "properties": { "wmUplineSo": "BENA", "wmType": "Overhead" }, "geometry": { "type": "LineString", "coordinates": [ [ -94.223937519613102, 47.246472548727603 ], [ -94.223809600000493, 47.246509300009002 ] ] } },
{ "type": "Feature", "properties": { "wmUplineSo": "BENA", "wmType": "Overhead" }, "geometry": { "type": "LineString", "coordinates": [ [ -94.223116000076601, 47.246530003627498 ], [ -94.223937519613102, 47.246472548727603 ] ] } },
{ "type": "Feature", "properties": { "wmUplineSo": "BENA", "wmType": "Overhead" }, "geometry": { "type": "LineString", "coordinates": [ [ -94.210400180672195, 47.342160078017102 ], [ -94.210471800000505, 47.3420838000091 ] ] } },
{ "type": "Feature", "properties": { "wmUplineSo": "BENA", "wmType": "Overhead" }, "geometry": { "type": "LineString", "coordinates": [ [ -94.213063867071298, 47.245423999696101 ], [ -94.213120972191504, 47.2452217544581 ] ] } },
{ "type": "Feature", "properties": { "wmUplineSo": "BENA", "wmType": "Overhead" }, "geometry": { "type": "LineString", "coordinates": [ [ -94.215768375638007, 47.245051963421197 ], [ -94.215868689038004, 47.244747481577797 ] ] } },
{ "type": "Feature", "properties": { "wmUplineSo": "BENA", "wmType": "Overhead" }, "geometry": { "type": "LineString", "coordinates": [ [ -94.216623643310498, 47.247051872861199 ], [ -94.216822100000499, 47.246804100009001 ] ] } },
{ "type": "Feature", "properties": { "wmUplineSo": "BENA", "wmType": "Overhead" }, "geometry": { "type": "LineString", "coordinates": [ [ -94.216822100000499, 47.246804100009001 ], [ -94.216857100000496, 47.246768900009002 ] ] } },
{ "type": "Feature", "properties": { "wmUplineSo": "BENA", "wmType": "Overhead" }, "geometry": { "type": "LineString", "coordinates": [ [ -94.215780550923498, 47.246641042148198 ], [ -94.215824300000506, 47.246666900008996 ] ] } },
{ "type": "Feature", "properties": { "wmUplineSo": "BENA", "wmType": "Overhead" }, "geometry": { "type": "LineString", "coordinates": [ [ -94.215734000076097, 47.246495003627501 ], [ -94.215780550923498, 47.246641042148198 ] ] } },
{ "type": "Feature", "properties": { "wmUplineSo": "BENA", "wmType": "Overhead" }, "geometry": { "type": "LineString", "coordinates": [ [ -94.215734000076097, 47.246495003627501 ], [ -94.215618800000499, 47.246760900009001 ] ] } },
{ "type": "Feature", "properties": { "wmUplineSo": "BENA", "wmType": "Overhead" }, "geometry": { "type": "LineString", "coordinates": [ [ -94.215734000076097, 47.246495003627501 ], [ -94.215372100000494, 47.246511100009002 ] ] } },
{ "type": "Feature", "properties": { "wmUplineSo": "BENA", "wmType": "Overhead" }, "geometry": { "type": "LineString", "coordinates": [ [ -94.215734000076097, 47.246495003627501 ], [ -94.215380496155305, 47.246195279807701 ] ] } },
{ "type": "Feature", "properties": { "wmUplineSo": "BENA", "wmType": "Overhead" }, "geometry": { "type": "LineString", "coordinates": [ [ -94.214525822409996, 47.246581876349801 ], [ -94.213704500000503, 47.246231500009003 ] ] } },
{ "type": "Feature", "properties": { "wmUplineSo": "BENA", "wmType": "Overhead" }, "geometry": { "type": "LineString", "coordinates": [ [ -94.214325577122807, 47.245464047201999 ], [ -94.214777300000506, 47.245319600008997 ] ] } },
{ "type": "Feature", "properties": { "wmUplineSo": "BENA", "wmType": "Overhead" }, "geometry": { "type": "LineString", "coordinates": [ [ -94.213715488992193, 47.2457208585692 ], [ -94.214015404394303, 47.245758148463601 ] ] } },
{ "type": "Feature", "properties": { "wmUplineSo": "BENA", "wmType": "Overhead" }, "geometry": { "type": "LineString", "coordinates": [ [ -94.213063867071298, 47.245423999696101 ], [ -94.213245400000503, 47.245571300008997 ] ] } },
{ "type": "Feature", "properties": { "wmUplineSo": "BENA", "wmType": "Overhead" }, "geometry": { "type": "LineString", "coordinates": [ [ -94.2130126004066, 47.244422050887998 ], [ -94.212733500000496, 47.244070800008998 ] ] } },
{ "type": "Feature", "properties": { "wmUplineSo": "BENA", "wmType": "Overhead" }, "geometry": { "type": "LineString", "coordinates": [ [ -94.2130126004066, 47.244422050887998 ], [ -94.213210900000504, 47.244453000009003 ] ] } },
{ "type": "Feature", "properties": { "wmUplineSo": "BENA", "wmType": "Overhead" }, "geometry": { "type": "LineString", "coordinates": [ [ -94.214019400000495, 47.245197900009003 ], [ -94.213773496099705, 47.245124372116599 ] ] } },
{ "type": "Feature", "properties": { "wmUplineSo": "BENA", "wmType": "Overhead" }, "geometry": { "type": "LineString", "coordinates": [ [ -94.212715596077402, 47.244401051350899 ], [ -94.2130126004066, 47.244422050887998 ] ] } },
{ "type": "Feature", "properties": { "wmUplineSo": "BENA", "wmType": "Overhead" }, "geometry": { "type": "LineString", "coordinates": [ [ -94.212103583919102, 47.244376052159303 ], [ -94.211787600000505, 47.244311300009002 ] ] } },
{ "type": "Feature", "properties": { "wmUplineSo": "BENA", "wmType": "Overhead" }, "geometry": { "type": "LineString", "coordinates": [ [ -94.212176549793597, 47.243523003534598 ], [ -94.211927500000499, 47.243520800009001 ] ] } },
{ "type": "Feature", "properties": { "wmUplineSo": "BENA", "wmType": "Overhead" }, "geometry": { "type": "LineString", "coordinates": [ [ -94.217690643407906, 47.2463001516711 ], [ -94.217525300000503, 47.246283100009002 ] ] } },
{ "type": "Feature", "properties": { "wmUplineSo": "BENA", "wmType": "Overhead" }, "geometry": { "type": "LineString", "coordinates": [ [ -94.217209738189396, 47.244745435050497 ], [ -94.217059138007997, 47.244734290849998 ] ] } },
{ "type": "Feature", "properties": { "wmUplineSo": "BENA", "wmType": "Overhead" }, "geometry": { "type": "LineString", "coordinates": [ [ -94.212740131909996, 47.245431246478297 ], [ -94.212761100000506, 47.245418500009002 ] ] } },
{ "type": "Feature", "properties": { "wmUplineSo": "BENA", "wmType": "Overhead" }, "geometry": { "type": "LineString", "coordinates": [ [ -94.217241931828994, 47.245908627511596 ], [ -94.217105416535006, 47.245794322355103 ], [ -94.217105416535006, 47.245794322355103 ] ] } },
{ "type": "Feature", "properties": { "wmUplineSo": "BENA", "wmType": "Overhead" }, "geometry": { "type": "LineString", "coordinates": [ [ -94.214407327798995, 47.243324155758799 ], [ -94.214391453008801, 47.243911853616602 ] ] } },
{ "type": "Feature", "properties": { "wmUplineSo": "BENA", "wmType": "Overhead" }, "geometry": { "type": "LineString", "coordinates": [ [ -94.227619994037696, 47.265015184084497 ], [ -94.226877223181503, 47.264256221431502 ] ] } },
{ "type": "Feature", "properties": { "wmUplineSo": "BENA", "wmType": "Overhead" }, "geometry": { "type": "LineString", "coordinates": [ [ -94.217105416535006, 47.245794322355103 ], [ -94.216970600000494, 47.245746100009001 ] ] } },
{ "type": "Feature", "properties": { "wmUplineSo": "BENA", "wmType": "Overhead" }, "geometry": { "type": "LineString", "coordinates": [ [ -94.212692666104701, 47.242949057419402 ], [ -94.211670644140298, 47.242944057448597 ] ] } },
{ "type": "Feature", "properties": { "wmUplineSo": "BENA", "wmType": "Overhead" }, "geometry": { "type": "LineString", "coordinates": [ [ -94.213798901370396, 47.242854860957998 ], [ -94.213857725740297, 47.242242058938601 ] ] } },
{ "type": "Feature", "properties": { "wmUplineSo": "BENA", "wmType": "Overhead" }, "geometry": { "type": "LineString", "coordinates": [ [ -94.2137976906033, 47.242937057259603 ], [ -94.212692666104701, 47.242949057419402 ] ] } },
{ "type": "Feature", "properties": { "wmUplineSo": "BENA", "wmType": "Overhead" }, "geometry": { "type": "LineString", "coordinates": [ [ -94.2137976906033, 47.242937057259603 ], [ -94.213798901370396, 47.242854860957998 ] ] } },
{ "type": "Feature", "properties": { "wmUplineSo": "BENA", "wmType": "Overhead" }, "geometry": { "type": "LineString", "coordinates": [ [ -94.216862286304107, 47.332650302299498 ], [ -94.216765803570297, 47.332208521172099 ] ] } },
{ "type": "Feature", "properties": { "wmUplineSo": "BENA", "wmType": "Overhead" }, "geometry": { "type": "LineString", "coordinates": [ [ -94.213981272089896, 47.335390719461401 ], [ -94.214893006326804, 47.334473294616203 ] ] } },
{ "type": "Feature", "properties": { "wmUplineSo": "BENA", "wmType": "Overhead" }, "geometry": { "type": "LineString", "coordinates": [ [ -94.216862286304107, 47.332650302299498 ], [ -94.217749517817296, 47.332013712860302 ] ] } },
{ "type": "Feature", "properties": { "wmUplineSo": "BENA", "wmType": "Overhead" }, "geometry": { "type": "LineString", "coordinates": [ [ -94.219614184550494, 47.330763854637098 ], [ -94.220444626927502, 47.330166499542301 ] ] } },
{ "type": "Feature", "properties": { "wmUplineSo": "BENA", "wmType": "Overhead" }, "geometry": { "type": "LineString", "coordinates": [ [ -94.216423203905507, 47.289216787725302 ], [ -94.217420222957301, 47.2891967899373 ] ] } },
{ "type": "Feature", "properties": { "wmUplineSo": "BENA", "wmType": "Overhead" }, "geometry": { "type": "LineString", "coordinates": [ [ -94.211787409435004, 47.337693468751802 ], [ -94.212608118849602, 47.336866412937397 ] ] } },
{ "type": "Feature", "properties": { "wmUplineSo": "BENA", "wmType": "Overhead" }, "geometry": { "type": "LineString", "coordinates": [ [ -94.212199710229399, 47.338449768742997 ], [ -94.211787409435004, 47.337693468751802 ] ] } },
{ "type": "Feature", "properties": { "wmUplineSo": "BENA", "wmType": "Overhead" }, "geometry": { "type": "LineString", "coordinates": [ [ -94.212199710229399, 47.338449768742997 ], [ -94.213061332855204, 47.3387948000832 ] ] } },
{ "type": "Feature", "properties": { "wmUplineSo": "BENA", "wmType": "Overhead" }, "geometry": { "type": "LineString", "coordinates": [ [ -94.211260263933696, 47.340141449834697 ], [ -94.211587311064207, 47.339420455862196 ] ] } },
{ "type": "Feature", "properties": { "wmUplineSo": "BENA", "wmType": "Overhead" }, "geometry": { "type": "LineString", "coordinates": [ [ -94.211845342730896, 47.338936459842003 ], [ -94.212199710229399, 47.338449768742997 ] ] } },
{ "type": "Feature", "properties": { "wmUplineSo": "BENA", "wmType": "Overhead" }, "geometry": { "type": "LineString", "coordinates": [ [ -94.217420222957301, 47.2891967899373 ], [ -94.218961254041503, 47.289196792247601 ] ] } },
{ "type": "Feature", "properties": { "wmUplineSo": "BENA", "wmType": "Overhead" }, "geometry": { "type": "LineString", "coordinates": [ [ -94.225948494104401, 47.2873518146571 ], [ -94.227204627453503, 47.287417090869603 ] ] } },
{ "type": "Feature", "properties": { "wmUplineSo": "BENA", "wmType": "Overhead" }, "geometry": { "type": "LineString", "coordinates": [ [ -94.255289516630597, 47.291203395502002 ], [ -94.255379718372396, 47.290933847298 ] ] } },
{ "type": "Feature", "properties": { "wmUplineSo": "BENA", "wmType": "Overhead" }, "geometry": { "type": "LineString", "coordinates": [ [ -94.255710427393197, 47.2915433051894 ], [ -94.255289516630597, 47.291203395502002 ] ] } },
{ "type": "Feature", "properties": { "wmUplineSo": "BENA", "wmType": "Overhead" }, "geometry": { "type": "LineString", "coordinates": [ [ -94.254860006180394, 47.290886685120199 ], [ -94.254833221676904, 47.290852768944497 ] ] } },
{ "type": "Feature", "properties": { "wmUplineSo": "BENA", "wmType": "Overhead" }, "geometry": { "type": "LineString", "coordinates": [ [ -94.255289516630597, 47.291203395502002 ], [ -94.254860006180394, 47.290886685120199 ] ] } },
{ "type": "Feature", "properties": { "wmUplineSo": "BENA", "wmType": "Overhead" }, "geometry": { "type": "LineString", "coordinates": [ [ -94.253376920620894, 47.289728853010601 ], [ -94.253386506038595, 47.289570964224502 ] ] } },
{ "type": "Feature", "properties": { "wmUplineSo": "BENA", "wmType": "Overhead" }, "geometry": { "type": "LineString", "coordinates": [ [ -94.253386506038595, 47.289570964224502 ], [ -94.252327864518193, 47.289268846933403 ] ] } },
{ "type": "Feature", "properties": { "wmUplineSo": "BENA", "wmType": "Overhead" }, "geometry": { "type": "LineString", "coordinates": [ [ -94.251266917752602, 47.288763848201398 ], [ -94.250475170236797, 47.288383776893497 ] ] } },
{ "type": "Feature", "properties": { "wmUplineSo": "BENA", "wmType": "Overhead" }, "geometry": { "type": "LineString", "coordinates": [ [ -94.252327864518193, 47.289268846933403 ], [ -94.251266917752602, 47.288763848201398 ] ] } },
{ "type": "Feature", "properties": { "wmUplineSo": "BENA", "wmType": "Overhead" }, "geometry": { "type": "LineString", "coordinates": [ [ -94.250475170236797, 47.288383776893497 ], [ -94.249878930828302, 47.287938848441797 ] ] } },
{ "type": "Feature", "properties": { "wmUplineSo": "BENA", "wmType": "Overhead" }, "geometry": { "type": "LineString", "coordinates": [ [ -94.216423203905507, 47.289216787725302 ], [ -94.216745246303503, 47.288566793240101 ] ] } },
{ "type": "Feature", "properties": { "wmUplineSo": "BENA", "wmType": "Overhead" }, "geometry": { "type": "LineString", "coordinates": [ [ -94.219251515601499, 47.284655821107897 ], [ -94.219793571447596, 47.283840826180999 ] ] } },
{ "type": "Feature", "properties": { "wmUplineSo": "BENA", "wmType": "Overhead" }, "geometry": { "type": "LineString", "coordinates": [ [ -94.221487681678695, 47.2472980344916 ], [ -94.222097000076502, 47.246717003627801 ] ] } },
{ "type": "Feature", "properties": { "wmUplineSo": "BENA", "wmType": "Overhead" }, "geometry": { "type": "LineString", "coordinates": [ [ -94.223166955300599, 47.241257406650703 ], [ -94.223230893824507, 47.240390087758001 ] ] } },
{ "type": "Feature", "properties": { "wmUplineSo": "BENA", "wmType": "Overhead" }, "geometry": { "type": "LineString", "coordinates": [ [ -94.223255117625897, 47.2432309585651 ], [ -94.223348370562405, 47.242048491086898 ] ] } },
{ "type": "Feature", "properties": { "wmUplineSo": "BENA", "wmType": "Overhead" }, "geometry": { "type": "LineString", "coordinates": [ [ -94.222745731546397, 47.243278140212801 ], [ -94.223255117625897, 47.2432309585651 ] ] } },
{ "type": "Feature", "properties": { "wmUplineSo": "BENA", "wmType": "Overhead" }, "geometry": { "type": "LineString", "coordinates": [ [ -94.210218106334196, 47.342658429563102 ], [ -94.210246471943506, 47.342291227616798 ] ] } },
{ "type": "Feature", "properties": { "wmUplineSo": "BENA", "wmType": "Overhead" }, "geometry": { "type": "LineString", "coordinates": [ [ -94.2102578319722, 47.341755370309798 ], [ -94.210710234660695, 47.341003884220697 ] ] } },
{ "type": "Feature", "properties": { "wmUplineSo": "BENA", "wmType": "Overhead" }, "geometry": { "type": "LineString", "coordinates": [ [ -94.210710234660695, 47.341003884220697 ], [ -94.211260263933696, 47.340141449834697 ] ] } },
{ "type": "Feature", "properties": { "wmUplineSo": "BENA", "wmType": "Overhead" }, "geometry": { "type": "LineString", "coordinates": [ [ -94.214893006326804, 47.334473294616203 ], [ -94.213565633976501, 47.3342364966228 ] ] } },
{ "type": "Feature", "properties": { "wmUplineSo": "BENA", "wmType": "Overhead" }, "geometry": { "type": "LineString", "coordinates": [ [ -94.223255117625897, 47.2432309585651 ], [ -94.223509831607899, 47.243167950606399 ] ] } },
{ "type": "Feature", "properties": { "wmUplineSo": "BENA", "wmType": "Overhead" }, "geometry": { "type": "LineString", "coordinates": [ [ -94.222186354799703, 47.243150136797802 ], [ -94.222745731546397, 47.243278140212801 ] ] } },
{ "type": "Feature", "properties": { "wmUplineSo": "BENA", "wmType": "Overhead" }, "geometry": { "type": "LineString", "coordinates": [ [ -94.222186354799703, 47.243150136797802 ], [ -94.222097927016904, 47.242442361309102 ] ] } },
{ "type": "Feature", "properties": { "wmUplineSo": "BENA", "wmType": "Overhead" }, "geometry": { "type": "LineString", "coordinates": [ [ -94.220456325217199, 47.243101563147398 ], [ -94.221259418501504, 47.24313026035 ] ] } },
{ "type": "Feature", "properties": { "wmUplineSo": "BENA", "wmType": "Overhead" }, "geometry": { "type": "LineString", "coordinates": [ [ -94.2274642862224, 47.273856893921497 ], [ -94.227486337953593, 47.272983898008803 ] ] } },
{ "type": "Feature", "properties": { "wmUplineSo": "BENA", "wmType": "Overhead" }, "geometry": { "type": "LineString", "coordinates": [ [ -94.218879360595295, 47.243084655919603 ], [ -94.220456325217199, 47.243101563147398 ] ] } },
{ "type": "Feature", "properties": { "wmUplineSo": "BENA", "wmType": "Overhead" }, "geometry": { "type": "LineString", "coordinates": [ [ -94.212692666104701, 47.242949057419402 ], [ -94.212706931289901, 47.2430020756956 ] ] } },
{ "type": "Feature", "properties": { "wmUplineSo": "BENA", "wmType": "Overhead" }, "geometry": { "type": "LineString", "coordinates": [ [ -94.214391453008801, 47.243911853616602 ], [ -94.214381000076003, 47.244335003626901 ] ] } },
{ "type": "Feature", "properties": { "wmUplineSo": "BENA", "wmType": "Overhead" }, "geometry": { "type": "LineString", "coordinates": [ [ -94.210213451213306, 47.342746790515399 ], [ -94.210218106334196, 47.342658429563102 ] ] } },
{ "type": "Feature", "properties": { "wmUplineSo": "BENA", "wmType": "Overhead" }, "geometry": { "type": "LineString", "coordinates": [ [ -94.210520648695805, 47.342678106282897 ], [ -94.210213451213306, 47.342746790515399 ] ] } },
{ "type": "Feature", "properties": { "wmUplineSo": "BENA", "wmType": "Overhead" }, "geometry": { "type": "LineString", "coordinates": [ [ -94.254778000079099, 47.291788718959502 ], [ -94.255710427393197, 47.2915433051894 ] ] } },
{ "type": "Feature", "properties": { "wmUplineSo": "BENA", "wmType": "Overhead" }, "geometry": { "type": "LineString", "coordinates": [ [ -94.212752875117403, 47.245803857232602 ], [ -94.212938354071397, 47.245889362502602 ] ] } },
{ "type": "Feature", "properties": { "wmUplineSo": "BENA", "wmType": "Overhead" }, "geometry": { "type": "LineString", "coordinates": [ [ -94.212752875117403, 47.245803857232602 ], [ -94.212129578910293, 47.245877117451201 ] ] } },
{ "type": "Feature", "properties": { "wmUplineSo": "BENA", "wmType": "Overhead" }, "geometry": { "type": "LineString", "coordinates": [ [ -94.216642414208707, 47.245064552651897 ], [ -94.217378779230899, 47.245083447722102 ] ] } },
{ "type": "Feature", "properties": { "wmUplineSo": "BENA", "wmType": "Overhead" }, "geometry": { "type": "LineString", "coordinates": [ [ -94.216125701735095, 47.2450539438493 ], [ -94.216642414208707, 47.245064552651897 ] ] } },
{ "type": "Feature", "properties": { "wmUplineSo": "BENA", "wmType": "Overhead" }, "geometry": { "type": "LineString", "coordinates": [ [ -94.215868689038004, 47.244747481577797 ], [ -94.215871309796796, 47.244367343644697 ] ] } },
{ "type": "Feature", "properties": { "wmUplineSo": "BENA", "wmType": "Overhead" }, "geometry": { "type": "LineString", "coordinates": [ [ -94.215869847117304, 47.243940506388903 ], [ -94.215866707023395, 47.243510302350003 ] ] } },
{ "type": "Feature", "properties": { "wmUplineSo": "BENA", "wmType": "Overhead" }, "geometry": { "type": "LineString", "coordinates": [ [ -94.215768375638007, 47.245051963421197 ], [ -94.216125701735095, 47.2450539438493 ] ] } },
{ "type": "Feature", "properties": { "wmUplineSo": "BENA", "wmType": "Overhead" }, "geometry": { "type": "LineString", "coordinates": [ [ -94.215755716634504, 47.245603283001003 ], [ -94.215768375638007, 47.245051963421197 ] ] } },
{ "type": "Feature", "properties": { "wmUplineSo": "BENA", "wmType": "Overhead" }, "geometry": { "type": "LineString", "coordinates": [ [ -94.221030570421703, 47.257765913411497 ], [ -94.220528483121498, 47.256309413685997 ] ] } },
{ "type": "Feature", "properties": { "wmUplineSo": "BENA", "wmType": "Overhead" }, "geometry": { "type": "LineString", "coordinates": [ [ -94.215734000076097, 47.246495003627501 ], [ -94.215735745707306, 47.246072331508998 ] ] } },
{ "type": "Feature", "properties": { "wmUplineSo": "BENA", "wmType": "Overhead" }, "geometry": { "type": "LineString", "coordinates": [ [ -94.215735745707306, 47.246072331508998 ], [ -94.215755716634504, 47.245603283001003 ] ] } },
{ "type": "Feature", "properties": { "wmUplineSo": "BENA", "wmType": "Overhead" }, "geometry": { "type": "LineString", "coordinates": [ [ -94.212752875117403, 47.245803857232602 ], [ -94.212779058817901, 47.246276775086898 ] ] } },
{ "type": "Feature", "properties": { "wmUplineSo": "BENA", "wmType": "Overhead" }, "geometry": { "type": "LineString", "coordinates": [ [ -94.212740131909996, 47.245431246478297 ], [ -94.212752875117403, 47.245803857232602 ] ] } },
{ "type": "Feature", "properties": { "wmUplineSo": "BENA", "wmType": "Overhead" }, "geometry": { "type": "LineString", "coordinates": [ [ -94.215534101754898, 47.242988027301401 ], [ -94.215197717581702, 47.242989057959299 ] ] } },
{ "type": "Feature", "properties": { "wmUplineSo": "BENA", "wmType": "Overhead" }, "geometry": { "type": "LineString", "coordinates": [ [ -94.214420701806404, 47.242984057571199 ], [ -94.2137976906033, 47.242937057259603 ] ] } },
{ "type": "Feature", "properties": { "wmUplineSo": "BENA", "wmType": "Overhead" }, "geometry": { "type": "LineString", "coordinates": [ [ -94.214420701806404, 47.242984057571199 ], [ -94.214415232183597, 47.243031525791899 ] ] } },
{ "type": "Feature", "properties": { "wmUplineSo": "BENA", "wmType": "Overhead" }, "geometry": { "type": "LineString", "coordinates": [ [ -94.214415232183597, 47.243031525791899 ], [ -94.214407327798995, 47.243324155758799 ] ] } },
{ "type": "Feature", "properties": { "wmUplineSo": "BENA", "wmType": "Overhead" }, "geometry": { "type": "LineString", "coordinates": [ [ -94.214338121782404, 47.245041476887799 ], [ -94.214325577122807, 47.245464047201999 ] ] } },
{ "type": "Feature", "properties": { "wmUplineSo": "BENA", "wmType": "Overhead" }, "geometry": { "type": "LineString", "coordinates": [ [ -94.214325577122807, 47.245464047201999 ], [ -94.214320204113804, 47.245879645210103 ] ] } },
{ "type": "Feature", "properties": { "wmUplineSo": "BENA", "wmType": "Overhead" }, "geometry": { "type": "LineString", "coordinates": [ [ -94.214315883542199, 47.246213836850401 ], [ -94.214525822409996, 47.246581876349801 ] ] } },
{ "type": "Feature", "properties": { "wmUplineSo": "BENA", "wmType": "Overhead" }, "geometry": { "type": "LineString", "coordinates": [ [ -94.218979284491297, 47.247066664012202 ], [ -94.217714962935602, 47.247052589946797 ] ] } },
{ "type": "Feature", "properties": { "wmUplineSo": "BENA", "wmType": "Overhead" }, "geometry": { "type": "LineString", "coordinates": [ [ -94.216623643310498, 47.247051872861199 ], [ -94.215733338406906, 47.247010680169602 ] ] } },
{ "type": "Feature", "properties": { "wmUplineSo": "BENA", "wmType": "Overhead" }, "geometry": { "type": "LineString", "coordinates": [ [ -94.217714962935602, 47.247052589946797 ], [ -94.216623643310498, 47.247051872861199 ] ] } },
{ "type": "Feature", "properties": { "wmUplineSo": "BENA", "wmType": "Overhead" }, "geometry": { "type": "LineString", "coordinates": [ [ -94.216623643310498, 47.247051872861199 ], [ -94.216590550040294, 47.247006041603903 ] ] } },
{ "type": "Feature", "properties": { "wmUplineSo": "BENA", "wmType": "Overhead" }, "geometry": { "type": "LineString", "coordinates": [ [ -94.250475170236797, 47.288383776893497 ], [ -94.250623938405894, 47.288123850221197 ] ] } },
{ "type": "Feature", "properties": { "wmUplineSo": "BENA", "wmType": "Overhead" }, "geometry": { "type": "LineString", "coordinates": [ [ -94.249669, 47.287638 ], [ -94.249769462652296, 47.287632731041199 ] ] } },
{ "type": "Feature", "properties": { "wmUplineSo": "BENA", "wmType": "Overhead" }, "geometry": { "type": "LineString", "coordinates": [ [ -94.212129578910293, 47.245877117451201 ], [ -94.212096486965095, 47.245875000975097 ] ] } },
{ "type": "Feature", "properties": { "wmUplineSo": "BENA", "wmType": "Overhead" }, "geometry": { "type": "LineString", "coordinates": [ [ -94.212737556526704, 47.245042716348699 ], [ -94.212740131909996, 47.245431246478297 ] ] } },
{ "type": "Feature", "properties": { "wmUplineSo": "BENA", "wmType": "Overhead" }, "geometry": { "type": "LineString", "coordinates": [ [ -94.212715596077402, 47.244401051350899 ], [ -94.212737556526704, 47.245042716348699 ] ] } },
{ "type": "Feature", "properties": { "wmUplineSo": "BENA", "wmType": "Overhead" }, "geometry": { "type": "LineString", "coordinates": [ [ -94.212706931289901, 47.2430020756956 ], [ -94.212729718592001, 47.243566383506497 ] ] } },
{ "type": "Feature", "properties": { "wmUplineSo": "BENA", "wmType": "Overhead" }, "geometry": { "type": "LineString", "coordinates": [ [ -94.212729718592001, 47.243566383506497 ], [ -94.212703621244302, 47.243877053757302 ] ] } },
{ "type": "Feature", "properties": { "wmUplineSo": "BENA", "wmType": "Overhead" }, "geometry": { "type": "LineString", "coordinates": [ [ -94.212703621244302, 47.243877053757302 ], [ -94.212665612795504, 47.244047053220697 ] ] } },
{ "type": "Feature", "properties": { "wmUplineSo": "BENA", "wmType": "Overhead" }, "geometry": { "type": "LineString", "coordinates": [ [ -94.212665612795504, 47.244047053220697 ], [ -94.212715596077402, 47.244401051350899 ] ] } },
{ "type": "Feature", "properties": { "wmUplineSo": "BENA", "wmType": "Overhead" }, "geometry": { "type": "LineString", "coordinates": [ [ -94.212729718592001, 47.243566383506497 ], [ -94.212176549793597, 47.243523003534598 ] ] } },
{ "type": "Feature", "properties": { "wmUplineSo": "BENA", "wmType": "Overhead" }, "geometry": { "type": "LineString", "coordinates": [ [ -94.212737556526704, 47.245042716348699 ], [ -94.212099599362801, 47.245032325115702 ] ] } },
{ "type": "Feature", "properties": { "wmUplineSo": "BENA", "wmType": "Overhead" }, "geometry": { "type": "LineString", "coordinates": [ [ -94.212099599362801, 47.245032325115702 ], [ -94.212103583919102, 47.244376052159303 ] ] } },
{ "type": "Feature", "properties": { "wmUplineSo": "BENA", "wmType": "Overhead" }, "geometry": { "type": "LineString", "coordinates": [ [ -94.217690643407906, 47.2463001516711 ], [ -94.217241931828994, 47.245908627511596 ] ] } },
{ "type": "Feature", "properties": { "wmUplineSo": "BENA", "wmType": "Overhead" }, "geometry": { "type": "LineString", "coordinates": [ [ -94.213565633976501, 47.3342364966228 ], [ -94.212152611671002, 47.334178492829402 ] ] } },
{ "type": "Feature", "properties": { "wmUplineSo": "BENA", "wmType": "Overhead" }, "geometry": { "type": "LineString", "coordinates": [ [ -94.218979284491297, 47.247066664012202 ], [ -94.219793733658904, 47.247068175924198 ] ] } },
{ "type": "Feature", "properties": { "wmUplineSo": "BENA", "wmType": "Overhead" }, "geometry": { "type": "LineString", "coordinates": [ [ -94.220569713785594, 47.247101015109102 ], [ -94.220669207517005, 47.247127896918101 ] ] } },
{ "type": "Feature", "properties": { "wmUplineSo": "BENA", "wmType": "Overhead" }, "geometry": { "type": "LineString", "coordinates": [ [ -94.220669207517005, 47.247127896918101 ], [ -94.221487681678695, 47.2472980344916 ] ] } },
{ "type": "Feature", "properties": { "wmUplineSo": "BENA", "wmType": "Overhead" }, "geometry": { "type": "LineString", "coordinates": [ [ -94.217262240656893, 47.243045140270901 ], [ -94.217118429040497, 47.242436262840798 ], [ -94.216975168866696, 47.241829705428799 ] ] } },
{ "type": "Feature", "properties": { "wmUplineSo": "BENA", "wmType": "Overhead" }, "geometry": { "type": "LineString", "coordinates": [ [ -94.215901900218796, 47.243017249412098 ], [ -94.215534101754898, 47.242988027301401 ] ] } },
{ "type": "Feature", "properties": { "wmUplineSo": "BENA", "wmType": "Overhead" }, "geometry": { "type": "LineString", "coordinates": [ [ -94.215901900218796, 47.243017249412098 ], [ -94.217262240656893, 47.243045140270901 ] ] } },
{ "type": "Feature", "properties": { "wmUplineSo": "BENA", "wmType": "Overhead" }, "geometry": { "type": "LineString", "coordinates": [ [ -94.218619005193403, 47.243074092605603 ], [ -94.218879360595295, 47.243084655919603 ] ] } },
{ "type": "Feature", "properties": { "wmUplineSo": "BENA", "wmType": "Overhead" }, "geometry": { "type": "LineString", "coordinates": [ [ -94.217262240656893, 47.243045140270901 ], [ -94.218115421305299, 47.2430680196628 ] ] } },
{ "type": "Feature", "properties": { "wmUplineSo": "BENA", "wmType": "Overhead" }, "geometry": { "type": "LineString", "coordinates": [ [ -94.218115421305299, 47.2430680196628 ], [ -94.218619005193403, 47.243074092605603 ] ] } }
]
}
