{
"type": "FeatureCollection",
"crs": { "type": "name", "properties": { "name": "urn:ogc:def:crs:OGC:1.3:CRS84" } },
"features": [
{ "type": "Feature", "properties": { "wmUplineSo": "BENA", "wmType": "Overhead" }, "geometry": { "type": "LineString", "coordinates": [ [ -94.206652203621701, 47.344856693886399 ], [ -94.207571717287706, 47.344941387199299 ] ] } },
{ "type": "Feature", "properties": { "wmUplineSo": "BENA", "wmType": "Overhead" }, "geometry": { "type": "LineString", "coordinates": [ [ -94.207571717287706, 47.344941387199299 ], [ -94.208476535666406, 47.345015393354998 ] ] } },
{ "type": "Feature", "properties": { "wmUplineSo": "BENA", "wmType": "Overhead" }, "geometry": { "type": "LineString", "coordinates": [ [ -94.208476535666406, 47.345015393354998 ], [ -94.208617124347498, 47.345019399966397 ] ] } },
{ "type": "Feature", "properties": { "wmUplineSo": "BENA", "wmType": "Overhead" }, "geometry": { "type": "LineString", "coordinates": [ [ -94.208476535666406, 47.345015393354998 ], [ -94.208441013061105, 47.3450795609591 ] ] } },
{ "type": "Feature", "properties": { "wmUplineSo": "BENA", "wmType": "Overhead" }, "geometry": { "type": "LineString", "coordinates": [ [ -94.122618602641595, 47.306137963510501 ], [ -94.122522918842193, 47.306159524759202 ] ] } },
{ "type": "Feature", "properties": { "wmUplineSo": "BENA", "wmType": "Overhead" }, "geometry": { "type": "LineString", "coordinates": [ [ -94.205475935405701, 47.348695035201402 ], [ -94.205451367817304, 47.348623269403802 ], [ -94.205699601083793, 47.347986644532099 ], [ -94.205778, 47.347946 ] ] } },
{ "type": "Feature", "properties": { "wmUplineSo": "BENA", "wmType": "Overhead" }, "geometry": { "type": "LineString", "coordinates": [ [ -94.205475935405701, 47.348695035201402 ], [ -94.205371639424399, 47.348660296509998 ] ] } },
{ "type": "Feature", "properties": { "wmUplineSo": "BENA", "wmType": "Overhead" }, "geometry": { "type": "LineString", "coordinates": [ [ -94.205036131919897, 47.341479702690101 ], [ -94.204962109425296, 47.341074154724701 ] ] } },
{ "type": "Feature", "properties": { "wmUplineSo": "BENA", "wmType": "Overhead" }, "geometry": { "type": "LineString", "coordinates": [ [ -94.2064713587163, 47.340881506795597 ], [ -94.206242563686203, 47.341232285998601 ] ] } },
{ "type": "Feature", "properties": { "wmUplineSo": "BENA", "wmType": "Overhead" }, "geometry": { "type": "LineString", "coordinates": [ [ -94.209443000076504, 47.341439003653797 ], [ -94.2095235985622, 47.341407125540002 ] ] } },
{ "type": "Feature", "properties": { "wmUplineSo": "BENA", "wmType": "Overhead" }, "geometry": { "type": "LineString", "coordinates": [ [ -94.207899382142102, 47.339406486620597 ], [ -94.206329587389803, 47.339681755541399 ] ] } },
{ "type": "Feature", "properties": { "wmUplineSo": "BENA", "wmType": "Overhead" }, "geometry": { "type": "LineString", "coordinates": [ [ -94.206443333365598, 47.339346861573397 ], [ -94.206472990000506, 47.339319140009103 ] ] } },
{ "type": "Feature", "properties": { "wmUplineSo": "BENA", "wmType": "Overhead" }, "geometry": { "type": "LineString", "coordinates": [ [ -94.206881000076294, 47.337427003652898 ], [ -94.205901612200094, 47.337451814845501 ] ] } },
{ "type": "Feature", "properties": { "wmUplineSo": "BENA", "wmType": "Overhead" }, "geometry": { "type": "LineString", "coordinates": [ [ -94.206496544964693, 47.346191665794301 ], [ -94.206133002199493, 47.346119035930997 ] ] } },
{ "type": "Feature", "properties": { "wmUplineSo": "BENA", "wmType": "Overhead" }, "geometry": { "type": "LineString", "coordinates": [ [ -94.204245868809906, 47.348712276129298 ], [ -94.204286600000501, 47.348723900009098 ] ] } },
{ "type": "Feature", "properties": { "wmUplineSo": "BENA", "wmType": "Overhead" }, "geometry": { "type": "LineString", "coordinates": [ [ -94.207906959177393, 47.340395587981199 ], [ -94.208148017323893, 47.340300600262601 ] ] } },
{ "type": "Feature", "properties": { "wmUplineSo": "BENA", "wmType": "Overhead" }, "geometry": { "type": "LineString", "coordinates": [ [ -94.211578653229196, 47.337941542421802 ], [ -94.211423204175901, 47.337687304719203 ] ] } },
{ "type": "Feature", "properties": { "wmUplineSo": "BENA", "wmType": "Overhead" }, "geometry": { "type": "LineString", "coordinates": [ [ -94.205901612200094, 47.337451814845501 ], [ -94.204913303973001, 47.337934886491396 ], [ -94.204925300000497, 47.337920300009102 ] ] } },
{ "type": "Feature", "properties": { "wmUplineSo": "BENA", "wmType": "Overhead" }, "geometry": { "type": "LineString", "coordinates": [ [ -94.205901612200094, 47.337451814845501 ], [ -94.206021197175303, 47.337723109799299 ] ] } },
{ "type": "Feature", "properties": { "wmUplineSo": "BENA", "wmType": "Overhead" }, "geometry": { "type": "LineString", "coordinates": [ [ -94.2079519039697, 47.341888293282501 ], [ -94.208329100000498, 47.342014000009101 ] ] } },
{ "type": "Feature", "properties": { "wmUplineSo": "BENA", "wmType": "Overhead" }, "geometry": { "type": "LineString", "coordinates": [ [ -94.2079519039697, 47.341888293282501 ], [ -94.208266906590595, 47.341753537724003 ] ] } },
{ "type": "Feature", "properties": { "wmUplineSo": "BENA", "wmType": "Overhead" }, "geometry": { "type": "LineString", "coordinates": [ [ -94.202344000076096, 47.348895003655898 ], [ -94.202079000076097, 47.348876003656102 ] ] } },
{ "type": "Feature", "properties": { "wmUplineSo": "BENA", "wmType": "Overhead" }, "geometry": { "type": "LineString", "coordinates": [ [ -94.188224758999894, 47.3421483457184 ], [ -94.186871734210698, 47.342151340237002 ] ] } },
{ "type": "Feature", "properties": { "wmUplineSo": "BENA", "wmType": "Overhead" }, "geometry": { "type": "LineString", "coordinates": [ [ -94.186871734210698, 47.342151340237002 ], [ -94.185441710130604, 47.342155335188103 ] ] } },
{ "type": "Feature", "properties": { "wmUplineSo": "BENA", "wmType": "Overhead" }, "geometry": { "type": "LineString", "coordinates": [ [ -94.185441710130604, 47.342155335188103 ], [ -94.184231690569206, 47.342146330344903 ] ] } },
{ "type": "Feature", "properties": { "wmUplineSo": "BENA", "wmType": "Overhead" }, "geometry": { "type": "LineString", "coordinates": [ [ -94.184231690569206, 47.342146330344903 ], [ -94.183160318336405, 47.342150592418101 ] ] } },
{ "type": "Feature", "properties": { "wmUplineSo": "BENA", "wmType": "Overhead" }, "geometry": { "type": "LineString", "coordinates": [ [ -94.183160318336405, 47.342150592418101 ], [ -94.181639929570593, 47.342037314362898 ] ] } },
{ "type": "Feature", "properties": { "wmUplineSo": "BENA", "wmType": "Overhead" }, "geometry": { "type": "LineString", "coordinates": [ [ -94.181639929570593, 47.342037314362898 ], [ -94.180349352336094, 47.3419485170161 ] ] } },
{ "type": "Feature", "properties": { "wmUplineSo": "BENA", "wmType": "Overhead" }, "geometry": { "type": "LineString", "coordinates": [ [ -94.180349352336094, 47.3419485170161 ], [ -94.179303314302004, 47.341835695003397 ] ] } },
{ "type": "Feature", "properties": { "wmUplineSo": "BENA", "wmType": "Overhead" }, "geometry": { "type": "LineString", "coordinates": [ [ -94.178194529492004, 47.341745002570697 ], [ -94.177318494701595, 47.341654085107898 ] ] } },
{ "type": "Feature", "properties": { "wmUplineSo": "BENA", "wmType": "Overhead" }, "geometry": { "type": "LineString", "coordinates": [ [ -94.151800287881997, 47.324139587523703 ], [ -94.150886966782593, 47.323778782283398 ] ] } },
{ "type": "Feature", "properties": { "wmUplineSo": "BENA", "wmType": "Overhead" }, "geometry": { "type": "LineString", "coordinates": [ [ -94.177318494701595, 47.341654085107898 ], [ -94.176427621850607, 47.340923308862997 ] ] } },
{ "type": "Feature", "properties": { "wmUplineSo": "BENA", "wmType": "Overhead" }, "geometry": { "type": "LineString", "coordinates": [ [ -94.176427621850607, 47.340923308862997 ], [ -94.176072638628398, 47.340515311902102 ] ] } },
{ "type": "Feature", "properties": { "wmUplineSo": "BENA", "wmType": "Overhead" }, "geometry": { "type": "LineString", "coordinates": [ [ -94.176072638628398, 47.340515311902102 ], [ -94.175184673417306, 47.339603315278303 ] ] } },
{ "type": "Feature", "properties": { "wmUplineSo": "BENA", "wmType": "Overhead" }, "geometry": { "type": "LineString", "coordinates": [ [ -94.175184673417306, 47.339603315278303 ], [ -94.174507697109405, 47.338943318233397 ] ] } },
{ "type": "Feature", "properties": { "wmUplineSo": "BENA", "wmType": "Overhead" }, "geometry": { "type": "LineString", "coordinates": [ [ -94.174507697109405, 47.338943318233397 ], [ -94.173970085893302, 47.338300408052604 ] ] } },
{ "type": "Feature", "properties": { "wmUplineSo": "BENA", "wmType": "Overhead" }, "geometry": { "type": "LineString", "coordinates": [ [ -94.173970085893302, 47.338300408052604 ], [ -94.173302747136205, 47.337648323731401 ] ] } },
{ "type": "Feature", "properties": { "wmUplineSo": "BENA", "wmType": "Overhead" }, "geometry": { "type": "LineString", "coordinates": [ [ -94.173302747136205, 47.337648323731401 ], [ -94.172791772269306, 47.337003328173402 ] ] } },
{ "type": "Feature", "properties": { "wmUplineSo": "BENA", "wmType": "Overhead" }, "geometry": { "type": "LineString", "coordinates": [ [ -94.172791772269306, 47.337003328173402 ], [ -94.172186800238293, 47.336283331165802 ] ] } },
{ "type": "Feature", "properties": { "wmUplineSo": "BENA", "wmType": "Overhead" }, "geometry": { "type": "LineString", "coordinates": [ [ -94.172186800238293, 47.336283331165802 ], [ -94.171367832079596, 47.335453335622397 ] ] } },
{ "type": "Feature", "properties": { "wmUplineSo": "BENA", "wmType": "Overhead" }, "geometry": { "type": "LineString", "coordinates": [ [ -94.171367832079596, 47.335453335622397 ], [ -94.1706528585092, 47.334703338592803 ] ] } },
{ "type": "Feature", "properties": { "wmUplineSo": "BENA", "wmType": "Overhead" }, "geometry": { "type": "LineString", "coordinates": [ [ -94.1706528585092, 47.334703338592803 ], [ -94.169847888397896, 47.333881342903403 ] ] } },
{ "type": "Feature", "properties": { "wmUplineSo": "BENA", "wmType": "Overhead" }, "geometry": { "type": "LineString", "coordinates": [ [ -94.169847888397896, 47.333881342903403 ], [ -94.1691519206408, 47.333058347276101 ] ] } },
{ "type": "Feature", "properties": { "wmUplineSo": "BENA", "wmType": "Overhead" }, "geometry": { "type": "LineString", "coordinates": [ [ -94.1691519206408, 47.333058347276101 ], [ -94.168262942965896, 47.3323353502891 ] ] } },
{ "type": "Feature", "properties": { "wmUplineSo": "BENA", "wmType": "Overhead" }, "geometry": { "type": "LineString", "coordinates": [ [ -94.168262942965896, 47.3323353502891 ], [ -94.167586975355803, 47.3315383555029 ] ] } },
{ "type": "Feature", "properties": { "wmUplineSo": "BENA", "wmType": "Overhead" }, "geometry": { "type": "LineString", "coordinates": [ [ -94.167586975355803, 47.3315383555029 ], [ -94.166845007901003, 47.3306953586101 ] ] } },
{ "type": "Feature", "properties": { "wmUplineSo": "BENA", "wmType": "Overhead" }, "geometry": { "type": "LineString", "coordinates": [ [ -94.166845007901003, 47.3306953586101 ], [ -94.166122034282196, 47.329976362704997 ] ] } },
{ "type": "Feature", "properties": { "wmUplineSo": "BENA", "wmType": "Overhead" }, "geometry": { "type": "LineString", "coordinates": [ [ -94.166122034282196, 47.329976362704997 ], [ -94.165305062652394, 47.329176366300999 ] ] } },
{ "type": "Feature", "properties": { "wmUplineSo": "BENA", "wmType": "Overhead" }, "geometry": { "type": "LineString", "coordinates": [ [ -94.165305062652394, 47.329176366300999 ], [ -94.164774355855101, 47.328583935204897 ] ] } },
{ "type": "Feature", "properties": { "wmUplineSo": "BENA", "wmType": "Overhead" }, "geometry": { "type": "LineString", "coordinates": [ [ -94.164774355855101, 47.328583935204897 ], [ -94.164115315750195, 47.327850669716099 ] ] } },
{ "type": "Feature", "properties": { "wmUplineSo": "BENA", "wmType": "Overhead" }, "geometry": { "type": "LineString", "coordinates": [ [ -94.164115315750195, 47.327850669716099 ], [ -94.163385063797307, 47.327126694306202 ] ] } },
{ "type": "Feature", "properties": { "wmUplineSo": "BENA", "wmType": "Overhead" }, "geometry": { "type": "LineString", "coordinates": [ [ -94.163385063797307, 47.327126694306202 ], [ -94.162147143286404, 47.3266083784982 ] ] } },
{ "type": "Feature", "properties": { "wmUplineSo": "BENA", "wmType": "Overhead" }, "geometry": { "type": "LineString", "coordinates": [ [ -94.162147143286404, 47.3266083784982 ], [ -94.161018416820994, 47.326126462151997 ] ] } },
{ "type": "Feature", "properties": { "wmUplineSo": "BENA", "wmType": "Overhead" }, "geometry": { "type": "LineString", "coordinates": [ [ -94.161018416820994, 47.326126462151997 ], [ -94.159801534517399, 47.325627381614801 ] ] } },
{ "type": "Feature", "properties": { "wmUplineSo": "BENA", "wmType": "Overhead" }, "geometry": { "type": "LineString", "coordinates": [ [ -94.159801534517399, 47.325627381614801 ], [ -94.158599534407003, 47.325135280179701 ] ] } },
{ "type": "Feature", "properties": { "wmUplineSo": "BENA", "wmType": "Overhead" }, "geometry": { "type": "LineString", "coordinates": [ [ -94.158599534407003, 47.325135280179701 ], [ -94.157244379824604, 47.324940411998703 ] ] } },
{ "type": "Feature", "properties": { "wmUplineSo": "BENA", "wmType": "Overhead" }, "geometry": { "type": "LineString", "coordinates": [ [ -94.157244379824604, 47.324940411998703 ], [ -94.155895131182405, 47.324750375555197 ] ] } },
{ "type": "Feature", "properties": { "wmUplineSo": "BENA", "wmType": "Overhead" }, "geometry": { "type": "LineString", "coordinates": [ [ -94.155895131182405, 47.324750375555197 ], [ -94.154583117273702, 47.324558372886401 ] ] } },
{ "type": "Feature", "properties": { "wmUplineSo": "BENA", "wmType": "Overhead" }, "geometry": { "type": "LineString", "coordinates": [ [ -94.154583117273702, 47.324558372886401 ], [ -94.153202047932197, 47.3243540500644 ] ] } },
{ "type": "Feature", "properties": { "wmUplineSo": "BENA", "wmType": "Overhead" }, "geometry": { "type": "LineString", "coordinates": [ [ -94.149850191893407, 47.323343498098701 ], [ -94.148832094016996, 47.323076368422299 ] ] } },
{ "type": "Feature", "properties": { "wmUplineSo": "BENA", "wmType": "Overhead" }, "geometry": { "type": "LineString", "coordinates": [ [ -94.148832094016996, 47.323076368422299 ], [ -94.147972086823998, 47.322888367736901 ] ] } },
{ "type": "Feature", "properties": { "wmUplineSo": "BENA", "wmType": "Overhead" }, "geometry": { "type": "LineString", "coordinates": [ [ -94.147972086823998, 47.322888367736901 ], [ -94.146915083773493, 47.322611366711499 ] ] } },
{ "type": "Feature", "properties": { "wmUplineSo": "BENA", "wmType": "Overhead" }, "geometry": { "type": "LineString", "coordinates": [ [ -94.146915083773493, 47.322611366711499 ], [ -94.145653068179598, 47.322471364530898 ] ] } },
{ "type": "Feature", "properties": { "wmUplineSo": "BENA", "wmType": "Overhead" }, "geometry": { "type": "LineString", "coordinates": [ [ -94.145418034639604, 47.322996358746401 ], [ -94.145161983669396, 47.323906348490397 ] ] } },
{ "type": "Feature", "properties": { "wmUplineSo": "BENA", "wmType": "Overhead" }, "geometry": { "type": "LineString", "coordinates": [ [ -94.139972074597694, 47.320393367002197 ], [ -94.139010069990903, 47.320163365926902 ] ] } },
{ "type": "Feature", "properties": { "wmUplineSo": "BENA", "wmType": "Overhead" }, "geometry": { "type": "LineString", "coordinates": [ [ -94.139010069990903, 47.320163365926902 ], [ -94.137942082019407, 47.3195703686076 ] ] } },
{ "type": "Feature", "properties": { "wmUplineSo": "BENA", "wmType": "Overhead" }, "geometry": { "type": "LineString", "coordinates": [ [ -94.137942082019407, 47.3195703686076 ], [ -94.137067076859793, 47.319373367197798 ] ] } },
{ "type": "Feature", "properties": { "wmUplineSo": "BENA", "wmType": "Overhead" }, "geometry": { "type": "LineString", "coordinates": [ [ -94.137067076859793, 47.319373367197798 ], [ -94.135950067262797, 47.3191433677232 ] ] } },
{ "type": "Feature", "properties": { "wmUplineSo": "BENA", "wmType": "Overhead" }, "geometry": { "type": "LineString", "coordinates": [ [ -94.135950067262797, 47.3191433677232 ], [ -94.135098058668305, 47.319010366001898 ] ] } },
{ "type": "Feature", "properties": { "wmUplineSo": "BENA", "wmType": "Overhead" }, "geometry": { "type": "LineString", "coordinates": [ [ -94.135098058668305, 47.319010366001898 ], [ -94.133993077397506, 47.318998650735701 ] ] } },
{ "type": "Feature", "properties": { "wmUplineSo": "BENA", "wmType": "Overhead" }, "geometry": { "type": "LineString", "coordinates": [ [ -94.133993077397506, 47.318998650735701 ], [ -94.133047024374306, 47.3189603605042 ] ] } },
{ "type": "Feature", "properties": { "wmUplineSo": "BENA", "wmType": "Overhead" }, "geometry": { "type": "LineString", "coordinates": [ [ -94.133047024374306, 47.3189603605042 ], [ -94.131828000415894, 47.318985356797803 ] ] } },
{ "type": "Feature", "properties": { "wmUplineSo": "BENA", "wmType": "Overhead" }, "geometry": { "type": "LineString", "coordinates": [ [ -94.131828000415894, 47.318985356797803 ], [ -94.130859985627794, 47.318918354587701 ] ] } },
{ "type": "Feature", "properties": { "wmUplineSo": "BENA", "wmType": "Overhead" }, "geometry": { "type": "LineString", "coordinates": [ [ -94.130859985627794, 47.318918354587701 ], [ -94.129784998897406, 47.318300357445402 ] ] } },
{ "type": "Feature", "properties": { "wmUplineSo": "BENA", "wmType": "Overhead" }, "geometry": { "type": "LineString", "coordinates": [ [ -94.129784998897406, 47.318300357445402 ], [ -94.128684997815597, 47.317956358329603 ] ] } },
{ "type": "Feature", "properties": { "wmUplineSo": "BENA", "wmType": "Overhead" }, "geometry": { "type": "LineString", "coordinates": [ [ -94.128684997815597, 47.317956358329603 ], [ -94.127730007718597, 47.317453360984402 ] ] } },
{ "type": "Feature", "properties": { "wmUplineSo": "BENA", "wmType": "Overhead" }, "geometry": { "type": "LineString", "coordinates": [ [ -94.127730007718597, 47.317453360984402 ], [ -94.127317038334695, 47.316691367486897 ] ] } },
{ "type": "Feature", "properties": { "wmUplineSo": "BENA", "wmType": "Overhead" }, "geometry": { "type": "LineString", "coordinates": [ [ -94.127317038334695, 47.316691367486897 ], [ -94.1268870728059, 47.315853374924998 ] ] } },
{ "type": "Feature", "properties": { "wmUplineSo": "BENA", "wmType": "Overhead" }, "geometry": { "type": "LineString", "coordinates": [ [ -94.1268870728059, 47.315853374924998 ], [ -94.125998074683906, 47.315550375134201 ] ] } },
{ "type": "Feature", "properties": { "wmUplineSo": "BENA", "wmType": "Overhead" }, "geometry": { "type": "LineString", "coordinates": [ [ -94.125998074683906, 47.315550375134201 ], [ -94.125762116907694, 47.314606384001401 ] ] } },
{ "type": "Feature", "properties": { "wmUplineSo": "BENA", "wmType": "Overhead" }, "geometry": { "type": "LineString", "coordinates": [ [ -94.125762116907694, 47.314606384001401 ], [ -94.125157148616296, 47.313808390590701 ] ] } },
{ "type": "Feature", "properties": { "wmUplineSo": "BENA", "wmType": "Overhead" }, "geometry": { "type": "LineString", "coordinates": [ [ -94.125157148616296, 47.313808390590701 ], [ -94.124588404772396, 47.312973688936701 ] ] } },
{ "type": "Feature", "properties": { "wmUplineSo": "BENA", "wmType": "Overhead" }, "geometry": { "type": "LineString", "coordinates": [ [ -94.124588404772396, 47.312973688936701 ], [ -94.124473478450497, 47.3121123483918 ] ] } },
{ "type": "Feature", "properties": { "wmUplineSo": "BENA", "wmType": "Overhead" }, "geometry": { "type": "LineString", "coordinates": [ [ -94.124473478450497, 47.3121123483918 ], [ -94.124247337335206, 47.311128913286097 ] ] } },
{ "type": "Feature", "properties": { "wmUplineSo": "BENA", "wmType": "Overhead" }, "geometry": { "type": "LineString", "coordinates": [ [ -94.144244335585796, 47.322136339506997 ], [ -94.143420057320597, 47.321911363519597 ] ] } },
{ "type": "Feature", "properties": { "wmUplineSo": "BENA", "wmType": "Overhead" }, "geometry": { "type": "LineString", "coordinates": [ [ -94.142980038686801, 47.322116358921399 ], [ -94.1422580075985, 47.322456354514102 ] ] } },
{ "type": "Feature", "properties": { "wmUplineSo": "BENA", "wmType": "Overhead" }, "geometry": { "type": "LineString", "coordinates": [ [ -94.1422580075985, 47.322456354514102 ], [ -94.141966995088794, 47.322570352687499 ] ] } },
{ "type": "Feature", "properties": { "wmUplineSo": "BENA", "wmType": "Overhead" }, "geometry": { "type": "LineString", "coordinates": [ [ -94.209992419417802, 47.339388692659099 ], [ -94.210305434571595, 47.339383958877796 ] ] } },
{ "type": "Feature", "properties": { "wmUplineSo": "BENA", "wmType": "Overhead" }, "geometry": { "type": "LineString", "coordinates": [ [ -94.211423204175901, 47.337687304719203 ], [ -94.211386500000501, 47.3376453000091 ] ] } },
{ "type": "Feature", "properties": { "wmUplineSo": "BENA", "wmType": "Overhead" }, "geometry": { "type": "LineString", "coordinates": [ [ -94.195214349593599, 47.342146937533499 ], [ -94.193846791134007, 47.342145072836303 ], [ -94.192478958352197, 47.342143191439703 ] ] } },
{ "type": "Feature", "properties": { "wmUplineSo": "BENA", "wmType": "Overhead" }, "geometry": { "type": "LineString", "coordinates": [ [ -94.192478958352197, 47.342143191439703 ], [ -94.191052928705403, 47.342139551435601 ] ] } },
{ "type": "Feature", "properties": { "wmUplineSo": "BENA", "wmType": "Overhead" }, "geometry": { "type": "LineString", "coordinates": [ [ -94.191052928705403, 47.342139551435601 ], [ -94.1896852325808, 47.3421376368821 ] ] } },
{ "type": "Feature", "properties": { "wmUplineSo": "BENA", "wmType": "Overhead" }, "geometry": { "type": "LineString", "coordinates": [ [ -94.205779045961506, 47.347947477432101 ], [ -94.205475935405701, 47.348695035201402 ] ] } },
{ "type": "Feature", "properties": { "wmUplineSo": "BENA", "wmType": "Overhead" }, "geometry": { "type": "LineString", "coordinates": [ [ -94.204245868809906, 47.348712276129298 ], [ -94.203469726054706, 47.348742308862697 ] ] } },
{ "type": "Feature", "properties": { "wmUplineSo": "BENA", "wmType": "Overhead" }, "geometry": { "type": "LineString", "coordinates": [ [ -94.206481631034606, 47.3438890171835 ], [ -94.206591161465795, 47.344514497589401 ] ] } },
{ "type": "Feature", "properties": { "wmUplineSo": "BENA", "wmType": "Overhead" }, "geometry": { "type": "LineString", "coordinates": [ [ -94.206591161465795, 47.344514497589401 ], [ -94.206652203621701, 47.344856693886399 ] ] } },
{ "type": "Feature", "properties": { "wmUplineSo": "BENA", "wmType": "Overhead" }, "geometry": { "type": "LineString", "coordinates": [ [ -94.2067581389135, 47.345430651842896 ], [ -94.206496544964693, 47.346191665794301 ] ] } },
{ "type": "Feature", "properties": { "wmUplineSo": "BENA", "wmType": "Overhead" }, "geometry": { "type": "LineString", "coordinates": [ [ -94.207280000076395, 47.347070003655503 ], [ -94.208414966769297, 47.347110833223901 ] ] } },
{ "type": "Feature", "properties": { "wmUplineSo": "BENA", "wmType": "Overhead" }, "geometry": { "type": "LineString", "coordinates": [ [ -94.210165721414199, 47.343539633799601 ], [ -94.209544000127906, 47.343525005520704 ] ] } },
{ "type": "Feature", "properties": { "wmUplineSo": "BENA", "wmType": "Overhead" }, "geometry": { "type": "LineString", "coordinates": [ [ -94.207300125402, 47.341408426128297 ], [ -94.206477345211695, 47.341434693993001 ] ] } },
{ "type": "Feature", "properties": { "wmUplineSo": "BENA", "wmType": "Overhead" }, "geometry": { "type": "LineString", "coordinates": [ [ -94.208528777266196, 47.342423848220697 ], [ -94.2094755375158, 47.342435591743097 ] ] } },
{ "type": "Feature", "properties": { "wmUplineSo": "BENA", "wmType": "Overhead" }, "geometry": { "type": "LineString", "coordinates": [ [ -94.208581658769702, 47.343515930748602 ], [ -94.207919603686193, 47.343521736858399 ] ] } },
{ "type": "Feature", "properties": { "wmUplineSo": "BENA", "wmType": "Overhead" }, "geometry": { "type": "LineString", "coordinates": [ [ -94.207946089135802, 47.342401918971198 ], [ -94.2079519039697, 47.341888293282501 ] ] } },
{ "type": "Feature", "properties": { "wmUplineSo": "BENA", "wmType": "Overhead" }, "geometry": { "type": "LineString", "coordinates": [ [ -94.207184260216593, 47.3435123782942 ], [ -94.206430401706299, 47.343524313987402 ] ] } },
{ "type": "Feature", "properties": { "wmUplineSo": "BENA", "wmType": "Overhead" }, "geometry": { "type": "LineString", "coordinates": [ [ -94.206482968396699, 47.342419344990198 ], [ -94.205605707478, 47.342415669170599 ] ] } },
{ "type": "Feature", "properties": { "wmUplineSo": "BENA", "wmType": "Overhead" }, "geometry": { "type": "LineString", "coordinates": [ [ -94.205766221468195, 47.341459885398002 ], [ -94.205036131919897, 47.341479702690101 ] ] } },
{ "type": "Feature", "properties": { "wmUplineSo": "BENA", "wmType": "Overhead" }, "geometry": { "type": "LineString", "coordinates": [ [ -94.207929551118696, 47.339893011809899 ], [ -94.207899382142102, 47.339406486620597 ] ] } },
{ "type": "Feature", "properties": { "wmUplineSo": "BENA", "wmType": "Overhead" }, "geometry": { "type": "LineString", "coordinates": [ [ -94.207282960093295, 47.339407267980299 ], [ -94.206443333365598, 47.339346861573397 ] ] } },
{ "type": "Feature", "properties": { "wmUplineSo": "BENA", "wmType": "Overhead" }, "geometry": { "type": "LineString", "coordinates": [ [ -94.208528570424093, 47.339228433677199 ], [ -94.208478298958099, 47.338670449607903 ] ] } },
{ "type": "Feature", "properties": { "wmUplineSo": "BENA", "wmType": "Overhead" }, "geometry": { "type": "LineString", "coordinates": [ [ -94.209662506668195, 47.346602008008297 ], [ -94.209809192757902, 47.346030966097203 ] ] } },
{ "type": "Feature", "properties": { "wmUplineSo": "BENA", "wmType": "Overhead" }, "geometry": { "type": "LineString", "coordinates": [ [ -94.2051859950394, 47.343514551057602 ], [ -94.203831902479095, 47.343489937220902 ] ] } },
{ "type": "Feature", "properties": { "wmUplineSo": "BENA", "wmType": "Overhead" }, "geometry": { "type": "LineString", "coordinates": [ [ -94.203831902479095, 47.343489937220902 ], [ -94.202684572623895, 47.343437169630697 ] ] } },
{ "type": "Feature", "properties": { "wmUplineSo": "BENA", "wmType": "Overhead" }, "geometry": { "type": "LineString", "coordinates": [ [ -94.202684572623895, 47.343437169630697 ], [ -94.202484136871107, 47.342879084231001 ] ] } },
{ "type": "Feature", "properties": { "wmUplineSo": "BENA", "wmType": "Overhead" }, "geometry": { "type": "LineString", "coordinates": [ [ -94.202484136871107, 47.342879084231001 ], [ -94.202473105735507, 47.342132281703698 ] ] } },
{ "type": "Feature", "properties": { "wmUplineSo": "BENA", "wmType": "Overhead" }, "geometry": { "type": "LineString", "coordinates": [ [ -94.202473105735507, 47.342132281703698 ], [ -94.200816976422701, 47.342116396194598 ] ] } },
{ "type": "Feature", "properties": { "wmUplineSo": "BENA", "wmType": "Overhead" }, "geometry": { "type": "LineString", "coordinates": [ [ -94.200816976422701, 47.342116396194598 ], [ -94.199414947945002, 47.342156389512702 ] ] } },
{ "type": "Feature", "properties": { "wmUplineSo": "BENA", "wmType": "Overhead" }, "geometry": { "type": "LineString", "coordinates": [ [ -94.199414947945002, 47.342156389512702 ], [ -94.1980129256645, 47.342143384520398 ] ] } },
{ "type": "Feature", "properties": { "wmUplineSo": "BENA", "wmType": "Overhead" }, "geometry": { "type": "LineString", "coordinates": [ [ -94.1980129256645, 47.342143384520398 ], [ -94.196654904130796, 47.342130379810797 ] ] } },
{ "type": "Feature", "properties": { "wmUplineSo": "BENA", "wmType": "Overhead" }, "geometry": { "type": "LineString", "coordinates": [ [ -94.196654904130796, 47.342130379810797 ], [ -94.195214349593599, 47.342146937533499 ] ] } },
{ "type": "Feature", "properties": { "wmUplineSo": "BENA", "wmType": "Overhead" }, "geometry": { "type": "LineString", "coordinates": [ [ -94.123536851974507, 47.308059301877499 ], [ -94.123137632153998, 47.307261388013899 ] ] } },
{ "type": "Feature", "properties": { "wmUplineSo": "BENA", "wmType": "Overhead" }, "geometry": { "type": "LineString", "coordinates": [ [ -94.122552, 47.306247 ], [ -94.1226484651432, 47.3062220427162 ] ] } },
{ "type": "Feature", "properties": { "wmUplineSo": "BENA", "wmType": "Overhead" }, "geometry": { "type": "LineString", "coordinates": [ [ -94.205605707478, 47.342415669170599 ], [ -94.2055013012681, 47.342415231249902 ] ] } },
{ "type": "Feature", "properties": { "wmUplineSo": "BENA", "wmType": "Overhead" }, "geometry": { "type": "LineString", "coordinates": [ [ -94.205605707478, 47.342415669170599 ], [ -94.205662277542103, 47.342472431074697 ] ] } },
{ "type": "Feature", "properties": { "wmUplineSo": "BENA", "wmType": "Overhead" }, "geometry": { "type": "LineString", "coordinates": [ [ -94.205766221468195, 47.341459885398002 ], [ -94.205691387127303, 47.341505852748902 ] ] } },
{ "type": "Feature", "properties": { "wmUplineSo": "BENA", "wmType": "Overhead" }, "geometry": { "type": "LineString", "coordinates": [ [ -94.206443333365598, 47.339346861573397 ], [ -94.205831497772607, 47.339308668984799 ] ] } },
{ "type": "Feature", "properties": { "wmUplineSo": "BENA", "wmType": "Overhead" }, "geometry": { "type": "LineString", "coordinates": [ [ -94.205831497772607, 47.339308668984799 ], [ -94.205384185793704, 47.339288058434903 ] ] } },
{ "type": "Feature", "properties": { "wmUplineSo": "BENA", "wmType": "Overhead" }, "geometry": { "type": "LineString", "coordinates": [ [ -94.205831497772607, 47.339308668984799 ], [ -94.205858241542799, 47.339374774534697 ] ] } },
{ "type": "Feature", "properties": { "wmUplineSo": "BENA", "wmType": "Overhead" }, "geometry": { "type": "LineString", "coordinates": [ [ -94.207946089135802, 47.342401918971198 ], [ -94.207762190916199, 47.342311164032402 ] ] } },
{ "type": "Feature", "properties": { "wmUplineSo": "BENA", "wmType": "Overhead" }, "geometry": { "type": "LineString", "coordinates": [ [ -94.205933380236601, 47.347552515805504 ], [ -94.205779045961506, 47.347947477432101 ] ] } },
{ "type": "Feature", "properties": { "wmUplineSo": "BENA", "wmType": "Overhead" }, "geometry": { "type": "LineString", "coordinates": [ [ -94.122733504800294, 47.3065732281691 ], [ -94.122552, 47.306247 ] ] } },
{ "type": "Feature", "properties": { "wmUplineSo": "BENA", "wmType": "Overhead" }, "geometry": { "type": "LineString", "coordinates": [ [ -94.123137632153998, 47.307261388013899 ], [ -94.122733504800294, 47.3065732281691 ] ] } },
{ "type": "Feature", "properties": { "wmUplineSo": "BENA", "wmType": "Overhead" }, "geometry": { "type": "LineString", "coordinates": [ [ -94.205778, 47.347946 ], [ -94.205713763171104, 47.347941954274702 ] ] } },
{ "type": "Feature", "properties": { "wmUplineSo": "BENA", "wmType": "Overhead" }, "geometry": { "type": "LineString", "coordinates": [ [ -94.209530839251698, 47.347133345778097 ], [ -94.21049, 47.347141 ] ] } },
{ "type": "Feature", "properties": { "wmUplineSo": "BENA", "wmType": "Overhead" }, "geometry": { "type": "LineString", "coordinates": [ [ -94.1226484651432, 47.3062220427162 ], [ -94.122618602641595, 47.306137963510501 ] ] } },
{ "type": "Feature", "properties": { "wmUplineSo": "BENA", "wmType": "Overhead" }, "geometry": { "type": "LineString", "coordinates": [ [ -94.206021197175303, 47.337723109799299 ], [ -94.206336910761095, 47.338439335127603 ] ] } },
{ "type": "Feature", "properties": { "wmUplineSo": "BENA", "wmType": "Overhead" }, "geometry": { "type": "LineString", "coordinates": [ [ -94.206881000076294, 47.337427003652898 ], [ -94.206916146471599, 47.337491265717603 ] ] } },
{ "type": "Feature", "properties": { "wmUplineSo": "BENA", "wmType": "Overhead" }, "geometry": { "type": "LineString", "coordinates": [ [ -94.207666414142096, 47.337391615555703 ], [ -94.206881000076294, 47.337427003652898 ] ] } },
{ "type": "Feature", "properties": { "wmUplineSo": "BENA", "wmType": "Overhead" }, "geometry": { "type": "LineString", "coordinates": [ [ -94.2094755375158, 47.342435591743097 ], [ -94.209481800000503, 47.342419100009103 ] ] } },
{ "type": "Feature", "properties": { "wmUplineSo": "BENA", "wmType": "Overhead" }, "geometry": { "type": "LineString", "coordinates": [ [ -94.2094755375158, 47.342435591743097 ], [ -94.209498100000502, 47.342426100009099 ] ] } },
{ "type": "Feature", "properties": { "wmUplineSo": "BENA", "wmType": "Overhead" }, "geometry": { "type": "LineString", "coordinates": [ [ -94.2064713587163, 47.340881506795597 ], [ -94.206467600000494, 47.340845400009101 ] ] } },
{ "type": "Feature", "properties": { "wmUplineSo": "BENA", "wmType": "Overhead" }, "geometry": { "type": "LineString", "coordinates": [ [ -94.206146105369797, 47.347073138876603 ], [ -94.206230849113993, 47.347039102558803 ] ] } },
{ "type": "Feature", "properties": { "wmUplineSo": "BENA", "wmType": "Overhead" }, "geometry": { "type": "LineString", "coordinates": [ [ -94.122733504800294, 47.3065732281691 ], [ -94.122820877184694, 47.306607416525303 ] ] } },
{ "type": "Feature", "properties": { "wmUplineSo": "BENA", "wmType": "Overhead" }, "geometry": { "type": "LineString", "coordinates": [ [ -94.142980038686801, 47.322116358921399 ], [ -94.143037300000401, 47.3220999000091 ] ] } },
{ "type": "Feature", "properties": { "wmUplineSo": "BENA", "wmType": "Overhead" }, "geometry": { "type": "LineString", "coordinates": [ [ -94.141966995088794, 47.322570352687499 ], [ -94.141974600000395, 47.322550600009102 ] ] } },
{ "type": "Feature", "properties": { "wmUplineSo": "BENA", "wmType": "Overhead" }, "geometry": { "type": "LineString", "coordinates": [ [ -94.141966995088794, 47.322570352687499 ], [ -94.141346640000407, 47.322512750009103 ] ] } },
{ "type": "Feature", "properties": { "wmUplineSo": "BENA", "wmType": "Overhead" }, "geometry": { "type": "LineString", "coordinates": [ [ -94.144937090352798, 47.322274651098603 ], [ -94.1450796000004, 47.322278900009103 ] ] } },
{ "type": "Feature", "properties": { "wmUplineSo": "BENA", "wmType": "Overhead" }, "geometry": { "type": "LineString", "coordinates": [ [ -94.123536851974507, 47.308059301877499 ], [ -94.1235458000004, 47.308093100009103 ] ] } },
{ "type": "Feature", "properties": { "wmUplineSo": "BENA", "wmType": "Overhead" }, "geometry": { "type": "LineString", "coordinates": [ [ -94.177193183293198, 47.341673585662797 ], [ -94.177193500000399, 47.341698500009102 ] ] } },
{ "type": "Feature", "properties": { "wmUplineSo": "BENA", "wmType": "Overhead" }, "geometry": { "type": "LineString", "coordinates": [ [ -94.145161983669396, 47.323906348490397 ], [ -94.144438800000401, 47.324148900009099 ] ] } },
{ "type": "Feature", "properties": { "wmUplineSo": "BENA", "wmType": "Overhead" }, "geometry": { "type": "LineString", "coordinates": [ [ -94.209809192757902, 47.346030966097203 ], [ -94.209513100000507, 47.346049600009202 ] ] } },
{ "type": "Feature", "properties": { "wmUplineSo": "BENA", "wmType": "Overhead" }, "geometry": { "type": "LineString", "coordinates": [ [ -94.209809192757902, 47.346030966097203 ], [ -94.209778300000494, 47.345935800009201 ] ] } },
{ "type": "Feature", "properties": { "wmUplineSo": "BENA", "wmType": "Overhead" }, "geometry": { "type": "LineString", "coordinates": [ [ -94.208737908925301, 47.3457654028741 ], [ -94.208644600000497, 47.345801900009199 ] ] } },
{ "type": "Feature", "properties": { "wmUplineSo": "BENA", "wmType": "Overhead" }, "geometry": { "type": "LineString", "coordinates": [ [ -94.208581868230297, 47.3464213982841 ], [ -94.208574600000503, 47.346424800009203 ] ] } },
{ "type": "Feature", "properties": { "wmUplineSo": "BENA", "wmType": "Overhead" }, "geometry": { "type": "LineString", "coordinates": [ [ -94.206133002199493, 47.346119035930997 ], [ -94.206159000000497, 47.346134300009098 ] ] } },
{ "type": "Feature", "properties": { "wmUplineSo": "BENA", "wmType": "Overhead" }, "geometry": { "type": "LineString", "coordinates": [ [ -94.202344000076096, 47.348895003655898 ], [ -94.202327600000501, 47.348895900009097 ] ] } },
{ "type": "Feature", "properties": { "wmUplineSo": "BENA", "wmType": "Overhead" }, "geometry": { "type": "LineString", "coordinates": [ [ -94.209417006913, 47.336509648447802 ], [ -94.210097200000504, 47.336696500009097 ] ] } },
{ "type": "Feature", "properties": { "wmUplineSo": "BENA", "wmType": "Overhead" }, "geometry": { "type": "LineString", "coordinates": [ [ -94.209417006913, 47.336509648447802 ], [ -94.209158800000495, 47.335956300009201 ] ] } },
{ "type": "Feature", "properties": { "wmUplineSo": "BENA", "wmType": "Overhead" }, "geometry": { "type": "LineString", "coordinates": [ [ -94.207924533899103, 47.341000424048403 ], [ -94.207680900000497, 47.341075600009098 ] ] } },
{ "type": "Feature", "properties": { "wmUplineSo": "BENA", "wmType": "Overhead" }, "geometry": { "type": "LineString", "coordinates": [ [ -94.207924533899103, 47.341000424048403 ], [ -94.207631800000499, 47.340932400009102 ] ] } },
{ "type": "Feature", "properties": { "wmUplineSo": "BENA", "wmType": "Overhead" }, "geometry": { "type": "LineString", "coordinates": [ [ -94.206443333365598, 47.339346861573397 ], [ -94.206472990000506, 47.339319140009103 ] ] } },
{ "type": "Feature", "properties": { "wmUplineSo": "BENA", "wmType": "Overhead" }, "geometry": { "type": "LineString", "coordinates": [ [ -94.206443333365598, 47.339346861573397 ], [ -94.206609267752995, 47.339127983081802 ] ] } },
{ "type": "Feature", "properties": { "wmUplineSo": "BENA", "wmType": "Overhead" }, "geometry": { "type": "LineString", "coordinates": [ [ -94.206443333365598, 47.339346861573397 ], [ -94.206354471831801, 47.339382080927003 ] ] } },
{ "type": "Feature", "properties": { "wmUplineSo": "BENA", "wmType": "Overhead" }, "geometry": { "type": "LineString", "coordinates": [ [ -94.209403997942303, 47.339403950930603 ], [ -94.209506858170997, 47.339117979246097 ], [ -94.209510248905502, 47.339108552283697 ] ] } },
{ "type": "Feature", "properties": { "wmUplineSo": "BENA", "wmType": "Overhead" }, "geometry": { "type": "LineString", "coordinates": [ [ -94.209613982490296, 47.338829947520097 ], [ -94.210339950000503, 47.338336060009098 ] ] } },
{ "type": "Feature", "properties": { "wmUplineSo": "BENA", "wmType": "Overhead" }, "geometry": { "type": "LineString", "coordinates": [ [ -94.209403997942303, 47.339403950930603 ], [ -94.209891300000507, 47.339161600009099 ] ] } },
{ "type": "Feature", "properties": { "wmUplineSo": "BENA", "wmType": "Overhead" }, "geometry": { "type": "LineString", "coordinates": [ [ -94.209613982490296, 47.338829947520097 ], [ -94.209244365954902, 47.338655713635397 ] ] } },
{ "type": "Feature", "properties": { "wmUplineSo": "BENA", "wmType": "Overhead" }, "geometry": { "type": "LineString", "coordinates": [ [ -94.209443000076504, 47.341439003653797 ], [ -94.209360878610198, 47.3414589012013 ] ] } },
{ "type": "Feature", "properties": { "wmUplineSo": "BENA", "wmType": "Overhead" }, "geometry": { "type": "LineString", "coordinates": [ [ -94.206440715201296, 47.340318947545697 ], [ -94.206455600000496, 47.340325100009103 ] ] } },
{ "type": "Feature", "properties": { "wmUplineSo": "BENA", "wmType": "Overhead" }, "geometry": { "type": "LineString", "coordinates": [ [ -94.206477345211695, 47.341434693993001 ], [ -94.206771500000499, 47.341408600009103 ] ] } },
{ "type": "Feature", "properties": { "wmUplineSo": "BENA", "wmType": "Overhead" }, "geometry": { "type": "LineString", "coordinates": [ [ -94.2064678065544, 47.341759203782402 ], [ -94.206468900000502, 47.341862900009097 ] ] } },
{ "type": "Feature", "properties": { "wmUplineSo": "BENA", "wmType": "Overhead" }, "geometry": { "type": "LineString", "coordinates": [ [ -94.2064678065544, 47.341759203782402 ], [ -94.206711300000507, 47.341814300009197 ] ] } },
{ "type": "Feature", "properties": { "wmUplineSo": "BENA", "wmType": "Overhead" }, "geometry": { "type": "LineString", "coordinates": [ [ -94.2064678065544, 47.341759203782402 ], [ -94.206757900000497, 47.3417330000091 ] ] } },
{ "type": "Feature", "properties": { "wmUplineSo": "BENA", "wmType": "Overhead" }, "geometry": { "type": "LineString", "coordinates": [ [ -94.207913049480595, 47.342963417797201 ], [ -94.208065500000501, 47.342867100009101 ] ] } },
{ "type": "Feature", "properties": { "wmUplineSo": "BENA", "wmType": "Overhead" }, "geometry": { "type": "LineString", "coordinates": [ [ -94.209452074789795, 47.342975423729399 ], [ -94.209099000000506, 47.3431321000091 ] ] } },
{ "type": "Feature", "properties": { "wmUplineSo": "BENA", "wmType": "Overhead" }, "geometry": { "type": "LineString", "coordinates": [ [ -94.209443000076504, 47.341439003653797 ], [ -94.209417800000494, 47.340986800009098 ] ] } },
{ "type": "Feature", "properties": { "wmUplineSo": "BENA", "wmType": "Overhead" }, "geometry": { "type": "LineString", "coordinates": [ [ -94.209452074789795, 47.342975423729399 ], [ -94.209254956314197, 47.342771831149904 ] ] } },
{ "type": "Feature", "properties": { "wmUplineSo": "BENA", "wmType": "Overhead" }, "geometry": { "type": "LineString", "coordinates": [ [ -94.209452074789795, 47.342975423729399 ], [ -94.209078800000498, 47.342957300009097 ] ] } },
{ "type": "Feature", "properties": { "wmUplineSo": "BENA", "wmType": "Overhead" }, "geometry": { "type": "LineString", "coordinates": [ [ -94.207906959177393, 47.340395587981199 ], [ -94.208347900000504, 47.340603500009102 ] ] } },
{ "type": "Feature", "properties": { "wmUplineSo": "BENA", "wmType": "Overhead" }, "geometry": { "type": "LineString", "coordinates": [ [ -94.210862303506602, 47.339316453551497 ], [ -94.211184500000499, 47.339301400009099 ] ] } },
{ "type": "Feature", "properties": { "wmUplineSo": "BENA", "wmType": "Overhead" }, "geometry": { "type": "LineString", "coordinates": [ [ -94.208485651053394, 47.3381028043218 ], [ -94.207987323123007, 47.338061451257303 ] ] } },
{ "type": "Feature", "properties": { "wmUplineSo": "BENA", "wmType": "Overhead" }, "geometry": { "type": "LineString", "coordinates": [ [ -94.208485651053394, 47.3381028043218 ], [ -94.208952800000503, 47.337990800009102 ] ] } },
{ "type": "Feature", "properties": { "wmUplineSo": "BENA", "wmType": "Overhead" }, "geometry": { "type": "LineString", "coordinates": [ [ -94.205901612200094, 47.337451814845501 ], [ -94.205708900000502, 47.337615800009097 ] ] } },
{ "type": "Feature", "properties": { "wmUplineSo": "BENA", "wmType": "Overhead" }, "geometry": { "type": "LineString", "coordinates": [ [ -94.208505283867197, 47.336543312798597 ], [ -94.209051500000498, 47.336691800009099 ] ] } },
{ "type": "Feature", "properties": { "wmUplineSo": "BENA", "wmType": "Overhead" }, "geometry": { "type": "LineString", "coordinates": [ [ -94.208505283867197, 47.336543312798597 ], [ -94.208287700000497, 47.3360747000091 ] ] } },
{ "type": "Feature", "properties": { "wmUplineSo": "BENA", "wmType": "Overhead" }, "geometry": { "type": "LineString", "coordinates": [ [ -94.208505283867197, 47.336543312798597 ], [ -94.208175251640398, 47.3360510571503 ] ] } },
{ "type": "Feature", "properties": { "wmUplineSo": "BENA", "wmType": "Overhead" }, "geometry": { "type": "LineString", "coordinates": [ [ -94.210623958250594, 47.336319056896798 ], [ -94.210463400000506, 47.3366809000091 ] ] } },
{ "type": "Feature", "properties": { "wmUplineSo": "BENA", "wmType": "Overhead" }, "geometry": { "type": "LineString", "coordinates": [ [ -94.210623958250594, 47.336319056896798 ], [ -94.210823000000502, 47.335705000009099 ] ] } },
{ "type": "Feature", "properties": { "wmUplineSo": "BENA", "wmType": "Overhead" }, "geometry": { "type": "LineString", "coordinates": [ [ -94.210623958250594, 47.336319056896798 ], [ -94.211065500000501, 47.336166600009101 ] ] } },
{ "type": "Feature", "properties": { "wmUplineSo": "BENA", "wmType": "Overhead" }, "geometry": { "type": "LineString", "coordinates": [ [ -94.208478298958099, 47.338670449607903 ], [ -94.208423100000502, 47.338638600009098 ] ] } },
{ "type": "Feature", "properties": { "wmUplineSo": "BENA", "wmType": "Overhead" }, "geometry": { "type": "LineString", "coordinates": [ [ -94.205036131919897, 47.341479702690101 ], [ -94.205226521048502, 47.341238827820298 ] ] } },
{ "type": "Feature", "properties": { "wmUplineSo": "BENA", "wmType": "Overhead" }, "geometry": { "type": "LineString", "coordinates": [ [ -94.206145949973802, 47.347076128278999 ], [ -94.207280000076395, 47.347070003655503 ] ] } },
{ "type": "Feature", "properties": { "wmUplineSo": "BENA", "wmType": "Overhead" }, "geometry": { "type": "LineString", "coordinates": [ [ -94.205901612200094, 47.337451814845501 ], [ -94.205947143038102, 47.3373657154253 ] ] } },
{ "type": "Feature", "properties": { "wmUplineSo": "BENA", "wmType": "Overhead" }, "geometry": { "type": "LineString", "coordinates": [ [ -94.2094529824885, 47.342041947515597 ], [ -94.209276900000503, 47.342108500009097 ] ] } },
{ "type": "Feature", "properties": { "wmUplineSo": "BENA", "wmType": "Overhead" }, "geometry": { "type": "LineString", "coordinates": [ [ -94.204201151126497, 47.350380730829499 ], [ -94.204202300000503, 47.350371900009101 ] ] } },
{ "type": "Feature", "properties": { "wmUplineSo": "BENA", "wmType": "Overhead" }, "geometry": { "type": "LineString", "coordinates": [ [ -94.205475935405701, 47.348695035201402 ], [ -94.205107300000506, 47.3482261000091 ] ] } },
{ "type": "Feature", "properties": { "wmUplineSo": "BENA", "wmType": "Overhead" }, "geometry": { "type": "LineString", "coordinates": [ [ -94.204245868809906, 47.348712276129298 ], [ -94.204264300000503, 47.3487016000092 ] ] } },
{ "type": "Feature", "properties": { "wmUplineSo": "BENA", "wmType": "Overhead" }, "geometry": { "type": "LineString", "coordinates": [ [ -94.203469726054706, 47.348742308862697 ], [ -94.203470800000503, 47.348739600009097 ] ] } },
{ "type": "Feature", "properties": { "wmUplineSo": "BENA", "wmType": "Overhead" }, "geometry": { "type": "LineString", "coordinates": [ [ -94.204702724951005, 47.347831371183197 ], [ -94.2047596000005, 47.3477786000091 ] ] } },
{ "type": "Feature", "properties": { "wmUplineSo": "BENA", "wmType": "Overhead" }, "geometry": { "type": "LineString", "coordinates": [ [ -94.204952753419704, 47.347376375872599 ], [ -94.204975000000502, 47.347363600009203 ] ] } },
{ "type": "Feature", "properties": { "wmUplineSo": "BENA", "wmType": "Overhead" }, "geometry": { "type": "LineString", "coordinates": [ [ -94.205297643988203, 47.349450363701003 ], [ -94.204794065475298, 47.350320369808102 ] ] } },
{ "type": "Feature", "properties": { "wmUplineSo": "BENA", "wmType": "Overhead" }, "geometry": { "type": "LineString", "coordinates": [ [ -94.206443333365598, 47.339346861573397 ], [ -94.206080000000497, 47.339618000009096 ] ] } },
{ "type": "Feature", "properties": { "wmUplineSo": "BENA", "wmType": "Overhead" }, "geometry": { "type": "LineString", "coordinates": [ [ -94.206652203621701, 47.344856693886399 ], [ -94.2067581389135, 47.345430651842896 ] ] } },
{ "type": "Feature", "properties": { "wmUplineSo": "BENA", "wmType": "Overhead" }, "geometry": { "type": "LineString", "coordinates": [ [ -94.1226484651432, 47.3062220427162 ], [ -94.122701575487497, 47.3061552449917 ] ] } },
{ "type": "Feature", "properties": { "wmUplineSo": "BENA", "wmType": "Overhead" }, "geometry": { "type": "LineString", "coordinates": [ [ -94.203469726054706, 47.348742308862697 ], [ -94.202344000076096, 47.348895003655898 ] ] } },
{ "type": "Feature", "properties": { "wmUplineSo": "BENA", "wmType": "Overhead" }, "geometry": { "type": "LineString", "coordinates": [ [ -94.209254956314197, 47.342771831149904 ], [ -94.209040400000504, 47.3426955000091 ] ] } },
{ "type": "Feature", "properties": { "wmUplineSo": "BENA", "wmType": "Overhead" }, "geometry": { "type": "LineString", "coordinates": [ [ -94.211578653229196, 47.337941542421802 ], [ -94.211787409435004, 47.337693468751802 ] ] } },
{ "type": "Feature", "properties": { "wmUplineSo": "BENA", "wmType": "Overhead" }, "geometry": { "type": "LineString", "coordinates": [ [ -94.142015596417494, 47.321328227277398 ], [ -94.141658070293701, 47.321085364800702 ] ] } },
{ "type": "Feature", "properties": { "wmUplineSo": "BENA", "wmType": "Overhead" }, "geometry": { "type": "LineString", "coordinates": [ [ -94.123137632153998, 47.307261388013899 ], [ -94.123265499933197, 47.307299396137097 ] ] } },
{ "type": "Feature", "properties": { "wmUplineSo": "BENA", "wmType": "Overhead" }, "geometry": { "type": "LineString", "coordinates": [ [ -94.209746000076606, 47.346859003655297 ], [ -94.209783404750297, 47.346795331730199 ] ] } },
{ "type": "Feature", "properties": { "wmUplineSo": "BENA", "wmType": "Overhead" }, "geometry": { "type": "LineString", "coordinates": [ [ -94.206021197175303, 47.337723109799299 ], [ -94.206120307912101, 47.337710408236603 ] ] } },
{ "type": "Feature", "properties": { "wmUplineSo": "BENA", "wmType": "Overhead" }, "geometry": { "type": "LineString", "coordinates": [ [ -94.2064713587163, 47.340881506795597 ], [ -94.206440715201296, 47.340318947545697 ] ] } },
{ "type": "Feature", "properties": { "wmUplineSo": "BENA", "wmType": "Overhead" }, "geometry": { "type": "LineString", "coordinates": [ [ -94.208501832829697, 47.337432653624298 ], [ -94.207666414142096, 47.337391615555703 ] ] } },
{ "type": "Feature", "properties": { "wmUplineSo": "BENA", "wmType": "Overhead" }, "geometry": { "type": "LineString", "coordinates": [ [ -94.209403997942303, 47.339403950930603 ], [ -94.209992419417802, 47.339388692659099 ] ] } },
{ "type": "Feature", "properties": { "wmUplineSo": "BENA", "wmType": "Overhead" }, "geometry": { "type": "LineString", "coordinates": [ [ -94.143420057320597, 47.321911363519597 ], [ -94.142980038686801, 47.322116358921399 ] ] } },
{ "type": "Feature", "properties": { "wmUplineSo": "BENA", "wmType": "Overhead" }, "geometry": { "type": "LineString", "coordinates": [ [ -94.144937090352798, 47.322274651098603 ], [ -94.144244335585796, 47.322136339506997 ] ] } },
{ "type": "Feature", "properties": { "wmUplineSo": "BENA", "wmType": "Overhead" }, "geometry": { "type": "LineString", "coordinates": [ [ -94.143420057320597, 47.321911363519597 ], [ -94.142425055378894, 47.321606362849998 ] ] } },
{ "type": "Feature", "properties": { "wmUplineSo": "BENA", "wmType": "Overhead" }, "geometry": { "type": "LineString", "coordinates": [ [ -94.142425055378894, 47.321606362849998 ], [ -94.142015596417494, 47.321328227277398 ] ] } },
{ "type": "Feature", "properties": { "wmUplineSo": "BENA", "wmType": "Overhead" }, "geometry": { "type": "LineString", "coordinates": [ [ -94.141658070293701, 47.321085364800702 ], [ -94.140995074906598, 47.320720365908002 ] ] } },
{ "type": "Feature", "properties": { "wmUplineSo": "BENA", "wmType": "Overhead" }, "geometry": { "type": "LineString", "coordinates": [ [ -94.140995074906598, 47.320720365908002 ], [ -94.139972074597694, 47.320393367002197 ] ] } },
{ "type": "Feature", "properties": { "wmUplineSo": "BENA", "wmType": "Overhead" }, "geometry": { "type": "LineString", "coordinates": [ [ -94.124247337335206, 47.311128913286097 ], [ -94.123503010261899, 47.309683955827502 ], [ -94.123707529840701, 47.308616648013498 ] ] } },
{ "type": "Feature", "properties": { "wmUplineSo": "BENA", "wmType": "Overhead" }, "geometry": { "type": "LineString", "coordinates": [ [ -94.145653068179598, 47.322471364530898 ], [ -94.144937090352798, 47.322274651098603 ] ] } },
{ "type": "Feature", "properties": { "wmUplineSo": "BENA", "wmType": "Overhead" }, "geometry": { "type": "LineString", "coordinates": [ [ -94.145653068179598, 47.322471364530898 ], [ -94.145418034639604, 47.322996358746401 ] ] } },
{ "type": "Feature", "properties": { "wmUplineSo": "BENA", "wmType": "Overhead" }, "geometry": { "type": "LineString", "coordinates": [ [ -94.150886966782593, 47.323778782283398 ], [ -94.149850191893407, 47.323343498098701 ] ] } },
{ "type": "Feature", "properties": { "wmUplineSo": "BENA", "wmType": "Overhead" }, "geometry": { "type": "LineString", "coordinates": [ [ -94.177318494701595, 47.341654085107898 ], [ -94.177193183293198, 47.341673585662797 ] ] } },
{ "type": "Feature", "properties": { "wmUplineSo": "BENA", "wmType": "Overhead" }, "geometry": { "type": "LineString", "coordinates": [ [ -94.153202047932197, 47.3243540500644 ], [ -94.151800287881997, 47.324139587523703 ] ] } },
{ "type": "Feature", "properties": { "wmUplineSo": "BENA", "wmType": "Overhead" }, "geometry": { "type": "LineString", "coordinates": [ [ -94.179303314302004, 47.341835695003397 ], [ -94.178194529492004, 47.341745002570697 ] ] } },
{ "type": "Feature", "properties": { "wmUplineSo": "BENA", "wmType": "Overhead" }, "geometry": { "type": "LineString", "coordinates": [ [ -94.1896852325808, 47.3421376368821 ], [ -94.188224758999894, 47.3421483457184 ] ] } },
{ "type": "Feature", "properties": { "wmUplineSo": "BENA", "wmType": "Overhead" }, "geometry": { "type": "LineString", "coordinates": [ [ -94.206430401706299, 47.343524313987402 ], [ -94.2051859950394, 47.343514551057602 ] ] } },
{ "type": "Feature", "properties": { "wmUplineSo": "BENA", "wmType": "Overhead" }, "geometry": { "type": "LineString", "coordinates": [ [ -94.209530839251698, 47.347133345778097 ], [ -94.209662506668195, 47.346602008008297 ] ] } },
{ "type": "Feature", "properties": { "wmUplineSo": "BENA", "wmType": "Overhead" }, "geometry": { "type": "LineString", "coordinates": [ [ -94.208414966769297, 47.347110833223901 ], [ -94.209530839251698, 47.347133345778097 ] ] } },
{ "type": "Feature", "properties": { "wmUplineSo": "BENA", "wmType": "Overhead" }, "geometry": { "type": "LineString", "coordinates": [ [ -94.208414966769297, 47.347110833223901 ], [ -94.208581868230297, 47.3464213982841 ] ] } },
{ "type": "Feature", "properties": { "wmUplineSo": "BENA", "wmType": "Overhead" }, "geometry": { "type": "LineString", "coordinates": [ [ -94.208581868230297, 47.3464213982841 ], [ -94.208737908925301, 47.3457654028741 ] ] } },
{ "type": "Feature", "properties": { "wmUplineSo": "BENA", "wmType": "Overhead" }, "geometry": { "type": "LineString", "coordinates": [ [ -94.207924533899103, 47.341000424048403 ], [ -94.207906959177393, 47.340395587981199 ] ] } },
{ "type": "Feature", "properties": { "wmUplineSo": "BENA", "wmType": "Overhead" }, "geometry": { "type": "LineString", "coordinates": [ [ -94.210305434571595, 47.339383958877796 ], [ -94.210862303506602, 47.339316453551497 ] ] } },
{ "type": "Feature", "properties": { "wmUplineSo": "BENA", "wmType": "Overhead" }, "geometry": { "type": "LineString", "coordinates": [ [ -94.211233794309905, 47.338351346730001 ], [ -94.211578653229196, 47.337941542421802 ] ] } },
{ "type": "Feature", "properties": { "wmUplineSo": "BENA", "wmType": "Overhead" }, "geometry": { "type": "LineString", "coordinates": [ [ -94.208538084333497, 47.3393997530044 ], [ -94.209403997942303, 47.339403950930603 ] ] } },
{ "type": "Feature", "properties": { "wmUplineSo": "BENA", "wmType": "Overhead" }, "geometry": { "type": "LineString", "coordinates": [ [ -94.208538084333497, 47.3393997530044 ], [ -94.208528570424093, 47.339228433677199 ] ] } },
{ "type": "Feature", "properties": { "wmUplineSo": "BENA", "wmType": "Overhead" }, "geometry": { "type": "LineString", "coordinates": [ [ -94.208501832829697, 47.337432653624298 ], [ -94.209380664923401, 47.337407262249599 ] ] } },
{ "type": "Feature", "properties": { "wmUplineSo": "BENA", "wmType": "Overhead" }, "geometry": { "type": "LineString", "coordinates": [ [ -94.208485651053394, 47.3381028043218 ], [ -94.208501832829697, 47.337432653624298 ] ] } },
{ "type": "Feature", "properties": { "wmUplineSo": "BENA", "wmType": "Overhead" }, "geometry": { "type": "LineString", "coordinates": [ [ -94.208505283867197, 47.336543312798597 ], [ -94.209417006913, 47.336509648447802 ] ] } },
{ "type": "Feature", "properties": { "wmUplineSo": "BENA", "wmType": "Overhead" }, "geometry": { "type": "LineString", "coordinates": [ [ -94.208501832829697, 47.337432653624298 ], [ -94.208503069155398, 47.336854510579997 ] ] } },
{ "type": "Feature", "properties": { "wmUplineSo": "BENA", "wmType": "Overhead" }, "geometry": { "type": "LineString", "coordinates": [ [ -94.209417006913, 47.336509648447802 ], [ -94.210623958250594, 47.336319056896798 ] ] } },
{ "type": "Feature", "properties": { "wmUplineSo": "BENA", "wmType": "Overhead" }, "geometry": { "type": "LineString", "coordinates": [ [ -94.210623958250594, 47.336319056896798 ], [ -94.211854339235202, 47.336580324466297 ] ] } },
{ "type": "Feature", "properties": { "wmUplineSo": "BENA", "wmType": "Overhead" }, "geometry": { "type": "LineString", "coordinates": [ [ -94.207899382142102, 47.339406486620597 ], [ -94.208538084333497, 47.3393997530044 ] ] } },
{ "type": "Feature", "properties": { "wmUplineSo": "BENA", "wmType": "Overhead" }, "geometry": { "type": "LineString", "coordinates": [ [ -94.207899382142102, 47.339406486620597 ], [ -94.207282960093295, 47.339407267980299 ] ] } },
{ "type": "Feature", "properties": { "wmUplineSo": "BENA", "wmType": "Overhead" }, "geometry": { "type": "LineString", "coordinates": [ [ -94.207906959177393, 47.340395587981199 ], [ -94.207929551118696, 47.339893011809899 ] ] } },
{ "type": "Feature", "properties": { "wmUplineSo": "BENA", "wmType": "Overhead" }, "geometry": { "type": "LineString", "coordinates": [ [ -94.206477345211695, 47.341434693993001 ], [ -94.205766221468195, 47.341459885398002 ] ] } },
{ "type": "Feature", "properties": { "wmUplineSo": "BENA", "wmType": "Overhead" }, "geometry": { "type": "LineString", "coordinates": [ [ -94.210721030455005, 47.338927140950901 ], [ -94.211233794309905, 47.338351346730001 ] ] } },
{ "type": "Feature", "properties": { "wmUplineSo": "BENA", "wmType": "Overhead" }, "geometry": { "type": "LineString", "coordinates": [ [ -94.210305434571595, 47.339383958877796 ], [ -94.210721030455005, 47.338927140950901 ] ] } },
{ "type": "Feature", "properties": { "wmUplineSo": "BENA", "wmType": "Overhead" }, "geometry": { "type": "LineString", "coordinates": [ [ -94.206477345211695, 47.341434693993001 ], [ -94.2064713587163, 47.340881506795597 ] ] } },
{ "type": "Feature", "properties": { "wmUplineSo": "BENA", "wmType": "Overhead" }, "geometry": { "type": "LineString", "coordinates": [ [ -94.206477345211695, 47.341434693993001 ], [ -94.2064678065544, 47.341759203782402 ] ] } },
{ "type": "Feature", "properties": { "wmUplineSo": "BENA", "wmType": "Overhead" }, "geometry": { "type": "LineString", "coordinates": [ [ -94.2064678065544, 47.341759203782402 ], [ -94.206482968396699, 47.342419344990198 ] ] } },
{ "type": "Feature", "properties": { "wmUplineSo": "BENA", "wmType": "Overhead" }, "geometry": { "type": "LineString", "coordinates": [ [ -94.207919603686193, 47.343521736858399 ], [ -94.207184260216593, 47.3435123782942 ] ] } },
{ "type": "Feature", "properties": { "wmUplineSo": "BENA", "wmType": "Overhead" }, "geometry": { "type": "LineString", "coordinates": [ [ -94.207919603686193, 47.343521736858399 ], [ -94.207913049480595, 47.342963417797201 ] ] } },
{ "type": "Feature", "properties": { "wmUplineSo": "BENA", "wmType": "Overhead" }, "geometry": { "type": "LineString", "coordinates": [ [ -94.207913049480595, 47.342963417797201 ], [ -94.207946089135802, 47.342401918971198 ] ] } },
{ "type": "Feature", "properties": { "wmUplineSo": "BENA", "wmType": "Overhead" }, "geometry": { "type": "LineString", "coordinates": [ [ -94.209544000127906, 47.343525005520704 ], [ -94.209452074789795, 47.342975423729399 ] ] } },
{ "type": "Feature", "properties": { "wmUplineSo": "BENA", "wmType": "Overhead" }, "geometry": { "type": "LineString", "coordinates": [ [ -94.209544000127906, 47.343525005520704 ], [ -94.208581658769702, 47.343515930748602 ] ] } },
{ "type": "Feature", "properties": { "wmUplineSo": "BENA", "wmType": "Overhead" }, "geometry": { "type": "LineString", "coordinates": [ [ -94.2094755375158, 47.342435591743097 ], [ -94.2094529824885, 47.342041947515597 ] ] } },
{ "type": "Feature", "properties": { "wmUplineSo": "BENA", "wmType": "Overhead" }, "geometry": { "type": "LineString", "coordinates": [ [ -94.207946089135802, 47.342401918971198 ], [ -94.208528777266196, 47.342423848220697 ] ] } },
{ "type": "Feature", "properties": { "wmUplineSo": "BENA", "wmType": "Overhead" }, "geometry": { "type": "LineString", "coordinates": [ [ -94.2079519039697, 47.341888293282501 ], [ -94.207960134600199, 47.341426428880602 ] ] } },
{ "type": "Feature", "properties": { "wmUplineSo": "BENA", "wmType": "Overhead" }, "geometry": { "type": "LineString", "coordinates": [ [ -94.207960134600199, 47.341426428880602 ], [ -94.207924533899103, 47.341000424048403 ] ] } },
{ "type": "Feature", "properties": { "wmUplineSo": "BENA", "wmType": "Overhead" }, "geometry": { "type": "LineString", "coordinates": [ [ -94.207960134600199, 47.341426428880602 ], [ -94.207300125402, 47.341408426128297 ] ] } },
{ "type": "Feature", "properties": { "wmUplineSo": "BENA", "wmType": "Overhead" }, "geometry": { "type": "LineString", "coordinates": [ [ -94.210526942767302, 47.3428539500147 ], [ -94.210165721414199, 47.343539633799601 ] ] } },
{ "type": "Feature", "properties": { "wmUplineSo": "BENA", "wmType": "Overhead" }, "geometry": { "type": "LineString", "coordinates": [ [ -94.210561617168494, 47.342705100671097 ], [ -94.210526942767302, 47.3428539500147 ], [ -94.210526942767302, 47.3428539500147 ] ] } },
{ "type": "Feature", "properties": { "wmUplineSo": "BENA", "wmType": "Overhead" }, "geometry": { "type": "LineString", "coordinates": [ [ -94.207946089135802, 47.342401918971198 ], [ -94.207553900000505, 47.342555300009103 ] ] } },
{ "type": "Feature", "properties": { "wmUplineSo": "BENA", "wmType": "Overhead" }, "geometry": { "type": "LineString", "coordinates": [ [ -94.202344000076096, 47.348895003655898 ], [ -94.201973764484904, 47.3491156747506 ] ] } },
{ "type": "Feature", "properties": { "wmUplineSo": "BENA", "wmType": "Overhead" }, "geometry": { "type": "LineString", "coordinates": [ [ -94.208538084333497, 47.3393997530044 ], [ -94.2085366633018, 47.339419196470899 ] ] } },
{ "type": "Feature", "properties": { "wmUplineSo": "BENA", "wmType": "Overhead" }, "geometry": { "type": "LineString", "coordinates": [ [ -94.204991986968395, 47.342472368249702 ], [ -94.205220832258505, 47.342320020509902 ] ] } },
{ "type": "Feature", "properties": { "wmUplineSo": "BENA", "wmType": "Overhead" }, "geometry": { "type": "LineString", "coordinates": [ [ -94.2094529824885, 47.342041947515597 ], [ -94.209443000076504, 47.341439003653797 ] ] } },
{ "type": "Feature", "properties": { "wmUplineSo": "BENA", "wmType": "Overhead" }, "geometry": { "type": "LineString", "coordinates": [ [ -94.206145949973802, 47.347076128278999 ], [ -94.206146105369797, 47.347073138876603 ] ] } },
{ "type": "Feature", "properties": { "wmUplineSo": "BENA", "wmType": "Overhead" }, "geometry": { "type": "LineString", "coordinates": [ [ -94.206430401706299, 47.343524313987402 ], [ -94.206481631034606, 47.3438890171835 ] ] } },
{ "type": "Feature", "properties": { "wmUplineSo": "BENA", "wmType": "Overhead" }, "geometry": { "type": "LineString", "coordinates": [ [ -94.205475935405701, 47.348695035201402 ], [ -94.204245868809906, 47.348712276129298 ] ] } },
{ "type": "Feature", "properties": { "wmUplineSo": "BENA", "wmType": "Overhead" }, "geometry": { "type": "LineString", "coordinates": [ [ -94.205475935405701, 47.348695035201402 ], [ -94.205297643988203, 47.349450363701003 ] ] } },
{ "type": "Feature", "properties": { "wmUplineSo": "BENA", "wmType": "Overhead" }, "geometry": { "type": "LineString", "coordinates": [ [ -94.206496544964693, 47.346191665794301 ], [ -94.206145949973802, 47.347076128278999 ] ] } },
{ "type": "Feature", "properties": { "wmUplineSo": "BENA", "wmType": "Overhead" }, "geometry": { "type": "LineString", "coordinates": [ [ -94.204952753419704, 47.347376375872599 ], [ -94.204702724951005, 47.347831371183197 ] ] } },
{ "type": "Feature", "properties": { "wmUplineSo": "BENA", "wmType": "Overhead" }, "geometry": { "type": "LineString", "coordinates": [ [ -94.206145949973802, 47.347076128278999 ], [ -94.204948124860607, 47.347281132915398 ] ] } },
{ "type": "Feature", "properties": { "wmUplineSo": "BENA", "wmType": "Overhead" }, "geometry": { "type": "LineString", "coordinates": [ [ -94.204948124860607, 47.347281132915398 ], [ -94.204952753419704, 47.347376375872599 ] ] } },
{ "type": "Feature", "properties": { "wmUplineSo": "BENA", "wmType": "Overhead" }, "geometry": { "type": "LineString", "coordinates": [ [ -94.206145949973802, 47.347076128278999 ], [ -94.205933380236601, 47.347552515805504 ] ] } },
{ "type": "Feature", "properties": { "wmUplineSo": "BENA", "wmType": "Overhead" }, "geometry": { "type": "LineString", "coordinates": [ [ -94.204794065475298, 47.350320369808102 ], [ -94.2045405014252, 47.350351146472903 ] ] } },
{ "type": "Feature", "properties": { "wmUplineSo": "BENA", "wmType": "Overhead" }, "geometry": { "type": "LineString", "coordinates": [ [ -94.2045405014252, 47.350351146472903 ], [ -94.204201151126497, 47.350380730829499 ] ] } },
{ "type": "Feature", "properties": { "wmUplineSo": "BENA", "wmType": "Overhead" }, "geometry": { "type": "LineString", "coordinates": [ [ -94.123707529840701, 47.308616648013498 ], [ -94.123536851974507, 47.308059301877499 ] ] } },
{ "type": "Feature", "properties": { "wmUplineSo": "BENA", "wmType": "Overhead" }, "geometry": { "type": "LineString", "coordinates": [ [ -94.208478298958099, 47.338670449607903 ], [ -94.208485651053394, 47.3381028043218 ] ] } },
{ "type": "Feature", "properties": { "wmUplineSo": "BENA", "wmType": "Overhead" }, "geometry": { "type": "LineString", "coordinates": [ [ -94.208503069155398, 47.336854510579997 ], [ -94.208505283867197, 47.336543312798597 ] ] } },
{ "type": "Feature", "properties": { "wmUplineSo": "BENA", "wmType": "Overhead" }, "geometry": { "type": "LineString", "coordinates": [ [ -94.21049, 47.347141 ], [ -94.210527000076695, 47.347133003655401 ] ] } },
{ "type": "Feature", "properties": { "wmUplineSo": "BENA", "wmType": "Overhead" }, "geometry": { "type": "LineString", "coordinates": [ [ -94.209510248905502, 47.339108552283697 ], [ -94.209613982490296, 47.338829947520097 ] ] } },
{ "type": "Feature", "properties": { "wmUplineSo": "BENA", "wmType": "Overhead" }, "geometry": { "type": "LineString", "coordinates": [ [ -94.177318494701595, 47.341654085107898 ], [ -94.177293748859995, 47.341785641837603 ] ] } }
]
}
