{
"type": "FeatureCollection",
"crs": { "type": "name", "properties": { "name": "urn:ogc:def:crs:OGC:1.3:CRS84" } },
"features": [
{ "type": "Feature", "properties": { "wmUplineSo": "BENA", "wmType": "Underground" }, "geometry": { "type": "LineString", "coordinates": [ [ -94.21049, 47.347141 ], [ -94.210524466870794, 47.347130660028199 ] ] } },
{ "type": "Feature", "properties": { "wmUplineSo": "BENA", "wmType": "Underground" }, "geometry": { "type": "LineString", "coordinates": [ [ -94.208476535666406, 47.345015393354998 ], [ -94.208585737732705, 47.344908504676702 ] ] } },
{ "type": "Feature", "properties": { "wmUplineSo": "BENA", "wmType": "Underground" }, "geometry": { "type": "LineString", "coordinates": [ [ -94.205779045961506, 47.347947477432101 ], [ -94.206327, 47.348033 ] ] } },
{ "type": "Feature", "properties": { "wmUplineSo": "BENA", "wmType": "Underground" }, "geometry": { "type": "LineString", "coordinates": [ [ -94.206327, 47.348033 ], [ -94.206350509596206, 47.3480256795062 ] ] } },
{ "type": "Feature", "properties": { "wmUplineSo": "BENA", "wmType": "Underground" }, "geometry": { "type": "LineString", "coordinates": [ [ -94.207280000076395, 47.347070003655503 ], [ -94.206564409601299, 47.347056685558499 ] ] } },
{ "type": "Feature", "properties": { "wmUplineSo": "BENA", "wmType": "Underground" }, "geometry": { "type": "LineString", "coordinates": [ [ -94.206564409601299, 47.347056685558499 ], [ -94.206609468358806, 47.346729718077597 ] ] } },
{ "type": "Feature", "properties": { "wmUplineSo": "BENA", "wmType": "Underground" }, "geometry": { "type": "LineString", "coordinates": [ [ -94.206609468358806, 47.346729718077597 ], [ -94.206603682959198, 47.346671006226899 ] ] } },
{ "type": "Feature", "properties": { "wmUplineSo": "BENA", "wmType": "Underground" }, "geometry": { "type": "LineString", "coordinates": [ [ -94.206609468358806, 47.346729718077597 ], [ -94.206677000076397, 47.346555003655403 ] ] } },
{ "type": "Feature", "properties": { "wmUplineSo": "BENA", "wmType": "Underground" }, "geometry": { "type": "LineString", "coordinates": [ [ -94.206677000076397, 47.346555003655403 ], [ -94.206857000076397, 47.346516003655303 ] ] } },
{ "type": "Feature", "properties": { "wmUplineSo": "BENA", "wmType": "Underground" }, "geometry": { "type": "LineString", "coordinates": [ [ -94.142528530565102, 47.320944453134501 ], [ -94.142721900000396, 47.320883100009098 ] ] } },
{ "type": "Feature", "properties": { "wmUplineSo": "BENA", "wmType": "Underground" }, "geometry": { "type": "LineString", "coordinates": [ [ -94.142528530565102, 47.320944453134501 ], [ -94.1428305000004, 47.320993000009103 ] ] } },
{ "type": "Feature", "properties": { "wmUplineSo": "BENA", "wmType": "Underground" }, "geometry": { "type": "LineString", "coordinates": [ [ -94.1437431766728, 47.321545879124102 ], [ -94.143725600000394, 47.321504300009103 ] ] } },
{ "type": "Feature", "properties": { "wmUplineSo": "BENA", "wmType": "Underground" }, "geometry": { "type": "LineString", "coordinates": [ [ -94.1437431766728, 47.321545879124102 ], [ -94.143835100000402, 47.321544400009103 ] ] } },
{ "type": "Feature", "properties": { "wmUplineSo": "BENA", "wmType": "Underground" }, "geometry": { "type": "LineString", "coordinates": [ [ -94.201781185060497, 47.349341942382701 ], [ -94.201690892818903, 47.349542283910502 ] ] } },
{ "type": "Feature", "properties": { "wmUplineSo": "BENA", "wmType": "Underground" }, "geometry": { "type": "LineString", "coordinates": [ [ -94.201690892818903, 47.349542283910502 ], [ -94.201627738518297, 47.349669713931398 ] ] } },
{ "type": "Feature", "properties": { "wmUplineSo": "BENA", "wmType": "Underground" }, "geometry": { "type": "LineString", "coordinates": [ [ -94.122552, 47.306247 ], [ -94.122548486211201, 47.306239322370097 ] ] } },
{ "type": "Feature", "properties": { "wmUplineSo": "BENA", "wmType": "Underground" }, "geometry": { "type": "LineString", "coordinates": [ [ -94.122325, 47.3057510000001 ], [ -94.122351124174102, 47.305566432262601 ] ] } },
{ "type": "Feature", "properties": { "wmUplineSo": "BENA", "wmType": "Underground" }, "geometry": { "type": "LineString", "coordinates": [ [ -94.122351124174102, 47.305566432262601 ], [ -94.122256, 47.305458000000101 ] ] } },
{ "type": "Feature", "properties": { "wmUplineSo": "BENA", "wmType": "Underground" }, "geometry": { "type": "LineString", "coordinates": [ [ -94.122256, 47.305458000000101 ], [ -94.122256267892297, 47.305430720691803 ] ] } },
{ "type": "Feature", "properties": { "wmUplineSo": "BENA", "wmType": "Underground" }, "geometry": { "type": "LineString", "coordinates": [ [ -94.122548486211201, 47.306239322370097 ], [ -94.122325, 47.3057510000001 ] ] } },
{ "type": "Feature", "properties": { "wmUplineSo": "BENA", "wmType": "Underground" }, "geometry": { "type": "LineString", "coordinates": [ [ -94.201627738518297, 47.349669713931398 ], [ -94.200558595189705, 47.349762904994698 ] ] } },
{ "type": "Feature", "properties": { "wmUplineSo": "BENA", "wmType": "Underground" }, "geometry": { "type": "LineString", "coordinates": [ [ -94.2041988445322, 47.347189395831798 ], [ -94.204217567159901, 47.346855247062699 ] ] } },
{ "type": "Feature", "properties": { "wmUplineSo": "BENA", "wmType": "Underground" }, "geometry": { "type": "LineString", "coordinates": [ [ -94.205933380236601, 47.347552515805504 ], [ -94.206101115632507, 47.347586237387603 ] ] } },
{ "type": "Feature", "properties": { "wmUplineSo": "BENA", "wmType": "Underground" }, "geometry": { "type": "LineString", "coordinates": [ [ -94.206101115632507, 47.347586237387603 ], [ -94.206138119236002, 47.3475200484393 ] ] } },
{ "type": "Feature", "properties": { "wmUplineSo": "BENA", "wmType": "Underground" }, "geometry": { "type": "LineString", "coordinates": [ [ -94.200558595189705, 47.349762904994698 ], [ -94.200145478339806, 47.349950598391501 ] ] } },
{ "type": "Feature", "properties": { "wmUplineSo": "BENA", "wmType": "Underground" }, "geometry": { "type": "LineString", "coordinates": [ [ -94.200145478339806, 47.349950598391501 ], [ -94.200146, 47.350042000000101 ] ] } },
{ "type": "Feature", "properties": { "wmUplineSo": "BENA", "wmType": "Underground" }, "geometry": { "type": "LineString", "coordinates": [ [ -94.200146, 47.350042000000101 ], [ -94.199987570405995, 47.350200779814401 ] ] } },
{ "type": "Feature", "properties": { "wmUplineSo": "BENA", "wmType": "Underground" }, "geometry": { "type": "LineString", "coordinates": [ [ -94.2041988445322, 47.347189395831798 ], [ -94.204207886083395, 47.347237871885497 ] ] } },
{ "type": "Feature", "properties": { "wmUplineSo": "BENA", "wmType": "Underground" }, "geometry": { "type": "LineString", "coordinates": [ [ -94.206336910761095, 47.338439335127603 ], [ -94.2061569800005, 47.338607340009098 ] ] } },
{ "type": "Feature", "properties": { "wmUplineSo": "BENA", "wmType": "Underground" }, "geometry": { "type": "LineString", "coordinates": [ [ -94.210524466870794, 47.347130660028199 ], [ -94.210381000076595, 47.347112003655504 ] ] } },
{ "type": "Feature", "properties": { "wmUplineSo": "BENA", "wmType": "Underground" }, "geometry": { "type": "LineString", "coordinates": [ [ -94.210862303506602, 47.339316453551497 ], [ -94.210489300000503, 47.3398129000091 ] ] } },
{ "type": "Feature", "properties": { "wmUplineSo": "BENA", "wmType": "Underground" }, "geometry": { "type": "LineString", "coordinates": [ [ -94.210721030455005, 47.338927140950901 ], [ -94.211504200000505, 47.3383907000091 ] ] } },
{ "type": "Feature", "properties": { "wmUplineSo": "BENA", "wmType": "Underground" }, "geometry": { "type": "LineString", "coordinates": [ [ -94.209613982490296, 47.338829947520097 ], [ -94.210268800000506, 47.338352100009097 ] ] } },
{ "type": "Feature", "properties": { "wmUplineSo": "BENA", "wmType": "Underground" }, "geometry": { "type": "LineString", "coordinates": [ [ -94.209613982490296, 47.338829947520097 ], [ -94.210339950000503, 47.338336060009098 ] ] } },
{ "type": "Feature", "properties": { "wmUplineSo": "BENA", "wmType": "Underground" }, "geometry": { "type": "LineString", "coordinates": [ [ -94.2077508949627, 47.336269861252497 ], [ -94.207423100000497, 47.336060200009101 ] ] } },
{ "type": "Feature", "properties": { "wmUplineSo": "BENA", "wmType": "Underground" }, "geometry": { "type": "LineString", "coordinates": [ [ -94.211854339235202, 47.336580324466297 ], [ -94.212167600000498, 47.336299600009099 ] ] } },
{ "type": "Feature", "properties": { "wmUplineSo": "BENA", "wmType": "Underground" }, "geometry": { "type": "LineString", "coordinates": [ [ -94.207899382142102, 47.339406486620597 ], [ -94.208204600000499, 47.339658800009097 ] ] } },
{ "type": "Feature", "properties": { "wmUplineSo": "BENA", "wmType": "Underground" }, "geometry": { "type": "LineString", "coordinates": [ [ -94.210350809269499, 47.337399707105199 ], [ -94.210307300000494, 47.3371418000091 ] ] } },
{ "type": "Feature", "properties": { "wmUplineSo": "BENA", "wmType": "Underground" }, "geometry": { "type": "LineString", "coordinates": [ [ -94.209380664923401, 47.337407262249599 ], [ -94.209094300000501, 47.337210600009101 ] ] } },
{ "type": "Feature", "properties": { "wmUplineSo": "BENA", "wmType": "Underground" }, "geometry": { "type": "LineString", "coordinates": [ [ -94.207799896238001, 47.336765385584101 ], [ -94.207944300000506, 47.3366633000091 ] ] } },
{ "type": "Feature", "properties": { "wmUplineSo": "BENA", "wmType": "Underground" }, "geometry": { "type": "LineString", "coordinates": [ [ -94.123707529840701, 47.308616648013498 ], [ -94.123604300000395, 47.308598500009097 ] ] } },
{ "type": "Feature", "properties": { "wmUplineSo": "BENA", "wmType": "Underground" }, "geometry": { "type": "LineString", "coordinates": [ [ -94.206857000076397, 47.346516003655303 ], [ -94.206890000076399, 47.346305003655203 ] ] } },
{ "type": "Feature", "properties": { "wmUplineSo": "BENA", "wmType": "Underground" }, "geometry": { "type": "LineString", "coordinates": [ [ -94.142166251344605, 47.320688684416297 ], [ -94.142283600000397, 47.320661000009103 ] ] } },
{ "type": "Feature", "properties": { "wmUplineSo": "BENA", "wmType": "Underground" }, "geometry": { "type": "LineString", "coordinates": [ [ -94.141051827488198, 47.320407725891201 ], [ -94.141162900000396, 47.320169500009101 ] ] } },
{ "type": "Feature", "properties": { "wmUplineSo": "BENA", "wmType": "Underground" }, "geometry": { "type": "LineString", "coordinates": [ [ -94.145007076805499, 47.324295042055802 ], [ -94.143951900000403, 47.324954400009098 ] ] } },
{ "type": "Feature", "properties": { "wmUplineSo": "BENA", "wmType": "Underground" }, "geometry": { "type": "LineString", "coordinates": [ [ -94.209403997942303, 47.339403950930603 ], [ -94.2090822578878, 47.339605445125301 ] ] } },
{ "type": "Feature", "properties": { "wmUplineSo": "BENA", "wmType": "Underground" }, "geometry": { "type": "LineString", "coordinates": [ [ -94.208485651053394, 47.3381028043218 ], [ -94.209270800000496, 47.338288400009098 ] ] } },
{ "type": "Feature", "properties": { "wmUplineSo": "BENA", "wmType": "Underground" }, "geometry": { "type": "LineString", "coordinates": [ [ -94.201834477776998, 47.350334385986201 ], [ -94.201656800000507, 47.3503451000091 ] ] } },
{ "type": "Feature", "properties": { "wmUplineSo": "BENA", "wmType": "Underground" }, "geometry": { "type": "LineString", "coordinates": [ [ -94.203556759996701, 47.3459073251801 ], [ -94.203524800000494, 47.345855100009103 ] ] } },
{ "type": "Feature", "properties": { "wmUplineSo": "BENA", "wmType": "Underground" }, "geometry": { "type": "LineString", "coordinates": [ [ -94.2039274660698, 47.346351860593899 ], [ -94.203647400000506, 47.346327600009097 ] ] } },
{ "type": "Feature", "properties": { "wmUplineSo": "BENA", "wmType": "Underground" }, "geometry": { "type": "LineString", "coordinates": [ [ -94.2041988445322, 47.347189395831798 ], [ -94.204066600000502, 47.347145500009198 ] ] } },
{ "type": "Feature", "properties": { "wmUplineSo": "BENA", "wmType": "Underground" }, "geometry": { "type": "LineString", "coordinates": [ [ -94.204975927311494, 47.341969818199502 ], [ -94.205026522319798, 47.3419194279791 ] ] } },
{ "type": "Feature", "properties": { "wmUplineSo": "BENA", "wmType": "Underground" }, "geometry": { "type": "LineString", "coordinates": [ [ -94.204975927311494, 47.341969818199502 ], [ -94.2045028223272, 47.341890928423503 ] ] } },
{ "type": "Feature", "properties": { "wmUplineSo": "BENA", "wmType": "Underground" }, "geometry": { "type": "LineString", "coordinates": [ [ -94.204975927311494, 47.341969818199502 ], [ -94.204145122411205, 47.341914428726199 ] ] } },
{ "type": "Feature", "properties": { "wmUplineSo": "BENA", "wmType": "Underground" }, "geometry": { "type": "LineString", "coordinates": [ [ -94.204991986968395, 47.342472368249702 ], [ -94.205070033627806, 47.342515798694699 ] ] } },
{ "type": "Feature", "properties": { "wmUplineSo": "BENA", "wmType": "Underground" }, "geometry": { "type": "LineString", "coordinates": [ [ -94.177726878024998, 47.342986781484598 ], [ -94.177682400000407, 47.342960300009103 ] ] } },
{ "type": "Feature", "properties": { "wmUplineSo": "BENA", "wmType": "Underground" }, "geometry": { "type": "LineString", "coordinates": [ [ -94.207799896238001, 47.336765385584101 ], [ -94.207928300000503, 47.336635500009102 ] ] } },
{ "type": "Feature", "properties": { "wmUplineSo": "BENA", "wmType": "Underground" }, "geometry": { "type": "LineString", "coordinates": [ [ -94.204207886083395, 47.347237871885497 ], [ -94.204191381760396, 47.347549682034298 ] ] } },
{ "type": "Feature", "properties": { "wmUplineSo": "BENA", "wmType": "Underground" }, "geometry": { "type": "LineString", "coordinates": [ [ -94.199987570405995, 47.350200779814401 ], [ -94.199998, 47.350212 ] ] } },
{ "type": "Feature", "properties": { "wmUplineSo": "BENA", "wmType": "Underground" }, "geometry": { "type": "LineString", "coordinates": [ [ -94.123137632153998, 47.307261388013899 ], [ -94.122671600000402, 47.307426300009098 ] ] } },
{ "type": "Feature", "properties": { "wmUplineSo": "BENA", "wmType": "Underground" }, "geometry": { "type": "LineString", "coordinates": [ [ -94.143420057320597, 47.321911363519597 ], [ -94.1437431766728, 47.321545879124102 ] ] } },
{ "type": "Feature", "properties": { "wmUplineSo": "BENA", "wmType": "Underground" }, "geometry": { "type": "LineString", "coordinates": [ [ -94.204191381760396, 47.347549682034298 ], [ -94.203954100000502, 47.347557600009203 ] ] } },
{ "type": "Feature", "properties": { "wmUplineSo": "BENA", "wmType": "Underground" }, "geometry": { "type": "LineString", "coordinates": [ [ -94.210381000076595, 47.347112003655504 ], [ -94.210096000076604, 47.347041003655399 ] ] } },
{ "type": "Feature", "properties": { "wmUplineSo": "BENA", "wmType": "Underground" }, "geometry": { "type": "LineString", "coordinates": [ [ -94.2067581389135, 47.345430651842896 ], [ -94.207606000000496, 47.345520800009098 ] ] } },
{ "type": "Feature", "properties": { "wmUplineSo": "BENA", "wmType": "Underground" }, "geometry": { "type": "LineString", "coordinates": [ [ -94.210350809269499, 47.337399707105199 ], [ -94.210467000076605, 47.337565003652998 ] ] } },
{ "type": "Feature", "properties": { "wmUplineSo": "BENA", "wmType": "Underground" }, "geometry": { "type": "LineString", "coordinates": [ [ -94.2055013012681, 47.342415231249902 ], [ -94.204991986968395, 47.342472368249702 ] ] } },
{ "type": "Feature", "properties": { "wmUplineSo": "BENA", "wmType": "Underground" }, "geometry": { "type": "LineString", "coordinates": [ [ -94.142015596417494, 47.321328227277398 ], [ -94.142528530565102, 47.320944453134501 ] ] } },
{ "type": "Feature", "properties": { "wmUplineSo": "BENA", "wmType": "Underground" }, "geometry": { "type": "LineString", "coordinates": [ [ -94.141658070293701, 47.321085364800702 ], [ -94.142166251344605, 47.320688684416297 ] ] } },
{ "type": "Feature", "properties": { "wmUplineSo": "BENA", "wmType": "Underground" }, "geometry": { "type": "LineString", "coordinates": [ [ -94.140995074906598, 47.320720365908002 ], [ -94.141051827488198, 47.320407725891201 ] ] } },
{ "type": "Feature", "properties": { "wmUplineSo": "BENA", "wmType": "Underground" }, "geometry": { "type": "LineString", "coordinates": [ [ -94.145161983669396, 47.323906348490397 ], [ -94.145007076805499, 47.324295042055802 ] ] } },
{ "type": "Feature", "properties": { "wmUplineSo": "BENA", "wmType": "Underground" }, "geometry": { "type": "LineString", "coordinates": [ [ -94.209833383082398, 47.337414574301 ], [ -94.210350809269499, 47.337399707105199 ] ] } },
{ "type": "Feature", "properties": { "wmUplineSo": "BENA", "wmType": "Underground" }, "geometry": { "type": "LineString", "coordinates": [ [ -94.201973764484904, 47.3491156747506 ], [ -94.201821635777094, 47.349240113775103 ], [ -94.201781185060497, 47.349341942382701 ] ] } },
{ "type": "Feature", "properties": { "wmUplineSo": "BENA", "wmType": "Underground" }, "geometry": { "type": "LineString", "coordinates": [ [ -94.201781185060497, 47.349341942382701 ], [ -94.201918326780898, 47.349740120934101 ], [ -94.201917910924493, 47.350178769845797 ], [ -94.201834477776998, 47.350334385986201 ] ] } },
{ "type": "Feature", "properties": { "wmUplineSo": "BENA", "wmType": "Underground" }, "geometry": { "type": "LineString", "coordinates": [ [ -94.204172847943198, 47.346479935775697 ], [ -94.2039274660698, 47.346351860593899 ] ] } },
{ "type": "Feature", "properties": { "wmUplineSo": "BENA", "wmType": "Underground" }, "geometry": { "type": "LineString", "coordinates": [ [ -94.204948124860607, 47.347281132915398 ], [ -94.2041988445322, 47.347189395831798 ] ] } },
{ "type": "Feature", "properties": { "wmUplineSo": "BENA", "wmType": "Underground" }, "geometry": { "type": "LineString", "coordinates": [ [ -94.205036131919897, 47.341479702690101 ], [ -94.204975927311395, 47.341969818199601 ], [ -94.204975927311494, 47.341969818199502 ] ] } },
{ "type": "Feature", "properties": { "wmUplineSo": "BENA", "wmType": "Underground" }, "geometry": { "type": "LineString", "coordinates": [ [ -94.209380664923401, 47.337407262249599 ], [ -94.209833383082398, 47.337414574301 ] ] } },
{ "type": "Feature", "properties": { "wmUplineSo": "BENA", "wmType": "Underground" }, "geometry": { "type": "LineString", "coordinates": [ [ -94.208503069155398, 47.336854510579997 ], [ -94.207799896238001, 47.336765385584101 ] ] } },
{ "type": "Feature", "properties": { "wmUplineSo": "BENA", "wmType": "Underground" }, "geometry": { "type": "LineString", "coordinates": [ [ -94.207799896238001, 47.336765385584101 ], [ -94.2077508949627, 47.336269861252497 ] ] } },
{ "type": "Feature", "properties": { "wmUplineSo": "BENA", "wmType": "Underground" }, "geometry": { "type": "LineString", "coordinates": [ [ -94.177293748859995, 47.341785641837603 ], [ -94.177692952138699, 47.342210401125797 ], [ -94.177806494080997, 47.342382996831603 ], [ -94.177845375373295, 47.342745916516201 ], [ -94.177726878024998, 47.342986781484598 ] ] } },
{ "type": "Feature", "properties": { "wmUplineSo": "BENA", "wmType": "Underground" }, "geometry": { "type": "LineString", "coordinates": [ [ -94.207113000076404, 47.346121003655099 ], [ -94.207190000076395, 47.345917003655202 ] ] } },
{ "type": "Feature", "properties": { "wmUplineSo": "BENA", "wmType": "Underground" }, "geometry": { "type": "LineString", "coordinates": [ [ -94.210096000076604, 47.347041003655399 ], [ -94.209955000076604, 47.346992003655402 ] ] } },
{ "type": "Feature", "properties": { "wmUplineSo": "BENA", "wmType": "Underground" }, "geometry": { "type": "LineString", "coordinates": [ [ -94.209955000076604, 47.346992003655402 ], [ -94.209746000076606, 47.346859003655297 ] ] } },
{ "type": "Feature", "properties": { "wmUplineSo": "BENA", "wmType": "Underground" }, "geometry": { "type": "LineString", "coordinates": [ [ -94.209833383082398, 47.337414574301 ], [ -94.209927000076505, 47.337554003652897 ] ] } },
{ "type": "Feature", "properties": { "wmUplineSo": "BENA", "wmType": "Underground" }, "geometry": { "type": "LineString", "coordinates": [ [ -94.206609468358806, 47.346729718077597 ], [ -94.206608376404404, 47.346762917838497 ] ] } },
{ "type": "Feature", "properties": { "wmUplineSo": "BENA", "wmType": "Underground" }, "geometry": { "type": "LineString", "coordinates": [ [ -94.2041988445322, 47.347189395831798 ], [ -94.204229120720797, 47.346856354137898 ], [ -94.204172847943198, 47.346479935775697 ] ] } },
{ "type": "Feature", "properties": { "wmUplineSo": "BENA", "wmType": "Underground" }, "geometry": { "type": "LineString", "coordinates": [ [ -94.204172847943198, 47.346479935775697 ], [ -94.204172473374797, 47.346477430203898 ], [ -94.203497158537303, 47.346374199361499 ], [ -94.2034782924555, 47.346292679180998 ], [ -94.203490950137194, 47.346254072975697 ], [ -94.203490987198705, 47.346211171592799 ], [ -94.203509957001202, 47.346172567902798 ], [ -94.203554356708196, 47.345923757477102 ], [ -94.2035543752135, 47.345902306782399 ], [ -94.203556759996701, 47.3459073251801 ] ] } },
{ "type": "Feature", "properties": { "wmUplineSo": "BENA", "wmType": "Underground" }, "geometry": { "type": "LineString", "coordinates": [ [ -94.207190000076395, 47.345917003655202 ], [ -94.207217900163698, 47.345851357565103 ] ] } },
{ "type": "Feature", "properties": { "wmUplineSo": "BENA", "wmType": "Underground" }, "geometry": { "type": "LineString", "coordinates": [ [ -94.207190000076395, 47.345917003655202 ], [ -94.207089637456804, 47.345910120592798 ] ] } },
{ "type": "Feature", "properties": { "wmUplineSo": "BENA", "wmType": "Underground" }, "geometry": { "type": "LineString", "coordinates": [ [ -94.206890000076399, 47.346305003655203 ], [ -94.207113000076404, 47.346121003655099 ] ] } }
]
}
