{
"type": "FeatureCollection",
"crs": { "type": "name", "properties": { "name": "urn:ogc:def:crs:OGC:1.3:CRS84" } },
"features": [
{ "type": "Feature", "properties": { "wmUplineSo": "BERGEN LAKE", "wmType": "Underground" }, "geometry": { "type": "LineString", "coordinates": [ [ -92.209905299594894, 46.956033234765599 ], [ -92.209671, 46.956035 ] ] } },
{ "type": "Feature", "properties": { "wmUplineSo": "BERGEN LAKE", "wmType": "Underground" }, "geometry": { "type": "LineString", "coordinates": [ [ -92.209671, 46.956035 ], [ -92.209662, 46.956200000000102 ] ] } },
{ "type": "Feature", "properties": { "wmUplineSo": "BERGEN LAKE", "wmType": "Underground" }, "geometry": { "type": "LineString", "coordinates": [ [ -92.209662, 46.956200000000102 ], [ -92.209853, 46.956413 ] ] } },
{ "type": "Feature", "properties": { "wmUplineSo": "BERGEN LAKE", "wmType": "Underground" }, "geometry": { "type": "LineString", "coordinates": [ [ -92.209671, 46.956035 ], [ -92.209611351070805, 46.9560327392498 ] ] } },
{ "type": "Feature", "properties": { "wmUplineSo": "BERGEN LAKE", "wmType": "Underground" }, "geometry": { "type": "LineString", "coordinates": [ [ -92.209671, 46.956035 ], [ -92.208601451721094, 46.956112118735597 ] ] } },
{ "type": "Feature", "properties": { "wmUplineSo": "BERGEN LAKE", "wmType": "Underground" }, "geometry": { "type": "LineString", "coordinates": [ [ -92.218184700076606, 46.971735631508103 ], [ -92.218579000041899, 46.971737271746399 ] ] } },
{ "type": "Feature", "properties": { "wmUplineSo": "BERGEN LAKE", "wmType": "Underground" }, "geometry": { "type": "LineString", "coordinates": [ [ -92.220630558026102, 46.971756431290402 ], [ -92.220835039522399, 46.971721956761499 ] ] } },
{ "type": "Feature", "properties": { "wmUplineSo": "BERGEN LAKE", "wmType": "Underground" }, "geometry": { "type": "LineString", "coordinates": [ [ -92.220453700883496, 46.971731601818803 ], [ -92.220630558026102, 46.971756431290402 ] ] } },
{ "type": "Feature", "properties": { "wmUplineSo": "BERGEN LAKE", "wmType": "Underground" }, "geometry": { "type": "LineString", "coordinates": [ [ -92.220239824984901, 46.9717357081702 ], [ -92.220453700883496, 46.971731601818803 ] ] } },
{ "type": "Feature", "properties": { "wmUplineSo": "BERGEN LAKE", "wmType": "Underground" }, "geometry": { "type": "LineString", "coordinates": [ [ -92.221208162129102, 46.971559083735698 ], [ -92.221236913185805, 46.971567014080797 ] ] } },
{ "type": "Feature", "properties": { "wmUplineSo": "BERGEN LAKE", "wmType": "Underground" }, "geometry": { "type": "LineString", "coordinates": [ [ -92.2194840248942, 46.971731749622698 ], [ -92.220239824984901, 46.9717357081702 ] ] } },
{ "type": "Feature", "properties": { "wmUplineSo": "BERGEN LAKE", "wmType": "Underground" }, "geometry": { "type": "LineString", "coordinates": [ [ -92.217757720978, 46.971784243755302 ], [ -92.217858000037495, 46.971740755225902 ] ] } },
{ "type": "Feature", "properties": { "wmUplineSo": "BERGEN LAKE", "wmType": "Underground" }, "geometry": { "type": "LineString", "coordinates": [ [ -92.219220478493298, 46.971714165476797 ], [ -92.2194840248942, 46.971731749622698 ] ] } },
{ "type": "Feature", "properties": { "wmUplineSo": "BERGEN LAKE", "wmType": "Underground" }, "geometry": { "type": "LineString", "coordinates": [ [ -92.218579000041899, 46.971737271746399 ], [ -92.219220478493298, 46.971714165476797 ] ] } },
{ "type": "Feature", "properties": { "wmUplineSo": "BERGEN LAKE", "wmType": "Underground" }, "geometry": { "type": "LineString", "coordinates": [ [ -92.221124549051794, 46.971610605679302 ], [ -92.221208162129102, 46.971559083735698 ] ] } },
{ "type": "Feature", "properties": { "wmUplineSo": "BERGEN LAKE", "wmType": "Underground" }, "geometry": { "type": "LineString", "coordinates": [ [ -92.217858000037495, 46.971740755225902 ], [ -92.218184700076606, 46.971735631508103 ] ] } },
{ "type": "Feature", "properties": { "wmUplineSo": "BERGEN LAKE", "wmType": "Underground" }, "geometry": { "type": "LineString", "coordinates": [ [ -92.238859526410707, 46.9978392859745 ], [ -92.238860146152902, 46.996310663002902 ] ] } },
{ "type": "Feature", "properties": { "wmUplineSo": "BERGEN LAKE", "wmType": "Underground" }, "geometry": { "type": "LineString", "coordinates": [ [ -92.238860146152902, 46.996310663002902 ], [ -92.238860021169501, 46.996294166801803 ] ] } },
{ "type": "Feature", "properties": { "wmUplineSo": "BERGEN LAKE", "wmType": "Underground" }, "geometry": { "type": "LineString", "coordinates": [ [ -92.249430934721005, 46.974012592123202 ], [ -92.249442031932205, 46.974017562925802 ] ] } },
{ "type": "Feature", "properties": { "wmUplineSo": "BERGEN LAKE", "wmType": "Underground" }, "geometry": { "type": "LineString", "coordinates": [ [ -92.249582335026801, 46.974080409082497 ], [ -92.249891999954698, 46.974250003553301 ] ] } },
{ "type": "Feature", "properties": { "wmUplineSo": "BERGEN LAKE", "wmType": "Underground" }, "geometry": { "type": "LineString", "coordinates": [ [ -92.249891999954698, 46.974250003553301 ], [ -92.249904999954694, 46.974426003553297 ] ] } },
{ "type": "Feature", "properties": { "wmUplineSo": "BERGEN LAKE", "wmType": "Underground" }, "geometry": { "type": "LineString", "coordinates": [ [ -92.249904999954694, 46.974426003553297 ], [ -92.249858999954697, 46.974836003553499 ] ] } },
{ "type": "Feature", "properties": { "wmUplineSo": "BERGEN LAKE", "wmType": "Underground" }, "geometry": { "type": "LineString", "coordinates": [ [ -92.249858999954697, 46.974836003553499 ], [ -92.249712999954696, 46.975036003553498 ] ] } },
{ "type": "Feature", "properties": { "wmUplineSo": "BERGEN LAKE", "wmType": "Underground" }, "geometry": { "type": "LineString", "coordinates": [ [ -92.249712999954696, 46.975036003553498 ], [ -92.249501999954703, 46.975253003553597 ] ] } },
{ "type": "Feature", "properties": { "wmUplineSo": "BERGEN LAKE", "wmType": "Underground" }, "geometry": { "type": "LineString", "coordinates": [ [ -92.249501999954703, 46.975253003553597 ], [ -92.249510999954694, 46.975380003553603 ] ] } },
{ "type": "Feature", "properties": { "wmUplineSo": "BERGEN LAKE", "wmType": "Underground" }, "geometry": { "type": "LineString", "coordinates": [ [ -92.249510999954694, 46.975380003553603 ], [ -92.249791999954695, 46.975739003553699 ] ] } },
{ "type": "Feature", "properties": { "wmUplineSo": "BERGEN LAKE", "wmType": "Underground" }, "geometry": { "type": "LineString", "coordinates": [ [ -92.249791999954695, 46.975739003553699 ], [ -92.250098999954702, 46.975949003553801 ] ] } },
{ "type": "Feature", "properties": { "wmUplineSo": "BERGEN LAKE", "wmType": "Underground" }, "geometry": { "type": "LineString", "coordinates": [ [ -92.250098999954702, 46.975949003553801 ], [ -92.250067999954695, 46.975982003554002 ] ] } },
{ "type": "Feature", "properties": { "wmUplineSo": "BERGEN LAKE", "wmType": "Underground" }, "geometry": { "type": "LineString", "coordinates": [ [ -92.250067999954695, 46.975982003554002 ], [ -92.250066999954697, 46.9760030035537 ] ] } },
{ "type": "Feature", "properties": { "wmUplineSo": "BERGEN LAKE", "wmType": "Underground" }, "geometry": { "type": "LineString", "coordinates": [ [ -92.249442031932205, 46.974017562925802 ], [ -92.249582335026801, 46.974080409082497 ] ] } },
{ "type": "Feature", "properties": { "wmUplineSo": "BERGEN LAKE", "wmType": "Underground" }, "geometry": { "type": "LineString", "coordinates": [ [ -92.293062960875403, 46.990125204415797 ], [ -92.293060816338894, 46.990047653388402 ] ] } },
{ "type": "Feature", "properties": { "wmUplineSo": "BERGEN LAKE", "wmType": "Underground" }, "geometry": { "type": "LineString", "coordinates": [ [ -92.293060816338894, 46.990047653388402 ], [ -92.292846458445993, 46.990037691373402 ] ] } },
{ "type": "Feature", "properties": { "wmUplineSo": "BERGEN LAKE", "wmType": "Underground" }, "geometry": { "type": "LineString", "coordinates": [ [ -92.292846458445993, 46.990037691373402 ], [ -92.292613733870795, 46.990023714798703 ] ] } },
{ "type": "Feature", "properties": { "wmUplineSo": "BERGEN LAKE", "wmType": "Underground" }, "geometry": { "type": "LineString", "coordinates": [ [ -92.279432212383995, 47.002763498320199 ], [ -92.279258421459204, 47.002755241286899 ] ] } },
{ "type": "Feature", "properties": { "wmUplineSo": "BERGEN LAKE", "wmType": "Underground" }, "geometry": { "type": "LineString", "coordinates": [ [ -92.279258421459204, 47.002755241286899 ], [ -92.279199078024007, 47.002809254840599 ] ] } },
{ "type": "Feature", "properties": { "wmUplineSo": "BERGEN LAKE", "wmType": "Underground" }, "geometry": { "type": "LineString", "coordinates": [ [ -92.279199078024007, 47.002809254840599 ], [ -92.278947999993406, 47.002808315644103 ] ] } },
{ "type": "Feature", "properties": { "wmUplineSo": "BERGEN LAKE", "wmType": "Underground" }, "geometry": { "type": "LineString", "coordinates": [ [ -92.278947999993406, 47.002808315644103 ], [ -92.278183135413101, 47.002807086902401 ] ] } },
{ "type": "Feature", "properties": { "wmUplineSo": "BERGEN LAKE", "wmType": "Underground" }, "geometry": { "type": "LineString", "coordinates": [ [ -92.278183135413101, 47.002807086902401 ], [ -92.277821337849502, 47.002803222974201 ] ] } },
{ "type": "Feature", "properties": { "wmUplineSo": "BERGEN LAKE", "wmType": "Underground" }, "geometry": { "type": "LineString", "coordinates": [ [ -92.277821337849502, 47.002803222974201 ], [ -92.277768235859995, 47.002467424090902 ] ] } },
{ "type": "Feature", "properties": { "wmUplineSo": "BERGEN LAKE", "wmType": "Underground" }, "geometry": { "type": "LineString", "coordinates": [ [ -92.277768235859995, 47.002467424090902 ], [ -92.277763416593999, 47.002189328861398 ] ] } },
{ "type": "Feature", "properties": { "wmUplineSo": "BERGEN LAKE", "wmType": "Underground" }, "geometry": { "type": "LineString", "coordinates": [ [ -92.277763416593999, 47.002189328861398 ], [ -92.277735338923193, 47.001951986068299 ] ] } },
{ "type": "Feature", "properties": { "wmUplineSo": "BERGEN LAKE", "wmType": "Underground" }, "geometry": { "type": "LineString", "coordinates": [ [ -92.277735338923193, 47.001951986068299 ], [ -92.277803417764005, 47.001480960493701 ] ] } },
{ "type": "Feature", "properties": { "wmUplineSo": "BERGEN LAKE", "wmType": "Underground" }, "geometry": { "type": "LineString", "coordinates": [ [ -92.277803417764005, 47.001480960493701 ], [ -92.277768199999898, 47.001462300008797 ] ] } },
{ "type": "Feature", "properties": { "wmUplineSo": "BERGEN LAKE", "wmType": "Underground" }, "geometry": { "type": "LineString", "coordinates": [ [ -92.257965600003999, 46.981153448149797 ], [ -92.257945492157006, 46.981084438780101 ] ] } },
{ "type": "Feature", "properties": { "wmUplineSo": "BERGEN LAKE", "wmType": "Underground" }, "geometry": { "type": "LineString", "coordinates": [ [ -92.257945492157006, 46.981084438780101 ], [ -92.257987732315698, 46.981016664318197 ] ] } },
{ "type": "Feature", "properties": { "wmUplineSo": "BERGEN LAKE", "wmType": "Underground" }, "geometry": { "type": "LineString", "coordinates": [ [ -92.257987732315698, 46.981016664318197 ], [ -92.258034020209493, 46.980726941329998 ] ] } },
{ "type": "Feature", "properties": { "wmUplineSo": "BERGEN LAKE", "wmType": "Underground" }, "geometry": { "type": "LineString", "coordinates": [ [ -92.264235269069303, 47.011315353657103 ], [ -92.265345915839902, 47.011629030139503 ] ] } },
{ "type": "Feature", "properties": { "wmUplineSo": "BERGEN LAKE", "wmType": "Underground" }, "geometry": { "type": "LineString", "coordinates": [ [ -92.265345915839902, 47.011629030139503 ], [ -92.2655079458534, 47.011538275778399 ] ] } },
{ "type": "Feature", "properties": { "wmUplineSo": "BERGEN LAKE", "wmType": "Underground" }, "geometry": { "type": "LineString", "coordinates": [ [ -92.2655079458534, 47.011538275778399 ], [ -92.2654418999999, 47.011520000008801 ] ] } },
{ "type": "Feature", "properties": { "wmUplineSo": "BERGEN LAKE", "wmType": "Underground" }, "geometry": { "type": "LineString", "coordinates": [ [ -92.2793417543716, 46.995546998611403 ], [ -92.279274999956399, 46.995414003559297 ] ] } },
{ "type": "Feature", "properties": { "wmUplineSo": "BERGEN LAKE", "wmType": "Underground" }, "geometry": { "type": "LineString", "coordinates": [ [ -92.279274999956399, 46.995414003559297 ], [ -92.279132999956403, 46.995240003559097 ] ] } },
{ "type": "Feature", "properties": { "wmUplineSo": "BERGEN LAKE", "wmType": "Underground" }, "geometry": { "type": "LineString", "coordinates": [ [ -92.279132999956403, 46.995240003559097 ], [ -92.279036999956304, 46.995091003559203 ] ] } },
{ "type": "Feature", "properties": { "wmUplineSo": "BERGEN LAKE", "wmType": "Underground" }, "geometry": { "type": "LineString", "coordinates": [ [ -92.279036999956304, 46.995091003559203 ], [ -92.279050299999895, 46.995085500008699 ] ] } },
{ "type": "Feature", "properties": { "wmUplineSo": "BERGEN LAKE", "wmType": "Underground" }, "geometry": { "type": "LineString", "coordinates": [ [ -92.233505475489906, 46.983167117452297 ], [ -92.233345964340899, 46.983189031849001 ] ] } },
{ "type": "Feature", "properties": { "wmUplineSo": "BERGEN LAKE", "wmType": "Underground" }, "geometry": { "type": "LineString", "coordinates": [ [ -92.280763518139196, 47.002772421211702 ], [ -92.280436999889702, 47.002770268123101 ] ] } },
{ "type": "Feature", "properties": { "wmUplineSo": "BERGEN LAKE", "wmType": "Underground" }, "geometry": { "type": "LineString", "coordinates": [ [ -92.287487025017001, 46.985980330216201 ], [ -92.287541599999898, 46.9857786000088 ] ] } },
{ "type": "Feature", "properties": { "wmUplineSo": "BERGEN LAKE", "wmType": "Underground" }, "geometry": { "type": "LineString", "coordinates": [ [ -92.280436999889702, 47.002770268123101 ], [ -92.279855755167802, 47.002773209826799 ] ] } },
{ "type": "Feature", "properties": { "wmUplineSo": "BERGEN LAKE", "wmType": "Underground" }, "geometry": { "type": "LineString", "coordinates": [ [ -92.279855755167802, 47.002773209826799 ], [ -92.279432212383995, 47.002763498320199 ] ] } },
{ "type": "Feature", "properties": { "wmUplineSo": "BERGEN LAKE", "wmType": "Underground" }, "geometry": { "type": "LineString", "coordinates": [ [ -92.279432212383995, 47.002763498320199 ], [ -92.279464855495704, 47.002606095990103 ] ] } },
{ "type": "Feature", "properties": { "wmUplineSo": "BERGEN LAKE", "wmType": "Underground" }, "geometry": { "type": "LineString", "coordinates": [ [ -92.279464855495704, 47.002606095990103 ], [ -92.279460999999898, 47.002621100008803 ] ] } },
{ "type": "Feature", "properties": { "wmUplineSo": "BERGEN LAKE", "wmType": "Underground" }, "geometry": { "type": "LineString", "coordinates": [ [ -92.281275338878203, 46.9972519465869 ], [ -92.281279674530396, 46.997572006958997 ] ] } },
{ "type": "Feature", "properties": { "wmUplineSo": "BERGEN LAKE", "wmType": "Underground" }, "geometry": { "type": "LineString", "coordinates": [ [ -92.281279674530396, 46.997572006958997 ], [ -92.281278015609402, 46.9979669490017 ] ] } },
{ "type": "Feature", "properties": { "wmUplineSo": "BERGEN LAKE", "wmType": "Underground" }, "geometry": { "type": "LineString", "coordinates": [ [ -92.281278015609402, 46.9979669490017 ], [ -92.281277171233995, 46.998520751743598 ] ] } },
{ "type": "Feature", "properties": { "wmUplineSo": "BERGEN LAKE", "wmType": "Underground" }, "geometry": { "type": "LineString", "coordinates": [ [ -92.281277171233995, 46.998520751743598 ], [ -92.281284176730495, 46.998969985093503 ] ] } },
{ "type": "Feature", "properties": { "wmUplineSo": "BERGEN LAKE", "wmType": "Underground" }, "geometry": { "type": "LineString", "coordinates": [ [ -92.281284176730495, 46.998969985093503 ], [ -92.281295997013203, 46.999339026706103 ] ] } },
{ "type": "Feature", "properties": { "wmUplineSo": "BERGEN LAKE", "wmType": "Underground" }, "geometry": { "type": "LineString", "coordinates": [ [ -92.281295997013203, 46.999339026706103 ], [ -92.281302449641103, 46.999629120675699 ] ] } },
{ "type": "Feature", "properties": { "wmUplineSo": "BERGEN LAKE", "wmType": "Underground" }, "geometry": { "type": "LineString", "coordinates": [ [ -92.281302449641103, 46.999629120675699 ], [ -92.281346271147697, 47.000024094710199 ] ] } },
{ "type": "Feature", "properties": { "wmUplineSo": "BERGEN LAKE", "wmType": "Underground" }, "geometry": { "type": "LineString", "coordinates": [ [ -92.281346271147697, 47.000024094710199 ], [ -92.281329525301501, 47.000672988752001 ] ] } },
{ "type": "Feature", "properties": { "wmUplineSo": "BERGEN LAKE", "wmType": "Underground" }, "geometry": { "type": "LineString", "coordinates": [ [ -92.281329525301501, 47.000672988752001 ], [ -92.281342942662306, 47.001120891319097 ] ] } },
{ "type": "Feature", "properties": { "wmUplineSo": "BERGEN LAKE", "wmType": "Underground" }, "geometry": { "type": "LineString", "coordinates": [ [ -92.281342942662306, 47.001120891319097 ], [ -92.2813441080133, 47.001726003465301 ] ] } },
{ "type": "Feature", "properties": { "wmUplineSo": "BERGEN LAKE", "wmType": "Underground" }, "geometry": { "type": "LineString", "coordinates": [ [ -92.2813441080133, 47.001726003465301 ], [ -92.281344426532698, 47.002032488004701 ] ] } },
{ "type": "Feature", "properties": { "wmUplineSo": "BERGEN LAKE", "wmType": "Underground" }, "geometry": { "type": "LineString", "coordinates": [ [ -92.281344426532698, 47.002032488004701 ], [ -92.281341441361107, 47.002376212565402 ] ] } },
{ "type": "Feature", "properties": { "wmUplineSo": "BERGEN LAKE", "wmType": "Underground" }, "geometry": { "type": "LineString", "coordinates": [ [ -92.281341441361107, 47.002376212565402 ], [ -92.281370952897106, 47.002736003456697 ] ] } },
{ "type": "Feature", "properties": { "wmUplineSo": "BERGEN LAKE", "wmType": "Underground" }, "geometry": { "type": "LineString", "coordinates": [ [ -92.281370952897106, 47.002736003456697 ], [ -92.281072752218805, 47.002767854210298 ] ] } },
{ "type": "Feature", "properties": { "wmUplineSo": "BERGEN LAKE", "wmType": "Underground" }, "geometry": { "type": "LineString", "coordinates": [ [ -92.281072752218805, 47.002767854210298 ], [ -92.280763518139196, 47.002772421211702 ] ] } },
{ "type": "Feature", "properties": { "wmUplineSo": "BERGEN LAKE", "wmType": "Underground" }, "geometry": { "type": "LineString", "coordinates": [ [ -92.287151179528706, 46.986389756107101 ], [ -92.287071999956893, 46.986371003556599 ] ] } },
{ "type": "Feature", "properties": { "wmUplineSo": "BERGEN LAKE", "wmType": "Underground" }, "geometry": { "type": "LineString", "coordinates": [ [ -92.287071999956893, 46.986371003556599 ], [ -92.287135627511006, 46.986564853429499 ] ] } },
{ "type": "Feature", "properties": { "wmUplineSo": "BERGEN LAKE", "wmType": "Underground" }, "geometry": { "type": "LineString", "coordinates": [ [ -92.287135627511006, 46.986564853429499 ], [ -92.287533910654503, 46.98663226 ] ] } },
{ "type": "Feature", "properties": { "wmUplineSo": "BERGEN LAKE", "wmType": "Underground" }, "geometry": { "type": "LineString", "coordinates": [ [ -92.287533910654503, 46.98663226 ], [ -92.287822660540499, 46.986749483284697 ] ] } },
{ "type": "Feature", "properties": { "wmUplineSo": "BERGEN LAKE", "wmType": "Underground" }, "geometry": { "type": "LineString", "coordinates": [ [ -92.287822660540499, 46.986749483284697 ], [ -92.287905732520898, 46.9869436301882 ] ] } },
{ "type": "Feature", "properties": { "wmUplineSo": "BERGEN LAKE", "wmType": "Underground" }, "geometry": { "type": "LineString", "coordinates": [ [ -92.287905732520898, 46.9869436301882 ], [ -92.288262414904196, 46.987211825283403 ] ] } },
{ "type": "Feature", "properties": { "wmUplineSo": "BERGEN LAKE", "wmType": "Underground" }, "geometry": { "type": "LineString", "coordinates": [ [ -92.288262414904196, 46.987211825283403 ], [ -92.288324799999899, 46.987238800008697 ] ] } },
{ "type": "Feature", "properties": { "wmUplineSo": "BERGEN LAKE", "wmType": "Underground" }, "geometry": { "type": "LineString", "coordinates": [ [ -92.287071999956893, 46.986371003556599 ], [ -92.287321999956902, 46.986169003556697 ] ] } },
{ "type": "Feature", "properties": { "wmUplineSo": "BERGEN LAKE", "wmType": "Underground" }, "geometry": { "type": "LineString", "coordinates": [ [ -92.287321999956902, 46.986169003556697 ], [ -92.287487025017001, 46.985980330216201 ] ] } },
{ "type": "Feature", "properties": { "wmUplineSo": "BERGEN LAKE", "wmType": "Underground" }, "geometry": { "type": "LineString", "coordinates": [ [ -92.219090308877597, 46.958853786415197 ], [ -92.219215308148904, 46.958908123046697 ] ] } },
{ "type": "Feature", "properties": { "wmUplineSo": "BERGEN LAKE", "wmType": "Underground" }, "geometry": { "type": "LineString", "coordinates": [ [ -92.250528303109505, 46.963558370798403 ], [ -92.250865639021498, 46.963590146886602 ], [ -92.251666964497602, 46.963590414886497 ] ] } },
{ "type": "Feature", "properties": { "wmUplineSo": "BERGEN LAKE", "wmType": "Underground" }, "geometry": { "type": "LineString", "coordinates": [ [ -92.220835039522399, 46.971721956761499 ], [ -92.221024751935801, 46.971660992463498 ] ] } },
{ "type": "Feature", "properties": { "wmUplineSo": "BERGEN LAKE", "wmType": "Underground" }, "geometry": { "type": "LineString", "coordinates": [ [ -92.281341441361107, 47.002376212565402 ], [ -92.281519999956501, 47.002363003561101 ] ] } },
{ "type": "Feature", "properties": { "wmUplineSo": "BERGEN LAKE", "wmType": "Underground" }, "geometry": { "type": "LineString", "coordinates": [ [ -92.238973342669595, 46.9696579958106 ], [ -92.239644816373996, 46.969559918130003 ] ] } },
{ "type": "Feature", "properties": { "wmUplineSo": "BERGEN LAKE", "wmType": "Underground" }, "geometry": { "type": "LineString", "coordinates": [ [ -92.241482790528096, 46.9697239541768 ], [ -92.241340699999895, 46.969761500008701 ] ] } },
{ "type": "Feature", "properties": { "wmUplineSo": "BERGEN LAKE", "wmType": "Underground" }, "geometry": { "type": "LineString", "coordinates": [ [ -92.237623064234896, 46.967946153977302 ], [ -92.237395329656593, 46.968169627587599 ] ] } },
{ "type": "Feature", "properties": { "wmUplineSo": "BERGEN LAKE", "wmType": "Underground" }, "geometry": { "type": "LineString", "coordinates": [ [ -92.237395329656593, 46.968169627587599 ], [ -92.237194399999893, 46.968273200008703 ] ] } },
{ "type": "Feature", "properties": { "wmUplineSo": "BERGEN LAKE", "wmType": "Underground" }, "geometry": { "type": "LineString", "coordinates": [ [ -92.239006083972001, 46.967938211621501 ], [ -92.238841777658294, 46.9679098758644 ] ] } },
{ "type": "Feature", "properties": { "wmUplineSo": "BERGEN LAKE", "wmType": "Underground" }, "geometry": { "type": "LineString", "coordinates": [ [ -92.237004710441994, 46.967768319844197 ], [ -92.236883199999895, 46.9677774000087 ] ] } },
{ "type": "Feature", "properties": { "wmUplineSo": "BERGEN LAKE", "wmType": "Underground" }, "geometry": { "type": "LineString", "coordinates": [ [ -92.238841777658294, 46.9679098758644 ], [ -92.238689907801302, 46.967865633460796 ], [ -92.238512181935604, 46.967911689103502 ], [ -92.238337668959105, 46.967981386189798 ], [ -92.238075190999595, 46.968046306557198 ], [ -92.237883540292898, 46.9680221738721 ], [ -92.237758563646906, 46.967958204222498 ], [ -92.237623064234896, 46.967946153977302 ] ] } },
{ "type": "Feature", "properties": { "wmUplineSo": "BERGEN LAKE", "wmType": "Underground" }, "geometry": { "type": "LineString", "coordinates": [ [ -92.237623064234896, 46.967946153977302 ], [ -92.237490836582495, 46.967819800623403 ], [ -92.237269022912898, 46.967770080899498 ], [ -92.237004710441994, 46.967768319844197 ] ] } },
{ "type": "Feature", "properties": { "wmUplineSo": "BERGEN LAKE", "wmType": "Underground" }, "geometry": { "type": "LineString", "coordinates": [ [ -92.274781708776203, 47.008336402991702 ], [ -92.274590267058599, 47.008298809697202 ] ] } },
{ "type": "Feature", "properties": { "wmUplineSo": "BERGEN LAKE", "wmType": "Underground" }, "geometry": { "type": "LineString", "coordinates": [ [ -92.259849297182697, 46.998790068298298 ], [ -92.259852415278402, 47.000259927319703 ] ] } },
{ "type": "Feature", "properties": { "wmUplineSo": "BERGEN LAKE", "wmType": "Underground" }, "geometry": { "type": "LineString", "coordinates": [ [ -92.280997626284105, 46.999997659693399 ], [ -92.280552388856606, 47.000030804528997 ] ] } },
{ "type": "Feature", "properties": { "wmUplineSo": "BERGEN LAKE", "wmType": "Underground" }, "geometry": { "type": "LineString", "coordinates": [ [ -92.219215308148904, 46.958908123046697 ], [ -92.219256308091104, 46.958904123047198 ] ] } },
{ "type": "Feature", "properties": { "wmUplineSo": "BERGEN LAKE", "wmType": "Underground" }, "geometry": { "type": "LineString", "coordinates": [ [ -92.219256308091104, 46.958904123047198 ], [ -92.219263308081594, 46.9588921230471 ] ] } },
{ "type": "Feature", "properties": { "wmUplineSo": "BERGEN LAKE", "wmType": "Underground" }, "geometry": { "type": "LineString", "coordinates": [ [ -92.261066214599495, 47.008208346433797 ], [ -92.263440880545701, 47.007537799388899 ] ] } },
{ "type": "Feature", "properties": { "wmUplineSo": "BERGEN LAKE", "wmType": "Underground" }, "geometry": { "type": "LineString", "coordinates": [ [ -92.265405999955703, 46.960725003549797 ], [ -92.265251999955694, 46.960650003549603 ] ] } },
{ "type": "Feature", "properties": { "wmUplineSo": "BERGEN LAKE", "wmType": "Underground" }, "geometry": { "type": "LineString", "coordinates": [ [ -92.315346999958706, 46.963699003550602 ], [ -92.315446999958695, 46.9637450035505 ] ] } },
{ "type": "Feature", "properties": { "wmUplineSo": "BERGEN LAKE", "wmType": "Underground" }, "geometry": { "type": "LineString", "coordinates": [ [ -92.315446999958695, 46.9637450035505 ], [ -92.315665999958696, 46.963782003550698 ] ] } },
{ "type": "Feature", "properties": { "wmUplineSo": "BERGEN LAKE", "wmType": "Underground" }, "geometry": { "type": "LineString", "coordinates": [ [ -92.315665999958696, 46.963782003550698 ], [ -92.315796999958707, 46.963695003550399 ] ] } },
{ "type": "Feature", "properties": { "wmUplineSo": "BERGEN LAKE", "wmType": "Underground" }, "geometry": { "type": "LineString", "coordinates": [ [ -92.221024751935801, 46.971660992463498 ], [ -92.221124549051794, 46.971610605679302 ] ] } },
{ "type": "Feature", "properties": { "wmUplineSo": "BERGEN LAKE", "wmType": "Underground" }, "geometry": { "type": "LineString", "coordinates": [ [ -92.236925325028693, 46.981293624288703 ], [ -92.236807826913306, 46.981241455382197 ] ] } },
{ "type": "Feature", "properties": { "wmUplineSo": "BERGEN LAKE", "wmType": "Underground" }, "geometry": { "type": "LineString", "coordinates": [ [ -92.236807826913306, 46.981241455382197 ], [ -92.2364835409508, 46.9812420683688 ] ] } },
{ "type": "Feature", "properties": { "wmUplineSo": "BERGEN LAKE", "wmType": "Underground" }, "geometry": { "type": "LineString", "coordinates": [ [ -92.2364835409508, 46.9812420683688 ], [ -92.235796000028699, 46.981252211781097 ] ] } },
{ "type": "Feature", "properties": { "wmUplineSo": "BERGEN LAKE", "wmType": "Underground" }, "geometry": { "type": "LineString", "coordinates": [ [ -92.235796000028699, 46.981252211781097 ], [ -92.235382647912402, 46.981247268874398 ] ] } },
{ "type": "Feature", "properties": { "wmUplineSo": "BERGEN LAKE", "wmType": "Underground" }, "geometry": { "type": "LineString", "coordinates": [ [ -92.235382647912402, 46.981247268874398 ], [ -92.234620978362699, 46.981224658522599 ] ] } },
{ "type": "Feature", "properties": { "wmUplineSo": "BERGEN LAKE", "wmType": "Underground" }, "geometry": { "type": "LineString", "coordinates": [ [ -92.234620978362699, 46.981224658522599 ], [ -92.234510398058603, 46.981193048302003 ] ] } },
{ "type": "Feature", "properties": { "wmUplineSo": "BERGEN LAKE", "wmType": "Underground" }, "geometry": { "type": "LineString", "coordinates": [ [ -92.234510398058603, 46.981193048302003 ], [ -92.234389209756699, 46.9812207987828 ] ] } },
{ "type": "Feature", "properties": { "wmUplineSo": "BERGEN LAKE", "wmType": "Underground" }, "geometry": { "type": "LineString", "coordinates": [ [ -92.234389209756699, 46.9812207987828 ], [ -92.234012281674396, 46.980981492759597 ] ] } },
{ "type": "Feature", "properties": { "wmUplineSo": "BERGEN LAKE", "wmType": "Underground" }, "geometry": { "type": "LineString", "coordinates": [ [ -92.234012281674396, 46.980981492759597 ], [ -92.233753794089097, 46.9808121701113 ] ] } },
{ "type": "Feature", "properties": { "wmUplineSo": "BERGEN LAKE", "wmType": "Underground" }, "geometry": { "type": "LineString", "coordinates": [ [ -92.233753794089097, 46.9808121701113 ], [ -92.233719658119497, 46.980802371003001 ] ] } },
{ "type": "Feature", "properties": { "wmUplineSo": "BERGEN LAKE", "wmType": "Underground" }, "geometry": { "type": "LineString", "coordinates": [ [ -92.293246392731902, 46.983400299311498 ], [ -92.29312, 46.983407999999898 ] ] } },
{ "type": "Feature", "properties": { "wmUplineSo": "BERGEN LAKE", "wmType": "Underground" }, "geometry": { "type": "LineString", "coordinates": [ [ -92.29312, 46.983407999999898 ], [ -92.29296, 46.983458999999897 ] ] } },
{ "type": "Feature", "properties": { "wmUplineSo": "BERGEN LAKE", "wmType": "Underground" }, "geometry": { "type": "LineString", "coordinates": [ [ -92.29296, 46.983458999999897 ], [ -92.292827, 46.983436 ] ] } },
{ "type": "Feature", "properties": { "wmUplineSo": "BERGEN LAKE", "wmType": "Underground" }, "geometry": { "type": "LineString", "coordinates": [ [ -92.292827, 46.983436 ], [ -92.292688, 46.9834320000001 ] ] } },
{ "type": "Feature", "properties": { "wmUplineSo": "BERGEN LAKE", "wmType": "Underground" }, "geometry": { "type": "LineString", "coordinates": [ [ -92.292688, 46.9834320000001 ], [ -92.292644, 46.983430999999896 ] ] } },
{ "type": "Feature", "properties": { "wmUplineSo": "BERGEN LAKE", "wmType": "Underground" }, "geometry": { "type": "LineString", "coordinates": [ [ -92.259849297182697, 46.998790068298298 ], [ -92.258298533835202, 46.999039702131498 ] ] } },
{ "type": "Feature", "properties": { "wmUplineSo": "BERGEN LAKE", "wmType": "Underground" }, "geometry": { "type": "LineString", "coordinates": [ [ -92.233345964340899, 46.983189031849001 ], [ -92.233311203823405, 46.9830642784963 ] ] } },
{ "type": "Feature", "properties": { "wmUplineSo": "BERGEN LAKE", "wmType": "Underground" }, "geometry": { "type": "LineString", "coordinates": [ [ -92.325155201300802, 46.9894082255556 ], [ -92.324725691423296, 46.989253312996802 ], [ -92.324388504459407, 46.988951325093801 ], [ -92.324302657133003, 46.988563224398902 ] ] } },
{ "type": "Feature", "properties": { "wmUplineSo": "BERGEN LAKE", "wmType": "Underground" }, "geometry": { "type": "LineString", "coordinates": [ [ -92.233311203823405, 46.9830642784963 ], [ -92.233309613689798, 46.983050223140602 ] ] } },
{ "type": "Feature", "properties": { "wmUplineSo": "BERGEN LAKE", "wmType": "Underground" }, "geometry": { "type": "LineString", "coordinates": [ [ -92.280552388856606, 47.000030804528997 ], [ -92.279972269218405, 47.000085567507803 ] ] } },
{ "type": "Feature", "properties": { "wmUplineSo": "BERGEN LAKE", "wmType": "Underground" }, "geometry": { "type": "LineString", "coordinates": [ [ -92.322533819265203, 46.994502130067303 ], [ -92.322610499999897, 46.994441000008798 ] ] } },
{ "type": "Feature", "properties": { "wmUplineSo": "BERGEN LAKE", "wmType": "Underground" }, "geometry": { "type": "LineString", "coordinates": [ [ -92.328582863843494, 46.989997784158902 ], [ -92.328632099999894, 46.9899721000087 ] ] } },
{ "type": "Feature", "properties": { "wmUplineSo": "BERGEN LAKE", "wmType": "Underground" }, "geometry": { "type": "LineString", "coordinates": [ [ -92.324302657133003, 46.988563224398902 ], [ -92.324819299999902, 46.988598100008701 ] ] } },
{ "type": "Feature", "properties": { "wmUplineSo": "BERGEN LAKE", "wmType": "Underground" }, "geometry": { "type": "LineString", "coordinates": [ [ -92.315824748009504, 46.969627862170597 ], [ -92.316629499999905, 46.969837200008698 ] ] } },
{ "type": "Feature", "properties": { "wmUplineSo": "BERGEN LAKE", "wmType": "Underground" }, "geometry": { "type": "LineString", "coordinates": [ [ -92.284505367272402, 46.982010664797301 ], [ -92.283743391246503, 46.9819711796668 ], [ -92.283260214242702, 46.982248649854697 ], [ -92.283110175552906, 46.982931745144001 ], [ -92.282483004170601, 46.982959166868397 ] ] } },
{ "type": "Feature", "properties": { "wmUplineSo": "BERGEN LAKE", "wmType": "Underground" }, "geometry": { "type": "LineString", "coordinates": [ [ -92.239764935007798, 46.969477858537097 ], [ -92.239941599999895, 46.969367900008699 ] ] } },
{ "type": "Feature", "properties": { "wmUplineSo": "BERGEN LAKE", "wmType": "Underground" }, "geometry": { "type": "LineString", "coordinates": [ [ -92.274946856483197, 46.994135557068802 ], [ -92.275047, 46.9940520000088 ] ] } },
{ "type": "Feature", "properties": { "wmUplineSo": "BERGEN LAKE", "wmType": "Underground" }, "geometry": { "type": "LineString", "coordinates": [ [ -92.266273428873404, 47.012721279067001 ], [ -92.266266499999901, 47.012808500008802 ] ] } },
{ "type": "Feature", "properties": { "wmUplineSo": "BERGEN LAKE", "wmType": "Underground" }, "geometry": { "type": "LineString", "coordinates": [ [ -92.264235269069303, 47.011315353657103 ], [ -92.2641303999999, 47.010822300008797 ] ] } },
{ "type": "Feature", "properties": { "wmUplineSo": "BERGEN LAKE", "wmType": "Underground" }, "geometry": { "type": "LineString", "coordinates": [ [ -92.2639597414381, 47.007906246155699 ], [ -92.264113599999902, 47.008007900008799 ] ] } },
{ "type": "Feature", "properties": { "wmUplineSo": "BERGEN LAKE", "wmType": "Underground" }, "geometry": { "type": "LineString", "coordinates": [ [ -92.265114368208003, 47.006805240476297 ], [ -92.265653399999906, 47.006721100008797 ] ] } },
{ "type": "Feature", "properties": { "wmUplineSo": "BERGEN LAKE", "wmType": "Underground" }, "geometry": { "type": "LineString", "coordinates": [ [ -92.269552138744302, 47.006092513012703 ], [ -92.269249799999898, 47.006181900008798 ] ] } },
{ "type": "Feature", "properties": { "wmUplineSo": "BERGEN LAKE", "wmType": "Underground" }, "geometry": { "type": "LineString", "coordinates": [ [ -92.271058186150498, 47.005109816535402 ], [ -92.271155899999897, 47.005010600008802 ] ] } },
{ "type": "Feature", "properties": { "wmUplineSo": "BERGEN LAKE", "wmType": "Underground" }, "geometry": { "type": "LineString", "coordinates": [ [ -92.279839578625399, 47.010532291550597 ], [ -92.279573499999898, 47.010518800008803 ] ] } },
{ "type": "Feature", "properties": { "wmUplineSo": "BERGEN LAKE", "wmType": "Underground" }, "geometry": { "type": "LineString", "coordinates": [ [ -92.278009855397997, 47.010706876525703 ], [ -92.277918599999893, 47.010937800008797 ] ] } },
{ "type": "Feature", "properties": { "wmUplineSo": "BERGEN LAKE", "wmType": "Underground" }, "geometry": { "type": "LineString", "coordinates": [ [ -92.275712875367205, 47.010394558909297 ], [ -92.2759290999999, 47.010536600008798 ] ] } },
{ "type": "Feature", "properties": { "wmUplineSo": "BERGEN LAKE", "wmType": "Underground" }, "geometry": { "type": "LineString", "coordinates": [ [ -92.274315567300505, 47.0096680568547 ], [ -92.274200499999907, 47.009465500008801 ] ] } },
{ "type": "Feature", "properties": { "wmUplineSo": "BERGEN LAKE", "wmType": "Underground" }, "geometry": { "type": "LineString", "coordinates": [ [ -92.271950409693204, 47.011003117439103 ], [ -92.271996599999895, 47.010720100008797 ] ] } },
{ "type": "Feature", "properties": { "wmUplineSo": "BERGEN LAKE", "wmType": "Underground" }, "geometry": { "type": "LineString", "coordinates": [ [ -92.272973595412097, 47.010414493596997 ], [ -92.272938699999898, 47.010392100008801 ] ] } },
{ "type": "Feature", "properties": { "wmUplineSo": "BERGEN LAKE", "wmType": "Underground" }, "geometry": { "type": "LineString", "coordinates": [ [ -92.274047189081003, 47.006014771143697 ], [ -92.273400199999898, 47.006117300008803 ] ] } },
{ "type": "Feature", "properties": { "wmUplineSo": "BERGEN LAKE", "wmType": "Underground" }, "geometry": { "type": "LineString", "coordinates": [ [ -92.274585538034202, 47.006807086929697 ], [ -92.274391699999896, 47.006931000008798 ] ] } },
{ "type": "Feature", "properties": { "wmUplineSo": "BERGEN LAKE", "wmType": "Underground" }, "geometry": { "type": "LineString", "coordinates": [ [ -92.274590267058599, 47.008298809697202 ], [ -92.274483899999893, 47.007803500008798 ] ] } },
{ "type": "Feature", "properties": { "wmUplineSo": "BERGEN LAKE", "wmType": "Underground" }, "geometry": { "type": "LineString", "coordinates": [ [ -92.274590267058599, 47.008298809697202 ], [ -92.2745251999999, 47.007796500008801 ] ] } },
{ "type": "Feature", "properties": { "wmUplineSo": "BERGEN LAKE", "wmType": "Underground" }, "geometry": { "type": "LineString", "coordinates": [ [ -92.274590267058599, 47.008298809697202 ], [ -92.274386516879304, 47.008451487414597 ] ] } },
{ "type": "Feature", "properties": { "wmUplineSo": "BERGEN LAKE", "wmType": "Underground" }, "geometry": { "type": "LineString", "coordinates": [ [ -92.274781708776203, 47.008336402991702 ], [ -92.274687115491204, 47.0083569228253 ] ] } },
{ "type": "Feature", "properties": { "wmUplineSo": "BERGEN LAKE", "wmType": "Underground" }, "geometry": { "type": "LineString", "coordinates": [ [ -92.243309780355503, 46.997508972976398 ], [ -92.243373599999899, 46.997617800008797 ] ] } },
{ "type": "Feature", "properties": { "wmUplineSo": "BERGEN LAKE", "wmType": "Underground" }, "geometry": { "type": "LineString", "coordinates": [ [ -92.263440880545701, 47.007537799388899 ], [ -92.2639597414381, 47.007906246155699 ] ] } },
{ "type": "Feature", "properties": { "wmUplineSo": "BERGEN LAKE", "wmType": "Underground" }, "geometry": { "type": "LineString", "coordinates": [ [ -92.264048825667004, 47.007253055286299 ], [ -92.264234747012097, 47.0072900864212 ] ] } },
{ "type": "Feature", "properties": { "wmUplineSo": "BERGEN LAKE", "wmType": "Underground" }, "geometry": { "type": "LineString", "coordinates": [ [ -92.240766073279204, 46.968426086782898 ], [ -92.240970399999895, 46.968640400008702 ] ] } },
{ "type": "Feature", "properties": { "wmUplineSo": "BERGEN LAKE", "wmType": "Underground" }, "geometry": { "type": "LineString", "coordinates": [ [ -92.315796999958707, 46.963695003550399 ], [ -92.315965999958706, 46.963633003550598 ] ] } },
{ "type": "Feature", "properties": { "wmUplineSo": "BERGEN LAKE", "wmType": "Underground" }, "geometry": { "type": "LineString", "coordinates": [ [ -92.266578181052907, 46.960016812050903 ], [ -92.266369499999897, 46.960224900008697 ] ] } },
{ "type": "Feature", "properties": { "wmUplineSo": "BERGEN LAKE", "wmType": "Underground" }, "geometry": { "type": "LineString", "coordinates": [ [ -92.260066017892896, 46.962225441237599 ], [ -92.260027399999899, 46.962422400008698 ] ] } },
{ "type": "Feature", "properties": { "wmUplineSo": "BERGEN LAKE", "wmType": "Underground" }, "geometry": { "type": "LineString", "coordinates": [ [ -92.251688619036102, 46.963782119782799 ], [ -92.251691199999897, 46.963795800008697 ] ] } },
{ "type": "Feature", "properties": { "wmUplineSo": "BERGEN LAKE", "wmType": "Underground" }, "geometry": { "type": "LineString", "coordinates": [ [ -92.240818641445401, 46.9641936396605 ], [ -92.240933399999903, 46.964288900008697 ] ] } },
{ "type": "Feature", "properties": { "wmUplineSo": "BERGEN LAKE", "wmType": "Underground" }, "geometry": { "type": "LineString", "coordinates": [ [ -92.229401212394606, 46.965718926242502 ], [ -92.228964199999893, 46.965610500008701 ] ] } },
{ "type": "Feature", "properties": { "wmUplineSo": "BERGEN LAKE", "wmType": "Underground" }, "geometry": { "type": "LineString", "coordinates": [ [ -92.229401212394606, 46.965718926242502 ], [ -92.229224799999898, 46.9657843000087 ] ] } },
{ "type": "Feature", "properties": { "wmUplineSo": "BERGEN LAKE", "wmType": "Underground" }, "geometry": { "type": "LineString", "coordinates": [ [ -92.283051354520595, 46.985191896253802 ], [ -92.282673, 46.985063100008702 ] ] } },
{ "type": "Feature", "properties": { "wmUplineSo": "BERGEN LAKE", "wmType": "Underground" }, "geometry": { "type": "LineString", "coordinates": [ [ -92.282483004170601, 46.982959166868397 ], [ -92.2826933999999, 46.982734100008699 ] ] } },
{ "type": "Feature", "properties": { "wmUplineSo": "BERGEN LAKE", "wmType": "Underground" }, "geometry": { "type": "LineString", "coordinates": [ [ -92.277850726275005, 46.977102473287303 ], [ -92.277686399999894, 46.976804900008702 ] ] } },
{ "type": "Feature", "properties": { "wmUplineSo": "BERGEN LAKE", "wmType": "Underground" }, "geometry": { "type": "LineString", "coordinates": [ [ -92.283320838551205, 46.977186833049203 ], [ -92.283851285620798, 46.9768402733446 ] ] } },
{ "type": "Feature", "properties": { "wmUplineSo": "BERGEN LAKE", "wmType": "Underground" }, "geometry": { "type": "LineString", "coordinates": [ [ -92.293460651786603, 46.981539593572798 ], [ -92.292335399999899, 46.981563000008698 ] ] } },
{ "type": "Feature", "properties": { "wmUplineSo": "BERGEN LAKE", "wmType": "Underground" }, "geometry": { "type": "LineString", "coordinates": [ [ -92.290064785211896, 46.992960112839803 ], [ -92.290213127489295, 46.992716378598402 ] ] } },
{ "type": "Feature", "properties": { "wmUplineSo": "BERGEN LAKE", "wmType": "Underground" }, "geometry": { "type": "LineString", "coordinates": [ [ -92.239382085726604, 46.998221098569303 ], [ -92.239437699999897, 46.998522500008796 ] ] } },
{ "type": "Feature", "properties": { "wmUplineSo": "BERGEN LAKE", "wmType": "Underground" }, "geometry": { "type": "LineString", "coordinates": [ [ -92.239382085726604, 46.998221098569303 ], [ -92.239239199999901, 46.998486200008799 ] ] } },
{ "type": "Feature", "properties": { "wmUplineSo": "BERGEN LAKE", "wmType": "Underground" }, "geometry": { "type": "LineString", "coordinates": [ [ -92.320550494786801, 46.9920588925633 ], [ -92.320714699999897, 46.992197700008703 ] ] } },
{ "type": "Feature", "properties": { "wmUplineSo": "BERGEN LAKE", "wmType": "Underground" }, "geometry": { "type": "LineString", "coordinates": [ [ -92.324338592949303, 46.967435815435103 ], [ -92.324281699999901, 46.9675628000087 ] ] } },
{ "type": "Feature", "properties": { "wmUplineSo": "BERGEN LAKE", "wmType": "Underground" }, "geometry": { "type": "LineString", "coordinates": [ [ -92.321799780295706, 46.962903796727801 ], [ -92.321911099999895, 46.962812600008697 ] ] } },
{ "type": "Feature", "properties": { "wmUplineSo": "BERGEN LAKE", "wmType": "Underground" }, "geometry": { "type": "LineString", "coordinates": [ [ -92.221101553756299, 46.961384580333302 ], [ -92.220955599999797, 46.961385100008698 ] ] } },
{ "type": "Feature", "properties": { "wmUplineSo": "BERGEN LAKE", "wmType": "Underground" }, "geometry": { "type": "LineString", "coordinates": [ [ -92.215090642645805, 46.961246971881899 ], [ -92.215019899999902, 46.961280400008697 ] ] } },
{ "type": "Feature", "properties": { "wmUplineSo": "BERGEN LAKE", "wmType": "Underground" }, "geometry": { "type": "LineString", "coordinates": [ [ -92.240669557277798, 46.963908284012703 ], [ -92.240397099999896, 46.963696100008697 ] ] } },
{ "type": "Feature", "properties": { "wmUplineSo": "BERGEN LAKE", "wmType": "Underground" }, "geometry": { "type": "LineString", "coordinates": [ [ -92.313431433538298, 46.967481103708899 ], [ -92.313477599999899, 46.967560700008697 ] ] } },
{ "type": "Feature", "properties": { "wmUplineSo": "BERGEN LAKE", "wmType": "Underground" }, "geometry": { "type": "LineString", "coordinates": [ [ -92.247142614843099, 46.985980338344397 ], [ -92.247506699999903, 46.985755900008698 ] ] } },
{ "type": "Feature", "properties": { "wmUplineSo": "BERGEN LAKE", "wmType": "Underground" }, "geometry": { "type": "LineString", "coordinates": [ [ -92.258549705934001, 46.979723237816998 ], [ -92.258390499999905, 46.979619000008697 ] ] } },
{ "type": "Feature", "properties": { "wmUplineSo": "BERGEN LAKE", "wmType": "Underground" }, "geometry": { "type": "LineString", "coordinates": [ [ -92.2564580277283, 46.981076114564701 ], [ -92.256323299999906, 46.981147500008703 ] ] } },
{ "type": "Feature", "properties": { "wmUplineSo": "BERGEN LAKE", "wmType": "Underground" }, "geometry": { "type": "LineString", "coordinates": [ [ -92.259625516519804, 46.979475683656901 ], [ -92.259192399999904, 46.979548000008698 ] ] } },
{ "type": "Feature", "properties": { "wmUplineSo": "BERGEN LAKE", "wmType": "Underground" }, "geometry": { "type": "LineString", "coordinates": [ [ -92.234520440026003, 46.986706704603101 ], [ -92.234406099999902, 46.9867040000087 ] ] } },
{ "type": "Feature", "properties": { "wmUplineSo": "BERGEN LAKE", "wmType": "Underground" }, "geometry": { "type": "LineString", "coordinates": [ [ -92.237657005160102, 46.980620029938798 ], [ -92.237374799999898, 46.980572800008702 ] ] } },
{ "type": "Feature", "properties": { "wmUplineSo": "BERGEN LAKE", "wmType": "Underground" }, "geometry": { "type": "LineString", "coordinates": [ [ -92.235359274760199, 46.9793001598537 ], [ -92.235578699999905, 46.979070800008699 ] ] } },
{ "type": "Feature", "properties": { "wmUplineSo": "BERGEN LAKE", "wmType": "Underground" }, "geometry": { "type": "LineString", "coordinates": [ [ -92.231778260642599, 46.972273978739601 ], [ -92.231711, 46.972039400008697 ] ] } },
{ "type": "Feature", "properties": { "wmUplineSo": "BERGEN LAKE", "wmType": "Underground" }, "geometry": { "type": "LineString", "coordinates": [ [ -92.208724285788705, 46.966026077450501 ], [ -92.208716399999901, 46.9663115000087 ] ] } },
{ "type": "Feature", "properties": { "wmUplineSo": "BERGEN LAKE", "wmType": "Underground" }, "geometry": { "type": "LineString", "coordinates": [ [ -92.208601451721094, 46.956112118735597 ], [ -92.208000099999893, 46.9562128000087 ] ] } },
{ "type": "Feature", "properties": { "wmUplineSo": "BERGEN LAKE", "wmType": "Underground" }, "geometry": { "type": "LineString", "coordinates": [ [ -92.215197829841898, 46.956928012920102 ], [ -92.215176899999804, 46.956875100008702 ] ] } },
{ "type": "Feature", "properties": { "wmUplineSo": "BERGEN LAKE", "wmType": "Underground" }, "geometry": { "type": "LineString", "coordinates": [ [ -92.219090308877597, 46.958853786415197 ], [ -92.218997399999907, 46.958850900008699 ] ] } },
{ "type": "Feature", "properties": { "wmUplineSo": "BERGEN LAKE", "wmType": "Underground" }, "geometry": { "type": "LineString", "coordinates": [ [ -92.253841747082703, 46.9704538203965 ], [ -92.253932899999896, 46.971239600008701 ] ] } },
{ "type": "Feature", "properties": { "wmUplineSo": "BERGEN LAKE", "wmType": "Underground" }, "geometry": { "type": "LineString", "coordinates": [ [ -92.281422025095694, 46.991197450208404 ], [ -92.281688530962597, 46.991499208523997 ] ] } },
{ "type": "Feature", "properties": { "wmUplineSo": "BERGEN LAKE", "wmType": "Underground" }, "geometry": { "type": "LineString", "coordinates": [ [ -92.281688530962597, 46.991499208523997 ], [ -92.2818251233045, 46.991464056448997 ], [ -92.281965899999904, 46.991437200008697 ] ] } },
{ "type": "Feature", "properties": { "wmUplineSo": "BERGEN LAKE", "wmType": "Underground" }, "geometry": { "type": "LineString", "coordinates": [ [ -92.256563277356605, 46.997943652933799 ], [ -92.256763699999894, 46.998039700008803 ] ] } },
{ "type": "Feature", "properties": { "wmUplineSo": "BERGEN LAKE", "wmType": "Underground" }, "geometry": { "type": "LineString", "coordinates": [ [ -92.255315309518707, 46.9981763970125 ], [ -92.255546399999901, 46.998058000008797 ] ] } },
{ "type": "Feature", "properties": { "wmUplineSo": "BERGEN LAKE", "wmType": "Underground" }, "geometry": { "type": "LineString", "coordinates": [ [ -92.255201620116296, 46.997218091733799 ], [ -92.2550094999999, 46.997340600008698 ] ] } },
{ "type": "Feature", "properties": { "wmUplineSo": "BERGEN LAKE", "wmType": "Underground" }, "geometry": { "type": "LineString", "coordinates": [ [ -92.258223013777297, 47.001480513462198 ], [ -92.258210399999896, 47.001529200008797 ] ] } },
{ "type": "Feature", "properties": { "wmUplineSo": "BERGEN LAKE", "wmType": "Underground" }, "geometry": { "type": "LineString", "coordinates": [ [ -92.258298533835202, 46.999039702131498 ], [ -92.257804599999901, 46.9990019000088 ] ] } },
{ "type": "Feature", "properties": { "wmUplineSo": "BERGEN LAKE", "wmType": "Underground" }, "geometry": { "type": "LineString", "coordinates": [ [ -92.2617573179608, 47.000369950615003 ], [ -92.2620126999999, 47.000111200008803 ] ] } },
{ "type": "Feature", "properties": { "wmUplineSo": "BERGEN LAKE", "wmType": "Underground" }, "geometry": { "type": "LineString", "coordinates": [ [ -92.258961582379698, 46.997329572202801 ], [ -92.258562399999903, 46.997164300008798 ] ] } },
{ "type": "Feature", "properties": { "wmUplineSo": "BERGEN LAKE", "wmType": "Underground" }, "geometry": { "type": "LineString", "coordinates": [ [ -92.256398947597205, 46.997176123831601 ], [ -92.256390599999904, 46.997510200008698 ] ] } },
{ "type": "Feature", "properties": { "wmUplineSo": "BERGEN LAKE", "wmType": "Underground" }, "geometry": { "type": "LineString", "coordinates": [ [ -92.269472750726194, 47.005751646464098 ], [ -92.269305399999894, 47.005462000008798 ] ] } },
{ "type": "Feature", "properties": { "wmUplineSo": "BERGEN LAKE", "wmType": "Underground" }, "geometry": { "type": "LineString", "coordinates": [ [ -92.240953374560505, 46.997875084738297 ], [ -92.240840799999901, 46.998444800008798 ] ] } },
{ "type": "Feature", "properties": { "wmUplineSo": "BERGEN LAKE", "wmType": "Underground" }, "geometry": { "type": "LineString", "coordinates": [ [ -92.2167533945114, 46.965436184772102 ], [ -92.215729999999894, 46.965625300008703 ] ] } },
{ "type": "Feature", "properties": { "wmUplineSo": "BERGEN LAKE", "wmType": "Underground" }, "geometry": { "type": "LineString", "coordinates": [ [ -92.327342272458495, 46.993363122863002 ], [ -92.327079499999897, 46.993437700008698 ] ] } },
{ "type": "Feature", "properties": { "wmUplineSo": "BERGEN LAKE", "wmType": "Underground" }, "geometry": { "type": "LineString", "coordinates": [ [ -92.329394771930495, 46.994800169617903 ], [ -92.329935399999897, 46.995041000008797 ] ] } },
{ "type": "Feature", "properties": { "wmUplineSo": "BERGEN LAKE", "wmType": "Underground" }, "geometry": { "type": "LineString", "coordinates": [ [ -92.259847773064394, 46.998071658232497 ], [ -92.259359399999894, 46.998032000008799 ] ] } },
{ "type": "Feature", "properties": { "wmUplineSo": "BERGEN LAKE", "wmType": "Underground" }, "geometry": { "type": "LineString", "coordinates": [ [ -92.253289953762803, 46.997494855770803 ], [ -92.253010699999905, 46.997780800008798 ] ] } },
{ "type": "Feature", "properties": { "wmUplineSo": "BERGEN LAKE", "wmType": "Underground" }, "geometry": { "type": "LineString", "coordinates": [ [ -92.260886553060303, 46.997336634941 ], [ -92.260975699999904, 46.997352000008803 ] ] } },
{ "type": "Feature", "properties": { "wmUplineSo": "BERGEN LAKE", "wmType": "Underground" }, "geometry": { "type": "LineString", "coordinates": [ [ -92.237215664910096, 46.9701576868205 ], [ -92.2371827999999, 46.970179900008702 ] ] } },
{ "type": "Feature", "properties": { "wmUplineSo": "BERGEN LAKE", "wmType": "Underground" }, "geometry": { "type": "LineString", "coordinates": [ [ -92.308528904484504, 46.995468896099801 ], [ -92.308526631022104, 46.995532315311301 ] ] } },
{ "type": "Feature", "properties": { "wmUplineSo": "BERGEN LAKE", "wmType": "Underground" }, "geometry": { "type": "LineString", "coordinates": [ [ -92.278219575289896, 47.0038402456128 ], [ -92.277175499999899, 47.004080400008696 ] ] } },
{ "type": "Feature", "properties": { "wmUplineSo": "BERGEN LAKE", "wmType": "Underground" }, "geometry": { "type": "LineString", "coordinates": [ [ -92.245275649072298, 46.984946570304501 ], [ -92.245088699999897, 46.985070700008798 ] ] } },
{ "type": "Feature", "properties": { "wmUplineSo": "BERGEN LAKE", "wmType": "Underground" }, "geometry": { "type": "LineString", "coordinates": [ [ -92.282211172820794, 46.992333140424499 ], [ -92.282105599999895, 46.992440000008799 ] ] } },
{ "type": "Feature", "properties": { "wmUplineSo": "BERGEN LAKE", "wmType": "Underground" }, "geometry": { "type": "LineString", "coordinates": [ [ -92.272870081249295, 46.997170329999797 ], [ -92.272548689999894, 46.996974680008798 ] ] } },
{ "type": "Feature", "properties": { "wmUplineSo": "BERGEN LAKE", "wmType": "Underground" }, "geometry": { "type": "LineString", "coordinates": [ [ -92.247554106678706, 46.980156078271897 ], [ -92.247248599999907, 46.980302300008702 ] ] } },
{ "type": "Feature", "properties": { "wmUplineSo": "BERGEN LAKE", "wmType": "Underground" }, "geometry": { "type": "LineString", "coordinates": [ [ -92.243444827566194, 46.974415201076503 ], [ -92.243286499999897, 46.974472100008697 ] ] } },
{ "type": "Feature", "properties": { "wmUplineSo": "BERGEN LAKE", "wmType": "Underground" }, "geometry": { "type": "LineString", "coordinates": [ [ -92.265462999955702, 46.9608200035496 ], [ -92.265405999955703, 46.960725003549797 ] ] } },
{ "type": "Feature", "properties": { "wmUplineSo": "BERGEN LAKE", "wmType": "Underground" }, "geometry": { "type": "LineString", "coordinates": [ [ -92.233345964340899, 46.983189031849001 ], [ -92.233228110118006, 46.983173995282797 ] ] } },
{ "type": "Feature", "properties": { "wmUplineSo": "BERGEN LAKE", "wmType": "Underground" }, "geometry": { "type": "LineString", "coordinates": [ [ -92.320518401594498, 46.967866853967799 ], [ -92.320916942290296, 46.967518814698202 ] ] } },
{ "type": "Feature", "properties": { "wmUplineSo": "BERGEN LAKE", "wmType": "Underground" }, "geometry": { "type": "LineString", "coordinates": [ [ -92.259031898791207, 46.962206689122901 ], [ -92.258817006673596, 46.962170533662899 ] ] } },
{ "type": "Feature", "properties": { "wmUplineSo": "BERGEN LAKE", "wmType": "Underground" }, "geometry": { "type": "LineString", "coordinates": [ [ -92.2752091778937, 47.008311542490503 ], [ -92.274781708776203, 47.008336402991702 ] ] } },
{ "type": "Feature", "properties": { "wmUplineSo": "BERGEN LAKE", "wmType": "Underground" }, "geometry": { "type": "LineString", "coordinates": [ [ -92.233228110118006, 46.983173995282797 ], [ -92.230866128296796, 46.983196570479898 ] ] } },
{ "type": "Feature", "properties": { "wmUplineSo": "BERGEN LAKE", "wmType": "Underground" }, "geometry": { "type": "LineString", "coordinates": [ [ -92.281519999956501, 47.002363003561101 ], [ -92.281650999956497, 47.002375003561198 ] ] } },
{ "type": "Feature", "properties": { "wmUplineSo": "BERGEN LAKE", "wmType": "Underground" }, "geometry": { "type": "LineString", "coordinates": [ [ -92.258034020209493, 46.980726941329998 ], [ -92.258045751148202, 46.980387225314999 ] ] } },
{ "type": "Feature", "properties": { "wmUplineSo": "BERGEN LAKE", "wmType": "Underground" }, "geometry": { "type": "LineString", "coordinates": [ [ -92.237514702246997, 46.974360607272601 ], [ -92.237448664649094, 46.974259758450003 ], [ -92.237163955546293, 46.974124528595702 ], [ -92.237099991001898, 46.973926007144698 ], [ -92.237086, 46.974023300008703 ] ] } },
{ "type": "Feature", "properties": { "wmUplineSo": "BERGEN LAKE", "wmType": "Underground" }, "geometry": { "type": "LineString", "coordinates": [ [ -92.246584241771203, 46.972786688136999 ], [ -92.246465699999902, 46.972703300008703 ] ] } },
{ "type": "Feature", "properties": { "wmUplineSo": "BERGEN LAKE", "wmType": "Underground" }, "geometry": { "type": "LineString", "coordinates": [ [ -92.239644816373996, 46.969559918130003 ], [ -92.239764935007798, 46.969477858537097 ] ] } },
{ "type": "Feature", "properties": { "wmUplineSo": "BERGEN LAKE", "wmType": "Underground" }, "geometry": { "type": "LineString", "coordinates": [ [ -92.239644816373996, 46.969559918130003 ], [ -92.240913337287097, 46.969584049447697 ] ] } },
{ "type": "Feature", "properties": { "wmUplineSo": "BERGEN LAKE", "wmType": "Underground" }, "geometry": { "type": "LineString", "coordinates": [ [ -92.240913337287097, 46.969584049447697 ], [ -92.241482790528096, 46.9697239541768 ] ] } },
{ "type": "Feature", "properties": { "wmUplineSo": "BERGEN LAKE", "wmType": "Underground" }, "geometry": { "type": "LineString", "coordinates": [ [ -92.262743497016999, 47.010672981595 ], [ -92.262777575265105, 47.010544158936099 ] ] } },
{ "type": "Feature", "properties": { "wmUplineSo": "BERGEN LAKE", "wmType": "Underground" }, "geometry": { "type": "LineString", "coordinates": [ [ -92.264234747012097, 47.0072900864212 ], [ -92.264339768571503, 47.0073110040762 ] ] } },
{ "type": "Feature", "properties": { "wmUplineSo": "BERGEN LAKE", "wmType": "Underground" }, "geometry": { "type": "LineString", "coordinates": [ [ -92.242422531135105, 46.997766121096603 ], [ -92.242353899999898, 46.997827600008797 ] ] } },
{ "type": "Feature", "properties": { "wmUplineSo": "BERGEN LAKE", "wmType": "Underground" }, "geometry": { "type": "LineString", "coordinates": [ [ -92.218462477057201, 46.9709925961414 ], [ -92.218607799999802, 46.971108400008703 ] ] } },
{ "type": "Feature", "properties": { "wmUplineSo": "BERGEN LAKE", "wmType": "Underground" }, "geometry": { "type": "LineString", "coordinates": [ [ -92.277968508263697, 47.010296363239902 ], [ -92.278009855397997, 47.010706876525703 ] ] } },
{ "type": "Feature", "properties": { "wmUplineSo": "BERGEN LAKE", "wmType": "Underground" }, "geometry": { "type": "LineString", "coordinates": [ [ -92.235994950846305, 46.983803960267998 ], [ -92.235997060887399, 46.984207008438702 ] ] } },
{ "type": "Feature", "properties": { "wmUplineSo": "BERGEN LAKE", "wmType": "Underground" }, "geometry": { "type": "LineString", "coordinates": [ [ -92.275392421935194, 47.006266161166401 ], [ -92.274585538034202, 47.006807086929697 ] ] } },
{ "type": "Feature", "properties": { "wmUplineSo": "BERGEN LAKE", "wmType": "Underground" }, "geometry": { "type": "LineString", "coordinates": [ [ -92.274546824322002, 47.005969314238001 ], [ -92.275392421935194, 47.006266161166401 ] ] } },
{ "type": "Feature", "properties": { "wmUplineSo": "BERGEN LAKE", "wmType": "Underground" }, "geometry": { "type": "LineString", "coordinates": [ [ -92.275392421935194, 47.006266161166401 ], [ -92.275968669042001, 47.008271629006501 ] ] } },
{ "type": "Feature", "properties": { "wmUplineSo": "BERGEN LAKE", "wmType": "Underground" }, "geometry": { "type": "LineString", "coordinates": [ [ -92.275968669042001, 47.008271629006501 ], [ -92.2752091778937, 47.008311542490503 ] ] } },
{ "type": "Feature", "properties": { "wmUplineSo": "BERGEN LAKE", "wmType": "Underground" }, "geometry": { "type": "LineString", "coordinates": [ [ -92.275991246757599, 47.0089450101623 ], [ -92.275765705918204, 47.010072216499402 ] ] } },
{ "type": "Feature", "properties": { "wmUplineSo": "BERGEN LAKE", "wmType": "Underground" }, "geometry": { "type": "LineString", "coordinates": [ [ -92.275968669042001, 47.008271629006501 ], [ -92.275991246757599, 47.0089450101623 ] ] } },
{ "type": "Feature", "properties": { "wmUplineSo": "BERGEN LAKE", "wmType": "Underground" }, "geometry": { "type": "LineString", "coordinates": [ [ -92.242422531135105, 46.997766121096603 ], [ -92.241681135024805, 46.997914074523102 ], [ -92.240953374560505, 46.997875084738297 ] ] } },
{ "type": "Feature", "properties": { "wmUplineSo": "BERGEN LAKE", "wmType": "Underground" }, "geometry": { "type": "LineString", "coordinates": [ [ -92.248821067841405, 46.995827391692501 ], [ -92.246041872243495, 46.995893548679 ], [ -92.243309780355503, 46.997508972976398 ] ] } },
{ "type": "Feature", "properties": { "wmUplineSo": "BERGEN LAKE", "wmType": "Underground" }, "geometry": { "type": "LineString", "coordinates": [ [ -92.243309780355503, 46.997508972976398 ], [ -92.242422531135105, 46.997766121096603 ] ] } },
{ "type": "Feature", "properties": { "wmUplineSo": "BERGEN LAKE", "wmType": "Underground" }, "geometry": { "type": "LineString", "coordinates": [ [ -92.277398629019004, 46.995495090252199 ], [ -92.277187532090906, 46.995797111759501 ], [ -92.277226303418502, 46.996285556335998 ] ] } },
{ "type": "Feature", "properties": { "wmUplineSo": "BERGEN LAKE", "wmType": "Underground" }, "geometry": { "type": "LineString", "coordinates": [ [ -92.275040604917095, 46.995538613699097 ], [ -92.275014702328093, 46.995299504469301 ] ] } },
{ "type": "Feature", "properties": { "wmUplineSo": "BERGEN LAKE", "wmType": "Underground" }, "geometry": { "type": "LineString", "coordinates": [ [ -92.275014702328093, 46.995299504469301 ], [ -92.274946856483197, 46.994135557068802 ] ] } },
{ "type": "Feature", "properties": { "wmUplineSo": "BERGEN LAKE", "wmType": "Underground" }, "geometry": { "type": "LineString", "coordinates": [ [ -92.261288208740098, 47.0096585198933 ], [ -92.261570173544996, 47.010571004832201 ], [ -92.262687310106898, 47.010885378047199 ] ] } },
{ "type": "Feature", "properties": { "wmUplineSo": "BERGEN LAKE", "wmType": "Underground" }, "geometry": { "type": "LineString", "coordinates": [ [ -92.274572433543398, 47.010131753613898 ], [ -92.273517882619601, 47.0106163758227 ], [ -92.273177660900799, 47.010742899494602 ] ] } },
{ "type": "Feature", "properties": { "wmUplineSo": "BERGEN LAKE", "wmType": "Underground" }, "geometry": { "type": "LineString", "coordinates": [ [ -92.275765705918204, 47.010072216499402 ], [ -92.274572433543398, 47.010131753613898 ] ] } },
{ "type": "Feature", "properties": { "wmUplineSo": "BERGEN LAKE", "wmType": "Underground" }, "geometry": { "type": "LineString", "coordinates": [ [ -92.274546824322002, 47.005969314238001 ], [ -92.274047189081003, 47.006014771143697 ] ] } },
{ "type": "Feature", "properties": { "wmUplineSo": "BERGEN LAKE", "wmType": "Underground" }, "geometry": { "type": "LineString", "coordinates": [ [ -92.265080061983895, 47.006520337496497 ], [ -92.266201902108904, 47.006018444696601 ], [ -92.267634560112597, 47.005872703468803 ], [ -92.268745845079195, 47.005891739023902 ], [ -92.269379030419202, 47.005823109298099 ] ] } },
{ "type": "Feature", "properties": { "wmUplineSo": "BERGEN LAKE", "wmType": "Underground" }, "geometry": { "type": "LineString", "coordinates": [ [ -92.269379030419202, 47.005823109298099 ], [ -92.269552138744302, 47.006092513012703 ] ] } },
{ "type": "Feature", "properties": { "wmUplineSo": "BERGEN LAKE", "wmType": "Underground" }, "geometry": { "type": "LineString", "coordinates": [ [ -92.269472750726194, 47.005751646464098 ], [ -92.269874140590503, 47.005445579080501 ], [ -92.270966330710607, 47.004845209761001 ] ] } },
{ "type": "Feature", "properties": { "wmUplineSo": "BERGEN LAKE", "wmType": "Underground" }, "geometry": { "type": "LineString", "coordinates": [ [ -92.270966330710607, 47.004845209761001 ], [ -92.272580999139805, 47.004946926658199 ], [ -92.273765277013695, 47.005693759710503 ], [ -92.274546824322002, 47.005969314238001 ] ] } },
{ "type": "Feature", "properties": { "wmUplineSo": "BERGEN LAKE", "wmType": "Underground" }, "geometry": { "type": "LineString", "coordinates": [ [ -92.277968508263697, 47.010296363239902 ], [ -92.278853491364998, 47.010272357362098 ], [ -92.279429648576496, 47.010256724945897 ], [ -92.279839578625399, 47.010532291550597 ] ] } },
{ "type": "Feature", "properties": { "wmUplineSo": "BERGEN LAKE", "wmType": "Underground" }, "geometry": { "type": "LineString", "coordinates": [ [ -92.275953502540304, 47.010253442987697 ], [ -92.277009064810699, 47.010275106351003 ], [ -92.277968508263697, 47.010296363239902 ] ] } },
{ "type": "Feature", "properties": { "wmUplineSo": "BERGEN LAKE", "wmType": "Underground" }, "geometry": { "type": "LineString", "coordinates": [ [ -92.275765705918204, 47.010072216499402 ], [ -92.275956348945599, 47.010251773704397 ], [ -92.275953502540304, 47.010253442987697 ] ] } },
{ "type": "Feature", "properties": { "wmUplineSo": "BERGEN LAKE", "wmType": "Underground" }, "geometry": { "type": "LineString", "coordinates": [ [ -92.274572433543398, 47.010131753613898 ], [ -92.274315567300505, 47.0096680568547 ] ] } },
{ "type": "Feature", "properties": { "wmUplineSo": "BERGEN LAKE", "wmType": "Underground" }, "geometry": { "type": "LineString", "coordinates": [ [ -92.273177660900799, 47.010742899494602 ], [ -92.271950409693204, 47.011003117439103 ] ] } },
{ "type": "Feature", "properties": { "wmUplineSo": "BERGEN LAKE", "wmType": "Underground" }, "geometry": { "type": "LineString", "coordinates": [ [ -92.273177660900799, 47.010742899494602 ], [ -92.272973595412097, 47.010414493596997 ] ] } },
{ "type": "Feature", "properties": { "wmUplineSo": "BERGEN LAKE", "wmType": "Underground" }, "geometry": { "type": "LineString", "coordinates": [ [ -92.265080061983895, 47.006520337496497 ], [ -92.265114368208003, 47.006805240476297 ] ] } },
{ "type": "Feature", "properties": { "wmUplineSo": "BERGEN LAKE", "wmType": "Underground" }, "geometry": { "type": "LineString", "coordinates": [ [ -92.262687310106898, 47.010885378047199 ], [ -92.262743497016999, 47.010672981595 ] ] } },
{ "type": "Feature", "properties": { "wmUplineSo": "BERGEN LAKE", "wmType": "Underground" }, "geometry": { "type": "LineString", "coordinates": [ [ -92.270966330710607, 47.004845209761001 ], [ -92.271058186150498, 47.005109816535402 ] ] } },
{ "type": "Feature", "properties": { "wmUplineSo": "BERGEN LAKE", "wmType": "Underground" }, "geometry": { "type": "LineString", "coordinates": [ [ -92.230550265210198, 46.965802427304503 ], [ -92.229913399517599, 46.965910719984201 ], [ -92.229520236548595, 46.965809887985102 ], [ -92.229401212394606, 46.965718926242502 ] ] } },
{ "type": "Feature", "properties": { "wmUplineSo": "BERGEN LAKE", "wmType": "Underground" }, "geometry": { "type": "LineString", "coordinates": [ [ -92.245601912158605, 46.9634502043737 ], [ -92.246274039385696, 46.963399327374901 ], [ -92.247779725250396, 46.9630254488617 ], [ -92.248279766076195, 46.963031612252998 ], [ -92.248727500924403, 46.963144331690998 ], [ -92.249788050363094, 46.963488637472601 ] ] } },
{ "type": "Feature", "properties": { "wmUplineSo": "BERGEN LAKE", "wmType": "Underground" }, "geometry": { "type": "LineString", "coordinates": [ [ -92.246963912928194, 46.981080431419898 ], [ -92.248953687288093, 46.981065943578301 ], [ -92.249226814328097, 46.981894806523997 ] ] } },
{ "type": "Feature", "properties": { "wmUplineSo": "BERGEN LAKE", "wmType": "Underground" }, "geometry": { "type": "LineString", "coordinates": [ [ -92.236001166114406, 46.985021164609897 ], [ -92.236050691209201, 46.986444576764299 ], [ -92.234520440026003, 46.986706704603101 ] ] } },
{ "type": "Feature", "properties": { "wmUplineSo": "BERGEN LAKE", "wmType": "Underground" }, "geometry": { "type": "LineString", "coordinates": [ [ -92.244255241336305, 46.981227133904298 ], [ -92.244694628745194, 46.981096913534003 ] ] } },
{ "type": "Feature", "properties": { "wmUplineSo": "BERGEN LAKE", "wmType": "Underground" }, "geometry": { "type": "LineString", "coordinates": [ [ -92.238606867289207, 46.979475869341897 ], [ -92.235894093866804, 46.979571541723097 ], [ -92.235359274760199, 46.9793001598537 ] ] } },
{ "type": "Feature", "properties": { "wmUplineSo": "BERGEN LAKE", "wmType": "Underground" }, "geometry": { "type": "LineString", "coordinates": [ [ -92.249288070109799, 46.972604282436997 ], [ -92.250623532582793, 46.973304231868802 ], [ -92.252117707000494, 46.973131159040399 ], [ -92.252673623955801, 46.972870259222098 ], [ -92.253156322677498, 46.972703565642298 ], [ -92.253488012187304, 46.972534260880202 ], [ -92.253647514212503, 46.972306291392002 ], [ -92.253832298781802, 46.972023065417197 ], [ -92.254245393306107, 46.971536924985003 ], [ -92.254494691088794, 46.971079779806999 ], [ -92.254546231147799, 46.9706271782293 ], [ -92.254192303859895, 46.970453992813297 ], [ -92.253841747082703, 46.9704538203965 ] ] } },
{ "type": "Feature", "properties": { "wmUplineSo": "BERGEN LAKE", "wmType": "Underground" }, "geometry": { "type": "LineString", "coordinates": [ [ -92.256139467637794, 46.997907592195702 ], [ -92.256563277356605, 46.997943652933799 ] ] } },
{ "type": "Feature", "properties": { "wmUplineSo": "BERGEN LAKE", "wmType": "Underground" }, "geometry": { "type": "LineString", "coordinates": [ [ -92.256139467637794, 46.997907592195702 ], [ -92.255315309518707, 46.9981763970125 ] ] } },
{ "type": "Feature", "properties": { "wmUplineSo": "BERGEN LAKE", "wmType": "Underground" }, "geometry": { "type": "LineString", "coordinates": [ [ -92.256166387575703, 46.9972178371479 ], [ -92.2555141493973, 46.997337053423102 ], [ -92.255201620116296, 46.997218091733799 ] ] } },
{ "type": "Feature", "properties": { "wmUplineSo": "BERGEN LAKE", "wmType": "Underground" }, "geometry": { "type": "LineString", "coordinates": [ [ -92.256166387575703, 46.9972178371479 ], [ -92.256139467637794, 46.997907592195702 ] ] } },
{ "type": "Feature", "properties": { "wmUplineSo": "BERGEN LAKE", "wmType": "Underground" }, "geometry": { "type": "LineString", "coordinates": [ [ -92.256166387575703, 46.9972178371479 ], [ -92.256398947597205, 46.997176123831601 ] ] } },
{ "type": "Feature", "properties": { "wmUplineSo": "BERGEN LAKE", "wmType": "Underground" }, "geometry": { "type": "LineString", "coordinates": [ [ -92.260025795313894, 46.996696864920601 ], [ -92.259852915994898, 46.997371251018897 ] ] } },
{ "type": "Feature", "properties": { "wmUplineSo": "BERGEN LAKE", "wmType": "Underground" }, "geometry": { "type": "LineString", "coordinates": [ [ -92.259852915994898, 46.997371251018897 ], [ -92.258961582379698, 46.997329572202801 ] ] } },
{ "type": "Feature", "properties": { "wmUplineSo": "BERGEN LAKE", "wmType": "Underground" }, "geometry": { "type": "LineString", "coordinates": [ [ -92.240953374560505, 46.997875084738297 ], [ -92.238859526410707, 46.9978392859745 ] ] } },
{ "type": "Feature", "properties": { "wmUplineSo": "BERGEN LAKE", "wmType": "Underground" }, "geometry": { "type": "LineString", "coordinates": [ [ -92.238859526410707, 46.9978392859745 ], [ -92.239382085726604, 46.998221098569303 ] ] } },
{ "type": "Feature", "properties": { "wmUplineSo": "BERGEN LAKE", "wmType": "Underground" }, "geometry": { "type": "LineString", "coordinates": [ [ -92.238859526410707, 46.9978392859745 ], [ -92.238702863994803, 46.997785649584401 ], [ -92.237794430923799, 46.997643238275103 ], [ -92.236268904064204, 46.9974418817919 ] ] } },
{ "type": "Feature", "properties": { "wmUplineSo": "BERGEN LAKE", "wmType": "Underground" }, "geometry": { "type": "LineString", "coordinates": [ [ -92.269379030419202, 47.005823109298099 ], [ -92.269472750726194, 47.005751646464098 ] ] } },
{ "type": "Feature", "properties": { "wmUplineSo": "BERGEN LAKE", "wmType": "Underground" }, "geometry": { "type": "LineString", "coordinates": [ [ -92.259852915994898, 46.997371251018897 ], [ -92.259847773064394, 46.998071658232497 ] ] } },
{ "type": "Feature", "properties": { "wmUplineSo": "BERGEN LAKE", "wmType": "Underground" }, "geometry": { "type": "LineString", "coordinates": [ [ -92.253055510091102, 46.996035906873999 ], [ -92.253289953762803, 46.997494855770803 ] ] } },
{ "type": "Feature", "properties": { "wmUplineSo": "BERGEN LAKE", "wmType": "Underground" }, "geometry": { "type": "LineString", "coordinates": [ [ -92.259852915994898, 46.997371251018897 ], [ -92.260886553060303, 46.997336634941 ] ] } },
{ "type": "Feature", "properties": { "wmUplineSo": "BERGEN LAKE", "wmType": "Underground" }, "geometry": { "type": "LineString", "coordinates": [ [ -92.238742542814194, 46.970148829358699 ], [ -92.238701290417694, 46.970094700526097 ], [ -92.2386006752821, 46.970058047136298 ], [ -92.2372957097609, 46.970124178420697 ], [ -92.237215664910096, 46.9701576868205 ] ] } },
{ "type": "Feature", "properties": { "wmUplineSo": "BERGEN LAKE", "wmType": "Underground" }, "geometry": { "type": "LineString", "coordinates": [ [ -92.275392421935194, 47.006266161166401 ], [ -92.2764568047495, 47.005052272452701 ], [ -92.2769411829033, 47.004283401187799 ], [ -92.278219575289896, 47.0038402456128 ] ] } },
{ "type": "Feature", "properties": { "wmUplineSo": "BERGEN LAKE", "wmType": "Underground" }, "geometry": { "type": "LineString", "coordinates": [ [ -92.244694628745194, 46.981096913534003 ], [ -92.246963912928194, 46.981080431419898 ] ] } },
{ "type": "Feature", "properties": { "wmUplineSo": "BERGEN LAKE", "wmType": "Underground" }, "geometry": { "type": "LineString", "coordinates": [ [ -92.246963912928194, 46.981080431419898 ], [ -92.246945787339698, 46.980802627535802 ], [ -92.246898611750893, 46.980573258227999 ], [ -92.247157711657707, 46.980339672551302 ], [ -92.247582270118698, 46.980147042430701 ], [ -92.247554106678706, 46.980156078271897 ] ] } },
{ "type": "Feature", "properties": { "wmUplineSo": "BERGEN LAKE", "wmType": "Underground" }, "geometry": { "type": "LineString", "coordinates": [ [ -92.243408068089295, 46.974246381233101 ], [ -92.243444827566194, 46.974415201076503 ] ] } },
{ "type": "Feature", "properties": { "wmUplineSo": "BERGEN LAKE", "wmType": "Underground" }, "geometry": { "type": "LineString", "coordinates": [ [ -92.243232535147698, 46.974240225516603 ], [ -92.243408068089295, 46.974246381233101 ] ] } },
{ "type": "Feature", "properties": { "wmUplineSo": "BERGEN LAKE", "wmType": "Underground" }, "geometry": { "type": "LineString", "coordinates": [ [ -92.274166032537096, 46.995746190479899 ], [ -92.274095424172998, 46.996250885975201 ], [ -92.273796160463903, 46.996585025175499 ], [ -92.273476239113606, 46.996770016092803 ], [ -92.272870081249295, 46.997170329999797 ] ] } },
{ "type": "Feature", "properties": { "wmUplineSo": "BERGEN LAKE", "wmType": "Underground" }, "geometry": { "type": "LineString", "coordinates": [ [ -92.275953502540304, 47.010253442987697 ], [ -92.275712875367205, 47.010394558909297 ] ] } },
{ "type": "Feature", "properties": { "wmUplineSo": "BERGEN LAKE", "wmType": "Underground" }, "geometry": { "type": "LineString", "coordinates": [ [ -92.235997060887399, 46.984207008438702 ], [ -92.236001166114406, 46.985021164609897 ] ] } },
{ "type": "Feature", "properties": { "wmUplineSo": "BERGEN LAKE", "wmType": "Underground" }, "geometry": { "type": "LineString", "coordinates": [ [ -92.249226814328097, 46.981894806523997 ], [ -92.249249389475196, 46.982036391202598 ], [ -92.249324799999897, 46.982062400008701 ] ] } },
{ "type": "Feature", "properties": { "wmUplineSo": "BERGEN LAKE", "wmType": "Underground" }, "geometry": { "type": "LineString", "coordinates": [ [ -92.281650999956497, 47.002375003561198 ], [ -92.281784199999905, 47.002377200008802 ] ] } },
{ "type": "Feature", "properties": { "wmUplineSo": "BERGEN LAKE", "wmType": "Underground" }, "geometry": { "type": "LineString", "coordinates": [ [ -92.251666964497602, 46.963590414886497 ], [ -92.253409056449001, 46.963590978171602 ], [ -92.254571889993002, 46.963288255229699 ] ] } },
{ "type": "Feature", "properties": { "wmUplineSo": "BERGEN LAKE", "wmType": "Underground" }, "geometry": { "type": "LineString", "coordinates": [ [ -92.325491292347493, 46.989430482383398 ], [ -92.325155201300802, 46.9894082255556 ] ] } },
{ "type": "Feature", "properties": { "wmUplineSo": "BERGEN LAKE", "wmType": "Underground" }, "geometry": { "type": "LineString", "coordinates": [ [ -92.326075364669094, 46.9933163137948 ], [ -92.3245566695702, 46.993632705460598 ], [ -92.323342859296403, 46.994107675364297 ], [ -92.322533819265203, 46.994502130067303 ] ] } },
{ "type": "Feature", "properties": { "wmUplineSo": "BERGEN LAKE", "wmType": "Underground" }, "geometry": { "type": "LineString", "coordinates": [ [ -92.328254399537997, 46.9904097744948 ], [ -92.328582863843494, 46.989997784158902 ] ] } },
{ "type": "Feature", "properties": { "wmUplineSo": "BERGEN LAKE", "wmType": "Underground" }, "geometry": { "type": "LineString", "coordinates": [ [ -92.316759915754801, 46.969861043057101 ], [ -92.315824748009504, 46.969627862170597 ] ] } },
{ "type": "Feature", "properties": { "wmUplineSo": "BERGEN LAKE", "wmType": "Underground" }, "geometry": { "type": "LineString", "coordinates": [ [ -92.262687310106898, 47.010885378047199 ], [ -92.263121092107696, 47.010824708292397 ], [ -92.264235269069303, 47.011315353657103 ] ] } },
{ "type": "Feature", "properties": { "wmUplineSo": "BERGEN LAKE", "wmType": "Underground" }, "geometry": { "type": "LineString", "coordinates": [ [ -92.261066214599495, 47.008208346433797 ], [ -92.261288208740098, 47.0096585198933 ] ] } },
{ "type": "Feature", "properties": { "wmUplineSo": "BERGEN LAKE", "wmType": "Underground" }, "geometry": { "type": "LineString", "coordinates": [ [ -92.264048825667004, 47.007253055286299 ], [ -92.265080061983895, 47.006520337496497 ] ] } },
{ "type": "Feature", "properties": { "wmUplineSo": "BERGEN LAKE", "wmType": "Underground" }, "geometry": { "type": "LineString", "coordinates": [ [ -92.284547548012497, 46.9868576780623 ], [ -92.283924694906105, 46.986688653814603 ], [ -92.283498316740904, 46.986167170770997 ], [ -92.2831466654075, 46.9855041123907 ], [ -92.283051354520595, 46.985191896253802 ] ] } },
{ "type": "Feature", "properties": { "wmUplineSo": "BERGEN LAKE", "wmType": "Underground" }, "geometry": { "type": "LineString", "coordinates": [ [ -92.287933618788003, 46.995336243960203 ], [ -92.288824740648096, 46.994919839453097 ], [ -92.289397137577495, 46.994342960878697 ], [ -92.289578098527599, 46.993332778418001 ], [ -92.290064785211896, 46.992960112839803 ] ] } },
{ "type": "Feature", "properties": { "wmUplineSo": "BERGEN LAKE", "wmType": "Underground" }, "geometry": { "type": "LineString", "coordinates": [ [ -92.292728515469804, 46.995080966449898 ], [ -92.292833815932497, 46.994607699517601 ], [ -92.2927324098887, 46.994238178238497 ], [ -92.292792194482203, 46.993920978095403 ], [ -92.293118264185694, 46.993087570833403 ], [ -92.2931649267897, 46.992799075788099 ], [ -92.292942883571996, 46.992258075622303 ], [ -92.293044186189505, 46.991627497488402 ], [ -92.293062960875403, 46.990125204415797 ], [ -92.293062960875403, 46.990125204415797 ] ] } },
{ "type": "Feature", "properties": { "wmUplineSo": "BERGEN LAKE", "wmType": "Underground" }, "geometry": { "type": "LineString", "coordinates": [ [ -92.284746008640198, 46.982023133620402 ], [ -92.284505367272402, 46.982010664797301 ] ] } },
{ "type": "Feature", "properties": { "wmUplineSo": "BERGEN LAKE", "wmType": "Underground" }, "geometry": { "type": "LineString", "coordinates": [ [ -92.279381815549399, 46.976796345604797 ], [ -92.278402908202693, 46.976978911620897 ], [ -92.277850726275005, 46.977102473287303 ] ] } },
{ "type": "Feature", "properties": { "wmUplineSo": "BERGEN LAKE", "wmType": "Underground" }, "geometry": { "type": "LineString", "coordinates": [ [ -92.267087900070393, 46.960641747608499 ], [ -92.266875177838998, 46.960484929438003 ], [ -92.267059266452193, 46.960150569078301 ], [ -92.266578181052907, 46.960016812050903 ] ] } },
{ "type": "Feature", "properties": { "wmUplineSo": "BERGEN LAKE", "wmType": "Underground" }, "geometry": { "type": "LineString", "coordinates": [ [ -92.260473427047202, 46.962692787327398 ], [ -92.260066017892896, 46.962225441237599 ] ] } },
{ "type": "Feature", "properties": { "wmUplineSo": "BERGEN LAKE", "wmType": "Underground" }, "geometry": { "type": "LineString", "coordinates": [ [ -92.251666964497602, 46.963590414886497 ], [ -92.251688619036102, 46.963782119782799 ] ] } },
{ "type": "Feature", "properties": { "wmUplineSo": "BERGEN LAKE", "wmType": "Underground" }, "geometry": { "type": "LineString", "coordinates": [ [ -92.315965999958706, 46.963633003550598 ], [ -92.316121999958696, 46.963586003550503 ] ] } },
{ "type": "Feature", "properties": { "wmUplineSo": "BERGEN LAKE", "wmType": "Underground" }, "geometry": { "type": "LineString", "coordinates": [ [ -92.238967942390502, 46.968273196596598 ], [ -92.239290144941606, 46.968313433032399 ], [ -92.239503326591404, 46.968389135001701 ], [ -92.2397892661496, 46.968510084514101 ], [ -92.240065347247096, 46.968659547075099 ], [ -92.240372182847196, 46.968679542082597 ], [ -92.240661274347602, 46.968559725245299 ], [ -92.240766073279204, 46.968426086782898 ] ] } },
{ "type": "Feature", "properties": { "wmUplineSo": "BERGEN LAKE", "wmType": "Underground" }, "geometry": { "type": "LineString", "coordinates": [ [ -92.265251999955694, 46.960650003549603 ], [ -92.265319999955693, 46.960466003549598 ] ] } },
{ "type": "Feature", "properties": { "wmUplineSo": "BERGEN LAKE", "wmType": "Underground" }, "geometry": { "type": "LineString", "coordinates": [ [ -92.323212172431397, 46.967555903858603 ], [ -92.324338592949303, 46.967435815435103 ] ] } },
{ "type": "Feature", "properties": { "wmUplineSo": "BERGEN LAKE", "wmType": "Underground" }, "geometry": { "type": "LineString", "coordinates": [ [ -92.322470431902104, 46.9627996616953 ], [ -92.321799780295706, 46.962903796727801 ] ] } },
{ "type": "Feature", "properties": { "wmUplineSo": "BERGEN LAKE", "wmType": "Underground" }, "geometry": { "type": "LineString", "coordinates": [ [ -92.322913587390005, 46.962681249009002 ], [ -92.322470431902104, 46.9627996616953 ] ] } },
{ "type": "Feature", "properties": { "wmUplineSo": "BERGEN LAKE", "wmType": "Underground" }, "geometry": { "type": "LineString", "coordinates": [ [ -92.247111211327706, 46.984676631250302 ], [ -92.247142614843099, 46.985980338344397 ] ] } },
{ "type": "Feature", "properties": { "wmUplineSo": "BERGEN LAKE", "wmType": "Underground" }, "geometry": { "type": "LineString", "coordinates": [ [ -92.244387810808007, 46.984839420307203 ], [ -92.244607435357906, 46.984703217391399 ], [ -92.247111211327706, 46.984676631250302 ] ] } },
{ "type": "Feature", "properties": { "wmUplineSo": "BERGEN LAKE", "wmType": "Underground" }, "geometry": { "type": "LineString", "coordinates": [ [ -92.247111211327706, 46.984676631250302 ], [ -92.251201919343401, 46.9846430555247 ], [ -92.254515409543899, 46.984633868872699 ], [ -92.255445640815907, 46.9839394501887 ], [ -92.257230185975303, 46.982728261167303 ], [ -92.258096032999006, 46.9818117114581 ], [ -92.257965600003999, 46.981153448149797 ] ] } },
{ "type": "Feature", "properties": { "wmUplineSo": "BERGEN LAKE", "wmType": "Underground" }, "geometry": { "type": "LineString", "coordinates": [ [ -92.257965600003999, 46.981153448149797 ], [ -92.258142166519605, 46.981044967369201 ], [ -92.258565642522399, 46.980925686677203 ], [ -92.2589009576119, 46.980892143242599 ], [ -92.259084019380495, 46.980429205318401 ], [ -92.259015720166801, 46.980139910753898 ] ] } },
{ "type": "Feature", "properties": { "wmUplineSo": "BERGEN LAKE", "wmType": "Underground" }, "geometry": { "type": "LineString", "coordinates": [ [ -92.257965600003999, 46.981153448149797 ], [ -92.257788849615906, 46.981091422033401 ], [ -92.2564580277283, 46.981076114564701 ] ] } },
{ "type": "Feature", "properties": { "wmUplineSo": "BERGEN LAKE", "wmType": "Underground" }, "geometry": { "type": "LineString", "coordinates": [ [ -92.259015720166801, 46.980139910753898 ], [ -92.259497998421693, 46.979826513576803 ], [ -92.259625516519804, 46.979475683656901 ] ] } },
{ "type": "Feature", "properties": { "wmUplineSo": "BERGEN LAKE", "wmType": "Underground" }, "geometry": { "type": "LineString", "coordinates": [ [ -92.244335727668101, 46.984938691616499 ], [ -92.244387810808007, 46.984839420307203 ] ] } },
{ "type": "Feature", "properties": { "wmUplineSo": "BERGEN LAKE", "wmType": "Underground" }, "geometry": { "type": "LineString", "coordinates": [ [ -92.233334261770906, 46.974296767288799 ], [ -92.232672646831105, 46.972659195410998 ], [ -92.232475146017904, 46.972304171620898 ], [ -92.231778260642599, 46.972273978739601 ] ] } },
{ "type": "Feature", "properties": { "wmUplineSo": "BERGEN LAKE", "wmType": "Underground" }, "geometry": { "type": "LineString", "coordinates": [ [ -92.2177668152748, 46.970731003458702 ], [ -92.218067374738297, 46.970709251384598 ] ] } },
{ "type": "Feature", "properties": { "wmUplineSo": "BERGEN LAKE", "wmType": "Underground" }, "geometry": { "type": "LineString", "coordinates": [ [ -92.218067374738297, 46.970709251384598 ], [ -92.218462477057201, 46.9709925961414 ] ] } },
{ "type": "Feature", "properties": { "wmUplineSo": "BERGEN LAKE", "wmType": "Underground" }, "geometry": { "type": "LineString", "coordinates": [ [ -92.208660559669795, 46.966793156010603 ], [ -92.208724285788705, 46.966026077450501 ] ] } },
{ "type": "Feature", "properties": { "wmUplineSo": "BERGEN LAKE", "wmType": "Underground" }, "geometry": { "type": "LineString", "coordinates": [ [ -92.212147782105205, 46.956121554593402 ], [ -92.209905299594894, 46.956033234765599 ] ] } },
{ "type": "Feature", "properties": { "wmUplineSo": "BERGEN LAKE", "wmType": "Underground" }, "geometry": { "type": "LineString", "coordinates": [ [ -92.215042657567395, 46.956220520185603 ], [ -92.215315411262793, 46.9565851997517 ], [ -92.2152003539709, 46.956692454343603 ], [ -92.215153753896402, 46.956824671271697 ], [ -92.215197829841898, 46.956928012920102 ] ] } },
{ "type": "Feature", "properties": { "wmUplineSo": "BERGEN LAKE", "wmType": "Underground" }, "geometry": { "type": "LineString", "coordinates": [ [ -92.217690698640297, 46.959242394575902 ], [ -92.217910669372202, 46.959349529447799 ], [ -92.218302247076096, 46.959274283314102 ], [ -92.218420946513902, 46.9592079210123 ], [ -92.218423117919002, 46.959058812540803 ], [ -92.218470890891894, 46.959012117788397 ], [ -92.218555492135295, 46.958996573805599 ], [ -92.219090308877597, 46.958853786415197 ] ] } },
{ "type": "Feature", "properties": { "wmUplineSo": "BERGEN LAKE", "wmType": "Underground" }, "geometry": { "type": "LineString", "coordinates": [ [ -92.25980936709, 47.001282933617397 ], [ -92.259846100888396, 47.003181860299399 ], [ -92.259863417879004, 47.0065396218328 ], [ -92.259866784002995, 47.008547010823897 ], [ -92.261066214599495, 47.008208346433797 ] ] } },
{ "type": "Feature", "properties": { "wmUplineSo": "BERGEN LAKE", "wmType": "Underground" }, "geometry": { "type": "LineString", "coordinates": [ [ -92.25980936709, 47.001282933617397 ], [ -92.259204833580597, 47.001442705826697 ], [ -92.258223013777297, 47.001480513462198 ] ] } },
{ "type": "Feature", "properties": { "wmUplineSo": "BERGEN LAKE", "wmType": "Underground" }, "geometry": { "type": "LineString", "coordinates": [ [ -92.259794196580103, 47.000509486585699 ], [ -92.25980936709, 47.001282933617397 ] ] } },
{ "type": "Feature", "properties": { "wmUplineSo": "BERGEN LAKE", "wmType": "Underground" }, "geometry": { "type": "LineString", "coordinates": [ [ -92.259849297182697, 46.998790068298298 ], [ -92.261583493934495, 47.000097618673699 ], [ -92.2617573179608, 47.000369950615003 ] ] } },
{ "type": "Feature", "properties": { "wmUplineSo": "BERGEN LAKE", "wmType": "Underground" }, "geometry": { "type": "LineString", "coordinates": [ [ -92.259852415278402, 47.000259927319703 ], [ -92.259794196580103, 47.000509486585699 ] ] } },
{ "type": "Feature", "properties": { "wmUplineSo": "BERGEN LAKE", "wmType": "Underground" }, "geometry": { "type": "LineString", "coordinates": [ [ -92.259847773064394, 46.998071658232497 ], [ -92.259849297182697, 46.998790068298298 ] ] } },
{ "type": "Feature", "properties": { "wmUplineSo": "BERGEN LAKE", "wmType": "Underground" }, "geometry": { "type": "LineString", "coordinates": [ [ -92.218055450038506, 46.960709563082702 ], [ -92.220148732797099, 46.9607311662987 ], [ -92.220787953578196, 46.961358453229302 ], [ -92.221101553756299, 46.961384580333302 ] ] } },
{ "type": "Feature", "properties": { "wmUplineSo": "BERGEN LAKE", "wmType": "Underground" }, "geometry": { "type": "LineString", "coordinates": [ [ -92.215176587082198, 46.961184051288399 ], [ -92.215090642645805, 46.961246971881899 ] ] } },
{ "type": "Feature", "properties": { "wmUplineSo": "BERGEN LAKE", "wmType": "Underground" }, "geometry": { "type": "LineString", "coordinates": [ [ -92.217713324232804, 46.960713841888897 ], [ -92.218055450038506, 46.960709563082702 ] ] } },
{ "type": "Feature", "properties": { "wmUplineSo": "BERGEN LAKE", "wmType": "Underground" }, "geometry": { "type": "LineString", "coordinates": [ [ -92.268077567829906, 46.960163187781703 ], [ -92.268106815286004, 46.960148705612497 ] ] } },
{ "type": "Feature", "properties": { "wmUplineSo": "BERGEN LAKE", "wmType": "Underground" }, "geometry": { "type": "LineString", "coordinates": [ [ -92.249788050363094, 46.963488637472601 ], [ -92.250528303109505, 46.963558370798403 ] ] } },
{ "type": "Feature", "properties": { "wmUplineSo": "BERGEN LAKE", "wmType": "Underground" }, "geometry": { "type": "LineString", "coordinates": [ [ -92.254571889993002, 46.963288255229699 ], [ -92.2547488333486, 46.963205212572902 ] ] } },
{ "type": "Feature", "properties": { "wmUplineSo": "BERGEN LAKE", "wmType": "Underground" }, "geometry": { "type": "LineString", "coordinates": [ [ -92.259015720166801, 46.980139910753898 ], [ -92.258549705934001, 46.979723237816998 ] ] } },
{ "type": "Feature", "properties": { "wmUplineSo": "BERGEN LAKE", "wmType": "Underground" }, "geometry": { "type": "LineString", "coordinates": [ [ -92.327883241853598, 46.993758052619199 ], [ -92.327342272458495, 46.993363122863002 ] ] } },
{ "type": "Feature", "properties": { "wmUplineSo": "BERGEN LAKE", "wmType": "Underground" }, "geometry": { "type": "LineString", "coordinates": [ [ -92.329810642564894, 46.994069348353598 ], [ -92.329394771930495, 46.994800169617903 ] ] } },
{ "type": "Feature", "properties": { "wmUplineSo": "BERGEN LAKE", "wmType": "Underground" }, "geometry": { "type": "LineString", "coordinates": [ [ -92.292676986195701, 46.995318313015702 ], [ -92.292728515469804, 46.995080966449898 ] ] } },
{ "type": "Feature", "properties": { "wmUplineSo": "BERGEN LAKE", "wmType": "Underground" }, "geometry": { "type": "LineString", "coordinates": [ [ -92.3229526417214, 46.967578124189899 ], [ -92.323212172431397, 46.967555903858603 ] ] } },
{ "type": "Feature", "properties": { "wmUplineSo": "BERGEN LAKE", "wmType": "Underground" }, "geometry": { "type": "LineString", "coordinates": [ [ -92.308534908874805, 46.995114084574404 ], [ -92.308528904484504, 46.995468896099801 ] ] } },
{ "type": "Feature", "properties": { "wmUplineSo": "BERGEN LAKE", "wmType": "Underground" }, "geometry": { "type": "LineString", "coordinates": [ [ -92.244335727668101, 46.984938691616499 ], [ -92.245275649072298, 46.984946570304501 ] ] } },
{ "type": "Feature", "properties": { "wmUplineSo": "BERGEN LAKE", "wmType": "Underground" }, "geometry": { "type": "LineString", "coordinates": [ [ -92.244335727668101, 46.984938691616499 ], [ -92.244307406245397, 46.984938454151703 ] ] } },
{ "type": "Feature", "properties": { "wmUplineSo": "BERGEN LAKE", "wmType": "Underground" }, "geometry": { "type": "LineString", "coordinates": [ [ -92.244307406245397, 46.984938454151703 ], [ -92.244335727668101, 46.984938691616499 ] ] } },
{ "type": "Feature", "properties": { "wmUplineSo": "BERGEN LAKE", "wmType": "Underground" }, "geometry": { "type": "LineString", "coordinates": [ [ -92.3153434399742, 46.965936566344503 ], [ -92.315180893299399, 46.966199197926898 ] ] } },
{ "type": "Feature", "properties": { "wmUplineSo": "BERGEN LAKE", "wmType": "Underground" }, "geometry": { "type": "LineString", "coordinates": [ [ -92.315180893299399, 46.966199197926898 ], [ -92.314969544272998, 46.966540676578198 ], [ -92.314204252260197, 46.967092167854098 ], [ -92.313940889382906, 46.967366782901898 ], [ -92.313431433538298, 46.967481103708899 ] ] } },
{ "type": "Feature", "properties": { "wmUplineSo": "BERGEN LAKE", "wmType": "Underground" }, "geometry": { "type": "LineString", "coordinates": [ [ -92.281370311226198, 46.992151501057201 ], [ -92.281455860891199, 46.9921934199117 ] ] } },
{ "type": "Feature", "properties": { "wmUplineSo": "BERGEN LAKE", "wmType": "Underground" }, "geometry": { "type": "LineString", "coordinates": [ [ -92.281455860891199, 46.9921934199117 ], [ -92.281370311226198, 46.992151501057201 ], [ -92.281673676286701, 46.992280573631703 ], [ -92.281870485993693, 46.992321916415797 ], [ -92.282211172820794, 46.992333140424499 ] ] } },
{ "type": "Feature", "properties": { "wmUplineSo": "BERGEN LAKE", "wmType": "Underground" }, "geometry": { "type": "LineString", "coordinates": [ [ -92.235994831213404, 46.983261206849001 ], [ -92.234404032706394, 46.983229531570203 ] ] } },
{ "type": "Feature", "properties": { "wmUplineSo": "BERGEN LAKE", "wmType": "Underground" }, "geometry": { "type": "LineString", "coordinates": [ [ -92.234132278708699, 46.983224118310901 ], [ -92.233505475489906, 46.983167117452297 ] ] } },
{ "type": "Feature", "properties": { "wmUplineSo": "BERGEN LAKE", "wmType": "Underground" }, "geometry": { "type": "LineString", "coordinates": [ [ -92.230866128296796, 46.983196570479898 ], [ -92.229649930307005, 46.983165041347398 ], [ -92.229312151201896, 46.982953433260697 ] ] } },
{ "type": "Feature", "properties": { "wmUplineSo": "BERGEN LAKE", "wmType": "Underground" }, "geometry": { "type": "LineString", "coordinates": [ [ -92.265345915839902, 47.011629030139503 ], [ -92.266005588268598, 47.012579682571598 ], [ -92.266273428873404, 47.012721279067001 ] ] } },
{ "type": "Feature", "properties": { "wmUplineSo": "BERGEN LAKE", "wmType": "Underground" }, "geometry": { "type": "LineString", "coordinates": [ [ -92.292613733870795, 46.990023714798703 ], [ -92.292427701021793, 46.990057316397198 ] ] } },
{ "type": "Feature", "properties": { "wmUplineSo": "BERGEN LAKE", "wmType": "Underground" }, "geometry": { "type": "LineString", "coordinates": [ [ -92.292427701021793, 46.990057316397198 ], [ -92.292407681762498, 46.990062029206001 ] ] } },
{ "type": "Feature", "properties": { "wmUplineSo": "BERGEN LAKE", "wmType": "Underground" }, "geometry": { "type": "LineString", "coordinates": [ [ -92.293060816338894, 46.990047653388402 ], [ -92.293782973671995, 46.986891593468499 ], [ -92.293955896398003, 46.984748901348702 ], [ -92.293955896701505, 46.984748901105903 ] ] } },
{ "type": "Feature", "properties": { "wmUplineSo": "BERGEN LAKE", "wmType": "Underground" }, "geometry": { "type": "LineString", "coordinates": [ [ -92.322939484485104, 46.968462512217499 ], [ -92.323018999959103, 46.968505003552004 ] ] } },
{ "type": "Feature", "properties": { "wmUplineSo": "BERGEN LAKE", "wmType": "Underground" }, "geometry": { "type": "LineString", "coordinates": [ [ -92.323018999959103, 46.968505003552004 ], [ -92.323249999959202, 46.968425003551801 ] ] } },
{ "type": "Feature", "properties": { "wmUplineSo": "BERGEN LAKE", "wmType": "Underground" }, "geometry": { "type": "LineString", "coordinates": [ [ -92.323249999959202, 46.968425003551801 ], [ -92.323477999959195, 46.968399003551703 ] ] } },
{ "type": "Feature", "properties": { "wmUplineSo": "BERGEN LAKE", "wmType": "Underground" }, "geometry": { "type": "LineString", "coordinates": [ [ -92.323477999959195, 46.968399003551703 ], [ -92.323617999959197, 46.968439003552 ] ] } },
{ "type": "Feature", "properties": { "wmUplineSo": "BERGEN LAKE", "wmType": "Underground" }, "geometry": { "type": "LineString", "coordinates": [ [ -92.323617999959197, 46.968439003552 ], [ -92.3237629999592, 46.968541003551898 ] ] } },
{ "type": "Feature", "properties": { "wmUplineSo": "BERGEN LAKE", "wmType": "Underground" }, "geometry": { "type": "LineString", "coordinates": [ [ -92.3237629999592, 46.968541003551898 ], [ -92.323912999959205, 46.9686250035519 ] ] } },
{ "type": "Feature", "properties": { "wmUplineSo": "BERGEN LAKE", "wmType": "Underground" }, "geometry": { "type": "LineString", "coordinates": [ [ -92.323912999959205, 46.9686250035519 ], [ -92.323911799999905, 46.968662500008698 ] ] } },
{ "type": "Feature", "properties": { "wmUplineSo": "BERGEN LAKE", "wmType": "Underground" }, "geometry": { "type": "LineString", "coordinates": [ [ -92.281346271147697, 47.000024094710199 ], [ -92.280997626284105, 46.999997659693399 ] ] } },
{ "type": "Feature", "properties": { "wmUplineSo": "BERGEN LAKE", "wmType": "Underground" }, "geometry": { "type": "LineString", "coordinates": [ [ -92.316121999958696, 46.963586003550503 ], [ -92.316160599999904, 46.963572500008702 ] ] } },
{ "type": "Feature", "properties": { "wmUplineSo": "BERGEN LAKE", "wmType": "Underground" }, "geometry": { "type": "LineString", "coordinates": [ [ -92.234404032706394, 46.983229531570203 ], [ -92.234132278708699, 46.983224118310901 ] ] } },
{ "type": "Feature", "properties": { "wmUplineSo": "BERGEN LAKE", "wmType": "Underground" }, "geometry": { "type": "LineString", "coordinates": [ [ -92.263440880545701, 47.007537799388899 ], [ -92.264048825667004, 47.007253055286299 ] ] } },
{ "type": "Feature", "properties": { "wmUplineSo": "BERGEN LAKE", "wmType": "Underground" }, "geometry": { "type": "LineString", "coordinates": [ [ -92.265319999955693, 46.960466003549598 ], [ -92.265346999955696, 46.960436003549702 ] ] } },
{ "type": "Feature", "properties": { "wmUplineSo": "BERGEN LAKE", "wmType": "Underground" }, "geometry": { "type": "LineString", "coordinates": [ [ -92.279972269218405, 47.000085567507803 ], [ -92.279807930873702, 47.000107743927302 ] ] } },
{ "type": "Feature", "properties": { "wmUplineSo": "BERGEN LAKE", "wmType": "Underground" }, "geometry": { "type": "LineString", "coordinates": [ [ -92.279807930873702, 47.000107743927302 ], [ -92.279766799999905, 47.000117400008698 ] ] } },
{ "type": "Feature", "properties": { "wmUplineSo": "BERGEN LAKE", "wmType": "Underground" }, "geometry": { "type": "LineString", "coordinates": [ [ -92.258045751148202, 46.980387225314999 ], [ -92.258056099999905, 46.980367300008702 ] ] } },
{ "type": "Feature", "properties": { "wmUplineSo": "BERGEN LAKE", "wmType": "Underground" }, "geometry": { "type": "LineString", "coordinates": [ [ -92.2547488333486, 46.963205212572902 ], [ -92.254888300147698, 46.962963079657897 ] ] } },
{ "type": "Feature", "properties": { "wmUplineSo": "BERGEN LAKE", "wmType": "Underground" }, "geometry": { "type": "LineString", "coordinates": [ [ -92.277226303418502, 46.996285556335998 ], [ -92.277309699999904, 46.996358700008699 ] ] } },
{ "type": "Feature", "properties": { "wmUplineSo": "BERGEN LAKE", "wmType": "Underground" }, "geometry": { "type": "LineString", "coordinates": [ [ -92.265346999955696, 46.960436003549702 ], [ -92.265563399999905, 46.960366000008698 ] ] } }
]
}
