{
"type": "FeatureCollection",
"crs": { "type": "name", "properties": { "name": "urn:ogc:def:crs:OGC:1.3:CRS84" } },
"features": [
{ "type": "Feature", "properties": { "wmUplineSo": "BIG SANDY", "wmType": "Underground" }, "geometry": { "type": "LineString", "coordinates": [ [ -93.325872356646599, 46.709872403177101 ], [ -93.325863735824598, 46.709824940515901 ] ] } },
{ "type": "Feature", "properties": { "wmUplineSo": "BIG SANDY", "wmType": "Underground" }, "geometry": { "type": "LineString", "coordinates": [ [ -93.325863735824598, 46.709824940515901 ], [ -93.326011830968397, 46.7097982074662 ] ] } },
{ "type": "Feature", "properties": { "wmUplineSo": "BIG SANDY", "wmType": "Underground" }, "geometry": { "type": "LineString", "coordinates": [ [ -93.308377361010699, 46.710228984884601 ], [ -93.309215170920794, 46.710207021682102 ] ] } },
{ "type": "Feature", "properties": { "wmUplineSo": "BIG SANDY", "wmType": "Underground" }, "geometry": { "type": "LineString", "coordinates": [ [ -93.309215170920794, 46.710207021682102 ], [ -93.309846229742405, 46.710045384882697 ] ] } },
{ "type": "Feature", "properties": { "wmUplineSo": "BIG SANDY", "wmType": "Underground" }, "geometry": { "type": "LineString", "coordinates": [ [ -93.319505110696198, 46.712050946777097 ], [ -93.319789119294995, 46.712534381569 ] ] } },
{ "type": "Feature", "properties": { "wmUplineSo": "BIG SANDY", "wmType": "Underground" }, "geometry": { "type": "LineString", "coordinates": [ [ -93.319789119294995, 46.712534381569 ], [ -93.319779566369704, 46.712524407015202 ], [ -93.319764404881298, 46.7128486315179 ], [ -93.319831084952497, 46.713151484977502 ], [ -93.319838794891993, 46.713166703935599 ] ] } },
{ "type": "Feature", "properties": { "wmUplineSo": "BIG SANDY", "wmType": "Underground" }, "geometry": { "type": "LineString", "coordinates": [ [ -93.328107223733895, 46.712357624171702 ], [ -93.328182251974994, 46.712104729047901 ] ] } },
{ "type": "Feature", "properties": { "wmUplineSo": "BIG SANDY", "wmType": "Underground" }, "geometry": { "type": "LineString", "coordinates": [ [ -93.327861163473699, 46.711358389544202 ], [ -93.327878053583106, 46.711001080841299 ] ] } },
{ "type": "Feature", "properties": { "wmUplineSo": "BIG SANDY", "wmType": "Underground" }, "geometry": { "type": "LineString", "coordinates": [ [ -93.328286332115198, 46.7112609768349 ], [ -93.328395420264798, 46.711019794952101 ] ] } },
{ "type": "Feature", "properties": { "wmUplineSo": "BIG SANDY", "wmType": "Underground" }, "geometry": { "type": "LineString", "coordinates": [ [ -93.306577861455395, 46.710206376327299 ], [ -93.306854240057206, 46.710290134803103 ] ] } },
{ "type": "Feature", "properties": { "wmUplineSo": "BIG SANDY", "wmType": "Underground" }, "geometry": { "type": "LineString", "coordinates": [ [ -93.306854240057206, 46.710290134803103 ], [ -93.307457659808193, 46.710214642599901 ] ] } },
{ "type": "Feature", "properties": { "wmUplineSo": "BIG SANDY", "wmType": "Underground" }, "geometry": { "type": "LineString", "coordinates": [ [ -93.307457659808193, 46.710214642599901 ], [ -93.307443803644304, 46.710224933710897 ] ] } },
{ "type": "Feature", "properties": { "wmUplineSo": "BIG SANDY", "wmType": "Underground" }, "geometry": { "type": "LineString", "coordinates": [ [ -93.307443803644304, 46.710224933710897 ], [ -93.307425083052905, 46.710218435149301 ] ] } },
{ "type": "Feature", "properties": { "wmUplineSo": "BIG SANDY", "wmType": "Underground" }, "geometry": { "type": "LineString", "coordinates": [ [ -93.307457659808193, 46.710214642599901 ], [ -93.307964729247104, 46.710206421502697 ] ] } },
{ "type": "Feature", "properties": { "wmUplineSo": "BIG SANDY", "wmType": "Underground" }, "geometry": { "type": "LineString", "coordinates": [ [ -93.307964729247104, 46.710206421502697 ], [ -93.308377361010699, 46.710228984884601 ] ] } },
{ "type": "Feature", "properties": { "wmUplineSo": "BIG SANDY", "wmType": "Underground" }, "geometry": { "type": "LineString", "coordinates": [ [ -93.309846229742405, 46.710045384882697 ], [ -93.309850200352102, 46.710045290751196 ], [ -93.310365123747204, 46.709912343083502 ], [ -93.310761231885294, 46.709904220625099 ], [ -93.311136511987698, 46.709837424746603 ], [ -93.311607615761801, 46.709805603950599 ], [ -93.311979749768994, 46.709785796818103 ], [ -93.311978293762706, 46.709797983690898 ] ] } },
{ "type": "Feature", "properties": { "wmUplineSo": "BIG SANDY", "wmType": "Underground" }, "geometry": { "type": "LineString", "coordinates": [ [ -93.311978293762706, 46.709797983690898 ], [ -93.311985638399094, 46.709837128884097 ] ] } },
{ "type": "Feature", "properties": { "wmUplineSo": "BIG SANDY", "wmType": "Underground" }, "geometry": { "type": "LineString", "coordinates": [ [ -93.311978293762706, 46.709797983690898 ], [ -93.312327718566394, 46.709702918554498 ] ] } },
{ "type": "Feature", "properties": { "wmUplineSo": "BIG SANDY", "wmType": "Underground" }, "geometry": { "type": "LineString", "coordinates": [ [ -93.312327718566394, 46.709702918554498 ], [ -93.312867654595195, 46.709471104834797 ] ] } },
{ "type": "Feature", "properties": { "wmUplineSo": "BIG SANDY", "wmType": "Underground" }, "geometry": { "type": "LineString", "coordinates": [ [ -93.312867654595195, 46.709471104834797 ], [ -93.312900556105504, 46.709470071703599 ] ] } },
{ "type": "Feature", "properties": { "wmUplineSo": "BIG SANDY", "wmType": "Underground" }, "geometry": { "type": "LineString", "coordinates": [ [ -93.312900556105504, 46.709470071703599 ], [ -93.312973047351605, 46.709478218126897 ] ] } },
{ "type": "Feature", "properties": { "wmUplineSo": "BIG SANDY", "wmType": "Underground" }, "geometry": { "type": "LineString", "coordinates": [ [ -93.312867654595195, 46.709471104834797 ], [ -93.313412051741693, 46.7095180729495 ] ] } },
{ "type": "Feature", "properties": { "wmUplineSo": "BIG SANDY", "wmType": "Underground" }, "geometry": { "type": "LineString", "coordinates": [ [ -93.313412051741693, 46.7095180729495 ], [ -93.315020337115797, 46.709822521517303 ] ] } },
{ "type": "Feature", "properties": { "wmUplineSo": "BIG SANDY", "wmType": "Underground" }, "geometry": { "type": "LineString", "coordinates": [ [ -93.315020337115797, 46.709822521517303 ], [ -93.315196141894205, 46.710000719063103 ] ] } },
{ "type": "Feature", "properties": { "wmUplineSo": "BIG SANDY", "wmType": "Underground" }, "geometry": { "type": "LineString", "coordinates": [ [ -93.315020337115797, 46.709822521517303 ], [ -93.315505182387895, 46.709909285508303 ] ] } },
{ "type": "Feature", "properties": { "wmUplineSo": "BIG SANDY", "wmType": "Underground" }, "geometry": { "type": "LineString", "coordinates": [ [ -93.315505182387895, 46.709909285508303 ], [ -93.316069332010201, 46.710021270784303 ] ] } },
{ "type": "Feature", "properties": { "wmUplineSo": "BIG SANDY", "wmType": "Underground" }, "geometry": { "type": "LineString", "coordinates": [ [ -93.316069332010201, 46.710021270784303 ], [ -93.316572195217702, 46.7100421036006 ] ] } },
{ "type": "Feature", "properties": { "wmUplineSo": "BIG SANDY", "wmType": "Underground" }, "geometry": { "type": "LineString", "coordinates": [ [ -93.316572195217702, 46.7100421036006 ], [ -93.316597114892303, 46.710044247350297 ] ] } },
{ "type": "Feature", "properties": { "wmUplineSo": "BIG SANDY", "wmType": "Underground" }, "geometry": { "type": "LineString", "coordinates": [ [ -93.316572195217702, 46.7100421036006 ], [ -93.316468996122097, 46.709755585615802 ] ] } },
{ "type": "Feature", "properties": { "wmUplineSo": "BIG SANDY", "wmType": "Underground" }, "geometry": { "type": "LineString", "coordinates": [ [ -93.316572195217702, 46.7100421036006 ], [ -93.316985311329006, 46.710103117215802 ] ] } },
{ "type": "Feature", "properties": { "wmUplineSo": "BIG SANDY", "wmType": "Underground" }, "geometry": { "type": "LineString", "coordinates": [ [ -93.316985311329006, 46.710103117215802 ], [ -93.317335454432396, 46.710171300013798 ] ] } },
{ "type": "Feature", "properties": { "wmUplineSo": "BIG SANDY", "wmType": "Underground" }, "geometry": { "type": "LineString", "coordinates": [ [ -93.317335454432396, 46.710171300013798 ], [ -93.317559599548602, 46.710267312466897 ] ] } },
{ "type": "Feature", "properties": { "wmUplineSo": "BIG SANDY", "wmType": "Underground" }, "geometry": { "type": "LineString", "coordinates": [ [ -93.317559599548602, 46.710267312466897 ], [ -93.317854904606804, 46.710443436585997 ] ] } },
{ "type": "Feature", "properties": { "wmUplineSo": "BIG SANDY", "wmType": "Underground" }, "geometry": { "type": "LineString", "coordinates": [ [ -93.317854904606804, 46.710443436585997 ], [ -93.318269515713794, 46.7107294440003 ] ] } },
{ "type": "Feature", "properties": { "wmUplineSo": "BIG SANDY", "wmType": "Underground" }, "geometry": { "type": "LineString", "coordinates": [ [ -93.318269515713794, 46.7107294440003 ], [ -93.318606786515602, 46.711027023581003 ] ] } },
{ "type": "Feature", "properties": { "wmUplineSo": "BIG SANDY", "wmType": "Underground" }, "geometry": { "type": "LineString", "coordinates": [ [ -93.318606786515602, 46.711027023581003 ], [ -93.318970676803701, 46.711417663963999 ] ] } },
{ "type": "Feature", "properties": { "wmUplineSo": "BIG SANDY", "wmType": "Underground" }, "geometry": { "type": "LineString", "coordinates": [ [ -93.318970676803701, 46.711417663963999 ], [ -93.318729547085994, 46.711518196616602 ] ] } },
{ "type": "Feature", "properties": { "wmUplineSo": "BIG SANDY", "wmType": "Underground" }, "geometry": { "type": "LineString", "coordinates": [ [ -93.318970676803701, 46.711417663963999 ], [ -93.319505110696198, 46.712050946777097 ] ] } },
{ "type": "Feature", "properties": { "wmUplineSo": "BIG SANDY", "wmType": "Underground" }, "geometry": { "type": "LineString", "coordinates": [ [ -93.319838794891993, 46.713166703935599 ], [ -93.319882733784695, 46.713378322846197 ] ] } },
{ "type": "Feature", "properties": { "wmUplineSo": "BIG SANDY", "wmType": "Underground" }, "geometry": { "type": "LineString", "coordinates": [ [ -93.319882733784695, 46.713378322846197 ], [ -93.319875079104506, 46.713374871139401 ], [ -93.319892801748097, 46.713567137776501 ], [ -93.319967189940101, 46.7137250202166 ], [ -93.320103416660302, 46.713921844792303 ], [ -93.320107272055594, 46.7139272938728 ] ] } },
{ "type": "Feature", "properties": { "wmUplineSo": "BIG SANDY", "wmType": "Underground" }, "geometry": { "type": "LineString", "coordinates": [ [ -93.320107272055594, 46.7139272938728 ], [ -93.320101018256196, 46.713916962107298 ], [ -93.320263522593393, 46.714149568532001 ], [ -93.3204541152042, 46.7143234233397 ], [ -93.320734943901499, 46.714529620902603 ], [ -93.320742250137599, 46.714534157704698 ] ] } },
{ "type": "Feature", "properties": { "wmUplineSo": "BIG SANDY", "wmType": "Underground" }, "geometry": { "type": "LineString", "coordinates": [ [ -93.320742250137599, 46.714534157704698 ], [ -93.320820586522402, 46.714692377260803 ] ] } },
{ "type": "Feature", "properties": { "wmUplineSo": "BIG SANDY", "wmType": "Underground" }, "geometry": { "type": "LineString", "coordinates": [ [ -93.320820586522402, 46.714692377260803 ], [ -93.320816492759207, 46.714695631683803 ], [ -93.321307575151906, 46.714793671533997 ], [ -93.321698819171402, 46.7148382066623 ], [ -93.322494953523005, 46.7148310763815 ], [ -93.322500504563493, 46.714831533205299 ] ] } },
{ "type": "Feature", "properties": { "wmUplineSo": "BIG SANDY", "wmType": "Underground" }, "geometry": { "type": "LineString", "coordinates": [ [ -93.322500504563493, 46.714831533205299 ], [ -93.323374041138905, 46.714726266673502 ] ] } },
{ "type": "Feature", "properties": { "wmUplineSo": "BIG SANDY", "wmType": "Underground" }, "geometry": { "type": "LineString", "coordinates": [ [ -93.323374041138905, 46.714726266673502 ], [ -93.324291275373696, 46.7145627707391 ] ] } },
{ "type": "Feature", "properties": { "wmUplineSo": "BIG SANDY", "wmType": "Underground" }, "geometry": { "type": "LineString", "coordinates": [ [ -93.324291275373696, 46.7145627707391 ], [ -93.325136647570105, 46.714409422320898 ] ] } },
{ "type": "Feature", "properties": { "wmUplineSo": "BIG SANDY", "wmType": "Underground" }, "geometry": { "type": "LineString", "coordinates": [ [ -93.325136647570105, 46.714409422320898 ], [ -93.326033818866193, 46.714223209118401 ] ] } },
{ "type": "Feature", "properties": { "wmUplineSo": "BIG SANDY", "wmType": "Underground" }, "geometry": { "type": "LineString", "coordinates": [ [ -93.326033818866193, 46.714223209118401 ], [ -93.326588118028198, 46.714116863823797 ] ] } },
{ "type": "Feature", "properties": { "wmUplineSo": "BIG SANDY", "wmType": "Underground" }, "geometry": { "type": "LineString", "coordinates": [ [ -93.326588118028198, 46.714116863823797 ], [ -93.327261103684805, 46.713893944829302 ] ] } },
{ "type": "Feature", "properties": { "wmUplineSo": "BIG SANDY", "wmType": "Underground" }, "geometry": { "type": "LineString", "coordinates": [ [ -93.327261103684805, 46.713893944829302 ], [ -93.327262383079002, 46.713890215397697 ], [ -93.327425210208901, 46.713706516255002 ], [ -93.327742378725603, 46.713630435642898 ], [ -93.327902286138396, 46.713528964278701 ], [ -93.327986771942093, 46.713380725969003 ], [ -93.328198049773704, 46.713302598396801 ], [ -93.328173214764604, 46.713321029254502 ] ] } },
{ "type": "Feature", "properties": { "wmUplineSo": "BIG SANDY", "wmType": "Underground" }, "geometry": { "type": "LineString", "coordinates": [ [ -93.328173214764604, 46.713321029254502 ], [ -93.328125447710406, 46.713693393642203 ] ] } },
{ "type": "Feature", "properties": { "wmUplineSo": "BIG SANDY", "wmType": "Underground" }, "geometry": { "type": "LineString", "coordinates": [ [ -93.328173214764604, 46.713321029254502 ], [ -93.328170519814407, 46.713036187354597 ] ] } },
{ "type": "Feature", "properties": { "wmUplineSo": "BIG SANDY", "wmType": "Underground" }, "geometry": { "type": "LineString", "coordinates": [ [ -93.328170519814407, 46.713036187354597 ], [ -93.328117280551098, 46.712730011857801 ] ] } },
{ "type": "Feature", "properties": { "wmUplineSo": "BIG SANDY", "wmType": "Underground" }, "geometry": { "type": "LineString", "coordinates": [ [ -93.328117280551098, 46.712730011857801 ], [ -93.328107223733895, 46.712357624171702 ] ] } },
{ "type": "Feature", "properties": { "wmUplineSo": "BIG SANDY", "wmType": "Underground" }, "geometry": { "type": "LineString", "coordinates": [ [ -93.328199123891295, 46.711902138259497 ], [ -93.3278542555272, 46.711889241697499 ] ] } },
{ "type": "Feature", "properties": { "wmUplineSo": "BIG SANDY", "wmType": "Underground" }, "geometry": { "type": "LineString", "coordinates": [ [ -93.3278542555272, 46.711889241697499 ], [ -93.327861163473699, 46.711358389544202 ] ] } },
{ "type": "Feature", "properties": { "wmUplineSo": "BIG SANDY", "wmType": "Underground" }, "geometry": { "type": "LineString", "coordinates": [ [ -93.328199123891295, 46.711902138259497 ], [ -93.3282352285174, 46.711640050161101 ] ] } },
{ "type": "Feature", "properties": { "wmUplineSo": "BIG SANDY", "wmType": "Underground" }, "geometry": { "type": "LineString", "coordinates": [ [ -93.327707174307207, 46.710896039403302 ], [ -93.327696179681098, 46.710884619273699 ] ] } },
{ "type": "Feature", "properties": { "wmUplineSo": "BIG SANDY", "wmType": "Underground" }, "geometry": { "type": "LineString", "coordinates": [ [ -93.310648907565096, 46.717293533280397 ], [ -93.310885766645896, 46.717253605271203 ] ] } },
{ "type": "Feature", "properties": { "wmUplineSo": "BIG SANDY", "wmType": "Underground" }, "geometry": { "type": "LineString", "coordinates": [ [ -93.309774496166696, 46.718402009023798 ], [ -93.309648422615396, 46.718559540044303 ] ] } },
{ "type": "Feature", "properties": { "wmUplineSo": "BIG SANDY", "wmType": "Underground" }, "geometry": { "type": "LineString", "coordinates": [ [ -93.327878053583106, 46.711001080841299 ], [ -93.327720144381402, 46.710967796962301 ] ] } },
{ "type": "Feature", "properties": { "wmUplineSo": "BIG SANDY", "wmType": "Underground" }, "geometry": { "type": "LineString", "coordinates": [ [ -93.327720144381402, 46.710967796962301 ], [ -93.327707174307207, 46.710896039403302 ] ] } },
{ "type": "Feature", "properties": { "wmUplineSo": "BIG SANDY", "wmType": "Underground" }, "geometry": { "type": "LineString", "coordinates": [ [ -93.327707174307207, 46.710896039403302 ], [ -93.327696149994594, 46.710909431812297 ] ] } },
{ "type": "Feature", "properties": { "wmUplineSo": "BIG SANDY", "wmType": "Underground" }, "geometry": { "type": "LineString", "coordinates": [ [ -93.326011830968397, 46.7097982074662 ], [ -93.326072194953099, 46.709741353376998 ] ] } },
{ "type": "Feature", "properties": { "wmUplineSo": "BIG SANDY", "wmType": "Underground" }, "geometry": { "type": "LineString", "coordinates": [ [ -93.326072194953099, 46.709741353376998 ], [ -93.326153465419793, 46.7096070648088 ] ] } },
{ "type": "Feature", "properties": { "wmUplineSo": "BIG SANDY", "wmType": "Underground" }, "geometry": { "type": "LineString", "coordinates": [ [ -93.326153465419793, 46.7096070648088 ], [ -93.326191415873893, 46.709514067706202 ] ] } },
{ "type": "Feature", "properties": { "wmUplineSo": "BIG SANDY", "wmType": "Underground" }, "geometry": { "type": "LineString", "coordinates": [ [ -93.326191415873893, 46.709514067706202 ], [ -93.326405149067895, 46.709127597329498 ] ] } },
{ "type": "Feature", "properties": { "wmUplineSo": "BIG SANDY", "wmType": "Underground" }, "geometry": { "type": "LineString", "coordinates": [ [ -93.308351607784303, 46.717799559003197 ], [ -93.308351631568996, 46.717803734284502 ] ] } },
{ "type": "Feature", "properties": { "wmUplineSo": "BIG SANDY", "wmType": "Underground" }, "geometry": { "type": "LineString", "coordinates": [ [ -93.308351661928995, 46.717809063843298 ], [ -93.3083516855136, 46.717813204002397 ] ] } },
{ "type": "Feature", "properties": { "wmUplineSo": "BIG SANDY", "wmType": "Underground" }, "geometry": { "type": "LineString", "coordinates": [ [ -93.308351631568996, 46.717803734284502 ], [ -93.308351661928995, 46.717809063843298 ] ] } },
{ "type": "Feature", "properties": { "wmUplineSo": "BIG SANDY", "wmType": "Underground" }, "geometry": { "type": "LineString", "coordinates": [ [ -93.308351631568996, 46.717803734284502 ], [ -93.308359723782203, 46.717803712479203 ] ] } },
{ "type": "Feature", "properties": { "wmUplineSo": "BIG SANDY", "wmType": "Underground" }, "geometry": { "type": "LineString", "coordinates": [ [ -93.308359723782203, 46.717803712479203 ], [ -93.308359678427195, 46.717799644176402 ] ] } },
{ "type": "Feature", "properties": { "wmUplineSo": "BIG SANDY", "wmType": "Underground" }, "geometry": { "type": "LineString", "coordinates": [ [ -93.324648451845704, 46.730565959530402 ], [ -93.3243668339409, 46.730568008161399 ] ] } },
{ "type": "Feature", "properties": { "wmUplineSo": "BIG SANDY", "wmType": "Underground" }, "geometry": { "type": "LineString", "coordinates": [ [ -93.3243668339409, 46.730568008161399 ], [ -93.324312174124103, 46.7304010038131 ] ] } },
{ "type": "Feature", "properties": { "wmUplineSo": "BIG SANDY", "wmType": "Underground" }, "geometry": { "type": "LineString", "coordinates": [ [ -93.324312174124103, 46.7304010038131 ], [ -93.323947440704899, 46.730123643201701 ] ] } },
{ "type": "Feature", "properties": { "wmUplineSo": "BIG SANDY", "wmType": "Underground" }, "geometry": { "type": "LineString", "coordinates": [ [ -93.323947440704899, 46.730123643201701 ], [ -93.324049111767593, 46.729988690954102 ] ] } },
{ "type": "Feature", "properties": { "wmUplineSo": "BIG SANDY", "wmType": "Underground" }, "geometry": { "type": "LineString", "coordinates": [ [ -93.324049111767593, 46.729988690954102 ], [ -93.324178553020403, 46.729769872929303 ] ] } },
{ "type": "Feature", "properties": { "wmUplineSo": "BIG SANDY", "wmType": "Underground" }, "geometry": { "type": "LineString", "coordinates": [ [ -93.324178553020403, 46.729769872929303 ], [ -93.324147676652601, 46.729777101471598 ] ] } },
{ "type": "Feature", "properties": { "wmUplineSo": "BIG SANDY", "wmType": "Underground" }, "geometry": { "type": "LineString", "coordinates": [ [ -93.3243668339409, 46.730568008161399 ], [ -93.322815286823101, 46.730524270061899 ] ] } },
{ "type": "Feature", "properties": { "wmUplineSo": "BIG SANDY", "wmType": "Underground" }, "geometry": { "type": "LineString", "coordinates": [ [ -93.326405149067895, 46.709127597329498 ], [ -93.326370468469094, 46.709137352036699 ] ] } },
{ "type": "Feature", "properties": { "wmUplineSo": "BIG SANDY", "wmType": "Underground" }, "geometry": { "type": "LineString", "coordinates": [ [ -93.308185249719699, 46.717221014804302 ], [ -93.308842400000103, 46.717133100008397 ] ] } },
{ "type": "Feature", "properties": { "wmUplineSo": "BIG SANDY", "wmType": "Underground" }, "geometry": { "type": "LineString", "coordinates": [ [ -93.306715587883602, 46.717417778855904 ], [ -93.306584238649407, 46.7172728780697 ] ] } },
{ "type": "Feature", "properties": { "wmUplineSo": "BIG SANDY", "wmType": "Underground" }, "geometry": { "type": "LineString", "coordinates": [ [ -93.306715587883602, 46.717417778855904 ], [ -93.306939400000104, 46.717526000008398 ] ] } },
{ "type": "Feature", "properties": { "wmUplineSo": "BIG SANDY", "wmType": "Underground" }, "geometry": { "type": "LineString", "coordinates": [ [ -93.308007000017696, 46.717319003484 ], [ -93.306736843578406, 46.717418822565499 ] ] } },
{ "type": "Feature", "properties": { "wmUplineSo": "BIG SANDY", "wmType": "Underground" }, "geometry": { "type": "LineString", "coordinates": [ [ -93.308007000017696, 46.717319003484 ], [ -93.307992000017805, 46.717307003484002 ] ] } },
{ "type": "Feature", "properties": { "wmUplineSo": "BIG SANDY", "wmType": "Underground" }, "geometry": { "type": "LineString", "coordinates": [ [ -93.308573660402999, 46.717888921667303 ], [ -93.308562985763004, 46.717325502792001 ] ] } },
{ "type": "Feature", "properties": { "wmUplineSo": "BIG SANDY", "wmType": "Underground" }, "geometry": { "type": "LineString", "coordinates": [ [ -93.308351267051506, 46.7177532022965 ], [ -93.308351581345704, 46.717794917836898 ] ] } },
{ "type": "Feature", "properties": { "wmUplineSo": "BIG SANDY", "wmType": "Underground" }, "geometry": { "type": "LineString", "coordinates": [ [ -93.326370468469094, 46.709137352036699 ], [ -93.326353421183299, 46.7091234506807 ] ] } },
{ "type": "Feature", "properties": { "wmUplineSo": "BIG SANDY", "wmType": "Underground" }, "geometry": { "type": "LineString", "coordinates": [ [ -93.309785431656707, 46.718385295464302 ], [ -93.309774496166696, 46.718402009023798 ] ] } },
{ "type": "Feature", "properties": { "wmUplineSo": "BIG SANDY", "wmType": "Underground" }, "geometry": { "type": "LineString", "coordinates": [ [ -93.3257154541689, 46.709902147835102 ], [ -93.325676959709995, 46.709965402982803 ] ] } },
{ "type": "Feature", "properties": { "wmUplineSo": "BIG SANDY", "wmType": "Underground" }, "geometry": { "type": "LineString", "coordinates": [ [ -93.328182251974994, 46.712104729047901 ], [ -93.328199123891295, 46.711902138259497 ] ] } },
{ "type": "Feature", "properties": { "wmUplineSo": "BIG SANDY", "wmType": "Underground" }, "geometry": { "type": "LineString", "coordinates": [ [ -93.308360448671394, 46.717885201398303 ], [ -93.308573660402999, 46.717888921667303 ] ] } },
{ "type": "Feature", "properties": { "wmUplineSo": "BIG SANDY", "wmType": "Underground" }, "geometry": { "type": "LineString", "coordinates": [ [ -93.306736843578406, 46.717418822565499 ], [ -93.306490688393097, 46.717457705677496 ] ] } },
{ "type": "Feature", "properties": { "wmUplineSo": "BIG SANDY", "wmType": "Underground" }, "geometry": { "type": "LineString", "coordinates": [ [ -93.307992000017805, 46.717307003484002 ], [ -93.308185249719699, 46.717221014804302 ] ] } },
{ "type": "Feature", "properties": { "wmUplineSo": "BIG SANDY", "wmType": "Underground" }, "geometry": { "type": "LineString", "coordinates": [ [ -93.336217018156404, 46.711317490744598 ], [ -93.337172478865597, 46.710900464399103 ] ] } },
{ "type": "Feature", "properties": { "wmUplineSo": "BIG SANDY", "wmType": "Underground" }, "geometry": { "type": "LineString", "coordinates": [ [ -93.337172478865597, 46.710900464399103 ], [ -93.336821432677098, 46.7108302102924 ] ] } },
{ "type": "Feature", "properties": { "wmUplineSo": "BIG SANDY", "wmType": "Underground" }, "geometry": { "type": "LineString", "coordinates": [ [ -93.336821432677098, 46.7108302102924 ], [ -93.336595, 46.710799000000101 ] ] } },
{ "type": "Feature", "properties": { "wmUplineSo": "BIG SANDY", "wmType": "Underground" }, "geometry": { "type": "LineString", "coordinates": [ [ -93.336595, 46.710799000000101 ], [ -93.336441, 46.710704 ] ] } },
{ "type": "Feature", "properties": { "wmUplineSo": "BIG SANDY", "wmType": "Underground" }, "geometry": { "type": "LineString", "coordinates": [ [ -93.336441, 46.710704 ], [ -93.33638, 46.710591999999899 ] ] } },
{ "type": "Feature", "properties": { "wmUplineSo": "BIG SANDY", "wmType": "Underground" }, "geometry": { "type": "LineString", "coordinates": [ [ -93.33638, 46.710591999999899 ], [ -93.33639, 46.710465 ] ] } },
{ "type": "Feature", "properties": { "wmUplineSo": "BIG SANDY", "wmType": "Underground" }, "geometry": { "type": "LineString", "coordinates": [ [ -93.33639, 46.710465 ], [ -93.336356, 46.710323000000102 ] ] } },
{ "type": "Feature", "properties": { "wmUplineSo": "BIG SANDY", "wmType": "Underground" }, "geometry": { "type": "LineString", "coordinates": [ [ -93.336356, 46.710323000000102 ], [ -93.336139130014104, 46.709858864344604 ] ] } },
{ "type": "Feature", "properties": { "wmUplineSo": "BIG SANDY", "wmType": "Underground" }, "geometry": { "type": "LineString", "coordinates": [ [ -93.336139130014104, 46.709858864344604 ], [ -93.3361203772143, 46.709841469596199 ] ] } },
{ "type": "Feature", "properties": { "wmUplineSo": "BIG SANDY", "wmType": "Underground" }, "geometry": { "type": "LineString", "coordinates": [ [ -93.305639358224397, 46.715773973785801 ], [ -93.3057083632673, 46.715800347379499 ] ] } },
{ "type": "Feature", "properties": { "wmUplineSo": "BIG SANDY", "wmType": "Underground" }, "geometry": { "type": "LineString", "coordinates": [ [ -93.336139130014104, 46.709858864344604 ], [ -93.3361203772143, 46.709841469596199 ] ] } },
{ "type": "Feature", "properties": { "wmUplineSo": "BIG SANDY", "wmType": "Underground" }, "geometry": { "type": "LineString", "coordinates": [ [ -93.331237055229593, 46.715027688488099 ], [ -93.331416123344098, 46.7148526454408 ] ] } },
{ "type": "Feature", "properties": { "wmUplineSo": "BIG SANDY", "wmType": "Underground" }, "geometry": { "type": "LineString", "coordinates": [ [ -93.337172478865597, 46.710900464399103 ], [ -93.337464292536694, 46.710984270820099 ] ] } },
{ "type": "Feature", "properties": { "wmUplineSo": "BIG SANDY", "wmType": "Underground" }, "geometry": { "type": "LineString", "coordinates": [ [ -93.330321063074294, 46.719912039777803 ], [ -93.330644631579901, 46.719790586530401 ] ] } },
{ "type": "Feature", "properties": { "wmUplineSo": "BIG SANDY", "wmType": "Underground" }, "geometry": { "type": "LineString", "coordinates": [ [ -93.321465709584402, 46.730608193574902 ], [ -93.321610079521406, 46.730684707363601 ] ] } },
{ "type": "Feature", "properties": { "wmUplineSo": "BIG SANDY", "wmType": "Underground" }, "geometry": { "type": "LineString", "coordinates": [ [ -93.305574941280597, 46.7158394607495 ], [ -93.3053506, 46.715982300008399 ] ] } },
{ "type": "Feature", "properties": { "wmUplineSo": "BIG SANDY", "wmType": "Underground" }, "geometry": { "type": "LineString", "coordinates": [ [ -93.324544445730396, 46.7307249465429 ], [ -93.324363252857694, 46.730779519303802 ] ] } },
{ "type": "Feature", "properties": { "wmUplineSo": "BIG SANDY", "wmType": "Underground" }, "geometry": { "type": "LineString", "coordinates": [ [ -93.326866930696497, 46.731014197652897 ], [ -93.326793085057503, 46.731144895286398 ] ] } },
{ "type": "Feature", "properties": { "wmUplineSo": "BIG SANDY", "wmType": "Underground" }, "geometry": { "type": "LineString", "coordinates": [ [ -93.3257154541689, 46.709902147835102 ], [ -93.325649862791394, 46.709954203788598 ] ] } },
{ "type": "Feature", "properties": { "wmUplineSo": "BIG SANDY", "wmType": "Underground" }, "geometry": { "type": "LineString", "coordinates": [ [ -93.328075738404394, 46.709315146717501 ], [ -93.328232675928106, 46.708789892350801 ] ] } },
{ "type": "Feature", "properties": { "wmUplineSo": "BIG SANDY", "wmType": "Underground" }, "geometry": { "type": "LineString", "coordinates": [ [ -93.316885761842997, 46.712043803644001 ], [ -93.317012483506304, 46.711768318413398 ] ] } },
{ "type": "Feature", "properties": { "wmUplineSo": "BIG SANDY", "wmType": "Underground" }, "geometry": { "type": "LineString", "coordinates": [ [ -93.311719823663196, 46.714374501965402 ], [ -93.312421194785799, 46.714649829048398 ] ] } },
{ "type": "Feature", "properties": { "wmUplineSo": "BIG SANDY", "wmType": "Underground" }, "geometry": { "type": "LineString", "coordinates": [ [ -93.311719823663196, 46.714374501965402 ], [ -93.311983632282704, 46.714270848629099 ] ] } },
{ "type": "Feature", "properties": { "wmUplineSo": "BIG SANDY", "wmType": "Underground" }, "geometry": { "type": "LineString", "coordinates": [ [ -93.311906774964001, 46.715239251393101 ], [ -93.311963297460295, 46.715252130103501 ] ] } },
{ "type": "Feature", "properties": { "wmUplineSo": "BIG SANDY", "wmType": "Underground" }, "geometry": { "type": "LineString", "coordinates": [ [ -93.311643142561607, 46.716349538284 ], [ -93.311773202487402, 46.7162981305271 ] ] } },
{ "type": "Feature", "properties": { "wmUplineSo": "BIG SANDY", "wmType": "Underground" }, "geometry": { "type": "LineString", "coordinates": [ [ -93.311643142561607, 46.716349538284 ], [ -93.311667302805901, 46.7163764307722 ] ] } },
{ "type": "Feature", "properties": { "wmUplineSo": "BIG SANDY", "wmType": "Underground" }, "geometry": { "type": "LineString", "coordinates": [ [ -93.310573175595295, 46.716494851232298 ], [ -93.309904575381594, 46.716639683605898 ] ] } },
{ "type": "Feature", "properties": { "wmUplineSo": "BIG SANDY", "wmType": "Underground" }, "geometry": { "type": "LineString", "coordinates": [ [ -93.312637998156404, 46.710066062992297 ], [ -93.312683772482899, 46.710082928519597 ] ] } },
{ "type": "Feature", "properties": { "wmUplineSo": "BIG SANDY", "wmType": "Underground" }, "geometry": { "type": "LineString", "coordinates": [ [ -93.3177320444278, 46.715024227581303 ], [ -93.317803199731998, 46.7149646165145 ] ] } },
{ "type": "Feature", "properties": { "wmUplineSo": "BIG SANDY", "wmType": "Underground" }, "geometry": { "type": "LineString", "coordinates": [ [ -93.318721554842995, 46.711526549746701 ], [ -93.318711783301794, 46.711508814462597 ] ] } },
{ "type": "Feature", "properties": { "wmUplineSo": "BIG SANDY", "wmType": "Underground" }, "geometry": { "type": "LineString", "coordinates": [ [ -93.329060197112895, 46.713418668508901 ], [ -93.3290059178305, 46.713485075037802 ] ] } },
{ "type": "Feature", "properties": { "wmUplineSo": "BIG SANDY", "wmType": "Underground" }, "geometry": { "type": "LineString", "coordinates": [ [ -93.307992000017805, 46.717307003484002 ], [ -93.308037267533393, 46.717337167077801 ] ] } },
{ "type": "Feature", "properties": { "wmUplineSo": "BIG SANDY", "wmType": "Underground" }, "geometry": { "type": "LineString", "coordinates": [ [ -93.306736843578406, 46.717418822565499 ], [ -93.306715587883602, 46.717417778855904 ] ] } },
{ "type": "Feature", "properties": { "wmUplineSo": "BIG SANDY", "wmType": "Underground" }, "geometry": { "type": "LineString", "coordinates": [ [ -93.316597114892303, 46.710044247350297 ], [ -93.316502155261503, 46.710236519801803 ] ] } },
{ "type": "Feature", "properties": { "wmUplineSo": "BIG SANDY", "wmType": "Underground" }, "geometry": { "type": "LineString", "coordinates": [ [ -93.325773233122803, 46.7098561811165 ], [ -93.3257154541689, 46.709902147835102 ] ] } },
{ "type": "Feature", "properties": { "wmUplineSo": "BIG SANDY", "wmType": "Underground" }, "geometry": { "type": "LineString", "coordinates": [ [ -93.309785431656707, 46.718385295464302 ], [ -93.310023111865604, 46.718428434562803 ] ] } },
{ "type": "Feature", "properties": { "wmUplineSo": "BIG SANDY", "wmType": "Underground" }, "geometry": { "type": "LineString", "coordinates": [ [ -93.308562985763004, 46.717325502792001 ], [ -93.308007000017696, 46.717319003484 ] ] } },
{ "type": "Feature", "properties": { "wmUplineSo": "BIG SANDY", "wmType": "Underground" }, "geometry": { "type": "LineString", "coordinates": [ [ -93.3083516855136, 46.717813204002397 ], [ -93.308360448671394, 46.717885201398303 ] ] } },
{ "type": "Feature", "properties": { "wmUplineSo": "BIG SANDY", "wmType": "Underground" }, "geometry": { "type": "LineString", "coordinates": [ [ -93.306490688393097, 46.717457705677496 ], [ -93.306028665453695, 46.7175490029556 ] ] } },
{ "type": "Feature", "properties": { "wmUplineSo": "BIG SANDY", "wmType": "Underground" }, "geometry": { "type": "LineString", "coordinates": [ [ -93.305474258209699, 46.717540343182598 ], [ -93.305366263243698, 46.717535834946197 ] ] } },
{ "type": "Feature", "properties": { "wmUplineSo": "BIG SANDY", "wmType": "Underground" }, "geometry": { "type": "LineString", "coordinates": [ [ -93.308351581345704, 46.717794917836898 ], [ -93.308351607784303, 46.717799559003197 ] ] } },
{ "type": "Feature", "properties": { "wmUplineSo": "BIG SANDY", "wmType": "Underground" }, "geometry": { "type": "LineString", "coordinates": [ [ -93.306028665453695, 46.7175490029556 ], [ -93.305474258209699, 46.717540343182598 ] ] } },
{ "type": "Feature", "properties": { "wmUplineSo": "BIG SANDY", "wmType": "Underground" }, "geometry": { "type": "LineString", "coordinates": [ [ -93.321450787986507, 46.730470409013698 ], [ -93.321465709584402, 46.730608193574902 ] ] } },
{ "type": "Feature", "properties": { "wmUplineSo": "BIG SANDY", "wmType": "Underground" }, "geometry": { "type": "LineString", "coordinates": [ [ -93.322815286823101, 46.730524270061899 ], [ -93.321450787986507, 46.730470409013698 ] ] } },
{ "type": "Feature", "properties": { "wmUplineSo": "BIG SANDY", "wmType": "Underground" }, "geometry": { "type": "LineString", "coordinates": [ [ -93.321450787986507, 46.730470409013698 ], [ -93.320392339002197, 46.7303915289286 ] ] } },
{ "type": "Feature", "properties": { "wmUplineSo": "BIG SANDY", "wmType": "Underground" }, "geometry": { "type": "LineString", "coordinates": [ [ -93.3057083632673, 46.715800347379499 ], [ -93.305574941280597, 46.7158394607495 ] ] } },
{ "type": "Feature", "properties": { "wmUplineSo": "BIG SANDY", "wmType": "Underground" }, "geometry": { "type": "LineString", "coordinates": [ [ -93.324648451845704, 46.730565959530402 ], [ -93.324544445730396, 46.7307249465429 ] ] } },
{ "type": "Feature", "properties": { "wmUplineSo": "BIG SANDY", "wmType": "Underground" }, "geometry": { "type": "LineString", "coordinates": [ [ -93.328395420264798, 46.711019794952101 ], [ -93.330318637709198, 46.711215589939698 ], [ -93.331685973755498, 46.711805551068302 ], [ -93.333207679748099, 46.711865325284897 ], [ -93.335134206661095, 46.712547213503598 ], [ -93.336217018156404, 46.711317490744598 ] ] } },
{ "type": "Feature", "properties": { "wmUplineSo": "BIG SANDY", "wmType": "Underground" }, "geometry": { "type": "LineString", "coordinates": [ [ -93.327848641153096, 46.710220376797402 ], [ -93.327883970772902, 46.709964009178798 ], [ -93.327978751455504, 46.709643307757602 ], [ -93.328039517055501, 46.709437705280997 ], [ -93.328075738404394, 46.709315146717501 ] ] } },
{ "type": "Feature", "properties": { "wmUplineSo": "BIG SANDY", "wmType": "Underground" }, "geometry": { "type": "LineString", "coordinates": [ [ -93.316097920155698, 46.712280120320102 ], [ -93.316885761842997, 46.712043803644001 ] ] } },
{ "type": "Feature", "properties": { "wmUplineSo": "BIG SANDY", "wmType": "Underground" }, "geometry": { "type": "LineString", "coordinates": [ [ -93.3104619974104, 46.715262212163303 ], [ -93.311906774964001, 46.715239251393101 ] ] } },
{ "type": "Feature", "properties": { "wmUplineSo": "BIG SANDY", "wmType": "Underground" }, "geometry": { "type": "LineString", "coordinates": [ [ -93.310375675530693, 46.714515458387503 ], [ -93.311719823663196, 46.714374501965402 ] ] } },
{ "type": "Feature", "properties": { "wmUplineSo": "BIG SANDY", "wmType": "Underground" }, "geometry": { "type": "LineString", "coordinates": [ [ -93.310537703779701, 46.716201115542198 ], [ -93.311643142561607, 46.716349538284 ] ] } },
{ "type": "Feature", "properties": { "wmUplineSo": "BIG SANDY", "wmType": "Underground" }, "geometry": { "type": "LineString", "coordinates": [ [ -93.310885766645896, 46.717253605271203 ], [ -93.311763281448606, 46.717240113060697 ] ] } },
{ "type": "Feature", "properties": { "wmUplineSo": "BIG SANDY", "wmType": "Underground" }, "geometry": { "type": "LineString", "coordinates": [ [ -93.330067672526496, 46.719951721773903 ], [ -93.330321063074294, 46.719912039777803 ] ] } },
{ "type": "Feature", "properties": { "wmUplineSo": "BIG SANDY", "wmType": "Underground" }, "geometry": { "type": "LineString", "coordinates": [ [ -93.311985638399094, 46.709837128884097 ], [ -93.312637998156404, 46.710066062992297 ], [ -93.312637998156404, 46.710066062992297 ] ] } },
{ "type": "Feature", "properties": { "wmUplineSo": "BIG SANDY", "wmType": "Underground" }, "geometry": { "type": "LineString", "coordinates": [ [ -93.327878053583106, 46.711001080841299 ], [ -93.327871233520696, 46.710691415971901 ], [ -93.327848641153096, 46.710220376797402 ] ] } },
{ "type": "Feature", "properties": { "wmUplineSo": "BIG SANDY", "wmType": "Underground" }, "geometry": { "type": "LineString", "coordinates": [ [ -93.327848641153096, 46.710220376797402 ], [ -93.326517843703598, 46.710083729747197 ] ] } },
{ "type": "Feature", "properties": { "wmUplineSo": "BIG SANDY", "wmType": "Underground" }, "geometry": { "type": "LineString", "coordinates": [ [ -93.326517843703598, 46.710083729747197 ], [ -93.326002433925893, 46.709971051613799 ] ] } },
{ "type": "Feature", "properties": { "wmUplineSo": "BIG SANDY", "wmType": "Underground" }, "geometry": { "type": "LineString", "coordinates": [ [ -93.316669940907104, 46.716573719936299 ], [ -93.3168973246229, 46.716171167201097 ], [ -93.317131763169499, 46.715878631927701 ], [ -93.317416966081197, 46.715753400233197 ], [ -93.317614796348806, 46.715600605323999 ], [ -93.3177320444278, 46.715024227581303 ] ] } },
{ "type": "Feature", "properties": { "wmUplineSo": "BIG SANDY", "wmType": "Underground" }, "geometry": { "type": "LineString", "coordinates": [ [ -93.327700799262104, 46.730981224763397 ], [ -93.3276343572646, 46.731012645119399 ] ] } },
{ "type": "Feature", "properties": { "wmUplineSo": "BIG SANDY", "wmType": "Underground" }, "geometry": { "type": "LineString", "coordinates": [ [ -93.3276343572646, 46.731012645119399 ], [ -93.326866930696497, 46.731014197652897 ] ] } },
{ "type": "Feature", "properties": { "wmUplineSo": "BIG SANDY", "wmType": "Underground" }, "geometry": { "type": "LineString", "coordinates": [ [ -93.327724769140403, 46.730650786473497 ], [ -93.327570321342094, 46.730678292770897 ] ] } },
{ "type": "Feature", "properties": { "wmUplineSo": "BIG SANDY", "wmType": "Underground" }, "geometry": { "type": "LineString", "coordinates": [ [ -93.327570321342094, 46.730678292770897 ], [ -93.324648451845704, 46.730565959530402 ] ] } },
{ "type": "Feature", "properties": { "wmUplineSo": "BIG SANDY", "wmType": "Underground" }, "geometry": { "type": "LineString", "coordinates": [ [ -93.328173214764604, 46.713321029254502 ], [ -93.328220506531906, 46.713314896771301 ] ] } },
{ "type": "Feature", "properties": { "wmUplineSo": "BIG SANDY", "wmType": "Underground" }, "geometry": { "type": "LineString", "coordinates": [ [ -93.328220506531906, 46.713314896771301 ], [ -93.329060197112895, 46.713418668508901 ] ] } },
{ "type": "Feature", "properties": { "wmUplineSo": "BIG SANDY", "wmType": "Underground" }, "geometry": { "type": "LineString", "coordinates": [ [ -93.329268556386694, 46.715979906057697 ], [ -93.329784647951001, 46.715905997012001 ] ] } },
{ "type": "Feature", "properties": { "wmUplineSo": "BIG SANDY", "wmType": "Underground" }, "geometry": { "type": "LineString", "coordinates": [ [ -93.329784647951001, 46.715905997012001 ], [ -93.330307468196196, 46.715688810232798 ], [ -93.330653437418107, 46.715491627704601 ], [ -93.331237055229593, 46.715027688488099 ] ] } },
{ "type": "Feature", "properties": { "wmUplineSo": "BIG SANDY", "wmType": "Underground" }, "geometry": { "type": "LineString", "coordinates": [ [ -93.305474258209699, 46.717540343182598 ], [ -93.305453000114596, 46.7175585637399 ] ] } },
{ "type": "Feature", "properties": { "wmUplineSo": "BIG SANDY", "wmType": "Underground" }, "geometry": { "type": "LineString", "coordinates": [ [ -93.307992000017805, 46.717307003484002 ], [ -93.308004287408593, 46.717181188656397 ] ] } },
{ "type": "Feature", "properties": { "wmUplineSo": "BIG SANDY", "wmType": "Underground" }, "geometry": { "type": "LineString", "coordinates": [ [ -93.309785431656707, 46.718385295464302 ], [ -93.310086511748196, 46.718396434415702 ] ] } },
{ "type": "Feature", "properties": { "wmUplineSo": "BIG SANDY", "wmType": "Underground" }, "geometry": { "type": "LineString", "coordinates": [ [ -93.309648422615396, 46.718559540044303 ], [ -93.3094880150704, 46.718720483794201 ] ] } },
{ "type": "Feature", "properties": { "wmUplineSo": "BIG SANDY", "wmType": "Underground" }, "geometry": { "type": "LineString", "coordinates": [ [ -93.325863735824598, 46.709824940515901 ], [ -93.325859381536205, 46.709812918770503 ], [ -93.325829073061996, 46.709797919021497 ], [ -93.325772415907494, 46.709853712540898 ], [ -93.325773233122803, 46.7098561811165 ] ] } },
{ "type": "Feature", "properties": { "wmUplineSo": "BIG SANDY", "wmType": "Underground" }, "geometry": { "type": "LineString", "coordinates": [ [ -93.328737887132803, 46.712076181997801 ], [ -93.32876, 46.712036 ] ] } },
{ "type": "Feature", "properties": { "wmUplineSo": "BIG SANDY", "wmType": "Underground" }, "geometry": { "type": "LineString", "coordinates": [ [ -93.32876, 46.712036 ], [ -93.328785, 46.711938000000103 ] ] } },
{ "type": "Feature", "properties": { "wmUplineSo": "BIG SANDY", "wmType": "Underground" }, "geometry": { "type": "LineString", "coordinates": [ [ -93.328785, 46.711938000000103 ], [ -93.328961, 46.711765 ] ] } },
{ "type": "Feature", "properties": { "wmUplineSo": "BIG SANDY", "wmType": "Underground" }, "geometry": { "type": "LineString", "coordinates": [ [ -93.328961, 46.711765 ], [ -93.328969, 46.7117480000001 ] ] } },
{ "type": "Feature", "properties": { "wmUplineSo": "BIG SANDY", "wmType": "Underground" }, "geometry": { "type": "LineString", "coordinates": [ [ -93.326002433925893, 46.709971051613799 ], [ -93.325872356646599, 46.709872403177101 ] ] } },
{ "type": "Feature", "properties": { "wmUplineSo": "BIG SANDY", "wmType": "Underground" }, "geometry": { "type": "LineString", "coordinates": [ [ -93.3282352285174, 46.711640050161101 ], [ -93.328286332115198, 46.7112609768349 ] ] } }
]
}
