{
"type": "FeatureCollection",
"crs": { "type": "name", "properties": { "name": "urn:ogc:def:crs:OGC:1.3:CRS84" } },
"features": [
{ "type": "Feature", "properties": { "wmUplineSo": "BIG SANDY", "wmType": "Overhead" }, "geometry": { "type": "LineString", "coordinates": [ [ -93.318721554842995, 46.711526549746701 ], [ -93.318711283305404, 46.711509614463701 ] ] } },
{ "type": "Feature", "properties": { "wmUplineSo": "BIG SANDY", "wmType": "Overhead" }, "geometry": { "type": "LineString", "coordinates": [ [ -93.311868335214498, 46.715770284489501 ], [ -93.312162500278205, 46.715799229629901 ] ] } },
{ "type": "Feature", "properties": { "wmUplineSo": "BIG SANDY", "wmType": "Overhead" }, "geometry": { "type": "LineString", "coordinates": [ [ -93.3277511737015, 46.727959522507099 ], [ -93.328829656514799, 46.727993874215599 ] ] } },
{ "type": "Feature", "properties": { "wmUplineSo": "BIG SANDY", "wmType": "Overhead" }, "geometry": { "type": "LineString", "coordinates": [ [ -93.306311119404597, 46.7109050526064 ], [ -93.306577861455395, 46.710206376327299 ] ] } },
{ "type": "Feature", "properties": { "wmUplineSo": "BIG SANDY", "wmType": "Overhead" }, "geometry": { "type": "LineString", "coordinates": [ [ -93.311805894042706, 46.710851667618002 ], [ -93.3122455034963, 46.710881339196497 ] ] } },
{ "type": "Feature", "properties": { "wmUplineSo": "BIG SANDY", "wmType": "Overhead" }, "geometry": { "type": "LineString", "coordinates": [ [ -93.328829656514799, 46.727993874215599 ], [ -93.330302226962701, 46.7280412941194 ] ] } },
{ "type": "Feature", "properties": { "wmUplineSo": "BIG SANDY", "wmType": "Overhead" }, "geometry": { "type": "LineString", "coordinates": [ [ -93.334332658412393, 46.728675361109303 ], [ -93.334078183621898, 46.728957828333698 ] ] } },
{ "type": "Feature", "properties": { "wmUplineSo": "BIG SANDY", "wmType": "Overhead" }, "geometry": { "type": "LineString", "coordinates": [ [ -93.328125447710406, 46.713693393642203 ], [ -93.328152588122805, 46.713710753468298 ] ] } },
{ "type": "Feature", "properties": { "wmUplineSo": "BIG SANDY", "wmType": "Overhead" }, "geometry": { "type": "LineString", "coordinates": [ [ -93.315211114975995, 46.710016879257601 ], [ -93.315357287129402, 46.710385589462099 ] ] } },
{ "type": "Feature", "properties": { "wmUplineSo": "BIG SANDY", "wmType": "Overhead" }, "geometry": { "type": "LineString", "coordinates": [ [ -93.330302226962701, 46.7280412941194 ], [ -93.3315053825973, 46.728238604667197 ] ] } },
{ "type": "Feature", "properties": { "wmUplineSo": "BIG SANDY", "wmType": "Overhead" }, "geometry": { "type": "LineString", "coordinates": [ [ -93.3315053825973, 46.728238604667197 ], [ -93.3328103142819, 46.7284358218606 ] ] } },
{ "type": "Feature", "properties": { "wmUplineSo": "BIG SANDY", "wmType": "Overhead" }, "geometry": { "type": "LineString", "coordinates": [ [ -93.315783820543302, 46.715357611176501 ], [ -93.315192635672304, 46.715456351018901 ] ] } },
{ "type": "Feature", "properties": { "wmUplineSo": "BIG SANDY", "wmType": "Overhead" }, "geometry": { "type": "LineString", "coordinates": [ [ -93.315783820543302, 46.715357611176501 ], [ -93.315709503638203, 46.716012102357801 ] ] } },
{ "type": "Feature", "properties": { "wmUplineSo": "BIG SANDY", "wmType": "Overhead" }, "geometry": { "type": "LineString", "coordinates": [ [ -93.3057083632673, 46.715800347379499 ], [ -93.306015570373603, 46.715898954862801 ] ] } },
{ "type": "Feature", "properties": { "wmUplineSo": "BIG SANDY", "wmType": "Overhead" }, "geometry": { "type": "LineString", "coordinates": [ [ -93.306015570373603, 46.715898954862801 ], [ -93.306529337645202, 46.715959311207897 ] ] } },
{ "type": "Feature", "properties": { "wmUplineSo": "BIG SANDY", "wmType": "Overhead" }, "geometry": { "type": "LineString", "coordinates": [ [ -93.306311677448207, 46.711636868122703 ], [ -93.306311119404597, 46.7109050526064 ] ] } },
{ "type": "Feature", "properties": { "wmUplineSo": "BIG SANDY", "wmType": "Overhead" }, "geometry": { "type": "LineString", "coordinates": [ [ -93.328182251974994, 46.712104729047901 ], [ -93.328737887132803, 46.712076181997801 ] ] } },
{ "type": "Feature", "properties": { "wmUplineSo": "BIG SANDY", "wmType": "Overhead" }, "geometry": { "type": "LineString", "coordinates": [ [ -93.315937012407204, 46.714227676991399 ], [ -93.315391394284106, 46.714236692708397 ] ] } },
{ "type": "Feature", "properties": { "wmUplineSo": "BIG SANDY", "wmType": "Overhead" }, "geometry": { "type": "LineString", "coordinates": [ [ -93.316097857240095, 46.713607502430499 ], [ -93.316583292732801, 46.713698619377197 ] ] } },
{ "type": "Feature", "properties": { "wmUplineSo": "BIG SANDY", "wmType": "Overhead" }, "geometry": { "type": "LineString", "coordinates": [ [ -93.316097857240095, 46.713607502430499 ], [ -93.315736991176706, 46.713490921351003 ] ] } },
{ "type": "Feature", "properties": { "wmUplineSo": "BIG SANDY", "wmType": "Overhead" }, "geometry": { "type": "LineString", "coordinates": [ [ -93.311601257789306, 46.710590839595099 ], [ -93.3122871750424, 46.710654129432498 ] ] } },
{ "type": "Feature", "properties": { "wmUplineSo": "BIG SANDY", "wmType": "Overhead" }, "geometry": { "type": "LineString", "coordinates": [ [ -93.305745784695503, 46.715051083850497 ], [ -93.306866366654603, 46.715119316101202 ] ] } },
{ "type": "Feature", "properties": { "wmUplineSo": "BIG SANDY", "wmType": "Overhead" }, "geometry": { "type": "LineString", "coordinates": [ [ -93.310573175595295, 46.716494851232298 ], [ -93.310589998682204, 46.716748994319303 ] ] } },
{ "type": "Feature", "properties": { "wmUplineSo": "BIG SANDY", "wmType": "Overhead" }, "geometry": { "type": "LineString", "coordinates": [ [ -93.311209882363599, 46.7169982933409 ], [ -93.312117068522596, 46.717031669550799 ] ] } },
{ "type": "Feature", "properties": { "wmUplineSo": "BIG SANDY", "wmType": "Overhead" }, "geometry": { "type": "LineString", "coordinates": [ [ -93.310648907565096, 46.717293533280397 ], [ -93.310119300670095, 46.717747068383197 ] ] } },
{ "type": "Feature", "properties": { "wmUplineSo": "BIG SANDY", "wmType": "Overhead" }, "geometry": { "type": "LineString", "coordinates": [ [ -93.310610982732896, 46.716909649051402 ], [ -93.310648907565096, 46.717293533280397 ] ] } },
{ "type": "Feature", "properties": { "wmUplineSo": "BIG SANDY", "wmType": "Overhead" }, "geometry": { "type": "LineString", "coordinates": [ [ -93.310876167360306, 46.712727814482697 ], [ -93.310320038369994, 46.713669201964898 ] ] } },
{ "type": "Feature", "properties": { "wmUplineSo": "BIG SANDY", "wmType": "Overhead" }, "geometry": { "type": "LineString", "coordinates": [ [ -93.310320038369994, 46.713669201964898 ], [ -93.311734648482997, 46.713521261926402 ] ] } },
{ "type": "Feature", "properties": { "wmUplineSo": "BIG SANDY", "wmType": "Overhead" }, "geometry": { "type": "LineString", "coordinates": [ [ -93.310375675530693, 46.714515458387503 ], [ -93.3104619974104, 46.715262212163303 ] ] } },
{ "type": "Feature", "properties": { "wmUplineSo": "BIG SANDY", "wmType": "Overhead" }, "geometry": { "type": "LineString", "coordinates": [ [ -93.310320038369994, 46.713669201964898 ], [ -93.310375675530693, 46.714515458387503 ] ] } },
{ "type": "Feature", "properties": { "wmUplineSo": "BIG SANDY", "wmType": "Overhead" }, "geometry": { "type": "LineString", "coordinates": [ [ -93.3104619974104, 46.715262212163303 ], [ -93.310505005961602, 46.715671648553503 ] ] } },
{ "type": "Feature", "properties": { "wmUplineSo": "BIG SANDY", "wmType": "Overhead" }, "geometry": { "type": "LineString", "coordinates": [ [ -93.310505005961602, 46.715671648553503 ], [ -93.310866386012407, 46.715736423726497 ] ] } },
{ "type": "Feature", "properties": { "wmUplineSo": "BIG SANDY", "wmType": "Overhead" }, "geometry": { "type": "LineString", "coordinates": [ [ -93.310505005961602, 46.715671648553503 ], [ -93.310537703779701, 46.716201115542198 ] ] } },
{ "type": "Feature", "properties": { "wmUplineSo": "BIG SANDY", "wmType": "Overhead" }, "geometry": { "type": "LineString", "coordinates": [ [ -93.310537703779701, 46.716201115542198 ], [ -93.310573175595295, 46.716494851232298 ] ] } },
{ "type": "Feature", "properties": { "wmUplineSo": "BIG SANDY", "wmType": "Overhead" }, "geometry": { "type": "LineString", "coordinates": [ [ -93.327622932040896, 46.735861931184402 ], [ -93.328492231863706, 46.736494740315102 ] ] } },
{ "type": "Feature", "properties": { "wmUplineSo": "BIG SANDY", "wmType": "Overhead" }, "geometry": { "type": "LineString", "coordinates": [ [ -93.327622932040896, 46.735861931184402 ], [ -93.327630905109999, 46.736757934394802 ], [ -93.327318878812804, 46.737524928955203 ], [ -93.326564180098202, 46.737784698307898 ] ] } },
{ "type": "Feature", "properties": { "wmUplineSo": "BIG SANDY", "wmType": "Overhead" }, "geometry": { "type": "LineString", "coordinates": [ [ -93.327700799262104, 46.730981224763397 ], [ -93.327650602704296, 46.7341276222446 ], [ -93.327634666165693, 46.735126485016103 ], [ -93.327622932040896, 46.735861931184402 ] ] } },
{ "type": "Feature", "properties": { "wmUplineSo": "BIG SANDY", "wmType": "Overhead" }, "geometry": { "type": "LineString", "coordinates": [ [ -93.3277511737015, 46.727959522507099 ], [ -93.327727613930193, 46.728874163133298 ] ] } },
{ "type": "Feature", "properties": { "wmUplineSo": "BIG SANDY", "wmType": "Overhead" }, "geometry": { "type": "LineString", "coordinates": [ [ -93.328751269464703, 46.725181924211498 ], [ -93.327914220096901, 46.726526907006303 ], [ -93.327815794262094, 46.727393221292701 ], [ -93.3277511737015, 46.727959522507099 ] ] } },
{ "type": "Feature", "properties": { "wmUplineSo": "BIG SANDY", "wmType": "Overhead" }, "geometry": { "type": "LineString", "coordinates": [ [ -93.329538456765604, 46.719291924689301 ], [ -93.330330692947101, 46.719231725062699 ] ] } },
{ "type": "Feature", "properties": { "wmUplineSo": "BIG SANDY", "wmType": "Overhead" }, "geometry": { "type": "LineString", "coordinates": [ [ -93.329268556386694, 46.715979906057697 ], [ -93.329316673390394, 46.716570393346103 ], [ -93.3293694157977, 46.717217627762601 ], [ -93.3293694157977, 46.717217627762601 ], [ -93.329429244835097, 46.717951807082102 ], [ -93.329492377561095, 46.718726504462701 ], [ -93.329538456765604, 46.719291924689301 ] ] } },
{ "type": "Feature", "properties": { "wmUplineSo": "BIG SANDY", "wmType": "Overhead" }, "geometry": { "type": "LineString", "coordinates": [ [ -93.328326597878799, 46.714316875426498 ], [ -93.329268556386694, 46.715979906057697 ] ] } },
{ "type": "Feature", "properties": { "wmUplineSo": "BIG SANDY", "wmType": "Overhead" }, "geometry": { "type": "LineString", "coordinates": [ [ -93.328152588122805, 46.713710753468298 ], [ -93.328326597878799, 46.714316875426498 ] ] } },
{ "type": "Feature", "properties": { "wmUplineSo": "BIG SANDY", "wmType": "Overhead" }, "geometry": { "type": "LineString", "coordinates": [ [ -93.328737887132803, 46.712076181997801 ], [ -93.328766719014993, 46.712088265195 ] ] } },
{ "type": "Feature", "properties": { "wmUplineSo": "BIG SANDY", "wmType": "Overhead" }, "geometry": { "type": "LineString", "coordinates": [ [ -93.316468996122097, 46.709755585615802 ], [ -93.316024811011303, 46.708826349203598 ] ] } },
{ "type": "Feature", "properties": { "wmUplineSo": "BIG SANDY", "wmType": "Overhead" }, "geometry": { "type": "LineString", "coordinates": [ [ -93.315196141894205, 46.710000719063103 ], [ -93.315211114975995, 46.710016879257601 ] ] } },
{ "type": "Feature", "properties": { "wmUplineSo": "BIG SANDY", "wmType": "Overhead" }, "geometry": { "type": "LineString", "coordinates": [ [ -93.315778979793606, 46.7115138599709 ], [ -93.316097920155698, 46.712280120320102 ] ] } },
{ "type": "Feature", "properties": { "wmUplineSo": "BIG SANDY", "wmType": "Overhead" }, "geometry": { "type": "LineString", "coordinates": [ [ -93.316097920155698, 46.712280120320102 ], [ -93.316293689191895, 46.712690691633902 ] ] } },
{ "type": "Feature", "properties": { "wmUplineSo": "BIG SANDY", "wmType": "Overhead" }, "geometry": { "type": "LineString", "coordinates": [ [ -93.316239282382, 46.713073740641903 ], [ -93.316097857240095, 46.713607502430499 ] ] } },
{ "type": "Feature", "properties": { "wmUplineSo": "BIG SANDY", "wmType": "Overhead" }, "geometry": { "type": "LineString", "coordinates": [ [ -93.316097857240095, 46.713607502430499 ], [ -93.315937012407204, 46.714227676991399 ] ] } },
{ "type": "Feature", "properties": { "wmUplineSo": "BIG SANDY", "wmType": "Overhead" }, "geometry": { "type": "LineString", "coordinates": [ [ -93.311985638399094, 46.709837128884097 ], [ -93.311601257789306, 46.710590839595099 ] ] } },
{ "type": "Feature", "properties": { "wmUplineSo": "BIG SANDY", "wmType": "Overhead" }, "geometry": { "type": "LineString", "coordinates": [ [ -93.311601257789306, 46.710590839595099 ], [ -93.311467024503898, 46.711363319875701 ] ] } },
{ "type": "Feature", "properties": { "wmUplineSo": "BIG SANDY", "wmType": "Overhead" }, "geometry": { "type": "LineString", "coordinates": [ [ -93.311383600655901, 46.711906295909003 ], [ -93.312090690531093, 46.711969265858798 ] ] } },
{ "type": "Feature", "properties": { "wmUplineSo": "BIG SANDY", "wmType": "Overhead" }, "geometry": { "type": "LineString", "coordinates": [ [ -93.311467024503898, 46.711363319875701 ], [ -93.311383600655901, 46.711906295909003 ] ] } },
{ "type": "Feature", "properties": { "wmUplineSo": "BIG SANDY", "wmType": "Overhead" }, "geometry": { "type": "LineString", "coordinates": [ [ -93.311047724487295, 46.712523260258003 ], [ -93.310876167360306, 46.712727814482697 ] ] } },
{ "type": "Feature", "properties": { "wmUplineSo": "BIG SANDY", "wmType": "Overhead" }, "geometry": { "type": "LineString", "coordinates": [ [ -93.315357287129402, 46.710385589462099 ], [ -93.315548644945295, 46.710868269739798 ] ] } },
{ "type": "Feature", "properties": { "wmUplineSo": "BIG SANDY", "wmType": "Overhead" }, "geometry": { "type": "LineString", "coordinates": [ [ -93.329427416705201, 46.719839168562601 ], [ -93.330067672526496, 46.719951721773903 ] ] } },
{ "type": "Feature", "properties": { "wmUplineSo": "BIG SANDY", "wmType": "Overhead" }, "geometry": { "type": "LineString", "coordinates": [ [ -93.329427416705201, 46.719839168562601 ], [ -93.329619400149994, 46.720818714162299 ], [ -93.329541201474399, 46.721622542583503 ], [ -93.329466363795504, 46.7223149331287 ], [ -93.329274409404803, 46.723866255788302 ], [ -93.328919281352796, 46.724842927546099 ] ] } },
{ "type": "Feature", "properties": { "wmUplineSo": "BIG SANDY", "wmType": "Overhead" }, "geometry": { "type": "LineString", "coordinates": [ [ -93.328919281352796, 46.724842927546099 ], [ -93.328751269464703, 46.725181924211498 ] ] } },
{ "type": "Feature", "properties": { "wmUplineSo": "BIG SANDY", "wmType": "Overhead" }, "geometry": { "type": "LineString", "coordinates": [ [ -93.329538456765604, 46.719291924689301 ], [ -93.329427416705201, 46.719839168562601 ] ] } },
{ "type": "Feature", "properties": { "wmUplineSo": "BIG SANDY", "wmType": "Overhead" }, "geometry": { "type": "LineString", "coordinates": [ [ -93.315846169767298, 46.714871520567897 ], [ -93.315783820543302, 46.715357611176501 ] ] } },
{ "type": "Feature", "properties": { "wmUplineSo": "BIG SANDY", "wmType": "Overhead" }, "geometry": { "type": "LineString", "coordinates": [ [ -93.315937012407204, 46.714227676991399 ], [ -93.315846169767298, 46.714871520567897 ] ] } },
{ "type": "Feature", "properties": { "wmUplineSo": "BIG SANDY", "wmType": "Overhead" }, "geometry": { "type": "LineString", "coordinates": [ [ -93.328152588122805, 46.713710753468298 ], [ -93.328070034710805, 46.713749200777201 ] ] } },
{ "type": "Feature", "properties": { "wmUplineSo": "BIG SANDY", "wmType": "Overhead" }, "geometry": { "type": "LineString", "coordinates": [ [ -93.318540850763796, 46.7176052270881 ], [ -93.318920313707494, 46.717661313864703 ] ] } },
{ "type": "Feature", "properties": { "wmUplineSo": "BIG SANDY", "wmType": "Overhead" }, "geometry": { "type": "LineString", "coordinates": [ [ -93.327724769140403, 46.730650786473497 ], [ -93.327700799262104, 46.730981224763397 ] ] } },
{ "type": "Feature", "properties": { "wmUplineSo": "BIG SANDY", "wmType": "Overhead" }, "geometry": { "type": "LineString", "coordinates": [ [ -93.316669940907104, 46.716573719936299 ], [ -93.318540850763796, 46.7176052270881 ] ] } },
{ "type": "Feature", "properties": { "wmUplineSo": "BIG SANDY", "wmType": "Overhead" }, "geometry": { "type": "LineString", "coordinates": [ [ -93.311868335214498, 46.715770284489501 ], [ -93.311805750064906, 46.715495354778199 ] ] } },
{ "type": "Feature", "properties": { "wmUplineSo": "BIG SANDY", "wmType": "Overhead" }, "geometry": { "type": "LineString", "coordinates": [ [ -93.310866386012407, 46.715736423726497 ], [ -93.311868335214498, 46.715770284489501 ] ] } },
{ "type": "Feature", "properties": { "wmUplineSo": "BIG SANDY", "wmType": "Overhead" }, "geometry": { "type": "LineString", "coordinates": [ [ -93.3328103142819, 46.7284358218606 ], [ -93.334332658412393, 46.728675361109303 ] ] } },
{ "type": "Feature", "properties": { "wmUplineSo": "BIG SANDY", "wmType": "Overhead" }, "geometry": { "type": "LineString", "coordinates": [ [ -93.327727613930193, 46.728874163133298 ], [ -93.327732373088494, 46.729659893743801 ] ] } },
{ "type": "Feature", "properties": { "wmUplineSo": "BIG SANDY", "wmType": "Overhead" }, "geometry": { "type": "LineString", "coordinates": [ [ -93.327732373088494, 46.729659893743801 ], [ -93.327728707189806, 46.7301376106996 ], [ -93.327724769140403, 46.730650786473497 ] ] } },
{ "type": "Feature", "properties": { "wmUplineSo": "BIG SANDY", "wmType": "Overhead" }, "geometry": { "type": "LineString", "coordinates": [ [ -93.312334333785401, 46.711437440047597 ], [ -93.3123711792677, 46.711502229221601 ] ] } },
{ "type": "Feature", "properties": { "wmUplineSo": "BIG SANDY", "wmType": "Overhead" }, "geometry": { "type": "LineString", "coordinates": [ [ -93.318721554842995, 46.711526549746701 ], [ -93.318758483303199, 46.711503114354002 ] ] } },
{ "type": "Feature", "properties": { "wmUplineSo": "BIG SANDY", "wmType": "Overhead" }, "geometry": { "type": "LineString", "coordinates": [ [ -93.310119300670095, 46.717747068383197 ], [ -93.309785431656707, 46.718385295464302 ] ] } },
{ "type": "Feature", "properties": { "wmUplineSo": "BIG SANDY", "wmType": "Overhead" }, "geometry": { "type": "LineString", "coordinates": [ [ -93.311209882363599, 46.7169982933409 ], [ -93.311162367844403, 46.716938007276902 ] ] } },
{ "type": "Feature", "properties": { "wmUplineSo": "BIG SANDY", "wmType": "Overhead" }, "geometry": { "type": "LineString", "coordinates": [ [ -93.310610982732896, 46.716909649051402 ], [ -93.311209882363599, 46.7169982933409 ] ] } },
{ "type": "Feature", "properties": { "wmUplineSo": "BIG SANDY", "wmType": "Overhead" }, "geometry": { "type": "LineString", "coordinates": [ [ -93.315709503638203, 46.716012102357801 ], [ -93.316669940907104, 46.716573719936299 ] ] } },
{ "type": "Feature", "properties": { "wmUplineSo": "BIG SANDY", "wmType": "Overhead" }, "geometry": { "type": "LineString", "coordinates": [ [ -93.318729547085994, 46.711518196616602 ], [ -93.318721554842995, 46.711526549746701 ] ] } },
{ "type": "Feature", "properties": { "wmUplineSo": "BIG SANDY", "wmType": "Overhead" }, "geometry": { "type": "LineString", "coordinates": [ [ -93.316293689191895, 46.712690691633902 ], [ -93.316239282382, 46.713073740641903 ] ] } },
{ "type": "Feature", "properties": { "wmUplineSo": "BIG SANDY", "wmType": "Overhead" }, "geometry": { "type": "LineString", "coordinates": [ [ -93.316239282382, 46.713073740641903 ], [ -93.316696589950993, 46.713118719124097 ] ] } },
{ "type": "Feature", "properties": { "wmUplineSo": "BIG SANDY", "wmType": "Overhead" }, "geometry": { "type": "LineString", "coordinates": [ [ -93.315778979793606, 46.7115138599709 ], [ -93.315496148473997, 46.711330451067802 ] ] } },
{ "type": "Feature", "properties": { "wmUplineSo": "BIG SANDY", "wmType": "Overhead" }, "geometry": { "type": "LineString", "coordinates": [ [ -93.3122455034963, 46.710881339196497 ], [ -93.312742476906607, 46.710974628366898 ] ] } },
{ "type": "Feature", "properties": { "wmUplineSo": "BIG SANDY", "wmType": "Overhead" }, "geometry": { "type": "LineString", "coordinates": [ [ -93.315846169767298, 46.714871520567897 ], [ -93.315195895959405, 46.714731278068399 ] ] } },
{ "type": "Feature", "properties": { "wmUplineSo": "BIG SANDY", "wmType": "Overhead" }, "geometry": { "type": "LineString", "coordinates": [ [ -93.315548644945295, 46.710868269739798 ], [ -93.315778979793606, 46.7115138599709 ] ] } },
{ "type": "Feature", "properties": { "wmUplineSo": "BIG SANDY", "wmType": "Overhead" }, "geometry": { "type": "LineString", "coordinates": [ [ -93.310648907565096, 46.717293533280397 ], [ -93.310119300670095, 46.717747068383197 ] ] } },
{ "type": "Feature", "properties": { "wmUplineSo": "BIG SANDY", "wmType": "Overhead" }, "geometry": { "type": "LineString", "coordinates": [ [ -93.310119300670095, 46.717747068383197 ], [ -93.310319952616098, 46.717750947304303 ] ] } },
{ "type": "Feature", "properties": { "wmUplineSo": "BIG SANDY", "wmType": "Overhead" }, "geometry": { "type": "LineString", "coordinates": [ [ -93.305639358224397, 46.715773973785801 ], [ -93.305745784695503, 46.715051083850497 ] ] } },
{ "type": "Feature", "properties": { "wmUplineSo": "BIG SANDY", "wmType": "Overhead" }, "geometry": { "type": "LineString", "coordinates": [ [ -93.306179334613205, 46.712427110151602 ], [ -93.306311677448207, 46.711636868122703 ] ] } },
{ "type": "Feature", "properties": { "wmUplineSo": "BIG SANDY", "wmType": "Overhead" }, "geometry": { "type": "LineString", "coordinates": [ [ -93.3060301411724, 46.713347462701499 ], [ -93.306179334613205, 46.712427110151602 ] ] } },
{ "type": "Feature", "properties": { "wmUplineSo": "BIG SANDY", "wmType": "Overhead" }, "geometry": { "type": "LineString", "coordinates": [ [ -93.305912157197596, 46.714096664518003 ], [ -93.3060301411724, 46.713347462701499 ] ] } },
{ "type": "Feature", "properties": { "wmUplineSo": "BIG SANDY", "wmType": "Overhead" }, "geometry": { "type": "LineString", "coordinates": [ [ -93.305496039003202, 46.716640948982402 ], [ -93.305639358224397, 46.715773973785801 ] ] } },
{ "type": "Feature", "properties": { "wmUplineSo": "BIG SANDY", "wmType": "Overhead" }, "geometry": { "type": "LineString", "coordinates": [ [ -93.310589998682204, 46.716748994319303 ], [ -93.310610982732896, 46.716909649051402 ] ] } },
{ "type": "Feature", "properties": { "wmUplineSo": "BIG SANDY", "wmType": "Overhead" }, "geometry": { "type": "LineString", "coordinates": [ [ -93.305745784695503, 46.715051083850497 ], [ -93.305912157197596, 46.714096664518003 ] ] } },
{ "type": "Feature", "properties": { "wmUplineSo": "BIG SANDY", "wmType": "Overhead" }, "geometry": { "type": "LineString", "coordinates": [ [ -93.311383600655901, 46.711906295909003 ], [ -93.311047724487295, 46.712523260258003 ] ] } },
{ "type": "Feature", "properties": { "wmUplineSo": "BIG SANDY", "wmType": "Overhead" }, "geometry": { "type": "LineString", "coordinates": [ [ -93.315496148473997, 46.711330451067802 ], [ -93.315504180808006, 46.711413321930699 ] ] } },
{ "type": "Feature", "properties": { "wmUplineSo": "BIG SANDY", "wmType": "Overhead" }, "geometry": { "type": "LineString", "coordinates": [ [ -93.311047724487295, 46.712523260258003 ], [ -93.311102352574395, 46.712580622950902 ] ] } },
{ "type": "Feature", "properties": { "wmUplineSo": "BIG SANDY", "wmType": "Overhead" }, "geometry": { "type": "LineString", "coordinates": [ [ -93.315192635672304, 46.715456351018901 ], [ -93.314852701279904, 46.715657623370099 ] ] } },
{ "type": "Feature", "properties": { "wmUplineSo": "BIG SANDY", "wmType": "Overhead" }, "geometry": { "type": "LineString", "coordinates": [ [ -93.316024811011303, 46.708826349203598 ], [ -93.3158942668869, 46.708533421075003 ] ] } },
{ "type": "Feature", "properties": { "wmUplineSo": "BIG SANDY", "wmType": "Overhead" }, "geometry": { "type": "LineString", "coordinates": [ [ -93.328766719014993, 46.712088265195 ], [ -93.328896017597401, 46.712151710098397 ] ] } },
{ "type": "Feature", "properties": { "wmUplineSo": "BIG SANDY", "wmType": "Overhead" }, "geometry": { "type": "LineString", "coordinates": [ [ -93.308004287408593, 46.717181188656397 ], [ -93.307865900000095, 46.717075700008401 ] ] } },
{ "type": "Feature", "properties": { "wmUplineSo": "BIG SANDY", "wmType": "Overhead" }, "geometry": { "type": "LineString", "coordinates": [ [ -93.306529337645202, 46.715959311207897 ], [ -93.306666341480593, 46.715988043123502 ] ] } },
{ "type": "Feature", "properties": { "wmUplineSo": "BIG SANDY", "wmType": "Overhead" }, "geometry": { "type": "LineString", "coordinates": [ [ -93.311763281448606, 46.717240113060697 ], [ -93.311917207800093, 46.717359230172796 ] ] } },
{ "type": "Feature", "properties": { "wmUplineSo": "BIG SANDY", "wmType": "Overhead" }, "geometry": { "type": "LineString", "coordinates": [ [ -93.306577861455395, 46.710206376327299 ], [ -93.306721306357701, 46.709298721738897 ] ] } },
{ "type": "Feature", "properties": { "wmUplineSo": "BIG SANDY", "wmType": "Overhead" }, "geometry": { "type": "LineString", "coordinates": [ [ -93.305366263243698, 46.717535834946197 ], [ -93.305496039003202, 46.716640948982402 ] ] } },
{ "type": "Feature", "properties": { "wmUplineSo": "BIG SANDY", "wmType": "Overhead" }, "geometry": { "type": "LineString", "coordinates": [ [ -93.328492231863706, 46.736494740315102 ], [ -93.328504612612093, 46.736519591200803 ] ] } },
{ "type": "Feature", "properties": { "wmUplineSo": "BIG SANDY", "wmType": "Overhead" }, "geometry": { "type": "LineString", "coordinates": [ [ -93.326564180098202, 46.737784698307898 ], [ -93.326317175057497, 46.737926693296501 ] ] } },
{ "type": "Feature", "properties": { "wmUplineSo": "BIG SANDY", "wmType": "Overhead" }, "geometry": { "type": "LineString", "coordinates": [ [ -93.327700799262104, 46.730981224763397 ], [ -93.328449373073497, 46.730966720586999 ], [ -93.328767884924702, 46.7308650906932 ] ] } },
{ "type": "Feature", "properties": { "wmUplineSo": "BIG SANDY", "wmType": "Overhead" }, "geometry": { "type": "LineString", "coordinates": [ [ -93.328751269464703, 46.725181924211498 ], [ -93.328968056933505, 46.725155290333603 ] ] } },
{ "type": "Feature", "properties": { "wmUplineSo": "BIG SANDY", "wmType": "Overhead" }, "geometry": { "type": "LineString", "coordinates": [ [ -93.330330692947101, 46.719231725062699 ], [ -93.330570828824705, 46.719240286712598 ] ] } },
{ "type": "Feature", "properties": { "wmUplineSo": "BIG SANDY", "wmType": "Overhead" }, "geometry": { "type": "LineString", "coordinates": [ [ -93.328326597878799, 46.714316875426498 ], [ -93.327992402567801, 46.714235192808701 ] ] } },
{ "type": "Feature", "properties": { "wmUplineSo": "BIG SANDY", "wmType": "Overhead" }, "geometry": { "type": "LineString", "coordinates": [ [ -93.315192635672304, 46.715456351018901 ], [ -93.3148779999309, 46.715380223316302 ] ] } },
{ "type": "Feature", "properties": { "wmUplineSo": "BIG SANDY", "wmType": "Overhead" }, "geometry": { "type": "LineString", "coordinates": [ [ -93.315192635672304, 46.715456351018901 ], [ -93.314807200159805, 46.715435823480099 ] ] } },
{ "type": "Feature", "properties": { "wmUplineSo": "BIG SANDY", "wmType": "Overhead" }, "geometry": { "type": "LineString", "coordinates": [ [ -93.315391394284106, 46.714236692708397 ], [ -93.315376194813496, 46.714276322176602 ] ] } },
{ "type": "Feature", "properties": { "wmUplineSo": "BIG SANDY", "wmType": "Overhead" }, "geometry": { "type": "LineString", "coordinates": [ [ -93.315357287129402, 46.710385589462099 ], [ -93.315427075819102, 46.710409122128397 ] ] } },
{ "type": "Feature", "properties": { "wmUplineSo": "BIG SANDY", "wmType": "Overhead" }, "geometry": { "type": "LineString", "coordinates": [ [ -93.315778979793606, 46.7115138599709 ], [ -93.315633082401703, 46.711720721624999 ] ] } },
{ "type": "Feature", "properties": { "wmUplineSo": "BIG SANDY", "wmType": "Overhead" }, "geometry": { "type": "LineString", "coordinates": [ [ -93.315496148473997, 46.711330451067802 ], [ -93.315468180062098, 46.711266322017103 ] ] } },
{ "type": "Feature", "properties": { "wmUplineSo": "BIG SANDY", "wmType": "Overhead" }, "geometry": { "type": "LineString", "coordinates": [ [ -93.316097920155698, 46.712280120320102 ], [ -93.316029785180902, 46.712234720692301 ] ] } },
{ "type": "Feature", "properties": { "wmUplineSo": "BIG SANDY", "wmType": "Overhead" }, "geometry": { "type": "LineString", "coordinates": [ [ -93.316097920155698, 46.712280120320102 ], [ -93.315733684711105, 46.712177221382603 ] ] } },
{ "type": "Feature", "properties": { "wmUplineSo": "BIG SANDY", "wmType": "Overhead" }, "geometry": { "type": "LineString", "coordinates": [ [ -93.316239282382, 46.713073740641903 ], [ -93.316203589661498, 46.713123120271597 ] ] } },
{ "type": "Feature", "properties": { "wmUplineSo": "BIG SANDY", "wmType": "Overhead" }, "geometry": { "type": "LineString", "coordinates": [ [ -93.316097857240095, 46.713607502430499 ], [ -93.315751290794594, 46.713411421319201 ] ] } },
{ "type": "Feature", "properties": { "wmUplineSo": "BIG SANDY", "wmType": "Overhead" }, "geometry": { "type": "LineString", "coordinates": [ [ -93.316097857240095, 46.713607502430499 ], [ -93.315657493896197, 46.714053821525802 ] ] } },
{ "type": "Feature", "properties": { "wmUplineSo": "BIG SANDY", "wmType": "Overhead" }, "geometry": { "type": "LineString", "coordinates": [ [ -93.315709503638203, 46.716012102357801 ], [ -93.315092624753703, 46.7158273500416 ], [ -93.315096602382596, 46.715850422798901 ] ] } },
{ "type": "Feature", "properties": { "wmUplineSo": "BIG SANDY", "wmType": "Overhead" }, "geometry": { "type": "LineString", "coordinates": [ [ -93.315709503638203, 46.716012102357801 ], [ -93.3156097043599, 46.716186421598401 ] ] } },
{ "type": "Feature", "properties": { "wmUplineSo": "BIG SANDY", "wmType": "Overhead" }, "geometry": { "type": "LineString", "coordinates": [ [ -93.311601257789306, 46.710590839595099 ], [ -93.311805894042706, 46.710851667618002 ] ] } },
{ "type": "Feature", "properties": { "wmUplineSo": "BIG SANDY", "wmType": "Overhead" }, "geometry": { "type": "LineString", "coordinates": [ [ -93.311601257789306, 46.710590839595099 ], [ -93.312782733144303, 46.710554277536097 ] ] } },
{ "type": "Feature", "properties": { "wmUplineSo": "BIG SANDY", "wmType": "Overhead" }, "geometry": { "type": "LineString", "coordinates": [ [ -93.311467024503898, 46.711363319875701 ], [ -93.312334333785401, 46.711437440047597 ] ] } },
{ "type": "Feature", "properties": { "wmUplineSo": "BIG SANDY", "wmType": "Overhead" }, "geometry": { "type": "LineString", "coordinates": [ [ -93.312334333785401, 46.711437440047597 ], [ -93.312503278427201, 46.711314428917497 ] ] } },
{ "type": "Feature", "properties": { "wmUplineSo": "BIG SANDY", "wmType": "Overhead" }, "geometry": { "type": "LineString", "coordinates": [ [ -93.312090690531093, 46.711969265858798 ], [ -93.312162181554797, 46.711993929699197 ] ] } },
{ "type": "Feature", "properties": { "wmUplineSo": "BIG SANDY", "wmType": "Overhead" }, "geometry": { "type": "LineString", "coordinates": [ [ -93.312090690531093, 46.711969265858798 ], [ -93.312028580804807, 46.711858630012699 ] ] } },
{ "type": "Feature", "properties": { "wmUplineSo": "BIG SANDY", "wmType": "Overhead" }, "geometry": { "type": "LineString", "coordinates": [ [ -93.310876167360306, 46.712727814482697 ], [ -93.311958785417403, 46.712805130158102 ] ] } },
{ "type": "Feature", "properties": { "wmUplineSo": "BIG SANDY", "wmType": "Overhead" }, "geometry": { "type": "LineString", "coordinates": [ [ -93.311734648482997, 46.713521261926402 ], [ -93.3118522907683, 46.713906330386102 ] ] } },
{ "type": "Feature", "properties": { "wmUplineSo": "BIG SANDY", "wmType": "Overhead" }, "geometry": { "type": "LineString", "coordinates": [ [ -93.311868335214498, 46.715770284489501 ], [ -93.312697199629298, 46.715598728388798 ] ] } },
{ "type": "Feature", "properties": { "wmUplineSo": "BIG SANDY", "wmType": "Overhead" }, "geometry": { "type": "LineString", "coordinates": [ [ -93.312117068522596, 46.717031669550799 ], [ -93.312198505163806, 46.716787429528303 ] ] } },
{ "type": "Feature", "properties": { "wmUplineSo": "BIG SANDY", "wmType": "Overhead" }, "geometry": { "type": "LineString", "coordinates": [ [ -93.306866366654603, 46.715119316101202 ], [ -93.306702800000096, 46.715039300008399 ] ] } },
{ "type": "Feature", "properties": { "wmUplineSo": "BIG SANDY", "wmType": "Overhead" }, "geometry": { "type": "LineString", "coordinates": [ [ -93.328919281352796, 46.724842927546099 ], [ -93.329745556264598, 46.724919888527701 ] ] } }
]
}
