{
"type": "FeatureCollection",
"crs": { "type": "name", "properties": { "name": "urn:ogc:def:crs:OGC:1.3:CRS84" } },
"features": [
{ "type": "Feature", "properties": { "wmUplineSo": "BOY RIVER", "wmType": "Underground" }, "geometry": { "type": "LineString", "coordinates": [ [ -94.297036242260802, 47.167715307257801 ], [ -94.2963627141297, 47.167835829136202 ] ] } },
{ "type": "Feature", "properties": { "wmUplineSo": "BOY RIVER", "wmType": "Underground" }, "geometry": { "type": "LineString", "coordinates": [ [ -94.2963627141297, 47.167835829136202 ], [ -94.296369714141704, 47.167849829132798 ] ] } },
{ "type": "Feature", "properties": { "wmUplineSo": "BOY RIVER", "wmType": "Underground" }, "geometry": { "type": "LineString", "coordinates": [ [ -94.207529523047498, 47.229752528969101 ], [ -94.207661, 47.229739 ] ] } },
{ "type": "Feature", "properties": { "wmUplineSo": "BOY RIVER", "wmType": "Underground" }, "geometry": { "type": "LineString", "coordinates": [ [ -94.207661, 47.229739 ], [ -94.207858, 47.229848 ] ] } },
{ "type": "Feature", "properties": { "wmUplineSo": "BOY RIVER", "wmType": "Underground" }, "geometry": { "type": "LineString", "coordinates": [ [ -94.207858, 47.229848 ], [ -94.20798, 47.230049000000101 ] ] } },
{ "type": "Feature", "properties": { "wmUplineSo": "BOY RIVER", "wmType": "Underground" }, "geometry": { "type": "LineString", "coordinates": [ [ -94.20798, 47.230049000000101 ], [ -94.207958, 47.230149 ] ] } },
{ "type": "Feature", "properties": { "wmUplineSo": "BOY RIVER", "wmType": "Underground" }, "geometry": { "type": "LineString", "coordinates": [ [ -94.207958, 47.230149 ], [ -94.2072994190369, 47.230512254235599 ] ] } },
{ "type": "Feature", "properties": { "wmUplineSo": "BOY RIVER", "wmType": "Underground" }, "geometry": { "type": "LineString", "coordinates": [ [ -94.2072994190369, 47.230512254235599 ], [ -94.207272, 47.230519000000101 ] ] } },
{ "type": "Feature", "properties": { "wmUplineSo": "BOY RIVER", "wmType": "Underground" }, "geometry": { "type": "LineString", "coordinates": [ [ -94.213368720275298, 47.226808982621598 ], [ -94.219328814923202, 47.226996465829203 ] ] } },
{ "type": "Feature", "properties": { "wmUplineSo": "BOY RIVER", "wmType": "Underground" }, "geometry": { "type": "LineString", "coordinates": [ [ -94.219328814923202, 47.226996465829203 ], [ -94.219510711877703, 47.2269108483775 ] ] } },
{ "type": "Feature", "properties": { "wmUplineSo": "BOY RIVER", "wmType": "Underground" }, "geometry": { "type": "LineString", "coordinates": [ [ -94.297322427641205, 47.167345091119003 ], [ -94.297364107206207, 47.167235560428601 ] ] } },
{ "type": "Feature", "properties": { "wmUplineSo": "BOY RIVER", "wmType": "Underground" }, "geometry": { "type": "LineString", "coordinates": [ [ -94.297322427641205, 47.167345091119003 ], [ -94.297652994185796, 47.167056101182702 ] ] } },
{ "type": "Feature", "properties": { "wmUplineSo": "BOY RIVER", "wmType": "Underground" }, "geometry": { "type": "LineString", "coordinates": [ [ -94.297036242260802, 47.167715307257801 ], [ -94.297322427641205, 47.167345091119003 ] ] } },
{ "type": "Feature", "properties": { "wmUplineSo": "BOY RIVER", "wmType": "Underground" }, "geometry": { "type": "LineString", "coordinates": [ [ -94.297322427641205, 47.167345091119003 ], [ -94.297303474039694, 47.167412422171402 ] ] } },
{ "type": "Feature", "properties": { "wmUplineSo": "BOY RIVER", "wmType": "Underground" }, "geometry": { "type": "LineString", "coordinates": [ [ -94.197747425356198, 47.221390131900897 ], [ -94.197789135163305, 47.221388946602801 ] ] } },
{ "type": "Feature", "properties": { "wmUplineSo": "BOY RIVER", "wmType": "Underground" }, "geometry": { "type": "LineString", "coordinates": [ [ -94.311958868600996, 47.193715163297597 ], [ -94.311838191194497, 47.193607563997801 ] ] } },
{ "type": "Feature", "properties": { "wmUplineSo": "BOY RIVER", "wmType": "Underground" }, "geometry": { "type": "LineString", "coordinates": [ [ -94.311838191194497, 47.193607563997801 ], [ -94.311694, 47.193489 ] ] } },
{ "type": "Feature", "properties": { "wmUplineSo": "BOY RIVER", "wmType": "Underground" }, "geometry": { "type": "LineString", "coordinates": [ [ -94.311694, 47.193489 ], [ -94.311674, 47.193474 ] ] } },
{ "type": "Feature", "properties": { "wmUplineSo": "BOY RIVER", "wmType": "Underground" }, "geometry": { "type": "LineString", "coordinates": [ [ -94.187995, 47.212420000000101 ], [ -94.187575, 47.212434000000101 ] ] } },
{ "type": "Feature", "properties": { "wmUplineSo": "BOY RIVER", "wmType": "Underground" }, "geometry": { "type": "LineString", "coordinates": [ [ -94.220387570647802, 47.235612998559198 ], [ -94.220246000076301, 47.235480003624502 ] ] } },
{ "type": "Feature", "properties": { "wmUplineSo": "BOY RIVER", "wmType": "Underground" }, "geometry": { "type": "LineString", "coordinates": [ [ -94.220246000076301, 47.235480003624502 ], [ -94.220527000076302, 47.235425003624599 ] ] } },
{ "type": "Feature", "properties": { "wmUplineSo": "BOY RIVER", "wmType": "Underground" }, "geometry": { "type": "LineString", "coordinates": [ [ -94.220527000076302, 47.235425003624599 ], [ -94.220730000076301, 47.235383003624598 ] ] } },
{ "type": "Feature", "properties": { "wmUplineSo": "BOY RIVER", "wmType": "Underground" }, "geometry": { "type": "LineString", "coordinates": [ [ -94.220730000076301, 47.235383003624598 ], [ -94.220967000076399, 47.235354003624501 ] ] } },
{ "type": "Feature", "properties": { "wmUplineSo": "BOY RIVER", "wmType": "Underground" }, "geometry": { "type": "LineString", "coordinates": [ [ -94.220967000076399, 47.235354003624501 ], [ -94.220999000076404, 47.235345003624502 ] ] } },
{ "type": "Feature", "properties": { "wmUplineSo": "BOY RIVER", "wmType": "Underground" }, "geometry": { "type": "LineString", "coordinates": [ [ -94.104623000068301, 47.181119003609702 ], [ -94.104585000068298, 47.180808003609698 ] ] } },
{ "type": "Feature", "properties": { "wmUplineSo": "BOY RIVER", "wmType": "Underground" }, "geometry": { "type": "LineString", "coordinates": [ [ -94.314874000082298, 47.1897270036118 ], [ -94.3148680000822, 47.189720003611697 ] ] } },
{ "type": "Feature", "properties": { "wmUplineSo": "BOY RIVER", "wmType": "Underground" }, "geometry": { "type": "LineString", "coordinates": [ [ -94.3148680000822, 47.189720003611697 ], [ -94.315427000082295, 47.1894740036117 ] ] } },
{ "type": "Feature", "properties": { "wmUplineSo": "BOY RIVER", "wmType": "Underground" }, "geometry": { "type": "LineString", "coordinates": [ [ -94.104054089020707, 47.181480179483799 ], [ -94.103245109454207, 47.181483918923497 ] ] } },
{ "type": "Feature", "properties": { "wmUplineSo": "BOY RIVER", "wmType": "Underground" }, "geometry": { "type": "LineString", "coordinates": [ [ -94.103245109454207, 47.181483918923497 ], [ -94.103023812847596, 47.1814810220461 ] ] } },
{ "type": "Feature", "properties": { "wmUplineSo": "BOY RIVER", "wmType": "Underground" }, "geometry": { "type": "LineString", "coordinates": [ [ -94.103023812847596, 47.1814810220461 ], [ -94.102659583298106, 47.181480718140897 ] ] } },
{ "type": "Feature", "properties": { "wmUplineSo": "BOY RIVER", "wmType": "Underground" }, "geometry": { "type": "LineString", "coordinates": [ [ -94.102659583298106, 47.181480718140897 ], [ -94.101734101967594, 47.181474730682297 ] ] } },
{ "type": "Feature", "properties": { "wmUplineSo": "BOY RIVER", "wmType": "Underground" }, "geometry": { "type": "LineString", "coordinates": [ [ -94.101734101967594, 47.181474730682297 ], [ -94.101677685392104, 47.181254689768501 ] ] } },
{ "type": "Feature", "properties": { "wmUplineSo": "BOY RIVER", "wmType": "Underground" }, "geometry": { "type": "LineString", "coordinates": [ [ -94.101677685392104, 47.181254689768501 ], [ -94.101477884189407, 47.1811471612817 ] ] } },
{ "type": "Feature", "properties": { "wmUplineSo": "BOY RIVER", "wmType": "Underground" }, "geometry": { "type": "LineString", "coordinates": [ [ -94.101477884189407, 47.1811471612817 ], [ -94.100837577864098, 47.181091144457497 ] ] } },
{ "type": "Feature", "properties": { "wmUplineSo": "BOY RIVER", "wmType": "Underground" }, "geometry": { "type": "LineString", "coordinates": [ [ -94.100837577864098, 47.181091144457497 ], [ -94.100795393495204, 47.181160219957903 ] ] } },
{ "type": "Feature", "properties": { "wmUplineSo": "BOY RIVER", "wmType": "Underground" }, "geometry": { "type": "LineString", "coordinates": [ [ -94.100795393495204, 47.181160219957903 ], [ -94.100730122634303, 47.181156805930399 ] ] } },
{ "type": "Feature", "properties": { "wmUplineSo": "BOY RIVER", "wmType": "Underground" }, "geometry": { "type": "LineString", "coordinates": [ [ -94.314152000082203, 47.190975003612301 ], [ -94.314609520692898, 47.191019033282998 ] ] } },
{ "type": "Feature", "properties": { "wmUplineSo": "BOY RIVER", "wmType": "Underground" }, "geometry": { "type": "LineString", "coordinates": [ [ -94.314609520692898, 47.191019033282998 ], [ -94.3145791000006, 47.191063600009002 ] ] } },
{ "type": "Feature", "properties": { "wmUplineSo": "BOY RIVER", "wmType": "Underground" }, "geometry": { "type": "LineString", "coordinates": [ [ -94.314609520692898, 47.191019033282998 ], [ -94.314839000082301, 47.191324003612301 ] ] } },
{ "type": "Feature", "properties": { "wmUplineSo": "BOY RIVER", "wmType": "Underground" }, "geometry": { "type": "LineString", "coordinates": [ [ -94.313306000082207, 47.191971003612402 ], [ -94.3131740000821, 47.191927003612399 ] ] } },
{ "type": "Feature", "properties": { "wmUplineSo": "BOY RIVER", "wmType": "Underground" }, "geometry": { "type": "LineString", "coordinates": [ [ -94.3131740000821, 47.191927003612399 ], [ -94.312788000082094, 47.191867003612501 ] ] } },
{ "type": "Feature", "properties": { "wmUplineSo": "BOY RIVER", "wmType": "Underground" }, "geometry": { "type": "LineString", "coordinates": [ [ -94.312788000082094, 47.191867003612501 ], [ -94.312745900000607, 47.191707500009002 ] ] } },
{ "type": "Feature", "properties": { "wmUplineSo": "BOY RIVER", "wmType": "Underground" }, "geometry": { "type": "LineString", "coordinates": [ [ -94.310756877408807, 47.206288936388702 ], [ -94.310793300000597, 47.206290500008997 ] ] } },
{ "type": "Feature", "properties": { "wmUplineSo": "BOY RIVER", "wmType": "Underground" }, "geometry": { "type": "LineString", "coordinates": [ [ -94.310756877408807, 47.206288936388702 ], [ -94.310787800000597, 47.206284000008999 ] ] } },
{ "type": "Feature", "properties": { "wmUplineSo": "BOY RIVER", "wmType": "Underground" }, "geometry": { "type": "LineString", "coordinates": [ [ -94.189234583488698, 47.231462044955698 ], [ -94.189170599621804, 47.231411337337804 ] ] } },
{ "type": "Feature", "properties": { "wmUplineSo": "BOY RIVER", "wmType": "Underground" }, "geometry": { "type": "LineString", "coordinates": [ [ -94.188292308309201, 47.229631211913301 ], [ -94.187955465486397, 47.228281336962702 ] ] } },
{ "type": "Feature", "properties": { "wmUplineSo": "BOY RIVER", "wmType": "Underground" }, "geometry": { "type": "LineString", "coordinates": [ [ -94.188518391410199, 47.225855729005303 ], [ -94.188538800000501, 47.225876000009002 ] ] } },
{ "type": "Feature", "properties": { "wmUplineSo": "BOY RIVER", "wmType": "Underground" }, "geometry": { "type": "LineString", "coordinates": [ [ -94.308809034030901, 47.206794057267103 ], [ -94.3086606844996, 47.206684712806599 ] ] } },
{ "type": "Feature", "properties": { "wmUplineSo": "BOY RIVER", "wmType": "Underground" }, "geometry": { "type": "LineString", "coordinates": [ [ -94.3086606844996, 47.206684712806599 ], [ -94.308538726911394, 47.206744990416396 ] ] } },
{ "type": "Feature", "properties": { "wmUplineSo": "BOY RIVER", "wmType": "Underground" }, "geometry": { "type": "LineString", "coordinates": [ [ -94.308538726911394, 47.206744990416396 ], [ -94.308551500000604, 47.206911900008997 ] ] } },
{ "type": "Feature", "properties": { "wmUplineSo": "BOY RIVER", "wmType": "Underground" }, "geometry": { "type": "LineString", "coordinates": [ [ -94.114885400123299, 47.195089576327298 ], [ -94.114876731017205, 47.1964485624069 ] ] } },
{ "type": "Feature", "properties": { "wmUplineSo": "BOY RIVER", "wmType": "Underground" }, "geometry": { "type": "LineString", "coordinates": [ [ -94.114876731017205, 47.1964485624069 ], [ -94.115158000069101, 47.196622003613903 ] ] } },
{ "type": "Feature", "properties": { "wmUplineSo": "BOY RIVER", "wmType": "Underground" }, "geometry": { "type": "LineString", "coordinates": [ [ -94.115158000069101, 47.196622003613903 ], [ -94.115375000069207, 47.196995003614099 ] ] } },
{ "type": "Feature", "properties": { "wmUplineSo": "BOY RIVER", "wmType": "Underground" }, "geometry": { "type": "LineString", "coordinates": [ [ -94.115375000069207, 47.196995003614099 ], [ -94.116156000069196, 47.197233003614102 ] ] } },
{ "type": "Feature", "properties": { "wmUplineSo": "BOY RIVER", "wmType": "Underground" }, "geometry": { "type": "LineString", "coordinates": [ [ -94.116156000069196, 47.197233003614102 ], [ -94.116577000069199, 47.197581003614303 ] ] } },
{ "type": "Feature", "properties": { "wmUplineSo": "BOY RIVER", "wmType": "Underground" }, "geometry": { "type": "LineString", "coordinates": [ [ -94.116577000069199, 47.197581003614303 ], [ -94.117196000069299, 47.197779003614201 ] ] } },
{ "type": "Feature", "properties": { "wmUplineSo": "BOY RIVER", "wmType": "Underground" }, "geometry": { "type": "LineString", "coordinates": [ [ -94.117196000069299, 47.197779003614201 ], [ -94.117795000069293, 47.198070003614497 ] ] } },
{ "type": "Feature", "properties": { "wmUplineSo": "BOY RIVER", "wmType": "Underground" }, "geometry": { "type": "LineString", "coordinates": [ [ -94.117795000069293, 47.198070003614497 ], [ -94.117785000069304, 47.198435003614598 ] ] } },
{ "type": "Feature", "properties": { "wmUplineSo": "BOY RIVER", "wmType": "Underground" }, "geometry": { "type": "LineString", "coordinates": [ [ -94.117785000069304, 47.198435003614598 ], [ -94.118436000069394, 47.198659003614502 ] ] } },
{ "type": "Feature", "properties": { "wmUplineSo": "BOY RIVER", "wmType": "Underground" }, "geometry": { "type": "LineString", "coordinates": [ [ -94.118436000069394, 47.198659003614502 ], [ -94.119809000069395, 47.198495003614497 ] ] } },
{ "type": "Feature", "properties": { "wmUplineSo": "BOY RIVER", "wmType": "Underground" }, "geometry": { "type": "LineString", "coordinates": [ [ -94.119809000069395, 47.198495003614497 ], [ -94.1205160000695, 47.198492003614497 ] ] } },
{ "type": "Feature", "properties": { "wmUplineSo": "BOY RIVER", "wmType": "Underground" }, "geometry": { "type": "LineString", "coordinates": [ [ -94.1205160000695, 47.198492003614497 ], [ -94.1212310000695, 47.1982350036144 ] ] } },
{ "type": "Feature", "properties": { "wmUplineSo": "BOY RIVER", "wmType": "Underground" }, "geometry": { "type": "LineString", "coordinates": [ [ -94.114876731017205, 47.1964485624069 ], [ -94.114599708240405, 47.196559441081803 ] ] } },
{ "type": "Feature", "properties": { "wmUplineSo": "BOY RIVER", "wmType": "Underground" }, "geometry": { "type": "LineString", "coordinates": [ [ -94.190450000271795, 47.21157518887 ], [ -94.191030000074207, 47.211679003618102 ] ] } },
{ "type": "Feature", "properties": { "wmUplineSo": "BOY RIVER", "wmType": "Underground" }, "geometry": { "type": "LineString", "coordinates": [ [ -94.191030000074207, 47.211679003618102 ], [ -94.191024000074194, 47.211882003618001 ] ] } },
{ "type": "Feature", "properties": { "wmUplineSo": "BOY RIVER", "wmType": "Underground" }, "geometry": { "type": "LineString", "coordinates": [ [ -94.191024000074194, 47.211882003618001 ], [ -94.191010000074201, 47.212164003618199 ] ] } },
{ "type": "Feature", "properties": { "wmUplineSo": "BOY RIVER", "wmType": "Underground" }, "geometry": { "type": "LineString", "coordinates": [ [ -94.310756877408807, 47.206288936388702 ], [ -94.310466422288499, 47.205928641690598 ] ] } },
{ "type": "Feature", "properties": { "wmUplineSo": "BOY RIVER", "wmType": "Underground" }, "geometry": { "type": "LineString", "coordinates": [ [ -94.314839000082301, 47.191324003612301 ], [ -94.314752900000599, 47.191287600008998 ] ] } },
{ "type": "Feature", "properties": { "wmUplineSo": "BOY RIVER", "wmType": "Underground" }, "geometry": { "type": "LineString", "coordinates": [ [ -94.195804437785597, 47.242466969104399 ], [ -94.194508038563697, 47.2427005508493 ] ] } },
{ "type": "Feature", "properties": { "wmUplineSo": "BOY RIVER", "wmType": "Underground" }, "geometry": { "type": "LineString", "coordinates": [ [ -94.194508038563697, 47.2427005508493 ], [ -94.194493109448103, 47.242704670562802 ] ] } },
{ "type": "Feature", "properties": { "wmUplineSo": "BOY RIVER", "wmType": "Underground" }, "geometry": { "type": "LineString", "coordinates": [ [ -94.306537000081903, 47.207097003616703 ], [ -94.306809000081898, 47.207023003616698 ] ] } },
{ "type": "Feature", "properties": { "wmUplineSo": "BOY RIVER", "wmType": "Underground" }, "geometry": { "type": "LineString", "coordinates": [ [ -94.306809000081898, 47.207023003616698 ], [ -94.3068760000819, 47.206993003616702 ] ] } },
{ "type": "Feature", "properties": { "wmUplineSo": "BOY RIVER", "wmType": "Underground" }, "geometry": { "type": "LineString", "coordinates": [ [ -94.289819540358096, 47.169886966896101 ], [ -94.289883403332098, 47.170282251936698 ] ] } },
{ "type": "Feature", "properties": { "wmUplineSo": "BOY RIVER", "wmType": "Underground" }, "geometry": { "type": "LineString", "coordinates": [ [ -94.306944217861101, 47.205785431716798 ], [ -94.306815353656404, 47.205771458316697 ] ] } },
{ "type": "Feature", "properties": { "wmUplineSo": "BOY RIVER", "wmType": "Underground" }, "geometry": { "type": "LineString", "coordinates": [ [ -94.3072188285241, 47.205944065045898 ], [ -94.306975424587606, 47.2059032116548 ] ] } },
{ "type": "Feature", "properties": { "wmUplineSo": "BOY RIVER", "wmType": "Underground" }, "geometry": { "type": "LineString", "coordinates": [ [ -94.306975424587606, 47.2059032116548 ], [ -94.306944217861101, 47.205785431716798 ] ] } },
{ "type": "Feature", "properties": { "wmUplineSo": "BOY RIVER", "wmType": "Underground" }, "geometry": { "type": "LineString", "coordinates": [ [ -94.301207691968798, 47.204951596835699 ], [ -94.301229690346503, 47.204956596000997 ] ] } },
{ "type": "Feature", "properties": { "wmUplineSo": "BOY RIVER", "wmType": "Underground" }, "geometry": { "type": "LineString", "coordinates": [ [ -94.311009321273104, 47.206994460344497 ], [ -94.311009100000604, 47.207023300008998 ] ] } },
{ "type": "Feature", "properties": { "wmUplineSo": "BOY RIVER", "wmType": "Underground" }, "geometry": { "type": "LineString", "coordinates": [ [ -94.3090307679348, 47.206844119133201 ], [ -94.309105486094893, 47.206947136118004 ] ] } },
{ "type": "Feature", "properties": { "wmUplineSo": "BOY RIVER", "wmType": "Underground" }, "geometry": { "type": "LineString", "coordinates": [ [ -94.315427000082295, 47.1894740036117 ], [ -94.315708831923502, 47.189439071759999 ] ] } },
{ "type": "Feature", "properties": { "wmUplineSo": "BOY RIVER", "wmType": "Underground" }, "geometry": { "type": "LineString", "coordinates": [ [ -94.307736908893503, 47.205898116278902 ], [ -94.3072188285241, 47.205944065045898 ] ] } },
{ "type": "Feature", "properties": { "wmUplineSo": "BOY RIVER", "wmType": "Underground" }, "geometry": { "type": "LineString", "coordinates": [ [ -94.288007000080299, 47.174027003607499 ], [ -94.288086815645599, 47.174016478809598 ] ] } },
{ "type": "Feature", "properties": { "wmUplineSo": "BOY RIVER", "wmType": "Underground" }, "geometry": { "type": "LineString", "coordinates": [ [ -94.287988, 47.170186 ], [ -94.287744646768601, 47.170502006374299 ] ] } },
{ "type": "Feature", "properties": { "wmUplineSo": "BOY RIVER", "wmType": "Underground" }, "geometry": { "type": "LineString", "coordinates": [ [ -94.287744646768601, 47.170502006374299 ], [ -94.287730560077506, 47.170536434077697 ] ] } },
{ "type": "Feature", "properties": { "wmUplineSo": "BOY RIVER", "wmType": "Underground" }, "geometry": { "type": "LineString", "coordinates": [ [ -94.307736908893503, 47.205898116278902 ], [ -94.307732, 47.2058630000001 ] ] } },
{ "type": "Feature", "properties": { "wmUplineSo": "BOY RIVER", "wmType": "Underground" }, "geometry": { "type": "LineString", "coordinates": [ [ -94.307732, 47.2058630000001 ], [ -94.307717280592001, 47.205850606535499 ] ] } },
{ "type": "Feature", "properties": { "wmUplineSo": "BOY RIVER", "wmType": "Underground" }, "geometry": { "type": "LineString", "coordinates": [ [ -94.309105486094893, 47.206947136118004 ], [ -94.3093996173844, 47.207003066057403 ] ] } },
{ "type": "Feature", "properties": { "wmUplineSo": "BOY RIVER", "wmType": "Underground" }, "geometry": { "type": "LineString", "coordinates": [ [ -94.3072188285241, 47.205944065045898 ], [ -94.307306, 47.206127 ] ] } },
{ "type": "Feature", "properties": { "wmUplineSo": "BOY RIVER", "wmType": "Underground" }, "geometry": { "type": "LineString", "coordinates": [ [ -94.307306, 47.206127 ], [ -94.30742, 47.206228000000102 ] ] } },
{ "type": "Feature", "properties": { "wmUplineSo": "BOY RIVER", "wmType": "Underground" }, "geometry": { "type": "LineString", "coordinates": [ [ -94.30742, 47.206228000000102 ], [ -94.30742, 47.206283999999897 ] ] } },
{ "type": "Feature", "properties": { "wmUplineSo": "BOY RIVER", "wmType": "Underground" }, "geometry": { "type": "LineString", "coordinates": [ [ -94.30742, 47.206283999999897 ], [ -94.307417, 47.206399 ] ] } },
{ "type": "Feature", "properties": { "wmUplineSo": "BOY RIVER", "wmType": "Underground" }, "geometry": { "type": "LineString", "coordinates": [ [ -94.307417, 47.206399 ], [ -94.307401, 47.206459 ] ] } },
{ "type": "Feature", "properties": { "wmUplineSo": "BOY RIVER", "wmType": "Underground" }, "geometry": { "type": "LineString", "coordinates": [ [ -94.307401, 47.206459 ], [ -94.307398, 47.206529000000103 ] ] } },
{ "type": "Feature", "properties": { "wmUplineSo": "BOY RIVER", "wmType": "Underground" }, "geometry": { "type": "LineString", "coordinates": [ [ -94.307398, 47.206529000000103 ], [ -94.307407, 47.206535 ] ] } },
{ "type": "Feature", "properties": { "wmUplineSo": "BOY RIVER", "wmType": "Underground" }, "geometry": { "type": "LineString", "coordinates": [ [ -94.186767280470605, 47.2137971830496 ], [ -94.185922885821, 47.215234767486997 ] ] } },
{ "type": "Feature", "properties": { "wmUplineSo": "BOY RIVER", "wmType": "Underground" }, "geometry": { "type": "LineString", "coordinates": [ [ -94.287963000202296, 47.173540003526803 ], [ -94.288007000080299, 47.174027003607499 ] ] } },
{ "type": "Feature", "properties": { "wmUplineSo": "BOY RIVER", "wmType": "Underground" }, "geometry": { "type": "LineString", "coordinates": [ [ -94.305318000081797, 47.2067860036165 ], [ -94.304832496290601, 47.206894240589499 ], [ -94.304363450529706, 47.207570159511 ], [ -94.304024216433206, 47.207564387896802 ], [ -94.303968360039093, 47.207699995113899 ], [ -94.3039683602628, 47.207699995444102 ] ] } },
{ "type": "Feature", "properties": { "wmUplineSo": "BOY RIVER", "wmType": "Underground" }, "geometry": { "type": "LineString", "coordinates": [ [ -94.318753564353202, 47.177084930282099 ], [ -94.318739523127903, 47.177079279080303 ] ] } },
{ "type": "Feature", "properties": { "wmUplineSo": "BOY RIVER", "wmType": "Underground" }, "geometry": { "type": "LineString", "coordinates": [ [ -94.304920329177904, 47.1843165485773 ], [ -94.305606125324104, 47.184305199830803 ] ] } },
{ "type": "Feature", "properties": { "wmUplineSo": "BOY RIVER", "wmType": "Underground" }, "geometry": { "type": "LineString", "coordinates": [ [ -94.308639813507199, 47.206486642001501 ], [ -94.310364800553103, 47.206537923067202 ] ] } },
{ "type": "Feature", "properties": { "wmUplineSo": "BOY RIVER", "wmType": "Underground" }, "geometry": { "type": "LineString", "coordinates": [ [ -94.310029161217102, 47.213771597754103 ], [ -94.309986900000595, 47.213809400008998 ] ] } },
{ "type": "Feature", "properties": { "wmUplineSo": "BOY RIVER", "wmType": "Underground" }, "geometry": { "type": "LineString", "coordinates": [ [ -94.310465, 47.211468 ], [ -94.310221900000599, 47.211414600009 ] ] } },
{ "type": "Feature", "properties": { "wmUplineSo": "BOY RIVER", "wmType": "Underground" }, "geometry": { "type": "LineString", "coordinates": [ [ -94.310465, 47.211468 ], [ -94.310570600000602, 47.211517600009003 ] ] } },
{ "type": "Feature", "properties": { "wmUplineSo": "BOY RIVER", "wmType": "Underground" }, "geometry": { "type": "LineString", "coordinates": [ [ -94.308639813507199, 47.206486642001501 ], [ -94.3082076000006, 47.206633100009 ] ] } },
{ "type": "Feature", "properties": { "wmUplineSo": "BOY RIVER", "wmType": "Underground" }, "geometry": { "type": "LineString", "coordinates": [ [ -94.316084000082299, 47.189280003611699 ], [ -94.3161381000007, 47.189132400009001 ] ] } },
{ "type": "Feature", "properties": { "wmUplineSo": "BOY RIVER", "wmType": "Underground" }, "geometry": { "type": "LineString", "coordinates": [ [ -94.315708831923502, 47.189439071759999 ], [ -94.316020100000699, 47.189383600009002 ] ] } },
{ "type": "Feature", "properties": { "wmUplineSo": "BOY RIVER", "wmType": "Underground" }, "geometry": { "type": "LineString", "coordinates": [ [ -94.315708831923502, 47.189439071759999 ], [ -94.315789000000606, 47.189638500009004 ] ] } },
{ "type": "Feature", "properties": { "wmUplineSo": "BOY RIVER", "wmType": "Underground" }, "geometry": { "type": "LineString", "coordinates": [ [ -94.319180494823897, 47.182477955798497 ], [ -94.319330500000703, 47.182417500008903 ] ] } },
{ "type": "Feature", "properties": { "wmUplineSo": "BOY RIVER", "wmType": "Underground" }, "geometry": { "type": "LineString", "coordinates": [ [ -94.309864426174201, 47.208755684736801 ], [ -94.309436800000597, 47.208677600008997 ] ] } },
{ "type": "Feature", "properties": { "wmUplineSo": "BOY RIVER", "wmType": "Underground" }, "geometry": { "type": "LineString", "coordinates": [ [ -94.309720585158303, 47.211112201165903 ], [ -94.310011296611506, 47.210942215053997 ] ] } },
{ "type": "Feature", "properties": { "wmUplineSo": "BOY RIVER", "wmType": "Underground" }, "geometry": { "type": "LineString", "coordinates": [ [ -94.189170599621804, 47.231411337337804 ], [ -94.188796865827896, 47.2314680147148 ] ] } },
{ "type": "Feature", "properties": { "wmUplineSo": "BOY RIVER", "wmType": "Underground" }, "geometry": { "type": "LineString", "coordinates": [ [ -94.309902116901597, 47.209761817485898 ], [ -94.309895300000605, 47.209748300008997 ] ] } },
{ "type": "Feature", "properties": { "wmUplineSo": "BOY RIVER", "wmType": "Underground" }, "geometry": { "type": "LineString", "coordinates": [ [ -94.309902116901597, 47.209761817485898 ], [ -94.309901100000602, 47.209796600009 ] ] } },
{ "type": "Feature", "properties": { "wmUplineSo": "BOY RIVER", "wmType": "Underground" }, "geometry": { "type": "LineString", "coordinates": [ [ -94.305320000081693, 47.2067860036165 ], [ -94.305358600000602, 47.206760000008998 ] ] } },
{ "type": "Feature", "properties": { "wmUplineSo": "BOY RIVER", "wmType": "Underground" }, "geometry": { "type": "LineString", "coordinates": [ [ -94.288086815645599, 47.174016478809598 ], [ -94.288082300000596, 47.174151600008898 ] ] } },
{ "type": "Feature", "properties": { "wmUplineSo": "BOY RIVER", "wmType": "Underground" }, "geometry": { "type": "LineString", "coordinates": [ [ -94.288007000080299, 47.174027003607499 ], [ -94.2879390000803, 47.174227003607598 ] ] } },
{ "type": "Feature", "properties": { "wmUplineSo": "BOY RIVER", "wmType": "Underground" }, "geometry": { "type": "LineString", "coordinates": [ [ -94.191010000074201, 47.212164003618199 ], [ -94.190984000074195, 47.212739003618303 ] ] } },
{ "type": "Feature", "properties": { "wmUplineSo": "BOY RIVER", "wmType": "Underground" }, "geometry": { "type": "LineString", "coordinates": [ [ -94.122328882951294, 47.183193159219599 ], [ -94.122271852560701, 47.183236699780501 ] ] } },
{ "type": "Feature", "properties": { "wmUplineSo": "BOY RIVER", "wmType": "Underground" }, "geometry": { "type": "LineString", "coordinates": [ [ -94.114599708240405, 47.196559441081803 ], [ -94.113583928259601, 47.196321101963001 ] ] } },
{ "type": "Feature", "properties": { "wmUplineSo": "BOY RIVER", "wmType": "Underground" }, "geometry": { "type": "LineString", "coordinates": [ [ -94.1212310000695, 47.1982350036144 ], [ -94.121134114324903, 47.197899257103302 ] ] } },
{ "type": "Feature", "properties": { "wmUplineSo": "BOY RIVER", "wmType": "Underground" }, "geometry": { "type": "LineString", "coordinates": [ [ -94.135384396424698, 47.186271326021 ], [ -94.135400292154898, 47.1859975680132 ] ] } },
{ "type": "Feature", "properties": { "wmUplineSo": "BOY RIVER", "wmType": "Underground" }, "geometry": { "type": "LineString", "coordinates": [ [ -94.137451521082198, 47.190395650437601 ], [ -94.137406862591106, 47.190535213241901 ] ] } },
{ "type": "Feature", "properties": { "wmUplineSo": "BOY RIVER", "wmType": "Underground" }, "geometry": { "type": "LineString", "coordinates": [ [ -94.1448458315393, 47.207818114311202 ], [ -94.144654458061595, 47.207684966730199 ] ] } },
{ "type": "Feature", "properties": { "wmUplineSo": "BOY RIVER", "wmType": "Underground" }, "geometry": { "type": "LineString", "coordinates": [ [ -94.155828371537794, 47.224582111193797 ], [ -94.153539000018796, 47.224846035939102 ] ] } },
{ "type": "Feature", "properties": { "wmUplineSo": "BOY RIVER", "wmType": "Underground" }, "geometry": { "type": "LineString", "coordinates": [ [ -94.190580984037595, 47.208264490838097 ], [ -94.190703413310104, 47.207994935588403 ] ] } },
{ "type": "Feature", "properties": { "wmUplineSo": "BOY RIVER", "wmType": "Underground" }, "geometry": { "type": "LineString", "coordinates": [ [ -94.194697, 47.212346000000103 ], [ -94.194726100000494, 47.212343600009 ] ] } },
{ "type": "Feature", "properties": { "wmUplineSo": "BOY RIVER", "wmType": "Underground" }, "geometry": { "type": "LineString", "coordinates": [ [ -94.205521204335696, 47.2250703564874 ], [ -94.205376600000506, 47.225305800008996 ] ] } },
{ "type": "Feature", "properties": { "wmUplineSo": "BOY RIVER", "wmType": "Underground" }, "geometry": { "type": "LineString", "coordinates": [ [ -94.207529523047498, 47.229752528969101 ], [ -94.207491300000498, 47.229963600009 ] ] } },
{ "type": "Feature", "properties": { "wmUplineSo": "BOY RIVER", "wmType": "Underground" }, "geometry": { "type": "LineString", "coordinates": [ [ -94.213206450771693, 47.228160418382899 ], [ -94.213137315282793, 47.228447721747202 ] ] } },
{ "type": "Feature", "properties": { "wmUplineSo": "BOY RIVER", "wmType": "Underground" }, "geometry": { "type": "LineString", "coordinates": [ [ -94.305124645824606, 47.185881629102703 ], [ -94.305307200000598, 47.186350700009001 ] ] } },
{ "type": "Feature", "properties": { "wmUplineSo": "BOY RIVER", "wmType": "Underground" }, "geometry": { "type": "LineString", "coordinates": [ [ -94.304029557938705, 47.183978713592303 ], [ -94.303560400000606, 47.184043800009 ] ] } },
{ "type": "Feature", "properties": { "wmUplineSo": "BOY RIVER", "wmType": "Underground" }, "geometry": { "type": "LineString", "coordinates": [ [ -94.294114171309005, 47.173075782449096 ], [ -94.294099626216195, 47.173246725324702 ] ] } },
{ "type": "Feature", "properties": { "wmUplineSo": "BOY RIVER", "wmType": "Underground" }, "geometry": { "type": "LineString", "coordinates": [ [ -94.296793503886803, 47.166920612858497 ], [ -94.296425000000596, 47.166845400009002 ] ] } },
{ "type": "Feature", "properties": { "wmUplineSo": "BOY RIVER", "wmType": "Underground" }, "geometry": { "type": "LineString", "coordinates": [ [ -94.295746561074694, 47.168356340938601 ], [ -94.295757300000602, 47.168339900008903 ] ] } },
{ "type": "Feature", "properties": { "wmUplineSo": "BOY RIVER", "wmType": "Underground" }, "geometry": { "type": "LineString", "coordinates": [ [ -94.295617045583398, 47.167374676417801 ], [ -94.295620000000596, 47.167347300008998 ] ] } },
{ "type": "Feature", "properties": { "wmUplineSo": "BOY RIVER", "wmType": "Underground" }, "geometry": { "type": "LineString", "coordinates": [ [ -94.287522000080301, 47.1741730036075 ], [ -94.287269000000606, 47.173997100008897 ] ] } },
{ "type": "Feature", "properties": { "wmUplineSo": "BOY RIVER", "wmType": "Underground" }, "geometry": { "type": "LineString", "coordinates": [ [ -94.287522000080301, 47.1741730036075 ], [ -94.287521800000604, 47.174162400009003 ] ] } },
{ "type": "Feature", "properties": { "wmUplineSo": "BOY RIVER", "wmType": "Underground" }, "geometry": { "type": "LineString", "coordinates": [ [ -94.287839967813198, 47.173543542985698 ], [ -94.287405400000594, 47.173532600008997 ] ] } },
{ "type": "Feature", "properties": { "wmUplineSo": "BOY RIVER", "wmType": "Underground" }, "geometry": { "type": "LineString", "coordinates": [ [ -94.287839967813198, 47.173543542985698 ], [ -94.287364000000593, 47.173515500008897 ] ] } },
{ "type": "Feature", "properties": { "wmUplineSo": "BOY RIVER", "wmType": "Underground" }, "geometry": { "type": "LineString", "coordinates": [ [ -94.288069030186705, 47.172967960530499 ], [ -94.288257400000603, 47.172713900009001 ] ] } },
{ "type": "Feature", "properties": { "wmUplineSo": "BOY RIVER", "wmType": "Underground" }, "geometry": { "type": "LineString", "coordinates": [ [ -94.288069030186705, 47.172967960530499 ], [ -94.287254000000601, 47.172852600008902 ] ] } },
{ "type": "Feature", "properties": { "wmUplineSo": "BOY RIVER", "wmType": "Underground" }, "geometry": { "type": "LineString", "coordinates": [ [ -94.287533212099504, 47.172504732299899 ], [ -94.287448400000599, 47.172674600008897 ] ] } },
{ "type": "Feature", "properties": { "wmUplineSo": "BOY RIVER", "wmType": "Underground" }, "geometry": { "type": "LineString", "coordinates": [ [ -94.290830142584795, 47.172436741366397 ], [ -94.290814700000595, 47.172492800009003 ] ] } },
{ "type": "Feature", "properties": { "wmUplineSo": "BOY RIVER", "wmType": "Underground" }, "geometry": { "type": "LineString", "coordinates": [ [ -94.289310170524303, 47.1692202874411 ], [ -94.289262400000595, 47.169032600008897 ] ] } },
{ "type": "Feature", "properties": { "wmUplineSo": "BOY RIVER", "wmType": "Underground" }, "geometry": { "type": "LineString", "coordinates": [ [ -94.312601303674896, 47.195255666640499 ], [ -94.313095600000594, 47.195148300009002 ] ] } },
{ "type": "Feature", "properties": { "wmUplineSo": "BOY RIVER", "wmType": "Underground" }, "geometry": { "type": "LineString", "coordinates": [ [ -94.314182950869693, 47.192670396454098 ], [ -94.313678100000601, 47.192597300008998 ] ] } },
{ "type": "Feature", "properties": { "wmUplineSo": "BOY RIVER", "wmType": "Underground" }, "geometry": { "type": "LineString", "coordinates": [ [ -94.320172382889098, 47.1697635703716 ], [ -94.320349500000702, 47.169953500008901 ] ] } },
{ "type": "Feature", "properties": { "wmUplineSo": "BOY RIVER", "wmType": "Underground" }, "geometry": { "type": "LineString", "coordinates": [ [ -94.320172382889098, 47.1697635703716 ], [ -94.3199443000006, 47.169698100009001 ] ] } },
{ "type": "Feature", "properties": { "wmUplineSo": "BOY RIVER", "wmType": "Underground" }, "geometry": { "type": "LineString", "coordinates": [ [ -94.320656939836894, 47.170624994107598 ], [ -94.320826800000603, 47.170667000008997 ] ] } },
{ "type": "Feature", "properties": { "wmUplineSo": "BOY RIVER", "wmType": "Underground" }, "geometry": { "type": "LineString", "coordinates": [ [ -94.320656939836894, 47.170624994107598 ], [ -94.320328600000593, 47.170429600008902 ] ] } },
{ "type": "Feature", "properties": { "wmUplineSo": "BOY RIVER", "wmType": "Underground" }, "geometry": { "type": "LineString", "coordinates": [ [ -94.318960050496699, 47.175874318368102 ], [ -94.3191382508017, 47.175892589950799 ] ] } },
{ "type": "Feature", "properties": { "wmUplineSo": "BOY RIVER", "wmType": "Underground" }, "geometry": { "type": "LineString", "coordinates": [ [ -94.318902115408704, 47.177446321333001 ], [ -94.319297000000702, 47.177656600008902 ] ] } },
{ "type": "Feature", "properties": { "wmUplineSo": "BOY RIVER", "wmType": "Underground" }, "geometry": { "type": "LineString", "coordinates": [ [ -94.318902115408704, 47.177446321333001 ], [ -94.319295200000596, 47.177259100009003 ] ] } },
{ "type": "Feature", "properties": { "wmUplineSo": "BOY RIVER", "wmType": "Underground" }, "geometry": { "type": "LineString", "coordinates": [ [ -94.318403681212899, 47.177255833462297 ], [ -94.318206805315398, 47.177303250167697 ] ] } },
{ "type": "Feature", "properties": { "wmUplineSo": "BOY RIVER", "wmType": "Underground" }, "geometry": { "type": "LineString", "coordinates": [ [ -94.3198113196853, 47.178058689059803 ], [ -94.3200306100006, 47.178129600008901 ] ] } },
{ "type": "Feature", "properties": { "wmUplineSo": "BOY RIVER", "wmType": "Underground" }, "geometry": { "type": "LineString", "coordinates": [ [ -94.318314560315997, 47.1778247109429 ], [ -94.318192000000593, 47.177864200008997 ] ] } },
{ "type": "Feature", "properties": { "wmUplineSo": "BOY RIVER", "wmType": "Underground" }, "geometry": { "type": "LineString", "coordinates": [ [ -94.319318304043804, 47.180984410466799 ], [ -94.319107000000699, 47.180944200009002 ] ] } },
{ "type": "Feature", "properties": { "wmUplineSo": "BOY RIVER", "wmType": "Underground" }, "geometry": { "type": "LineString", "coordinates": [ [ -94.319200366255004, 47.182039641568799 ], [ -94.319208900000604, 47.182082400009001 ] ] } },
{ "type": "Feature", "properties": { "wmUplineSo": "BOY RIVER", "wmType": "Underground" }, "geometry": { "type": "LineString", "coordinates": [ [ -94.319200366255004, 47.182039641568799 ], [ -94.319076200000694, 47.181916400009001 ] ] } },
{ "type": "Feature", "properties": { "wmUplineSo": "BOY RIVER", "wmType": "Underground" }, "geometry": { "type": "LineString", "coordinates": [ [ -94.319563337615406, 47.182820205031298 ], [ -94.319432300000699, 47.182853100008998 ] ] } },
{ "type": "Feature", "properties": { "wmUplineSo": "BOY RIVER", "wmType": "Underground" }, "geometry": { "type": "LineString", "coordinates": [ [ -94.319123370436301, 47.183442401374499 ], [ -94.319160400000698, 47.183386500009 ] ] } },
{ "type": "Feature", "properties": { "wmUplineSo": "BOY RIVER", "wmType": "Underground" }, "geometry": { "type": "LineString", "coordinates": [ [ -94.316753809913706, 47.187214628718202 ], [ -94.316063600000604, 47.187257000008998 ] ] } },
{ "type": "Feature", "properties": { "wmUplineSo": "BOY RIVER", "wmType": "Underground" }, "geometry": { "type": "LineString", "coordinates": [ [ -94.316753809913706, 47.187214628718202 ], [ -94.316397445877499, 47.186636801511199 ] ] } },
{ "type": "Feature", "properties": { "wmUplineSo": "BOY RIVER", "wmType": "Underground" }, "geometry": { "type": "LineString", "coordinates": [ [ -94.316753809913706, 47.187214628718202 ], [ -94.316909726104001, 47.187439409771898 ] ] } },
{ "type": "Feature", "properties": { "wmUplineSo": "BOY RIVER", "wmType": "Underground" }, "geometry": { "type": "LineString", "coordinates": [ [ -94.316753809913706, 47.187214628718202 ], [ -94.316976800000702, 47.186978800009001 ] ] } },
{ "type": "Feature", "properties": { "wmUplineSo": "BOY RIVER", "wmType": "Underground" }, "geometry": { "type": "LineString", "coordinates": [ [ -94.315638, 47.190503 ], [ -94.315556061233195, 47.190666833881899 ], [ -94.315187100000699, 47.190613600009002 ] ] } },
{ "type": "Feature", "properties": { "wmUplineSo": "BOY RIVER", "wmType": "Underground" }, "geometry": { "type": "LineString", "coordinates": [ [ -94.315638, 47.190503 ], [ -94.315716299014298, 47.190459969558901 ] ] } },
{ "type": "Feature", "properties": { "wmUplineSo": "BOY RIVER", "wmType": "Underground" }, "geometry": { "type": "LineString", "coordinates": [ [ -94.312631175828798, 47.189806151438901 ], [ -94.313027100000596, 47.190088400009003 ] ] } },
{ "type": "Feature", "properties": { "wmUplineSo": "BOY RIVER", "wmType": "Underground" }, "geometry": { "type": "LineString", "coordinates": [ [ -94.312196139836303, 47.189735219448998 ], [ -94.312424000000604, 47.189391400009001 ] ] } },
{ "type": "Feature", "properties": { "wmUplineSo": "BOY RIVER", "wmType": "Underground" }, "geometry": { "type": "LineString", "coordinates": [ [ -94.309768836456797, 47.189879427319902 ], [ -94.306834300000602, 47.190091800009 ] ] } },
{ "type": "Feature", "properties": { "wmUplineSo": "BOY RIVER", "wmType": "Underground" }, "geometry": { "type": "LineString", "coordinates": [ [ -94.313107399828198, 47.191480588597898 ], [ -94.312964177580099, 47.1915757831378 ] ] } },
{ "type": "Feature", "properties": { "wmUplineSo": "BOY RIVER", "wmType": "Underground" }, "geometry": { "type": "LineString", "coordinates": [ [ -94.313107399828198, 47.191480588597898 ], [ -94.313801900000598, 47.190853500008998 ] ] } },
{ "type": "Feature", "properties": { "wmUplineSo": "BOY RIVER", "wmType": "Underground" }, "geometry": { "type": "LineString", "coordinates": [ [ -94.191127055200198, 47.234945502798098 ], [ -94.191496427931796, 47.234776292984201 ] ] } },
{ "type": "Feature", "properties": { "wmUplineSo": "BOY RIVER", "wmType": "Underground" }, "geometry": { "type": "LineString", "coordinates": [ [ -94.190984000074195, 47.212739003618303 ], [ -94.191091000074195, 47.212759003618501 ] ] } },
{ "type": "Feature", "properties": { "wmUplineSo": "BOY RIVER", "wmType": "Underground" }, "geometry": { "type": "LineString", "coordinates": [ [ -94.309308561796996, 47.205383872905898 ], [ -94.309252100000606, 47.205540700009003 ] ] } },
{ "type": "Feature", "properties": { "wmUplineSo": "BOY RIVER", "wmType": "Underground" }, "geometry": { "type": "LineString", "coordinates": [ [ -94.309308561796996, 47.205383872905898 ], [ -94.309095500000595, 47.205323400009 ] ] } },
{ "type": "Feature", "properties": { "wmUplineSo": "BOY RIVER", "wmType": "Underground" }, "geometry": { "type": "LineString", "coordinates": [ [ -94.315708831923502, 47.189439071759999 ], [ -94.315662300000696, 47.190206500008998 ] ] } },
{ "type": "Feature", "properties": { "wmUplineSo": "BOY RIVER", "wmType": "Underground" }, "geometry": { "type": "LineString", "coordinates": [ [ -94.287969364476993, 47.174497354305998 ], [ -94.288389300000603, 47.174341600009001 ] ] } },
{ "type": "Feature", "properties": { "wmUplineSo": "BOY RIVER", "wmType": "Underground" }, "geometry": { "type": "LineString", "coordinates": [ [ -94.288111440673404, 47.175003614848301 ], [ -94.288260246745295, 47.174913790042197 ], [ -94.289367678223002, 47.174901329824003 ], [ -94.289471432462904, 47.174932304033597 ], [ -94.289635451311497, 47.175000694061701 ], [ -94.289684782591394, 47.175019185845201 ], [ -94.289874261881806, 47.175057527622997 ], [ -94.289993420948207, 47.1751478503786 ], [ -94.2899634456017, 47.175207710438102 ], [ -94.2898539324827, 47.175299417847299 ], [ -94.2899225000006, 47.175421500009001 ] ] } },
{ "type": "Feature", "properties": { "wmUplineSo": "BOY RIVER", "wmType": "Underground" }, "geometry": { "type": "LineString", "coordinates": [ [ -94.288111440673404, 47.175003614848301 ], [ -94.286751300000603, 47.174630100008997 ] ] } },
{ "type": "Feature", "properties": { "wmUplineSo": "BOY RIVER", "wmType": "Underground" }, "geometry": { "type": "LineString", "coordinates": [ [ -94.288111440673404, 47.175003614848301 ], [ -94.288511500000595, 47.175342200008998 ] ] } },
{ "type": "Feature", "properties": { "wmUplineSo": "BOY RIVER", "wmType": "Underground" }, "geometry": { "type": "LineString", "coordinates": [ [ -94.309650473542604, 47.210563017606397 ], [ -94.309925100000598, 47.210754000008997 ] ] } },
{ "type": "Feature", "properties": { "wmUplineSo": "BOY RIVER", "wmType": "Underground" }, "geometry": { "type": "LineString", "coordinates": [ [ -94.309650473542604, 47.210563017606397 ], [ -94.309823500000604, 47.210654400008998 ] ] } },
{ "type": "Feature", "properties": { "wmUplineSo": "BOY RIVER", "wmType": "Underground" }, "geometry": { "type": "LineString", "coordinates": [ [ -94.309697819033104, 47.210230112644197 ], [ -94.3097623000006, 47.210252800009002 ] ] } },
{ "type": "Feature", "properties": { "wmUplineSo": "BOY RIVER", "wmType": "Underground" }, "geometry": { "type": "LineString", "coordinates": [ [ -94.199771529525506, 47.2172010445667 ], [ -94.199492000000504, 47.216899100009002 ] ] } },
{ "type": "Feature", "properties": { "wmUplineSo": "BOY RIVER", "wmType": "Underground" }, "geometry": { "type": "LineString", "coordinates": [ [ -94.310466422288499, 47.205928641690598 ], [ -94.3105503000006, 47.206018800008998 ] ] } },
{ "type": "Feature", "properties": { "wmUplineSo": "BOY RIVER", "wmType": "Underground" }, "geometry": { "type": "LineString", "coordinates": [ [ -94.310466422288499, 47.205928641690598 ], [ -94.310534800000596, 47.206024600009002 ] ] } },
{ "type": "Feature", "properties": { "wmUplineSo": "BOY RIVER", "wmType": "Underground" }, "geometry": { "type": "LineString", "coordinates": [ [ -94.309643109121097, 47.206234172104899 ], [ -94.309476300000597, 47.206004100008997 ] ] } },
{ "type": "Feature", "properties": { "wmUplineSo": "BOY RIVER", "wmType": "Underground" }, "geometry": { "type": "LineString", "coordinates": [ [ -94.309643109121097, 47.206234172104899 ], [ -94.309983600000606, 47.206392300009 ] ] } },
{ "type": "Feature", "properties": { "wmUplineSo": "BOY RIVER", "wmType": "Underground" }, "geometry": { "type": "LineString", "coordinates": [ [ -94.309466422876994, 47.205383671015298 ], [ -94.309971700000602, 47.205263600008998 ] ] } },
{ "type": "Feature", "properties": { "wmUplineSo": "BOY RIVER", "wmType": "Underground" }, "geometry": { "type": "LineString", "coordinates": [ [ -94.303947725444999, 47.2077090699309 ], [ -94.303775048059705, 47.207873430969798 ], [ -94.303822387523795, 47.208037854142702 ], [ -94.303686900000599, 47.208062100009002 ] ] } },
{ "type": "Feature", "properties": { "wmUplineSo": "BOY RIVER", "wmType": "Underground" }, "geometry": { "type": "LineString", "coordinates": [ [ -94.320700051545302, 47.1714914432374 ], [ -94.320921969285905, 47.171293030584998 ] ] } },
{ "type": "Feature", "properties": { "wmUplineSo": "BOY RIVER", "wmType": "Underground" }, "geometry": { "type": "LineString", "coordinates": [ [ -94.320860393816005, 47.1716675354267 ], [ -94.3211768000007, 47.1719173000089 ] ] } },
{ "type": "Feature", "properties": { "wmUplineSo": "BOY RIVER", "wmType": "Underground" }, "geometry": { "type": "LineString", "coordinates": [ [ -94.320860393816005, 47.1716675354267 ], [ -94.321046300000702, 47.171538800008904 ] ] } },
{ "type": "Feature", "properties": { "wmUplineSo": "BOY RIVER", "wmType": "Underground" }, "geometry": { "type": "LineString", "coordinates": [ [ -94.309864426174201, 47.208755684736801 ], [ -94.310527500000603, 47.208487440009002 ] ] } },
{ "type": "Feature", "properties": { "wmUplineSo": "BOY RIVER", "wmType": "Underground" }, "geometry": { "type": "LineString", "coordinates": [ [ -94.309882017165904, 47.209203007112599 ], [ -94.310306100000602, 47.209374500008998 ] ] } },
{ "type": "Feature", "properties": { "wmUplineSo": "BOY RIVER", "wmType": "Underground" }, "geometry": { "type": "LineString", "coordinates": [ [ -94.2963627141297, 47.167835829136202 ], [ -94.296255813934494, 47.167608929194799 ] ] } },
{ "type": "Feature", "properties": { "wmUplineSo": "BOY RIVER", "wmType": "Underground" }, "geometry": { "type": "LineString", "coordinates": [ [ -94.2963627141297, 47.167835829136202 ], [ -94.296184814034007, 47.167695829225998 ] ] } },
{ "type": "Feature", "properties": { "wmUplineSo": "BOY RIVER", "wmType": "Underground" }, "geometry": { "type": "LineString", "coordinates": [ [ -94.289918584410202, 47.169861438711798 ], [ -94.290181800000596, 47.169776000008902 ] ] } },
{ "type": "Feature", "properties": { "wmUplineSo": "BOY RIVER", "wmType": "Underground" }, "geometry": { "type": "LineString", "coordinates": [ [ -94.289918584410202, 47.169861438711798 ], [ -94.2900271000006, 47.170096700008898 ] ] } },
{ "type": "Feature", "properties": { "wmUplineSo": "BOY RIVER", "wmType": "Underground" }, "geometry": { "type": "LineString", "coordinates": [ [ -94.289883403332098, 47.170282251936698 ], [ -94.290221800000594, 47.170268900008899 ] ] } },
{ "type": "Feature", "properties": { "wmUplineSo": "BOY RIVER", "wmType": "Underground" }, "geometry": { "type": "LineString", "coordinates": [ [ -94.289901845406604, 47.170664489639996 ], [ -94.290157500000603, 47.170620600008903 ] ] } },
{ "type": "Feature", "properties": { "wmUplineSo": "BOY RIVER", "wmType": "Underground" }, "geometry": { "type": "LineString", "coordinates": [ [ -94.2899256001879, 47.1714086592035 ], [ -94.290272600000606, 47.171431700008903 ] ] } },
{ "type": "Feature", "properties": { "wmUplineSo": "BOY RIVER", "wmType": "Underground" }, "geometry": { "type": "LineString", "coordinates": [ [ -94.2871973037429, 47.1716657668007 ], [ -94.286848800000598, 47.171334100008899 ] ] } },
{ "type": "Feature", "properties": { "wmUplineSo": "BOY RIVER", "wmType": "Underground" }, "geometry": { "type": "LineString", "coordinates": [ [ -94.2871973037429, 47.1716657668007 ], [ -94.2870247000006, 47.171854000008899 ] ] } },
{ "type": "Feature", "properties": { "wmUplineSo": "BOY RIVER", "wmType": "Underground" }, "geometry": { "type": "LineString", "coordinates": [ [ -94.107309508076199, 47.181642988094403 ], [ -94.107287655723297, 47.1816560502443 ] ] } },
{ "type": "Feature", "properties": { "wmUplineSo": "BOY RIVER", "wmType": "Underground" }, "geometry": { "type": "LineString", "coordinates": [ [ -94.198286602068293, 47.226483252701499 ], [ -94.198001312986705, 47.226546873347502 ], [ -94.197289035876494, 47.226505409338301 ], [ -94.197141900000503, 47.226557300008999 ] ] } },
{ "type": "Feature", "properties": { "wmUplineSo": "BOY RIVER", "wmType": "Underground" }, "geometry": { "type": "LineString", "coordinates": [ [ -94.288211724733003, 47.173449885772897 ], [ -94.288217800000595, 47.173332700008999 ] ] } },
{ "type": "Feature", "properties": { "wmUplineSo": "BOY RIVER", "wmType": "Underground" }, "geometry": { "type": "LineString", "coordinates": [ [ -94.310074948791794, 47.204594665085601 ], [ -94.310384700000597, 47.204771400009001 ] ] } },
{ "type": "Feature", "properties": { "wmUplineSo": "BOY RIVER", "wmType": "Underground" }, "geometry": { "type": "LineString", "coordinates": [ [ -94.2905519511297, 47.171894223562802 ], [ -94.290171700000599, 47.171859800009003 ] ] } },
{ "type": "Feature", "properties": { "wmUplineSo": "BOY RIVER", "wmType": "Underground" }, "geometry": { "type": "LineString", "coordinates": [ [ -94.295880589487894, 47.183991689293201 ], [ -94.294903900000605, 47.184315300008898 ] ] } },
{ "type": "Feature", "properties": { "wmUplineSo": "BOY RIVER", "wmType": "Underground" }, "geometry": { "type": "LineString", "coordinates": [ [ -94.310603135502603, 47.2070168474594 ], [ -94.311009321273104, 47.206994460344497 ] ] } },
{ "type": "Feature", "properties": { "wmUplineSo": "BOY RIVER", "wmType": "Underground" }, "geometry": { "type": "LineString", "coordinates": [ [ -94.297333730505599, 47.168154983015498 ], [ -94.297278500000601, 47.168232300008903 ] ] } },
{ "type": "Feature", "properties": { "wmUplineSo": "BOY RIVER", "wmType": "Underground" }, "geometry": { "type": "LineString", "coordinates": [ [ -94.313899588579304, 47.192202367298002 ], [ -94.313877600000595, 47.192059500009002 ] ] } },
{ "type": "Feature", "properties": { "wmUplineSo": "BOY RIVER", "wmType": "Underground" }, "geometry": { "type": "LineString", "coordinates": [ [ -94.104585000068298, 47.180808003609698 ], [ -94.104404501851107, 47.180720764653799 ], [ -94.104404245923504, 47.1807084246119 ], [ -94.104288000068294, 47.180607003609502 ], [ -94.104288000068294, 47.180603003609498 ] ] } },
{ "type": "Feature", "properties": { "wmUplineSo": "BOY RIVER", "wmType": "Underground" }, "geometry": { "type": "LineString", "coordinates": [ [ -94.3072188285241, 47.205944065045898 ], [ -94.307220164041098, 47.205918189105397 ] ] } },
{ "type": "Feature", "properties": { "wmUplineSo": "BOY RIVER", "wmType": "Underground" }, "geometry": { "type": "LineString", "coordinates": [ [ -94.296927054792604, 47.173049003551803 ], [ -94.297482900000603, 47.173461800008901 ] ] } },
{ "type": "Feature", "properties": { "wmUplineSo": "BOY RIVER", "wmType": "Underground" }, "geometry": { "type": "LineString", "coordinates": [ [ -94.296927054792604, 47.173049003551803 ], [ -94.297408200000604, 47.172780500008898 ] ] } },
{ "type": "Feature", "properties": { "wmUplineSo": "BOY RIVER", "wmType": "Underground" }, "geometry": { "type": "LineString", "coordinates": [ [ -94.296551601298901, 47.173089297483401 ], [ -94.296334766902405, 47.173325175823202 ] ] } },
{ "type": "Feature", "properties": { "wmUplineSo": "BOY RIVER", "wmType": "Underground" }, "geometry": { "type": "LineString", "coordinates": [ [ -94.306834300000602, 47.190091800009 ], [ -94.306863529671105, 47.190098567043101 ] ] } },
{ "type": "Feature", "properties": { "wmUplineSo": "BOY RIVER", "wmType": "Underground" }, "geometry": { "type": "LineString", "coordinates": [ [ -94.289483288118802, 47.169471003048102 ], [ -94.289310170524303, 47.1692202874411 ] ] } },
{ "type": "Feature", "properties": { "wmUplineSo": "BOY RIVER", "wmType": "Underground" }, "geometry": { "type": "LineString", "coordinates": [ [ -94.305606125324104, 47.184305199830803 ], [ -94.305564700000602, 47.1843976000089 ] ] } },
{ "type": "Feature", "properties": { "wmUplineSo": "BOY RIVER", "wmType": "Underground" }, "geometry": { "type": "LineString", "coordinates": [ [ -94.309900631360804, 47.206999555683304 ], [ -94.310603135502603, 47.2070168474594 ] ] } },
{ "type": "Feature", "properties": { "wmUplineSo": "BOY RIVER", "wmType": "Underground" }, "geometry": { "type": "LineString", "coordinates": [ [ -94.289310170524303, 47.1692202874411 ], [ -94.289299000080305, 47.169203003606299 ] ] } },
{ "type": "Feature", "properties": { "wmUplineSo": "BOY RIVER", "wmType": "Underground" }, "geometry": { "type": "LineString", "coordinates": [ [ -94.104288000068294, 47.180603003609498 ], [ -94.104290000068303, 47.1806130036097 ] ] } },
{ "type": "Feature", "properties": { "wmUplineSo": "BOY RIVER", "wmType": "Underground" }, "geometry": { "type": "LineString", "coordinates": [ [ -94.309882017165904, 47.209203007112599 ], [ -94.310315419953795, 47.2091721620274 ] ] } },
{ "type": "Feature", "properties": { "wmUplineSo": "BOY RIVER", "wmType": "Underground" }, "geometry": { "type": "LineString", "coordinates": [ [ -94.185922885821, 47.215234767486997 ], [ -94.185570767436303, 47.215304376745699 ] ] } },
{ "type": "Feature", "properties": { "wmUplineSo": "BOY RIVER", "wmType": "Underground" }, "geometry": { "type": "LineString", "coordinates": [ [ -94.191091000074195, 47.212759003618501 ], [ -94.191091000074195, 47.212779003618301 ] ] } },
{ "type": "Feature", "properties": { "wmUplineSo": "BOY RIVER", "wmType": "Underground" }, "geometry": { "type": "LineString", "coordinates": [ [ -94.305318000081797, 47.2067860036165 ], [ -94.305320000081693, 47.2067860036165 ] ] } },
{ "type": "Feature", "properties": { "wmUplineSo": "BOY RIVER", "wmType": "Underground" }, "geometry": { "type": "LineString", "coordinates": [ [ -94.185570767436303, 47.215304376745699 ], [ -94.185550248951202, 47.2153135038036 ] ] } },
{ "type": "Feature", "properties": { "wmUplineSo": "BOY RIVER", "wmType": "Underground" }, "geometry": { "type": "LineString", "coordinates": [ [ -94.309426482499006, 47.213509598585802 ], [ -94.310029161217102, 47.213771597754103 ] ] } },
{ "type": "Feature", "properties": { "wmUplineSo": "BOY RIVER", "wmType": "Underground" }, "geometry": { "type": "LineString", "coordinates": [ [ -94.308889578274005, 47.211341501107597 ], [ -94.309720585158303, 47.211112201165903 ] ] } },
{ "type": "Feature", "properties": { "wmUplineSo": "BOY RIVER", "wmType": "Underground" }, "geometry": { "type": "LineString", "coordinates": [ [ -94.309882017165904, 47.209203007112599 ], [ -94.309864426174201, 47.208755684736801 ] ] } },
{ "type": "Feature", "properties": { "wmUplineSo": "BOY RIVER", "wmType": "Underground" }, "geometry": { "type": "LineString", "coordinates": [ [ -94.1886288622064, 47.230989913738902 ], [ -94.188292308309201, 47.229631211913301 ] ] } },
{ "type": "Feature", "properties": { "wmUplineSo": "BOY RIVER", "wmType": "Underground" }, "geometry": { "type": "LineString", "coordinates": [ [ -94.122233754672095, 47.182749195186602 ], [ -94.122328882951294, 47.183193159219599 ] ] } },
{ "type": "Feature", "properties": { "wmUplineSo": "BOY RIVER", "wmType": "Underground" }, "geometry": { "type": "LineString", "coordinates": [ [ -94.135945349445805, 47.186523238394699 ], [ -94.135384396424698, 47.186271326021 ] ] } },
{ "type": "Feature", "properties": { "wmUplineSo": "BOY RIVER", "wmType": "Underground" }, "geometry": { "type": "LineString", "coordinates": [ [ -94.136278584840795, 47.186633830665002 ], [ -94.135945349445805, 47.186523238394699 ] ] } },
{ "type": "Feature", "properties": { "wmUplineSo": "BOY RIVER", "wmType": "Underground" }, "geometry": { "type": "LineString", "coordinates": [ [ -94.136402417751995, 47.190580353897403 ], [ -94.137080192753004, 47.190315635552203 ], [ -94.137451521082198, 47.190395650437601 ] ] } },
{ "type": "Feature", "properties": { "wmUplineSo": "BOY RIVER", "wmType": "Underground" }, "geometry": { "type": "LineString", "coordinates": [ [ -94.136292327172598, 47.190550248640299 ], [ -94.136402417751995, 47.190580353897403 ] ] } },
{ "type": "Feature", "properties": { "wmUplineSo": "BOY RIVER", "wmType": "Underground" }, "geometry": { "type": "LineString", "coordinates": [ [ -94.1443603227967, 47.209503311124998 ], [ -94.144397980417594, 47.209471078336598 ] ] } },
{ "type": "Feature", "properties": { "wmUplineSo": "BOY RIVER", "wmType": "Underground" }, "geometry": { "type": "LineString", "coordinates": [ [ -94.193545932045495, 47.2113970759385 ], [ -94.190580984037595, 47.208264490838097 ] ] } },
{ "type": "Feature", "properties": { "wmUplineSo": "BOY RIVER", "wmType": "Underground" }, "geometry": { "type": "LineString", "coordinates": [ [ -94.193781901645906, 47.211608735900697 ], [ -94.193545932045495, 47.2113970759385 ] ] } },
{ "type": "Feature", "properties": { "wmUplineSo": "BOY RIVER", "wmType": "Underground" }, "geometry": { "type": "LineString", "coordinates": [ [ -94.19878865794, 47.216842148599703 ], [ -94.198946388793601, 47.216907106101097 ] ] } },
{ "type": "Feature", "properties": { "wmUplineSo": "BOY RIVER", "wmType": "Underground" }, "geometry": { "type": "LineString", "coordinates": [ [ -94.206186336069607, 47.226529117052401 ], [ -94.2063095473478, 47.225833509210901 ], [ -94.205521204335696, 47.2250703564874 ] ] } },
{ "type": "Feature", "properties": { "wmUplineSo": "BOY RIVER", "wmType": "Underground" }, "geometry": { "type": "LineString", "coordinates": [ [ -94.207143353561094, 47.226602117366397 ], [ -94.208838861596504, 47.228813393500801 ], [ -94.207529523047498, 47.229752528969101 ] ] } },
{ "type": "Feature", "properties": { "wmUplineSo": "BOY RIVER", "wmType": "Underground" }, "geometry": { "type": "LineString", "coordinates": [ [ -94.304029557938705, 47.183978713592303 ], [ -94.304908337549904, 47.1840015533163 ], [ -94.304920329177904, 47.1843165485773 ] ] } },
{ "type": "Feature", "properties": { "wmUplineSo": "BOY RIVER", "wmType": "Underground" }, "geometry": { "type": "LineString", "coordinates": [ [ -94.294786146140495, 47.172229752994603 ], [ -94.294114171309005, 47.173075782449096 ] ] } },
{ "type": "Feature", "properties": { "wmUplineSo": "BOY RIVER", "wmType": "Underground" }, "geometry": { "type": "LineString", "coordinates": [ [ -94.295277339110399, 47.167854371577299 ], [ -94.295666489856799, 47.167616927576397 ], [ -94.295617045583398, 47.167374676417801 ] ] } },
{ "type": "Feature", "properties": { "wmUplineSo": "BOY RIVER", "wmType": "Underground" }, "geometry": { "type": "LineString", "coordinates": [ [ -94.288007000080299, 47.174027003607499 ], [ -94.287522000080301, 47.1741730036075 ] ] } },
{ "type": "Feature", "properties": { "wmUplineSo": "BOY RIVER", "wmType": "Underground" }, "geometry": { "type": "LineString", "coordinates": [ [ -94.288117035923307, 47.172235321972998 ], [ -94.287533212099504, 47.172504732299899 ] ] } },
{ "type": "Feature", "properties": { "wmUplineSo": "BOY RIVER", "wmType": "Underground" }, "geometry": { "type": "LineString", "coordinates": [ [ -94.288396549032001, 47.169623541189203 ], [ -94.289483288118802, 47.169471003048102 ] ] } },
{ "type": "Feature", "properties": { "wmUplineSo": "BOY RIVER", "wmType": "Underground" }, "geometry": { "type": "LineString", "coordinates": [ [ -94.288117035923307, 47.172235321972998 ], [ -94.288081115654606, 47.1723463908301 ] ] } },
{ "type": "Feature", "properties": { "wmUplineSo": "BOY RIVER", "wmType": "Underground" }, "geometry": { "type": "LineString", "coordinates": [ [ -94.288081115654606, 47.1723463908301 ], [ -94.288069030186705, 47.172967960530499 ] ] } },
{ "type": "Feature", "properties": { "wmUplineSo": "BOY RIVER", "wmType": "Underground" }, "geometry": { "type": "LineString", "coordinates": [ [ -94.290818241331706, 47.172257293645799 ], [ -94.2905519511297, 47.171894223562802 ] ] } },
{ "type": "Feature", "properties": { "wmUplineSo": "BOY RIVER", "wmType": "Underground" }, "geometry": { "type": "LineString", "coordinates": [ [ -94.290818241331706, 47.172257293645799 ], [ -94.290830142584795, 47.172436741366397 ] ] } },
{ "type": "Feature", "properties": { "wmUplineSo": "BOY RIVER", "wmType": "Underground" }, "geometry": { "type": "LineString", "coordinates": [ [ -94.311358169258298, 47.194897791367197 ], [ -94.312601303674896, 47.195255666640399 ], [ -94.312601303674896, 47.195255666640499 ] ] } },
{ "type": "Feature", "properties": { "wmUplineSo": "BOY RIVER", "wmType": "Underground" }, "geometry": { "type": "LineString", "coordinates": [ [ -94.313958100000605, 47.192700500009003 ], [ -94.314182950869693, 47.192670396454098 ] ] } },
{ "type": "Feature", "properties": { "wmUplineSo": "BOY RIVER", "wmType": "Underground" }, "geometry": { "type": "LineString", "coordinates": [ [ -94.320121960524801, 47.169922994049998 ], [ -94.320172382889098, 47.1697635703716 ] ] } },
{ "type": "Feature", "properties": { "wmUplineSo": "BOY RIVER", "wmType": "Underground" }, "geometry": { "type": "LineString", "coordinates": [ [ -94.3186896264437, 47.175802939680999 ], [ -94.318960050496699, 47.175874318368102 ] ] } },
{ "type": "Feature", "properties": { "wmUplineSo": "BOY RIVER", "wmType": "Underground" }, "geometry": { "type": "LineString", "coordinates": [ [ -94.318739523127903, 47.177079279080303 ], [ -94.318902115408704, 47.177446321333001 ] ] } },
{ "type": "Feature", "properties": { "wmUplineSo": "BOY RIVER", "wmType": "Underground" }, "geometry": { "type": "LineString", "coordinates": [ [ -94.318739523127903, 47.177079279080303 ], [ -94.318403681212899, 47.177255833462297 ] ] } },
{ "type": "Feature", "properties": { "wmUplineSo": "BOY RIVER", "wmType": "Underground" }, "geometry": { "type": "LineString", "coordinates": [ [ -94.318727444075094, 47.1779240426497 ], [ -94.3198113196853, 47.178058689059803 ] ] } },
{ "type": "Feature", "properties": { "wmUplineSo": "BOY RIVER", "wmType": "Underground" }, "geometry": { "type": "LineString", "coordinates": [ [ -94.318727444075094, 47.1779240426497 ], [ -94.318314560315997, 47.1778247109429 ] ] } },
{ "type": "Feature", "properties": { "wmUplineSo": "BOY RIVER", "wmType": "Underground" }, "geometry": { "type": "LineString", "coordinates": [ [ -94.318479238779304, 47.183387881453001 ], [ -94.318717090692104, 47.1833992595325 ] ] } },
{ "type": "Feature", "properties": { "wmUplineSo": "BOY RIVER", "wmType": "Underground" }, "geometry": { "type": "LineString", "coordinates": [ [ -94.318245999988093, 47.182749468741299 ], [ -94.319563337615406, 47.182820205031298 ] ] } },
{ "type": "Feature", "properties": { "wmUplineSo": "BOY RIVER", "wmType": "Underground" }, "geometry": { "type": "LineString", "coordinates": [ [ -94.318717090692104, 47.1833992595325 ], [ -94.319123370436301, 47.183442401374499 ] ] } },
{ "type": "Feature", "properties": { "wmUplineSo": "BOY RIVER", "wmType": "Underground" }, "geometry": { "type": "LineString", "coordinates": [ [ -94.316543001964305, 47.187071839570102 ], [ -94.316753809913706, 47.187214628718202 ] ] } },
{ "type": "Feature", "properties": { "wmUplineSo": "BOY RIVER", "wmType": "Underground" }, "geometry": { "type": "LineString", "coordinates": [ [ -94.312747777047605, 47.189479791349399 ], [ -94.312631175828798, 47.189806151438901 ] ] } },
{ "type": "Feature", "properties": { "wmUplineSo": "BOY RIVER", "wmType": "Underground" }, "geometry": { "type": "LineString", "coordinates": [ [ -94.312747777047605, 47.189479791349399 ], [ -94.312196139836303, 47.189735219448998 ] ] } },
{ "type": "Feature", "properties": { "wmUplineSo": "BOY RIVER", "wmType": "Underground" }, "geometry": { "type": "LineString", "coordinates": [ [ -94.312196139836303, 47.189735219448998 ], [ -94.311456183056194, 47.189993579248799 ], [ -94.310001656836405, 47.190001838399397 ], [ -94.309768836456797, 47.189879427319902 ] ] } },
{ "type": "Feature", "properties": { "wmUplineSo": "BOY RIVER", "wmType": "Underground" }, "geometry": { "type": "LineString", "coordinates": [ [ -94.313670100487201, 47.191553569489699 ], [ -94.313107399828198, 47.191480588597898 ] ] } },
{ "type": "Feature", "properties": { "wmUplineSo": "BOY RIVER", "wmType": "Underground" }, "geometry": { "type": "LineString", "coordinates": [ [ -94.191762815711598, 47.2309140991674 ], [ -94.191950423079305, 47.231977605469197 ], [ -94.190188365337406, 47.232957181521002 ], [ -94.190549654928603, 47.234765996437801 ], [ -94.191127055200198, 47.234945502798098 ] ] } },
{ "type": "Feature", "properties": { "wmUplineSo": "BOY RIVER", "wmType": "Underground" }, "geometry": { "type": "LineString", "coordinates": [ [ -94.315708831923502, 47.189439071759999 ], [ -94.316084000082299, 47.189280003611699 ] ] } },
{ "type": "Feature", "properties": { "wmUplineSo": "BOY RIVER", "wmType": "Underground" }, "geometry": { "type": "LineString", "coordinates": [ [ -94.308423564164798, 47.205552313645597 ], [ -94.309308561796996, 47.205383872905898 ] ] } },
{ "type": "Feature", "properties": { "wmUplineSo": "BOY RIVER", "wmType": "Underground" }, "geometry": { "type": "LineString", "coordinates": [ [ -94.318470730551098, 47.180847098569302 ], [ -94.318794987945495, 47.181072693243799 ], [ -94.319100557757594, 47.1811361547378 ], [ -94.319270275046094, 47.181136055077701 ], [ -94.319321127440503, 47.181083955503098 ], [ -94.319318304043804, 47.180984410466799 ] ] } },
{ "type": "Feature", "properties": { "wmUplineSo": "BOY RIVER", "wmType": "Underground" }, "geometry": { "type": "LineString", "coordinates": [ [ -94.318466306536607, 47.182027891962399 ], [ -94.319200366255004, 47.182039641568799 ] ] } },
{ "type": "Feature", "properties": { "wmUplineSo": "BOY RIVER", "wmType": "Underground" }, "geometry": { "type": "LineString", "coordinates": [ [ -94.318260040076694, 47.182602164185603 ], [ -94.319180494823897, 47.182477955798497 ] ] } },
{ "type": "Feature", "properties": { "wmUplineSo": "BOY RIVER", "wmType": "Underground" }, "geometry": { "type": "LineString", "coordinates": [ [ -94.279871432575206, 47.201765234669999 ], [ -94.280568841588504, 47.2017051105421 ], [ -94.281544389785694, 47.201511126806203 ], [ -94.283488299553994, 47.2013486051003 ], [ -94.284702305746293, 47.201463965201 ], [ -94.285899441371001, 47.201747096913401 ], [ -94.288387319465997, 47.202596778427903 ], [ -94.291632495626104, 47.204394131472803 ], [ -94.293406204948596, 47.2048860757914 ], [ -94.294569409895999, 47.205047634935099 ], [ -94.301207691968798, 47.204951596835699 ] ] } },
{ "type": "Feature", "properties": { "wmUplineSo": "BOY RIVER", "wmType": "Underground" }, "geometry": { "type": "LineString", "coordinates": [ [ -94.308801801192999, 47.206831639115201 ], [ -94.3090307679348, 47.206844119133201 ] ] } },
{ "type": "Feature", "properties": { "wmUplineSo": "BOY RIVER", "wmType": "Underground" }, "geometry": { "type": "LineString", "coordinates": [ [ -94.287969364476993, 47.174497354305998 ], [ -94.287990070300594, 47.174782465444999 ], [ -94.288111440673404, 47.175003614848301 ] ] } },
{ "type": "Feature", "properties": { "wmUplineSo": "BOY RIVER", "wmType": "Underground" }, "geometry": { "type": "LineString", "coordinates": [ [ -94.2879390000803, 47.174227003607598 ], [ -94.287969364476993, 47.174497354305998 ] ] } },
{ "type": "Feature", "properties": { "wmUplineSo": "BOY RIVER", "wmType": "Underground" }, "geometry": { "type": "LineString", "coordinates": [ [ -94.289483288118802, 47.169471003048102 ], [ -94.289919839877697, 47.1694519094765 ], [ -94.290004551459603, 47.169605237919498 ], [ -94.289918584410202, 47.169861438711798 ] ] } },
{ "type": "Feature", "properties": { "wmUplineSo": "BOY RIVER", "wmType": "Underground" }, "geometry": { "type": "LineString", "coordinates": [ [ -94.320623904187798, 47.171319988347399 ], [ -94.320700051545302, 47.1714914432374 ] ] } },
{ "type": "Feature", "properties": { "wmUplineSo": "BOY RIVER", "wmType": "Underground" }, "geometry": { "type": "LineString", "coordinates": [ [ -94.320700051545302, 47.1714914432374 ], [ -94.320860393816005, 47.1716675354267 ] ] } },
{ "type": "Feature", "properties": { "wmUplineSo": "BOY RIVER", "wmType": "Underground" }, "geometry": { "type": "LineString", "coordinates": [ [ -94.309874947997798, 47.209296502077798 ], [ -94.309882017165904, 47.209203007112599 ] ] } },
{ "type": "Feature", "properties": { "wmUplineSo": "BOY RIVER", "wmType": "Underground" }, "geometry": { "type": "LineString", "coordinates": [ [ -94.309874947997798, 47.209296502077798 ], [ -94.309902116901597, 47.209761817485898 ] ] } },
{ "type": "Feature", "properties": { "wmUplineSo": "BOY RIVER", "wmType": "Underground" }, "geometry": { "type": "LineString", "coordinates": [ [ -94.308818332635994, 47.210432374444302 ], [ -94.309650473542604, 47.210563017606397 ] ] } },
{ "type": "Feature", "properties": { "wmUplineSo": "BOY RIVER", "wmType": "Underground" }, "geometry": { "type": "LineString", "coordinates": [ [ -94.308630912111894, 47.209402146057101 ], [ -94.308916399074107, 47.209285365338197 ], [ -94.309874947997798, 47.209296502077798 ] ] } },
{ "type": "Feature", "properties": { "wmUplineSo": "BOY RIVER", "wmType": "Underground" }, "geometry": { "type": "LineString", "coordinates": [ [ -94.3093996173844, 47.207003066057403 ], [ -94.309900631360804, 47.206999555683304 ] ] } },
{ "type": "Feature", "properties": { "wmUplineSo": "BOY RIVER", "wmType": "Underground" }, "geometry": { "type": "LineString", "coordinates": [ [ -94.309650473542604, 47.210563017606397 ], [ -94.309697819033104, 47.210230112644197 ] ] } },
{ "type": "Feature", "properties": { "wmUplineSo": "BOY RIVER", "wmType": "Underground" }, "geometry": { "type": "LineString", "coordinates": [ [ -94.198946388793601, 47.216907106101097 ], [ -94.199771529525506, 47.2172010445667 ] ] } },
{ "type": "Feature", "properties": { "wmUplineSo": "BOY RIVER", "wmType": "Underground" }, "geometry": { "type": "LineString", "coordinates": [ [ -94.310466422288499, 47.205928641690598 ], [ -94.309643109121097, 47.206234172104899 ] ] } },
{ "type": "Feature", "properties": { "wmUplineSo": "BOY RIVER", "wmType": "Underground" }, "geometry": { "type": "LineString", "coordinates": [ [ -94.309308561796996, 47.205383872905898 ], [ -94.309466422876994, 47.205383671015298 ], [ -94.309466422876994, 47.205383671015298 ] ] } },
{ "type": "Feature", "properties": { "wmUplineSo": "BOY RIVER", "wmType": "Underground" }, "geometry": { "type": "LineString", "coordinates": [ [ -94.3039683602628, 47.207699995444102 ], [ -94.303947725444999, 47.2077090699309 ] ] } },
{ "type": "Feature", "properties": { "wmUplineSo": "BOY RIVER", "wmType": "Underground" }, "geometry": { "type": "LineString", "coordinates": [ [ -94.289883403332098, 47.170282251936698 ], [ -94.289901845406604, 47.170664489639996 ] ] } },
{ "type": "Feature", "properties": { "wmUplineSo": "BOY RIVER", "wmType": "Underground" }, "geometry": { "type": "LineString", "coordinates": [ [ -94.289901845406604, 47.170664489639996 ], [ -94.2899256001879, 47.1714086592035 ] ] } },
{ "type": "Feature", "properties": { "wmUplineSo": "BOY RIVER", "wmType": "Underground" }, "geometry": { "type": "LineString", "coordinates": [ [ -94.287988, 47.170186 ], [ -94.288396549032001, 47.169623541189203 ] ] } },
{ "type": "Feature", "properties": { "wmUplineSo": "BOY RIVER", "wmType": "Underground" }, "geometry": { "type": "LineString", "coordinates": [ [ -94.287299675233797, 47.171570715763501 ], [ -94.2871973037429, 47.1716657668007 ] ] } },
{ "type": "Feature", "properties": { "wmUplineSo": "BOY RIVER", "wmType": "Underground" }, "geometry": { "type": "LineString", "coordinates": [ [ -94.287963000202296, 47.173540003526803 ], [ -94.288211724733003, 47.173449885772897 ] ] } },
{ "type": "Feature", "properties": { "wmUplineSo": "BOY RIVER", "wmType": "Underground" }, "geometry": { "type": "LineString", "coordinates": [ [ -94.288069030186705, 47.172967960530499 ], [ -94.287963000202296, 47.173540003526803 ] ] } },
{ "type": "Feature", "properties": { "wmUplineSo": "BOY RIVER", "wmType": "Underground" }, "geometry": { "type": "LineString", "coordinates": [ [ -94.287963000202296, 47.173540003526803 ], [ -94.287839967813198, 47.173543542985698 ] ] } },
{ "type": "Feature", "properties": { "wmUplineSo": "BOY RIVER", "wmType": "Underground" }, "geometry": { "type": "LineString", "coordinates": [ [ -94.297024705671504, 47.168631481408397 ], [ -94.297166345960704, 47.168258712902499 ], [ -94.297333730505599, 47.168154983015498 ] ] } },
{ "type": "Feature", "properties": { "wmUplineSo": "BOY RIVER", "wmType": "Underground" }, "geometry": { "type": "LineString", "coordinates": [ [ -94.308423564164798, 47.205552313645597 ], [ -94.308440923167396, 47.205582944751498 ], [ -94.308402873325704, 47.205848245968603 ], [ -94.307736908893503, 47.205898116278902 ] ] } },
{ "type": "Feature", "properties": { "wmUplineSo": "BOY RIVER", "wmType": "Underground" }, "geometry": { "type": "LineString", "coordinates": [ [ -94.306124823019999, 47.206109395581699 ], [ -94.305832058945896, 47.2061706508158 ], [ -94.305510605561295, 47.206550145155397 ], [ -94.305318000081797, 47.2067860036165 ] ] } },
{ "type": "Feature", "properties": { "wmUplineSo": "BOY RIVER", "wmType": "Underground" }, "geometry": { "type": "LineString", "coordinates": [ [ -94.298581837483297, 47.166387211277403 ], [ -94.298769129886693, 47.166531426618597 ], [ -94.298801775937505, 47.166642408084101 ] ] } },
{ "type": "Feature", "properties": { "wmUplineSo": "BOY RIVER", "wmType": "Underground" }, "geometry": { "type": "LineString", "coordinates": [ [ -94.107477662919294, 47.181418299812997 ], [ -94.107493053414402, 47.181536120573497 ], [ -94.107309508076199, 47.181642988094403 ] ] } },
{ "type": "Feature", "properties": { "wmUplineSo": "BOY RIVER", "wmType": "Underground" }, "geometry": { "type": "LineString", "coordinates": [ [ -94.313383624356305, 47.192010643786404 ], [ -94.313642621250693, 47.192198698025003 ], [ -94.313899588579304, 47.192202367298002 ] ] } },
{ "type": "Feature", "properties": { "wmUplineSo": "BOY RIVER", "wmType": "Underground" }, "geometry": { "type": "LineString", "coordinates": [ [ -94.313306000082207, 47.191971003612402 ], [ -94.313383624356305, 47.192010643786404 ] ] } },
{ "type": "Feature", "properties": { "wmUplineSo": "BOY RIVER", "wmType": "Underground" }, "geometry": { "type": "LineString", "coordinates": [ [ -94.3068760000819, 47.206993003616702 ], [ -94.307023000081898, 47.207120003616701 ] ] } },
{ "type": "Feature", "properties": { "wmUplineSo": "BOY RIVER", "wmType": "Underground" }, "geometry": { "type": "LineString", "coordinates": [ [ -94.307023000081898, 47.207120003616701 ], [ -94.307429000081896, 47.207381003616597 ] ] } },
{ "type": "Feature", "properties": { "wmUplineSo": "BOY RIVER", "wmType": "Underground" }, "geometry": { "type": "LineString", "coordinates": [ [ -94.188217537544602, 47.226078606901297 ], [ -94.188518391410199, 47.225855729005303 ] ] } },
{ "type": "Feature", "properties": { "wmUplineSo": "BOY RIVER", "wmType": "Underground" }, "geometry": { "type": "LineString", "coordinates": [ [ -94.295617045583398, 47.167374676417801 ], [ -94.295439, 47.16749 ] ] } },
{ "type": "Feature", "properties": { "wmUplineSo": "BOY RIVER", "wmType": "Underground" }, "geometry": { "type": "LineString", "coordinates": [ [ -94.307429000081896, 47.207381003616597 ], [ -94.307488000081904, 47.207384003616802 ] ] } },
{ "type": "Feature", "properties": { "wmUplineSo": "BOY RIVER", "wmType": "Underground" }, "geometry": { "type": "LineString", "coordinates": [ [ -94.187955465486397, 47.228281336962702 ], [ -94.187433541814897, 47.2266732814672 ] ] } },
{ "type": "Feature", "properties": { "wmUplineSo": "BOY RIVER", "wmType": "Underground" }, "geometry": { "type": "LineString", "coordinates": [ [ -94.296912015391797, 47.173973534398399 ], [ -94.296049000000593, 47.174225800008898 ] ] } },
{ "type": "Feature", "properties": { "wmUplineSo": "BOY RIVER", "wmType": "Underground" }, "geometry": { "type": "LineString", "coordinates": [ [ -94.296912015391797, 47.173973534398399 ], [ -94.297244849045597, 47.173944144480899 ] ] } },
{ "type": "Feature", "properties": { "wmUplineSo": "BOY RIVER", "wmType": "Underground" }, "geometry": { "type": "LineString", "coordinates": [ [ -94.297045493388495, 47.167735071315001 ], [ -94.297036242260802, 47.167715307257801 ] ] } },
{ "type": "Feature", "properties": { "wmUplineSo": "BOY RIVER", "wmType": "Underground" }, "geometry": { "type": "LineString", "coordinates": [ [ -94.296823379828894, 47.166917265152598 ], [ -94.296793503886803, 47.166920612858497 ] ] } },
{ "type": "Feature", "properties": { "wmUplineSo": "BOY RIVER", "wmType": "Underground" }, "geometry": { "type": "LineString", "coordinates": [ [ -94.187072706799299, 47.226126527312502 ], [ -94.188217537544602, 47.226078606901297 ] ] } },
{ "type": "Feature", "properties": { "wmUplineSo": "BOY RIVER", "wmType": "Underground" }, "geometry": { "type": "LineString", "coordinates": [ [ -94.287963000202296, 47.173540003526803 ], [ -94.287995163032605, 47.173531058309102 ], [ -94.289530781661597, 47.173521230913501 ], [ -94.289605348303397, 47.1735496108112 ], [ -94.289664513326997, 47.173581948240603 ], [ -94.289680000080395, 47.173601003607402 ] ] } },
{ "type": "Feature", "properties": { "wmUplineSo": "BOY RIVER", "wmType": "Underground" }, "geometry": { "type": "LineString", "coordinates": [ [ -94.188049, 47.212482 ], [ -94.187995, 47.212420000000101 ] ] } },
{ "type": "Feature", "properties": { "wmUplineSo": "BOY RIVER", "wmType": "Underground" }, "geometry": { "type": "LineString", "coordinates": [ [ -94.186994509534202, 47.226377061592402 ], [ -94.187072706799299, 47.226126527312502 ] ] } },
{ "type": "Feature", "properties": { "wmUplineSo": "BOY RIVER", "wmType": "Underground" }, "geometry": { "type": "LineString", "coordinates": [ [ -94.144397980417594, 47.209471078336598 ], [ -94.145130697959104, 47.208843903489701 ], [ -94.145047535522593, 47.208515414875301 ], [ -94.145132049259999, 47.208165658936203 ], [ -94.144954380824004, 47.207944177281803 ], [ -94.1448458315393, 47.207818114311202 ] ] } },
{ "type": "Feature", "properties": { "wmUplineSo": "BOY RIVER", "wmType": "Underground" }, "geometry": { "type": "LineString", "coordinates": [ [ -94.289680000080395, 47.173601003607402 ], [ -94.289788375882907, 47.173557494044402 ] ] } },
{ "type": "Feature", "properties": { "wmUplineSo": "BOY RIVER", "wmType": "Underground" }, "geometry": { "type": "LineString", "coordinates": [ [ -94.289918584410202, 47.169861438711798 ], [ -94.289819540358096, 47.169886966896101 ] ] } },
{ "type": "Feature", "properties": { "wmUplineSo": "BOY RIVER", "wmType": "Underground" }, "geometry": { "type": "LineString", "coordinates": [ [ -94.306124823019999, 47.206109395581699 ], [ -94.306537000081903, 47.207097003616703 ] ] } },
{ "type": "Feature", "properties": { "wmUplineSo": "BOY RIVER", "wmType": "Underground" }, "geometry": { "type": "LineString", "coordinates": [ [ -94.295439, 47.16749 ], [ -94.295409, 47.167499999999897 ] ] } },
{ "type": "Feature", "properties": { "wmUplineSo": "BOY RIVER", "wmType": "Underground" }, "geometry": { "type": "LineString", "coordinates": [ [ -94.3072188285241, 47.205944065045898 ], [ -94.306124823019999, 47.206109395581699 ] ] } },
{ "type": "Feature", "properties": { "wmUplineSo": "BOY RIVER", "wmType": "Underground" }, "geometry": { "type": "LineString", "coordinates": [ [ -94.289680000080395, 47.173601003607402 ], [ -94.2897638185012, 47.173544468030002 ] ] } },
{ "type": "Feature", "properties": { "wmUplineSo": "BOY RIVER", "wmType": "Underground" }, "geometry": { "type": "LineString", "coordinates": [ [ -94.304920329177904, 47.1843165485773 ], [ -94.3049805510977, 47.185684315698403 ], [ -94.305124645824606, 47.185881629102703 ] ] } },
{ "type": "Feature", "properties": { "wmUplineSo": "BOY RIVER", "wmType": "Underground" }, "geometry": { "type": "LineString", "coordinates": [ [ -94.187575, 47.212434000000101 ], [ -94.186767280470605, 47.2137971830496 ] ] } },
{ "type": "Feature", "properties": { "wmUplineSo": "BOY RIVER", "wmType": "Underground" }, "geometry": { "type": "LineString", "coordinates": [ [ -94.318721519312703, 47.1779319237747 ], [ -94.318727444075094, 47.1779240426497 ] ] } },
{ "type": "Feature", "properties": { "wmUplineSo": "BOY RIVER", "wmType": "Underground" }, "geometry": { "type": "LineString", "coordinates": [ [ -94.306124823019999, 47.206109395581699 ], [ -94.305853, 47.205925 ] ] } },
{ "type": "Feature", "properties": { "wmUplineSo": "BOY RIVER", "wmType": "Underground" }, "geometry": { "type": "LineString", "coordinates": [ [ -94.310364800553103, 47.206537923067202 ], [ -94.310756877408807, 47.206288936388702 ] ] } },
{ "type": "Feature", "properties": { "wmUplineSo": "BOY RIVER", "wmType": "Underground" }, "geometry": { "type": "LineString", "coordinates": [ [ -94.189245763181006, 47.231502250265599 ], [ -94.189234583488698, 47.231462044955698 ] ] } },
{ "type": "Feature", "properties": { "wmUplineSo": "BOY RIVER", "wmType": "Underground" }, "geometry": { "type": "LineString", "coordinates": [ [ -94.188796865827896, 47.2314680147148 ], [ -94.1886288622064, 47.230989913738902 ] ] } },
{ "type": "Feature", "properties": { "wmUplineSo": "BOY RIVER", "wmType": "Underground" }, "geometry": { "type": "LineString", "coordinates": [ [ -94.305853, 47.205925 ], [ -94.305628713098102, 47.205808223726599 ] ] } },
{ "type": "Feature", "properties": { "wmUplineSo": "BOY RIVER", "wmType": "Underground" }, "geometry": { "type": "LineString", "coordinates": [ [ -94.305628713098102, 47.205808223726599 ], [ -94.305534, 47.205849999999899 ] ] } },
{ "type": "Feature", "properties": { "wmUplineSo": "BOY RIVER", "wmType": "Underground" }, "geometry": { "type": "LineString", "coordinates": [ [ -94.305534, 47.205849999999899 ], [ -94.305214, 47.205739000000101 ] ] } },
{ "type": "Feature", "properties": { "wmUplineSo": "BOY RIVER", "wmType": "Underground" }, "geometry": { "type": "LineString", "coordinates": [ [ -94.187433541814897, 47.2266732814672 ], [ -94.186994509534202, 47.226377061592402 ] ] } },
{ "type": "Feature", "properties": { "wmUplineSo": "BOY RIVER", "wmType": "Underground" }, "geometry": { "type": "LineString", "coordinates": [ [ -94.305214, 47.205739000000101 ], [ -94.305192, 47.205729 ] ] } },
{ "type": "Feature", "properties": { "wmUplineSo": "BOY RIVER", "wmType": "Underground" }, "geometry": { "type": "LineString", "coordinates": [ [ -94.308889578274005, 47.211341501107597 ], [ -94.309051572951006, 47.211402549705198 ] ] } },
{ "type": "Feature", "properties": { "wmUplineSo": "BOY RIVER", "wmType": "Underground" }, "geometry": { "type": "LineString", "coordinates": [ [ -94.309051572951006, 47.211402549705198 ], [ -94.309537271434195, 47.211490943140298 ] ] } },
{ "type": "Feature", "properties": { "wmUplineSo": "BOY RIVER", "wmType": "Underground" }, "geometry": { "type": "LineString", "coordinates": [ [ -94.309537271434195, 47.211490943140298 ], [ -94.310465, 47.211468 ] ] } },
{ "type": "Feature", "properties": { "wmUplineSo": "BOY RIVER", "wmType": "Underground" }, "geometry": { "type": "LineString", "coordinates": [ [ -94.320744, 47.175058999999898 ], [ -94.32097, 47.1751 ] ] } }
]
}
