{
"type": "FeatureCollection",
"crs": { "type": "name", "properties": { "name": "urn:ogc:def:crs:OGC:1.3:CRS84" } },
"features": [
{ "type": "Feature", "properties": { "wmUplineSo": "BRANDON", "wmType": "Underground" }, "geometry": { "type": "LineString", "coordinates": [ [ -92.670586735595606, 46.837831289769099 ], [ -92.670203683128094, 46.836369467845799 ] ] } },
{ "type": "Feature", "properties": { "wmUplineSo": "BRANDON", "wmType": "Underground" }, "geometry": { "type": "LineString", "coordinates": [ [ -92.658949, 46.871481000000102 ], [ -92.658924, 46.871475 ] ] } },
{ "type": "Feature", "properties": { "wmUplineSo": "BRANDON", "wmType": "Underground" }, "geometry": { "type": "LineString", "coordinates": [ [ -92.670884652908697, 46.870440909758301 ], [ -92.670921604070998, 46.870618817284097 ] ] } },
{ "type": "Feature", "properties": { "wmUplineSo": "BRANDON", "wmType": "Underground" }, "geometry": { "type": "LineString", "coordinates": [ [ -92.670921604070998, 46.870618817284097 ], [ -92.670985640753898, 46.870621176862898 ] ] } },
{ "type": "Feature", "properties": { "wmUplineSo": "BRANDON", "wmType": "Underground" }, "geometry": { "type": "LineString", "coordinates": [ [ -92.652001743294804, 46.828072336321398 ], [ -92.651902773860598, 46.828081717134097 ] ] } },
{ "type": "Feature", "properties": { "wmUplineSo": "BRANDON", "wmType": "Underground" }, "geometry": { "type": "LineString", "coordinates": [ [ -92.722275845723601, 46.855157588886698 ], [ -92.7222715, 46.855177100008603 ] ] } },
{ "type": "Feature", "properties": { "wmUplineSo": "BRANDON", "wmType": "Underground" }, "geometry": { "type": "LineString", "coordinates": [ [ -92.680297939998198, 46.868307455349999 ], [ -92.679509765885697, 46.868375744071798 ] ] } },
{ "type": "Feature", "properties": { "wmUplineSo": "BRANDON", "wmType": "Underground" }, "geometry": { "type": "LineString", "coordinates": [ [ -92.659936409758302, 46.865807302361901 ], [ -92.65992477508, 46.865532538160103 ], [ -92.65992477508, 46.865532538160103 ] ] } },
{ "type": "Feature", "properties": { "wmUplineSo": "BRANDON", "wmType": "Underground" }, "geometry": { "type": "LineString", "coordinates": [ [ -92.654014076549501, 46.869631054083499 ], [ -92.6546546, 46.869953100008601 ] ] } },
{ "type": "Feature", "properties": { "wmUplineSo": "BRANDON", "wmType": "Underground" }, "geometry": { "type": "LineString", "coordinates": [ [ -92.677415437958203, 46.837736545860899 ], [ -92.677569101261199, 46.836941414962297 ] ] } },
{ "type": "Feature", "properties": { "wmUplineSo": "BRANDON", "wmType": "Underground" }, "geometry": { "type": "LineString", "coordinates": [ [ -92.677569101261199, 46.836941414962297 ], [ -92.677604260061699, 46.836864131551302 ] ] } },
{ "type": "Feature", "properties": { "wmUplineSo": "BRANDON", "wmType": "Underground" }, "geometry": { "type": "LineString", "coordinates": [ [ -92.670203683128094, 46.836369467845799 ], [ -92.670178922325107, 46.836368869613999 ] ] } },
{ "type": "Feature", "properties": { "wmUplineSo": "BRANDON", "wmType": "Underground" }, "geometry": { "type": "LineString", "coordinates": [ [ -92.7342402836356, 46.853969734411102 ], [ -92.734256584438995, 46.854175561040798 ] ] } },
{ "type": "Feature", "properties": { "wmUplineSo": "BRANDON", "wmType": "Underground" }, "geometry": { "type": "LineString", "coordinates": [ [ -92.659879608029399, 46.865530703745399 ], [ -92.659870099999907, 46.865581000008603 ] ] } },
{ "type": "Feature", "properties": { "wmUplineSo": "BRANDON", "wmType": "Underground" }, "geometry": { "type": "LineString", "coordinates": [ [ -92.65992477508, 46.865532538160103 ], [ -92.659904544041595, 46.865177552961001 ] ] } },
{ "type": "Feature", "properties": { "wmUplineSo": "BRANDON", "wmType": "Underground" }, "geometry": { "type": "LineString", "coordinates": [ [ -92.652316250762098, 46.848840862232201 ], [ -92.6583316, 46.850551200008603 ] ] } },
{ "type": "Feature", "properties": { "wmUplineSo": "BRANDON", "wmType": "Underground" }, "geometry": { "type": "LineString", "coordinates": [ [ -92.611191013375205, 46.870524586703198 ], [ -92.611299736466506, 46.870651564490899 ] ] } },
{ "type": "Feature", "properties": { "wmUplineSo": "BRANDON", "wmType": "Underground" }, "geometry": { "type": "LineString", "coordinates": [ [ -92.660225145704104, 46.833193288009497 ], [ -92.6606949, 46.833758600008601 ] ] } },
{ "type": "Feature", "properties": { "wmUplineSo": "BRANDON", "wmType": "Underground" }, "geometry": { "type": "LineString", "coordinates": [ [ -92.659492809796106, 46.833428641680598 ], [ -92.659068332163699, 46.833597477203 ] ] } },
{ "type": "Feature", "properties": { "wmUplineSo": "BRANDON", "wmType": "Underground" }, "geometry": { "type": "LineString", "coordinates": [ [ -92.659492809796106, 46.833428641680598 ], [ -92.658921, 46.833049800008602 ] ] } },
{ "type": "Feature", "properties": { "wmUplineSo": "BRANDON", "wmType": "Underground" }, "geometry": { "type": "LineString", "coordinates": [ [ -92.657745391528806, 46.832593792934802 ], [ -92.6567503, 46.832438700008602 ] ] } },
{ "type": "Feature", "properties": { "wmUplineSo": "BRANDON", "wmType": "Underground" }, "geometry": { "type": "LineString", "coordinates": [ [ -92.655892219927907, 46.833074635523502 ], [ -92.6552883, 46.833250000008597 ] ] } },
{ "type": "Feature", "properties": { "wmUplineSo": "BRANDON", "wmType": "Underground" }, "geometry": { "type": "LineString", "coordinates": [ [ -92.689754387800306, 46.8347633078969 ], [ -92.6898335, 46.834647300008598 ] ] } },
{ "type": "Feature", "properties": { "wmUplineSo": "BRANDON", "wmType": "Underground" }, "geometry": { "type": "LineString", "coordinates": [ [ -92.724737048068306, 46.876011091051097 ], [ -92.7242711, 46.876384400008597 ] ] } },
{ "type": "Feature", "properties": { "wmUplineSo": "BRANDON", "wmType": "Underground" }, "geometry": { "type": "LineString", "coordinates": [ [ -92.669210151159405, 46.8681536790873 ], [ -92.669721999999894, 46.868254700008599 ] ] } },
{ "type": "Feature", "properties": { "wmUplineSo": "BRANDON", "wmType": "Underground" }, "geometry": { "type": "LineString", "coordinates": [ [ -92.659904544041595, 46.865177552961001 ], [ -92.6598285, 46.865224000008602 ] ] } },
{ "type": "Feature", "properties": { "wmUplineSo": "BRANDON", "wmType": "Underground" }, "geometry": { "type": "LineString", "coordinates": [ [ -92.659904544041595, 46.865177552961001 ], [ -92.659847099999894, 46.865192600008598 ] ] } },
{ "type": "Feature", "properties": { "wmUplineSo": "BRANDON", "wmType": "Underground" }, "geometry": { "type": "LineString", "coordinates": [ [ -92.659415195942501, 46.864312760669399 ], [ -92.659262099999907, 46.864337400008601 ] ] } },
{ "type": "Feature", "properties": { "wmUplineSo": "BRANDON", "wmType": "Underground" }, "geometry": { "type": "LineString", "coordinates": [ [ -92.659752505349601, 46.875036222400901 ], [ -92.6597868, 46.875267600008598 ] ] } },
{ "type": "Feature", "properties": { "wmUplineSo": "BRANDON", "wmType": "Underground" }, "geometry": { "type": "LineString", "coordinates": [ [ -92.665398049093696, 46.835381306504601 ], [ -92.6665229, 46.835792700008597 ] ] } },
{ "type": "Feature", "properties": { "wmUplineSo": "BRANDON", "wmType": "Underground" }, "geometry": { "type": "LineString", "coordinates": [ [ -92.736720309451997, 46.858202883007998 ], [ -92.735593, 46.858183600008601 ] ] } },
{ "type": "Feature", "properties": { "wmUplineSo": "BRANDON", "wmType": "Underground" }, "geometry": { "type": "LineString", "coordinates": [ [ -92.662759319757498, 46.873835857435701 ], [ -92.664138899999898, 46.873714700008598 ] ] } },
{ "type": "Feature", "properties": { "wmUplineSo": "BRANDON", "wmType": "Underground" }, "geometry": { "type": "LineString", "coordinates": [ [ -92.700589625648504, 46.868676675791598 ], [ -92.701021, 46.868689400008599 ] ] } },
{ "type": "Feature", "properties": { "wmUplineSo": "BRANDON", "wmType": "Underground" }, "geometry": { "type": "LineString", "coordinates": [ [ -92.703835857466999, 46.865639981014297 ], [ -92.7035249, 46.866074300008599 ] ] } },
{ "type": "Feature", "properties": { "wmUplineSo": "BRANDON", "wmType": "Underground" }, "geometry": { "type": "LineString", "coordinates": [ [ -92.71128039877, 46.854002852912899 ], [ -92.71142, 46.852983400008597 ] ] } },
{ "type": "Feature", "properties": { "wmUplineSo": "BRANDON", "wmType": "Underground" }, "geometry": { "type": "LineString", "coordinates": [ [ -92.716203459996905, 46.879562562886598 ], [ -92.7159368, 46.879553800008601 ] ] } },
{ "type": "Feature", "properties": { "wmUplineSo": "BRANDON", "wmType": "Underground" }, "geometry": { "type": "LineString", "coordinates": [ [ -92.679509765885697, 46.868375744071798 ], [ -92.679467, 46.868331300008599 ] ] } },
{ "type": "Feature", "properties": { "wmUplineSo": "BRANDON", "wmType": "Underground" }, "geometry": { "type": "LineString", "coordinates": [ [ -92.701621023834704, 46.866244874477204 ], [ -92.7012385, 46.866175600008603 ] ] } },
{ "type": "Feature", "properties": { "wmUplineSo": "BRANDON", "wmType": "Underground" }, "geometry": { "type": "LineString", "coordinates": [ [ -92.721637178909205, 46.836155844337299 ], [ -92.7216759, 46.8364199000086 ] ] } },
{ "type": "Feature", "properties": { "wmUplineSo": "BRANDON", "wmType": "Underground" }, "geometry": { "type": "LineString", "coordinates": [ [ -92.714902430962695, 46.830459954421201 ], [ -92.714518717267097, 46.830622238035801 ] ] } },
{ "type": "Feature", "properties": { "wmUplineSo": "BRANDON", "wmType": "Underground" }, "geometry": { "type": "LineString", "coordinates": [ [ -92.714902430962695, 46.830459954421201 ], [ -92.7153948, 46.833963300008598 ] ] } },
{ "type": "Feature", "properties": { "wmUplineSo": "BRANDON", "wmType": "Underground" }, "geometry": { "type": "LineString", "coordinates": [ [ -92.714902430962695, 46.830459954421201 ], [ -92.714624634852001, 46.830431631606501 ] ] } },
{ "type": "Feature", "properties": { "wmUplineSo": "BRANDON", "wmType": "Underground" }, "geometry": { "type": "LineString", "coordinates": [ [ -92.674451337876604, 46.871455483362503 ], [ -92.6745098, 46.871438800008598 ] ] } },
{ "type": "Feature", "properties": { "wmUplineSo": "BRANDON", "wmType": "Underground" }, "geometry": { "type": "LineString", "coordinates": [ [ -92.654032241171706, 46.8695596794335 ], [ -92.654014076549501, 46.869631054083499 ] ] } },
{ "type": "Feature", "properties": { "wmUplineSo": "BRANDON", "wmType": "Underground" }, "geometry": { "type": "LineString", "coordinates": [ [ -92.738735951428694, 46.852578548051198 ], [ -92.7387676, 46.852688000008598 ] ] } },
{ "type": "Feature", "properties": { "wmUplineSo": "BRANDON", "wmType": "Underground" }, "geometry": { "type": "LineString", "coordinates": [ [ -92.713443651912897, 46.8688648214289 ], [ -92.7135021, 46.8688251000086 ] ] } },
{ "type": "Feature", "properties": { "wmUplineSo": "BRANDON", "wmType": "Underground" }, "geometry": { "type": "LineString", "coordinates": [ [ -92.698744232286401, 46.8548776449258 ], [ -92.699385706577004, 46.854538411850001 ] ] } },
{ "type": "Feature", "properties": { "wmUplineSo": "BRANDON", "wmType": "Underground" }, "geometry": { "type": "LineString", "coordinates": [ [ -92.7105208705444, 46.853850130893903 ], [ -92.710506499461005, 46.8538071632955 ] ] } },
{ "type": "Feature", "properties": { "wmUplineSo": "BRANDON", "wmType": "Underground" }, "geometry": { "type": "LineString", "coordinates": [ [ -92.660443545139898, 46.864072719860303 ], [ -92.6604011, 46.864042200008598 ] ] } },
{ "type": "Feature", "properties": { "wmUplineSo": "BRANDON", "wmType": "Underground" }, "geometry": { "type": "LineString", "coordinates": [ [ -92.734256584438995, 46.854175561040798 ], [ -92.7341847, 46.854248900008599 ] ] } },
{ "type": "Feature", "properties": { "wmUplineSo": "BRANDON", "wmType": "Underground" }, "geometry": { "type": "LineString", "coordinates": [ [ -92.735438199823307, 46.853555553851102 ], [ -92.735796143197504, 46.853481214276599 ] ] } },
{ "type": "Feature", "properties": { "wmUplineSo": "BRANDON", "wmType": "Underground" }, "geometry": { "type": "LineString", "coordinates": [ [ -92.652084297479902, 46.828016175061997 ], [ -92.652001743294804, 46.828072336321398 ] ] } },
{ "type": "Feature", "properties": { "wmUplineSo": "BRANDON", "wmType": "Underground" }, "geometry": { "type": "LineString", "coordinates": [ [ -92.736225061040997, 46.852776799762403 ], [ -92.736184028465601, 46.852671032308898 ] ] } },
{ "type": "Feature", "properties": { "wmUplineSo": "BRANDON", "wmType": "Underground" }, "geometry": { "type": "LineString", "coordinates": [ [ -92.736184028465601, 46.852671032308898 ], [ -92.736181500582703, 46.852654739133897 ] ] } },
{ "type": "Feature", "properties": { "wmUplineSo": "BRANDON", "wmType": "Underground" }, "geometry": { "type": "LineString", "coordinates": [ [ -92.736069393797393, 46.8532609316444 ], [ -92.736118625389693, 46.853065762693703 ] ] } },
{ "type": "Feature", "properties": { "wmUplineSo": "BRANDON", "wmType": "Underground" }, "geometry": { "type": "LineString", "coordinates": [ [ -92.665478679168004, 46.836332075263897 ], [ -92.665398049093696, 46.835381306504601 ] ] } },
{ "type": "Feature", "properties": { "wmUplineSo": "BRANDON", "wmType": "Underground" }, "geometry": { "type": "LineString", "coordinates": [ [ -92.665398049093696, 46.835381306504601 ], [ -92.664906267550606, 46.834786040477198 ], [ -92.664601497152006, 46.834536324576803 ], [ -92.664194301997995, 46.834369674579698 ], [ -92.663774522939704, 46.834228352387697 ], [ -92.663199386739294, 46.8341752865201 ], [ -92.661922305782696, 46.8341757760018 ], [ -92.661323136997297, 46.834143871004201 ], [ -92.660709621702907, 46.834024192834001 ], [ -92.6601301726797, 46.833780643272803 ], [ -92.659758041401901, 46.8334502497597 ] ] } },
{ "type": "Feature", "properties": { "wmUplineSo": "BRANDON", "wmType": "Underground" }, "geometry": { "type": "LineString", "coordinates": [ [ -92.659758041401901, 46.8334502497597 ], [ -92.659492809796106, 46.833428641680598 ] ] } },
{ "type": "Feature", "properties": { "wmUplineSo": "BRANDON", "wmType": "Underground" }, "geometry": { "type": "LineString", "coordinates": [ [ -92.659758041401901, 46.8334502497597 ], [ -92.660225145704104, 46.833193288009497 ] ] } },
{ "type": "Feature", "properties": { "wmUplineSo": "BRANDON", "wmType": "Underground" }, "geometry": { "type": "LineString", "coordinates": [ [ -92.724699435502501, 46.849483635677402 ], [ -92.722809922204306, 46.8473101292794 ] ] } },
{ "type": "Feature", "properties": { "wmUplineSo": "BRANDON", "wmType": "Underground" }, "geometry": { "type": "LineString", "coordinates": [ [ -92.666465456400601, 46.8422885098175 ], [ -92.665702421949803, 46.843116296142 ] ] } },
{ "type": "Feature", "properties": { "wmUplineSo": "BRANDON", "wmType": "Underground" }, "geometry": { "type": "LineString", "coordinates": [ [ -92.665702421949803, 46.843116296142 ], [ -92.665203517723299, 46.843793157823796 ], [ -92.662992320221605, 46.8448507412471 ], [ -92.658752763078496, 46.846878227560801 ], [ -92.652316250762098, 46.848840862232201 ] ] } },
{ "type": "Feature", "properties": { "wmUplineSo": "BRANDON", "wmType": "Underground" }, "geometry": { "type": "LineString", "coordinates": [ [ -92.657757563644594, 46.833243861213603 ], [ -92.657827508099999, 46.832987724197302 ], [ -92.657745391528806, 46.832593792934802 ] ] } },
{ "type": "Feature", "properties": { "wmUplineSo": "BRANDON", "wmType": "Underground" }, "geometry": { "type": "LineString", "coordinates": [ [ -92.657757563644594, 46.833243861213603 ], [ -92.655892219927907, 46.833074635523502 ] ] } },
{ "type": "Feature", "properties": { "wmUplineSo": "BRANDON", "wmType": "Underground" }, "geometry": { "type": "LineString", "coordinates": [ [ -92.659492809796106, 46.833428641680598 ], [ -92.657757563644594, 46.833243861213603 ] ] } },
{ "type": "Feature", "properties": { "wmUplineSo": "BRANDON", "wmType": "Underground" }, "geometry": { "type": "LineString", "coordinates": [ [ -92.681348822192604, 46.837364438389898 ], [ -92.6843605360922, 46.836528885154102 ], [ -92.6872878122239, 46.834926570368097 ], [ -92.689754387800306, 46.8347633078969 ] ] } },
{ "type": "Feature", "properties": { "wmUplineSo": "BRANDON", "wmType": "Underground" }, "geometry": { "type": "LineString", "coordinates": [ [ -92.6705904366613, 46.870040749312203 ], [ -92.670884652908697, 46.870440909758301 ] ] } },
{ "type": "Feature", "properties": { "wmUplineSo": "BRANDON", "wmType": "Underground" }, "geometry": { "type": "LineString", "coordinates": [ [ -92.659904544041595, 46.865177552961001 ], [ -92.659415195942501, 46.864312760669399 ] ] } },
{ "type": "Feature", "properties": { "wmUplineSo": "BRANDON", "wmType": "Underground" }, "geometry": { "type": "LineString", "coordinates": [ [ -92.659703504673402, 46.873903005768298 ], [ -92.659752505349601, 46.875036222400901 ] ] } },
{ "type": "Feature", "properties": { "wmUplineSo": "BRANDON", "wmType": "Underground" }, "geometry": { "type": "LineString", "coordinates": [ [ -92.609923113727803, 46.869335444435002 ], [ -92.610289440807705, 46.869446770269803 ] ] } },
{ "type": "Feature", "properties": { "wmUplineSo": "BRANDON", "wmType": "Underground" }, "geometry": { "type": "LineString", "coordinates": [ [ -92.659703504673402, 46.873903005768298 ], [ -92.662759319757498, 46.873835857435701 ] ] } },
{ "type": "Feature", "properties": { "wmUplineSo": "BRANDON", "wmType": "Underground" }, "geometry": { "type": "LineString", "coordinates": [ [ -92.650036721799495, 46.873571952819503 ], [ -92.650244746290397, 46.874010835264301 ], [ -92.651228808983007, 46.874353696268003 ], [ -92.6552698682261, 46.8743302220647 ], [ -92.659703504673402, 46.873903005768298 ] ] } },
{ "type": "Feature", "properties": { "wmUplineSo": "BRANDON", "wmType": "Underground" }, "geometry": { "type": "LineString", "coordinates": [ [ -92.652144502752904, 46.8695229750358 ], [ -92.650036721799495, 46.873571952819503 ], [ -92.650036721799495, 46.873571952819503 ] ] } },
{ "type": "Feature", "properties": { "wmUplineSo": "BRANDON", "wmType": "Underground" }, "geometry": { "type": "LineString", "coordinates": [ [ -92.659517838383707, 46.869661062418203 ], [ -92.659907906711297, 46.867558206667901 ], [ -92.659936409758302, 46.865807302361901 ] ] } },
{ "type": "Feature", "properties": { "wmUplineSo": "BRANDON", "wmType": "Underground" }, "geometry": { "type": "LineString", "coordinates": [ [ -92.670311119634206, 46.868574023215999 ], [ -92.6702570055389, 46.868346094041897 ] ] } },
{ "type": "Feature", "properties": { "wmUplineSo": "BRANDON", "wmType": "Underground" }, "geometry": { "type": "LineString", "coordinates": [ [ -92.6702570055389, 46.868346094041897 ], [ -92.669210151159405, 46.8681536790873 ] ] } },
{ "type": "Feature", "properties": { "wmUplineSo": "BRANDON", "wmType": "Underground" }, "geometry": { "type": "LineString", "coordinates": [ [ -92.670356160354004, 46.869862496598699 ], [ -92.6705904366613, 46.870040749312203 ] ] } },
{ "type": "Feature", "properties": { "wmUplineSo": "BRANDON", "wmType": "Underground" }, "geometry": { "type": "LineString", "coordinates": [ [ -92.721475418399606, 46.854040197029299 ], [ -92.722275845723601, 46.855157588886698 ] ] } },
{ "type": "Feature", "properties": { "wmUplineSo": "BRANDON", "wmType": "Underground" }, "geometry": { "type": "LineString", "coordinates": [ [ -92.717276849850194, 46.878434177382402 ], [ -92.716982110643201, 46.878544527059397 ], [ -92.716685355184893, 46.878726264464397 ], [ -92.716203459996905, 46.879562562886598 ] ] } },
{ "type": "Feature", "properties": { "wmUplineSo": "BRANDON", "wmType": "Underground" }, "geometry": { "type": "LineString", "coordinates": [ [ -92.717401573580602, 46.878604065198402 ], [ -92.717276849850194, 46.878434177382402 ] ] } },
{ "type": "Feature", "properties": { "wmUplineSo": "BRANDON", "wmType": "Underground" }, "geometry": { "type": "LineString", "coordinates": [ [ -92.723922776350406, 46.875959349346502 ], [ -92.724737048068306, 46.876011091051097 ] ] } },
{ "type": "Feature", "properties": { "wmUplineSo": "BRANDON", "wmType": "Underground" }, "geometry": { "type": "LineString", "coordinates": [ [ -92.723484671517895, 46.875986746107102 ], [ -92.723922776350406, 46.875959349346502 ] ] } },
{ "type": "Feature", "properties": { "wmUplineSo": "BRANDON", "wmType": "Underground" }, "geometry": { "type": "LineString", "coordinates": [ [ -92.738336964583397, 46.8537851491417 ], [ -92.738313231873207, 46.857477938037 ], [ -92.736720309451997, 46.858202883007898 ], [ -92.736720309451997, 46.858202883007998 ] ] } },
{ "type": "Feature", "properties": { "wmUplineSo": "BRANDON", "wmType": "Underground" }, "geometry": { "type": "LineString", "coordinates": [ [ -92.738163859990394, 46.853469100248503 ], [ -92.738336964583397, 46.8537851491417 ] ] } },
{ "type": "Feature", "properties": { "wmUplineSo": "BRANDON", "wmType": "Underground" }, "geometry": { "type": "LineString", "coordinates": [ [ -92.680369715224103, 46.868328729885299 ], [ -92.680297939998198, 46.868307455349999 ] ] } },
{ "type": "Feature", "properties": { "wmUplineSo": "BRANDON", "wmType": "Underground" }, "geometry": { "type": "LineString", "coordinates": [ [ -92.701218777281298, 46.869103864570398 ], [ -92.700589625648504, 46.868676675791598 ] ] } },
{ "type": "Feature", "properties": { "wmUplineSo": "BRANDON", "wmType": "Underground" }, "geometry": { "type": "LineString", "coordinates": [ [ -92.703594968699406, 46.865483563285402 ], [ -92.703835857466999, 46.865639981014297 ] ] } },
{ "type": "Feature", "properties": { "wmUplineSo": "BRANDON", "wmType": "Underground" }, "geometry": { "type": "LineString", "coordinates": [ [ -92.722809922204306, 46.8473101292794 ], [ -92.722913238015195, 46.840861118048899 ], [ -92.722656075330207, 46.836723691157403 ] ] } },
{ "type": "Feature", "properties": { "wmUplineSo": "BRANDON", "wmType": "Underground" }, "geometry": { "type": "LineString", "coordinates": [ [ -92.722656075330207, 46.836723691157403 ], [ -92.722432662841697, 46.836743513931303 ], [ -92.721867668888606, 46.836467363833101 ], [ -92.721908568345896, 46.836190929813 ], [ -92.721637178909205, 46.836155844337299 ] ] } },
{ "type": "Feature", "properties": { "wmUplineSo": "BRANDON", "wmType": "Underground" }, "geometry": { "type": "LineString", "coordinates": [ [ -92.722656075330207, 46.836723691157403 ], [ -92.722649456847606, 46.836543529508603 ], [ -92.723259618242096, 46.835731128542797 ], [ -92.723153715761498, 46.833901636484597 ], [ -92.722907365783797, 46.833711247052101 ], [ -92.722336871847006, 46.833113519925298 ], [ -92.7221498211902, 46.832917536162299 ], [ -92.720820862907502, 46.832575224644202 ], [ -92.720428166604805, 46.832368493866902 ], [ -92.719842924280499, 46.832295954390901 ], [ -92.719249978490396, 46.832496803348398 ], [ -92.718774530343694, 46.832657850766303 ], [ -92.718185747883993, 46.832302739607698 ], [ -92.7182391035291, 46.831526149718897 ], [ -92.717308676736806, 46.8306789070921 ], [ -92.7150930027436, 46.830294700880103 ], [ -92.714902430962695, 46.830459954421201 ] ] } },
{ "type": "Feature", "properties": { "wmUplineSo": "BRANDON", "wmType": "Underground" }, "geometry": { "type": "LineString", "coordinates": [ [ -92.701532133742703, 46.865058197468002 ], [ -92.701621023834704, 46.866244874477204 ] ] } },
{ "type": "Feature", "properties": { "wmUplineSo": "BRANDON", "wmType": "Underground" }, "geometry": { "type": "LineString", "coordinates": [ [ -92.735992112117998, 46.853403750827603 ], [ -92.736069393797393, 46.8532609316444 ] ] } },
{ "type": "Feature", "properties": { "wmUplineSo": "BRANDON", "wmType": "Underground" }, "geometry": { "type": "LineString", "coordinates": [ [ -92.674052646085997, 46.869934748940203 ], [ -92.674177145388697, 46.870008550075902 ] ] } },
{ "type": "Feature", "properties": { "wmUplineSo": "BRANDON", "wmType": "Underground" }, "geometry": { "type": "LineString", "coordinates": [ [ -92.674177145388697, 46.870008550075902 ], [ -92.674271245395104, 46.870413651140403 ], [ -92.674434015579195, 46.8709603447939 ], [ -92.674451337876604, 46.871455483362503 ] ] } },
{ "type": "Feature", "properties": { "wmUplineSo": "BRANDON", "wmType": "Underground" }, "geometry": { "type": "LineString", "coordinates": [ [ -92.738839360886004, 46.853448738265598 ], [ -92.739030089817703, 46.8531326077552 ], [ -92.739019782095895, 46.852997334423399 ], [ -92.738925887324001, 46.852832007667203 ], [ -92.738832261621994, 46.852657031218698 ], [ -92.738735951428694, 46.852578548051198 ] ] } },
{ "type": "Feature", "properties": { "wmUplineSo": "BRANDON", "wmType": "Underground" }, "geometry": { "type": "LineString", "coordinates": [ [ -92.705070784310294, 46.869097896374797 ], [ -92.713443651912897, 46.8688648214289 ] ] } },
{ "type": "Feature", "properties": { "wmUplineSo": "BRANDON", "wmType": "Underground" }, "geometry": { "type": "LineString", "coordinates": [ [ -92.7107557565664, 46.854363016528403 ], [ -92.711471412947503, 46.854367722252803 ] ] } },
{ "type": "Feature", "properties": { "wmUplineSo": "BRANDON", "wmType": "Underground" }, "geometry": { "type": "LineString", "coordinates": [ [ -92.710515076695003, 46.854496494399797 ], [ -92.7107557565664, 46.854363016528403 ] ] } },
{ "type": "Feature", "properties": { "wmUplineSo": "BRANDON", "wmType": "Underground" }, "geometry": { "type": "LineString", "coordinates": [ [ -92.7107557565664, 46.854363016528403 ], [ -92.710640225044003, 46.854222451507098 ], [ -92.710556262823701, 46.854062323788398 ], [ -92.7105208705444, 46.853850130893903 ] ] } },
{ "type": "Feature", "properties": { "wmUplineSo": "BRANDON", "wmType": "Underground" }, "geometry": { "type": "LineString", "coordinates": [ [ -92.659758041401901, 46.8334502497597 ], [ -92.658108840010996, 46.830942913599898 ], [ -92.657633873948399, 46.830579266782202 ], [ -92.657171369209706, 46.83038243152 ], [ -92.656464065105197, 46.8302536288993 ], [ -92.654993617423997, 46.830126170433502 ], [ -92.6549898995939, 46.829661904286297 ], [ -92.654367543945099, 46.829593778490299 ], [ -92.654150210816596, 46.829317002111303 ], [ -92.654194665294497, 46.828984334897399 ], [ -92.654294271610993, 46.828545304052099 ], [ -92.654120348904399, 46.827971554899001 ], [ -92.653793767120007, 46.8278718099534 ], [ -92.652842757594996, 46.827775319538603 ], [ -92.652808085650705, 46.827774839239098 ], [ -92.652084297479902, 46.828016175061997 ] ] } },
{ "type": "Feature", "properties": { "wmUplineSo": "BRANDON", "wmType": "Underground" }, "geometry": { "type": "LineString", "coordinates": [ [ -92.659415195942501, 46.864312760669399 ], [ -92.660321669458696, 46.864297007999099 ], [ -92.660443545139898, 46.864072719860303 ] ] } },
{ "type": "Feature", "properties": { "wmUplineSo": "BRANDON", "wmType": "Underground" }, "geometry": { "type": "LineString", "coordinates": [ [ -92.734200447406195, 46.853600334775102 ], [ -92.734221313217503, 46.853730197159003 ] ] } },
{ "type": "Feature", "properties": { "wmUplineSo": "BRANDON", "wmType": "Underground" }, "geometry": { "type": "LineString", "coordinates": [ [ -92.734221313217503, 46.853730197159003 ], [ -92.7342402836356, 46.853969734411102 ] ] } },
{ "type": "Feature", "properties": { "wmUplineSo": "BRANDON", "wmType": "Underground" }, "geometry": { "type": "LineString", "coordinates": [ [ -92.652001743294804, 46.828072336321398 ], [ -92.651988, 46.828111700008598 ] ] } },
{ "type": "Feature", "properties": { "wmUplineSo": "BRANDON", "wmType": "Underground" }, "geometry": { "type": "LineString", "coordinates": [ [ -92.659517838383707, 46.869661062418203 ], [ -92.659522, 46.869732999999897 ] ] } },
{ "type": "Feature", "properties": { "wmUplineSo": "BRANDON", "wmType": "Underground" }, "geometry": { "type": "LineString", "coordinates": [ [ -92.659522, 46.869732999999897 ], [ -92.659425, 46.869798000000102 ] ] } },
{ "type": "Feature", "properties": { "wmUplineSo": "BRANDON", "wmType": "Underground" }, "geometry": { "type": "LineString", "coordinates": [ [ -92.659425, 46.869798000000102 ], [ -92.659367, 46.869907 ] ] } },
{ "type": "Feature", "properties": { "wmUplineSo": "BRANDON", "wmType": "Underground" }, "geometry": { "type": "LineString", "coordinates": [ [ -92.659367, 46.869907 ], [ -92.659488, 46.870062 ] ] } },
{ "type": "Feature", "properties": { "wmUplineSo": "BRANDON", "wmType": "Underground" }, "geometry": { "type": "LineString", "coordinates": [ [ -92.736118625389693, 46.853065762693703 ], [ -92.736225061040997, 46.852776799762403 ] ] } },
{ "type": "Feature", "properties": { "wmUplineSo": "BRANDON", "wmType": "Underground" }, "geometry": { "type": "LineString", "coordinates": [ [ -92.610289440807705, 46.869446770269803 ], [ -92.610703946456098, 46.869880854086098 ], [ -92.611191013375205, 46.870524586703198 ] ] } },
{ "type": "Feature", "properties": { "wmUplineSo": "BRANDON", "wmType": "Underground" }, "geometry": { "type": "LineString", "coordinates": [ [ -92.65992477508, 46.865532538160103 ], [ -92.659879608029399, 46.865530703745399 ] ] } },
{ "type": "Feature", "properties": { "wmUplineSo": "BRANDON", "wmType": "Underground" }, "geometry": { "type": "LineString", "coordinates": [ [ -92.659488, 46.870062 ], [ -92.659612, 46.870233999999897 ] ] } },
{ "type": "Feature", "properties": { "wmUplineSo": "BRANDON", "wmType": "Underground" }, "geometry": { "type": "LineString", "coordinates": [ [ -92.659612, 46.870233999999897 ], [ -92.659581, 46.870591 ] ] } },
{ "type": "Feature", "properties": { "wmUplineSo": "BRANDON", "wmType": "Underground" }, "geometry": { "type": "LineString", "coordinates": [ [ -92.659581, 46.870591 ], [ -92.659449, 46.87087 ] ] } },
{ "type": "Feature", "properties": { "wmUplineSo": "BRANDON", "wmType": "Underground" }, "geometry": { "type": "LineString", "coordinates": [ [ -92.659449, 46.87087 ], [ -92.659437, 46.871013 ] ] } },
{ "type": "Feature", "properties": { "wmUplineSo": "BRANDON", "wmType": "Underground" }, "geometry": { "type": "LineString", "coordinates": [ [ -92.659437, 46.871013 ], [ -92.659269, 46.871381 ] ] } },
{ "type": "Feature", "properties": { "wmUplineSo": "BRANDON", "wmType": "Underground" }, "geometry": { "type": "LineString", "coordinates": [ [ -92.659269, 46.871381 ], [ -92.659143, 46.871517 ] ] } },
{ "type": "Feature", "properties": { "wmUplineSo": "BRANDON", "wmType": "Underground" }, "geometry": { "type": "LineString", "coordinates": [ [ -92.659143, 46.871517 ], [ -92.658949, 46.871481000000102 ] ] } },
{ "type": "Feature", "properties": { "wmUplineSo": "BRANDON", "wmType": "Underground" }, "geometry": { "type": "LineString", "coordinates": [ [ -92.658949, 46.871481000000102 ], [ -92.658924, 46.871475 ] ] } },
{ "type": "Feature", "properties": { "wmUplineSo": "BRANDON", "wmType": "Underground" }, "geometry": { "type": "LineString", "coordinates": [ [ -92.711471412947503, 46.854367722252803 ], [ -92.71128039877, 46.854002852912899 ] ] } },
{ "type": "Feature", "properties": { "wmUplineSo": "BRANDON", "wmType": "Underground" }, "geometry": { "type": "LineString", "coordinates": [ [ -92.735796143197504, 46.853481214276599 ], [ -92.735992112117998, 46.853403750827603 ] ] } }
]
}
