{
"type": "FeatureCollection",
"crs": { "type": "name", "properties": { "name": "urn:ogc:def:crs:OGC:1.3:CRS84" } },
"features": [
{ "type": "Feature", "properties": { "wmUplineSo": "BRANDON", "wmType": "Overhead" }, "geometry": { "type": "LineString", "coordinates": [ [ -92.670356160354004, 46.869862496598699 ], [ -92.669134262347498, 46.869835161612201 ], [ -92.667669019166794, 46.869803774005 ] ] } },
{ "type": "Feature", "properties": { "wmUplineSo": "BRANDON", "wmType": "Overhead" }, "geometry": { "type": "LineString", "coordinates": [ [ -92.670356160354004, 46.869862496598699 ], [ -92.670336400479897, 46.869404100140102 ] ] } },
{ "type": "Feature", "properties": { "wmUplineSo": "BRANDON", "wmType": "Overhead" }, "geometry": { "type": "LineString", "coordinates": [ [ -92.679035758875898, 46.869865970844103 ], [ -92.679165506164907, 46.8692996602243 ] ] } },
{ "type": "Feature", "properties": { "wmUplineSo": "BRANDON", "wmType": "Overhead" }, "geometry": { "type": "LineString", "coordinates": [ [ -92.674052646085997, 46.869934748940203 ], [ -92.672968212932005, 46.869909750994303 ], [ -92.671674077393902, 46.869886046302597 ], [ -92.670356160354004, 46.869862496598699 ] ] } },
{ "type": "Feature", "properties": { "wmUplineSo": "BRANDON", "wmType": "Overhead" }, "geometry": { "type": "LineString", "coordinates": [ [ -92.679012597349399, 46.870024003268298 ], [ -92.677669863247701, 46.869998325294098 ], [ -92.676349309484095, 46.869979361037899 ] ] } },
{ "type": "Feature", "properties": { "wmUplineSo": "BRANDON", "wmType": "Overhead" }, "geometry": { "type": "LineString", "coordinates": [ [ -92.679012597349399, 46.870024003268298 ], [ -92.679035758875898, 46.869865970844103 ] ] } },
{ "type": "Feature", "properties": { "wmUplineSo": "BRANDON", "wmType": "Overhead" }, "geometry": { "type": "LineString", "coordinates": [ [ -92.676349309484095, 46.869979361037899 ], [ -92.676107543310593, 46.869770102998601 ] ] } },
{ "type": "Feature", "properties": { "wmUplineSo": "BRANDON", "wmType": "Overhead" }, "geometry": { "type": "LineString", "coordinates": [ [ -92.676349309484095, 46.869979361037899 ], [ -92.675148201314002, 46.869957863387498 ], [ -92.674052646085997, 46.869934748940203 ] ] } },
{ "type": "Feature", "properties": { "wmUplineSo": "BRANDON", "wmType": "Overhead" }, "geometry": { "type": "LineString", "coordinates": [ [ -92.680352583698493, 46.870044895850803 ], [ -92.679012597349399, 46.870024003268298 ] ] } },
{ "type": "Feature", "properties": { "wmUplineSo": "BRANDON", "wmType": "Overhead" }, "geometry": { "type": "LineString", "coordinates": [ [ -92.680352583698493, 46.870044895850803 ], [ -92.681719553018098, 46.870669665373299 ] ] } },
{ "type": "Feature", "properties": { "wmUplineSo": "BRANDON", "wmType": "Overhead" }, "geometry": { "type": "LineString", "coordinates": [ [ -92.687893142840906, 46.872469544248503 ], [ -92.687801061664999, 46.873260731941897 ] ] } },
{ "type": "Feature", "properties": { "wmUplineSo": "BRANDON", "wmType": "Overhead" }, "geometry": { "type": "LineString", "coordinates": [ [ -92.609923113727803, 46.869335444435002 ], [ -92.608637011211599, 46.869203465193401 ] ] } },
{ "type": "Feature", "properties": { "wmUplineSo": "BRANDON", "wmType": "Overhead" }, "geometry": { "type": "LineString", "coordinates": [ [ -92.681719553018098, 46.870669665373299 ], [ -92.683083855144005, 46.871281077599903 ], [ -92.684124061051804, 46.871748720640397 ], [ -92.685149019952206, 46.872214407463403 ], [ -92.685664272451604, 46.872449159818302 ], [ -92.686855736283903, 46.872467663537499 ], [ -92.687893142840906, 46.872469544248503 ] ] } },
{ "type": "Feature", "properties": { "wmUplineSo": "BRANDON", "wmType": "Overhead" }, "geometry": { "type": "LineString", "coordinates": [ [ -92.687893142840906, 46.872469544248503 ], [ -92.689233743777194, 46.872395095185702 ], [ -92.690965821836798, 46.872347402534501 ], [ -92.692121472008594, 46.8723143255216 ], [ -92.692913235122106, 46.872285975629801 ] ] } },
{ "type": "Feature", "properties": { "wmUplineSo": "BRANDON", "wmType": "Overhead" }, "geometry": { "type": "LineString", "coordinates": [ [ -92.608637011211599, 46.869203465193401 ], [ -92.607392444183702, 46.869093455049303 ], [ -92.606076646694504, 46.869142506905902 ], [ -92.604907281396507, 46.868964903059201 ], [ -92.603907187035901, 46.868855731188503 ], [ -92.603066500077503, 46.868687569787298 ] ] } },
{ "type": "Feature", "properties": { "wmUplineSo": "BRANDON", "wmType": "Overhead" }, "geometry": { "type": "LineString", "coordinates": [ [ -92.662523077074894, 46.869705384644597 ], [ -92.662639202292596, 46.869456914013803 ] ] } },
{ "type": "Feature", "properties": { "wmUplineSo": "BRANDON", "wmType": "Overhead" }, "geometry": { "type": "LineString", "coordinates": [ [ -92.662639202292596, 46.869456914013803 ], [ -92.662812699108301, 46.8690556339712 ], [ -92.663193768084099, 46.868354365155596 ] ] } },
{ "type": "Feature", "properties": { "wmUplineSo": "BRANDON", "wmType": "Overhead" }, "geometry": { "type": "LineString", "coordinates": [ [ -92.701218777281298, 46.869103864570398 ], [ -92.701410057164395, 46.869356509907 ], [ -92.702671525179497, 46.869323364255401 ], [ -92.703923625997604, 46.8692887518853 ], [ -92.705076019495806, 46.869263964066199 ] ] } },
{ "type": "Feature", "properties": { "wmUplineSo": "BRANDON", "wmType": "Overhead" }, "geometry": { "type": "LineString", "coordinates": [ [ -92.701332017379002, 46.863584797296802 ], [ -92.701592370546706, 46.863584761985699 ], [ -92.701605949792807, 46.864141233964702 ], [ -92.701532133742703, 46.865058197468002 ] ] } },
{ "type": "Feature", "properties": { "wmUplineSo": "BRANDON", "wmType": "Overhead" }, "geometry": { "type": "LineString", "coordinates": [ [ -92.701532133742703, 46.865058197468002 ], [ -92.702712574277001, 46.865346987495201 ], [ -92.703594968699406, 46.865483563285402 ] ] } },
{ "type": "Feature", "properties": { "wmUplineSo": "BRANDON", "wmType": "Overhead" }, "geometry": { "type": "LineString", "coordinates": [ [ -92.701225297677496, 46.853669324012401 ], [ -92.701336121604001, 46.853962951289098 ], [ -92.701393562024407, 46.854615294164297 ] ] } },
{ "type": "Feature", "properties": { "wmUplineSo": "BRANDON", "wmType": "Overhead" }, "geometry": { "type": "LineString", "coordinates": [ [ -92.700193174239502, 46.854835969652001 ], [ -92.700403932040899, 46.856130116678301 ], [ -92.700627553211703, 46.857112145676801 ], [ -92.7007308976753, 46.857628138202202 ], [ -92.700984247231702, 46.858884533868697 ], [ -92.701157060446505, 46.859643568111998 ] ] } },
{ "type": "Feature", "properties": { "wmUplineSo": "BRANDON", "wmType": "Overhead" }, "geometry": { "type": "LineString", "coordinates": [ [ -92.701157060446505, 46.859643568111998 ], [ -92.7020102004401, 46.859780079908901 ] ] } },
{ "type": "Feature", "properties": { "wmUplineSo": "BRANDON", "wmType": "Overhead" }, "geometry": { "type": "LineString", "coordinates": [ [ -92.701157060446505, 46.859643568111998 ], [ -92.701361524654601, 46.860542272345498 ] ] } },
{ "type": "Feature", "properties": { "wmUplineSo": "BRANDON", "wmType": "Overhead" }, "geometry": { "type": "LineString", "coordinates": [ [ -92.701361524654601, 46.860542272345498 ], [ -92.701378831930398, 46.861339886559101 ], [ -92.701348069158399, 46.862004816133599 ], [ -92.701361962102595, 46.862692005310599 ], [ -92.701361436034105, 46.863223523476499 ] ] } },
{ "type": "Feature", "properties": { "wmUplineSo": "BRANDON", "wmType": "Overhead" }, "geometry": { "type": "LineString", "coordinates": [ [ -92.701332017379002, 46.863584797296802 ], [ -92.7011406006812, 46.863741800960703 ] ] } },
{ "type": "Feature", "properties": { "wmUplineSo": "BRANDON", "wmType": "Overhead" }, "geometry": { "type": "LineString", "coordinates": [ [ -92.701361436034105, 46.863223523476499 ], [ -92.701332017379002, 46.863584797296802 ] ] } },
{ "type": "Feature", "properties": { "wmUplineSo": "BRANDON", "wmType": "Overhead" }, "geometry": { "type": "LineString", "coordinates": [ [ -92.701393562024407, 46.854615294164297 ], [ -92.701354461290506, 46.854786821890002 ] ] } },
{ "type": "Feature", "properties": { "wmUplineSo": "BRANDON", "wmType": "Overhead" }, "geometry": { "type": "LineString", "coordinates": [ [ -92.701354461290506, 46.854786821890002 ], [ -92.700193174239502, 46.854835969652001 ] ] } },
{ "type": "Feature", "properties": { "wmUplineSo": "BRANDON", "wmType": "Overhead" }, "geometry": { "type": "LineString", "coordinates": [ [ -92.701354461290506, 46.854786821890002 ], [ -92.702538612067499, 46.854671847693197 ], [ -92.704127695328495, 46.854702785698798 ], [ -92.705182973174402, 46.854674555543397 ], [ -92.706720794163999, 46.854627314559899 ], [ -92.708140581439807, 46.854584514014 ], [ -92.709287919682893, 46.854539813768 ], [ -92.710515076695003, 46.854496494399797 ] ] } },
{ "type": "Feature", "properties": { "wmUplineSo": "BRANDON", "wmType": "Overhead" }, "geometry": { "type": "LineString", "coordinates": [ [ -92.711471412947503, 46.854367722252803 ], [ -92.713342019930494, 46.854305837071401 ], [ -92.714501085541301, 46.854273018893501 ], [ -92.715765271305798, 46.8542483073144 ], [ -92.717012879046294, 46.854207826254701 ], [ -92.718061672472501, 46.854155413339498 ], [ -92.719045796806498, 46.8541242610249 ], [ -92.720269462556601, 46.854081542815102 ], [ -92.721475418399606, 46.854040197029299 ] ] } },
{ "type": "Feature", "properties": { "wmUplineSo": "BRANDON", "wmType": "Overhead" }, "geometry": { "type": "LineString", "coordinates": [ [ -92.680369715224103, 46.868328729885299 ], [ -92.680410607191604, 46.868984567313298 ] ] } },
{ "type": "Feature", "properties": { "wmUplineSo": "BRANDON", "wmType": "Overhead" }, "geometry": { "type": "LineString", "coordinates": [ [ -92.603066500077503, 46.868687569787298 ], [ -92.602741721413196, 46.8683607044672 ] ] } },
{ "type": "Feature", "properties": { "wmUplineSo": "BRANDON", "wmType": "Overhead" }, "geometry": { "type": "LineString", "coordinates": [ [ -92.680391461499397, 46.866595195090198 ], [ -92.680369430541106, 46.867499431920699 ], [ -92.680369715224103, 46.868328729885299 ] ] } },
{ "type": "Feature", "properties": { "wmUplineSo": "BRANDON", "wmType": "Overhead" }, "geometry": { "type": "LineString", "coordinates": [ [ -92.602741721413196, 46.8683607044672 ], [ -92.597638519600295, 46.867459983916397 ], [ -92.597638519600295, 46.867459983916397 ] ] } },
{ "type": "Feature", "properties": { "wmUplineSo": "BRANDON", "wmType": "Overhead" }, "geometry": { "type": "LineString", "coordinates": [ [ -92.722277021701402, 46.856695241977697 ], [ -92.721003215899003, 46.856665254839498 ], [ -92.719689753136905, 46.856629466326297 ] ] } },
{ "type": "Feature", "properties": { "wmUplineSo": "BRANDON", "wmType": "Overhead" }, "geometry": { "type": "LineString", "coordinates": [ [ -92.722291708355201, 46.864164823823899 ], [ -92.723366327435002, 46.863916848593398 ] ] } },
{ "type": "Feature", "properties": { "wmUplineSo": "BRANDON", "wmType": "Overhead" }, "geometry": { "type": "LineString", "coordinates": [ [ -92.721907925814904, 46.867433815317703 ], [ -92.721682321770103, 46.866889897265096 ], [ -92.720606588366607, 46.866787888190302 ] ] } },
{ "type": "Feature", "properties": { "wmUplineSo": "BRANDON", "wmType": "Overhead" }, "geometry": { "type": "LineString", "coordinates": [ [ -92.722277021701402, 46.856695241977697 ], [ -92.7222759397701, 46.857448148542403 ], [ -92.722256933398995, 46.858406069026401 ], [ -92.722264246656906, 46.859172896462603 ], [ -92.722300115566696, 46.859904224630803 ], [ -92.722298078138905, 46.860749252825102 ], [ -92.722325798590703, 46.861556994838999 ], [ -92.722318624375006, 46.862391508251697 ], [ -92.722335579381706, 46.863281861101498 ], [ -92.722291708355201, 46.864164823823899 ] ] } },
{ "type": "Feature", "properties": { "wmUplineSo": "BRANDON", "wmType": "Overhead" }, "geometry": { "type": "LineString", "coordinates": [ [ -92.722291708355201, 46.864164823823899 ], [ -92.722384702282099, 46.8650986581018 ], [ -92.722321902227193, 46.8660324807474 ], [ -92.722298939866207, 46.867006339709803 ], [ -92.722322005245502, 46.867777648120203 ] ] } },
{ "type": "Feature", "properties": { "wmUplineSo": "BRANDON", "wmType": "Overhead" }, "geometry": { "type": "LineString", "coordinates": [ [ -92.722294956375805, 46.868679010805501 ], [ -92.723719005184094, 46.868652768200803 ], [ -92.724969189874201, 46.868595768544999 ], [ -92.726333602930495, 46.868564774009101 ], [ -92.726690431434406, 46.8680678065042 ] ] } },
{ "type": "Feature", "properties": { "wmUplineSo": "BRANDON", "wmType": "Overhead" }, "geometry": { "type": "LineString", "coordinates": [ [ -92.722322005245502, 46.867777648120203 ], [ -92.722294956375805, 46.868679010805501 ] ] } },
{ "type": "Feature", "properties": { "wmUplineSo": "BRANDON", "wmType": "Overhead" }, "geometry": { "type": "LineString", "coordinates": [ [ -92.722322005245502, 46.867777648120203 ], [ -92.721907925814904, 46.867433815317703 ] ] } },
{ "type": "Feature", "properties": { "wmUplineSo": "BRANDON", "wmType": "Overhead" }, "geometry": { "type": "LineString", "coordinates": [ [ -92.722294956375805, 46.868679010805501 ], [ -92.722248496268094, 46.869272953658097 ] ] } },
{ "type": "Feature", "properties": { "wmUplineSo": "BRANDON", "wmType": "Overhead" }, "geometry": { "type": "LineString", "coordinates": [ [ -92.722248496268094, 46.869272953658097 ], [ -92.723125502920695, 46.869210869595399 ] ] } },
{ "type": "Feature", "properties": { "wmUplineSo": "BRANDON", "wmType": "Overhead" }, "geometry": { "type": "LineString", "coordinates": [ [ -92.728584689978604, 46.850158639269402 ], [ -92.726834021783503, 46.850460908581603 ] ] } },
{ "type": "Feature", "properties": { "wmUplineSo": "BRANDON", "wmType": "Overhead" }, "geometry": { "type": "LineString", "coordinates": [ [ -92.724699435502501, 46.849483635677402 ], [ -92.722969241173999, 46.848435741263401 ] ] } },
{ "type": "Feature", "properties": { "wmUplineSo": "BRANDON", "wmType": "Overhead" }, "geometry": { "type": "LineString", "coordinates": [ [ -92.722248496268094, 46.869272953658097 ], [ -92.722294844166697, 46.869908827691702 ], [ -92.722295470209502, 46.870663533701098 ], [ -92.722293648125103, 46.871543295138601 ], [ -92.722345940879705, 46.872486397435402 ], [ -92.722280422315094, 46.873524215261902 ], [ -92.722320327893101, 46.8741934294967 ], [ -92.722293277113295, 46.874837597479697 ], [ -92.722300169746205, 46.875408871817498 ] ] } },
{ "type": "Feature", "properties": { "wmUplineSo": "BRANDON", "wmType": "Overhead" }, "geometry": { "type": "LineString", "coordinates": [ [ -92.722280199024695, 46.875914781930803 ], [ -92.721345148255295, 46.876450611439701 ], [ -92.720248306380896, 46.877046753017403 ], [ -92.719363358270996, 46.877621974852701 ], [ -92.7181971373642, 46.8781964977426 ], [ -92.717401573580602, 46.878604065198402 ] ] } },
{ "type": "Feature", "properties": { "wmUplineSo": "BRANDON", "wmType": "Overhead" }, "geometry": { "type": "LineString", "coordinates": [ [ -92.722300169746205, 46.875408871817498 ], [ -92.722280199024695, 46.875914781930803 ] ] } },
{ "type": "Feature", "properties": { "wmUplineSo": "BRANDON", "wmType": "Overhead" }, "geometry": { "type": "LineString", "coordinates": [ [ -92.722280199024695, 46.875914781930803 ], [ -92.723484671517895, 46.875986746107102 ] ] } },
{ "type": "Feature", "properties": { "wmUplineSo": "BRANDON", "wmType": "Overhead" }, "geometry": { "type": "LineString", "coordinates": [ [ -92.738839360886004, 46.853448738265598 ], [ -92.739452423601705, 46.853421087225399 ], [ -92.740737530342898, 46.853369718480998 ], [ -92.741998301213002, 46.853326375829702 ], [ -92.743288949652595, 46.853276419526303 ], [ -92.744582372293607, 46.853226454860902 ], [ -92.745861222541706, 46.8531750146349 ], [ -92.747117090273804, 46.853139223889698 ], [ -92.748389655598899, 46.853094884503399 ], [ -92.749705982362997, 46.853043483693099 ], [ -92.7510014563384, 46.852997736765602 ], [ -92.752284075811502, 46.852954328350997 ], [ -92.753563201931897, 46.852915421926397 ], [ -92.754646202115893, 46.852883223974402 ], [ -92.755859420432103, 46.852835817139301 ], [ -92.757053657900897, 46.8527865954795 ], [ -92.758289077710401, 46.852740638605198 ] ] } },
{ "type": "Feature", "properties": { "wmUplineSo": "BRANDON", "wmType": "Overhead" }, "geometry": { "type": "LineString", "coordinates": [ [ -92.734200447406195, 46.853600334775102 ], [ -92.735438199823307, 46.853555553851102 ] ] } },
{ "type": "Feature", "properties": { "wmUplineSo": "BRANDON", "wmType": "Overhead" }, "geometry": { "type": "LineString", "coordinates": [ [ -92.727800881748294, 46.853832552423498 ], [ -92.727944354616398, 46.853483034031498 ] ] } },
{ "type": "Feature", "properties": { "wmUplineSo": "BRANDON", "wmType": "Overhead" }, "geometry": { "type": "LineString", "coordinates": [ [ -92.728901165446999, 46.850579396194703 ], [ -92.728584689978604, 46.850158639269402 ] ] } },
{ "type": "Feature", "properties": { "wmUplineSo": "BRANDON", "wmType": "Overhead" }, "geometry": { "type": "LineString", "coordinates": [ [ -92.727800881748294, 46.853832552423498 ], [ -92.729021791316796, 46.853783067326198 ], [ -92.730319362954205, 46.8537413690105 ], [ -92.731595428574394, 46.853696748373302 ], [ -92.732923377344704, 46.853645735610897 ] ] } },
{ "type": "Feature", "properties": { "wmUplineSo": "BRANDON", "wmType": "Overhead" }, "geometry": { "type": "LineString", "coordinates": [ [ -92.727944354616398, 46.853483034031498 ], [ -92.727615375753004, 46.853042098456797 ], [ -92.727646675325502, 46.852205730792697 ], [ -92.727660291850299, 46.850747882107498 ], [ -92.728901165446999, 46.850579396194703 ] ] } },
{ "type": "Feature", "properties": { "wmUplineSo": "BRANDON", "wmType": "Overhead" }, "geometry": { "type": "LineString", "coordinates": [ [ -92.698744232286401, 46.8548776449258 ], [ -92.698799263358694, 46.855344003521999 ] ] } },
{ "type": "Feature", "properties": { "wmUplineSo": "BRANDON", "wmType": "Overhead" }, "geometry": { "type": "LineString", "coordinates": [ [ -92.700193174239502, 46.854835969652001 ], [ -92.698744232286401, 46.8548776449258 ] ] } },
{ "type": "Feature", "properties": { "wmUplineSo": "BRANDON", "wmType": "Overhead" }, "geometry": { "type": "LineString", "coordinates": [ [ -92.698744232286401, 46.8548776449258 ], [ -92.697505966289299, 46.854914857128897 ], [ -92.696204004555497, 46.8549501189637 ] ] } },
{ "type": "Feature", "properties": { "wmUplineSo": "BRANDON", "wmType": "Overhead" }, "geometry": { "type": "LineString", "coordinates": [ [ -92.694923291513803, 46.8549840904627 ], [ -92.695139954188704, 46.855520732980999 ] ] } },
{ "type": "Feature", "properties": { "wmUplineSo": "BRANDON", "wmType": "Overhead" }, "geometry": { "type": "LineString", "coordinates": [ [ -92.695139954188704, 46.855520732980999 ], [ -92.695351479621905, 46.8562305930663 ], [ -92.695548384708303, 46.856764696749899 ], [ -92.695640201619099, 46.857100660450698 ] ] } },
{ "type": "Feature", "properties": { "wmUplineSo": "BRANDON", "wmType": "Overhead" }, "geometry": { "type": "LineString", "coordinates": [ [ -92.680114542507795, 46.857108566205902 ], [ -92.678895531098902, 46.857052295248302 ] ] } },
{ "type": "Feature", "properties": { "wmUplineSo": "BRANDON", "wmType": "Overhead" }, "geometry": { "type": "LineString", "coordinates": [ [ -92.680404974677501, 46.855368159357099 ], [ -92.680408195308004, 46.854825302489999 ] ] } },
{ "type": "Feature", "properties": { "wmUplineSo": "BRANDON", "wmType": "Overhead" }, "geometry": { "type": "LineString", "coordinates": [ [ -92.693604306964502, 46.855015003485597 ], [ -92.692343695283697, 46.855058958814901 ], [ -92.691060661065293, 46.855096932510399 ], [ -92.689961968458505, 46.855127533986497 ], [ -92.688726877302003, 46.855157039800098 ], [ -92.687316841115802, 46.8551889117361 ], [ -92.686193117635, 46.855225837336903 ], [ -92.684913211698401, 46.855261607813702 ], [ -92.683644766109197, 46.855295967058403 ], [ -92.6825074893748, 46.855334961912803 ], [ -92.681426539183903, 46.855356959108597 ], [ -92.680404974677501, 46.855368159357099 ] ] } },
{ "type": "Feature", "properties": { "wmUplineSo": "BRANDON", "wmType": "Overhead" }, "geometry": { "type": "LineString", "coordinates": [ [ -92.694923291513803, 46.8549840904627 ], [ -92.693604306964502, 46.855015003485597 ] ] } },
{ "type": "Feature", "properties": { "wmUplineSo": "BRANDON", "wmType": "Overhead" }, "geometry": { "type": "LineString", "coordinates": [ [ -92.693604306964502, 46.855015003485597 ], [ -92.693610261459298, 46.854901283546397 ] ] } },
{ "type": "Feature", "properties": { "wmUplineSo": "BRANDON", "wmType": "Overhead" }, "geometry": { "type": "LineString", "coordinates": [ [ -92.680404974677501, 46.855368159357099 ], [ -92.680575589636007, 46.8556007045363 ] ] } },
{ "type": "Feature", "properties": { "wmUplineSo": "BRANDON", "wmType": "Overhead" }, "geometry": { "type": "LineString", "coordinates": [ [ -92.680408195308004, 46.854825302489999 ], [ -92.680396980926901, 46.854141450603201 ] ] } },
{ "type": "Feature", "properties": { "wmUplineSo": "BRANDON", "wmType": "Overhead" }, "geometry": { "type": "LineString", "coordinates": [ [ -92.680410241869595, 46.857112963632296 ], [ -92.680114542507795, 46.857108566205902 ] ] } },
{ "type": "Feature", "properties": { "wmUplineSo": "BRANDON", "wmType": "Overhead" }, "geometry": { "type": "LineString", "coordinates": [ [ -92.680575589636007, 46.8556007045363 ], [ -92.680461658565505, 46.856076734750602 ], [ -92.680416577945095, 46.856571544222497 ], [ -92.680410241869595, 46.857112963632296 ] ] } },
{ "type": "Feature", "properties": { "wmUplineSo": "BRANDON", "wmType": "Overhead" }, "geometry": { "type": "LineString", "coordinates": [ [ -92.680410607191604, 46.868984567313298 ], [ -92.680348716962897, 46.869585116950802 ], [ -92.680352583698493, 46.870044895850803 ] ] } },
{ "type": "Feature", "properties": { "wmUplineSo": "BRANDON", "wmType": "Overhead" }, "geometry": { "type": "LineString", "coordinates": [ [ -92.680410607191604, 46.868984567313298 ], [ -92.680629394051905, 46.8689730348921 ] ] } },
{ "type": "Feature", "properties": { "wmUplineSo": "BRANDON", "wmType": "Overhead" }, "geometry": { "type": "LineString", "coordinates": [ [ -92.680629394051905, 46.8689730348921 ], [ -92.681373212355396, 46.868780408219699 ] ] } },
{ "type": "Feature", "properties": { "wmUplineSo": "BRANDON", "wmType": "Overhead" }, "geometry": { "type": "LineString", "coordinates": [ [ -92.680410241869595, 46.857112963632296 ], [ -92.680413381848894, 46.857812269051202 ], [ -92.680420884985196, 46.858653731618197 ], [ -92.680421932725196, 46.859530176573898 ], [ -92.680411094753794, 46.8603037295128 ], [ -92.680422086539593, 46.8610837719595 ], [ -92.680406179856206, 46.862009455655098 ] ] } },
{ "type": "Feature", "properties": { "wmUplineSo": "BRANDON", "wmType": "Overhead" }, "geometry": { "type": "LineString", "coordinates": [ [ -92.680406179856206, 46.862009455655098 ], [ -92.679801744898697, 46.862096187453602 ] ] } },
{ "type": "Feature", "properties": { "wmUplineSo": "BRANDON", "wmType": "Overhead" }, "geometry": { "type": "LineString", "coordinates": [ [ -92.680406179856206, 46.862009455655098 ], [ -92.6804087729343, 46.862800903161201 ], [ -92.680375441400798, 46.863679394382501 ], [ -92.6803699173837, 46.864610106714501 ], [ -92.6803942130922, 46.8656051887831 ], [ -92.680391461499397, 46.866595195090198 ] ] } },
{ "type": "Feature", "properties": { "wmUplineSo": "BRANDON", "wmType": "Overhead" }, "geometry": { "type": "LineString", "coordinates": [ [ -92.701621023834704, 46.866244874477204 ], [ -92.701243806862294, 46.866813028486597 ] ] } },
{ "type": "Feature", "properties": { "wmUplineSo": "BRANDON", "wmType": "Overhead" }, "geometry": { "type": "LineString", "coordinates": [ [ -92.680368741136903, 46.8432521371031 ], [ -92.680369203322797, 46.840309332301899 ], [ -92.680355604522305, 46.838274491813799 ] ] } },
{ "type": "Feature", "properties": { "wmUplineSo": "BRANDON", "wmType": "Overhead" }, "geometry": { "type": "LineString", "coordinates": [ [ -92.680369252687001, 46.8482850846978 ], [ -92.680371185743297, 46.843454290447397 ], [ -92.680368741136903, 46.8432521371031 ] ] } },
{ "type": "Feature", "properties": { "wmUplineSo": "BRANDON", "wmType": "Overhead" }, "geometry": { "type": "LineString", "coordinates": [ [ -92.670586735595606, 46.837831289769099 ], [ -92.668740318029705, 46.837846569199201 ] ] } },
{ "type": "Feature", "properties": { "wmUplineSo": "BRANDON", "wmType": "Overhead" }, "geometry": { "type": "LineString", "coordinates": [ [ -92.668740318029705, 46.837846569199201 ], [ -92.667028564881406, 46.837859998901102 ], [ -92.666099190851099, 46.837489720876803 ], [ -92.665643224663796, 46.837054926165202 ], [ -92.665476286902404, 46.836458575274797 ] ] } },
{ "type": "Feature", "properties": { "wmUplineSo": "BRANDON", "wmType": "Overhead" }, "geometry": { "type": "LineString", "coordinates": [ [ -92.674400229019099, 46.837752296528599 ], [ -92.671938248790298, 46.837801747897899 ] ] } },
{ "type": "Feature", "properties": { "wmUplineSo": "BRANDON", "wmType": "Overhead" }, "geometry": { "type": "LineString", "coordinates": [ [ -92.680360861381502, 46.837623081710099 ], [ -92.677415437958203, 46.837736545860899 ] ] } },
{ "type": "Feature", "properties": { "wmUplineSo": "BRANDON", "wmType": "Overhead" }, "geometry": { "type": "LineString", "coordinates": [ [ -92.668740318029705, 46.837846569199201 ], [ -92.668756575216605, 46.8383615237654 ] ] } },
{ "type": "Feature", "properties": { "wmUplineSo": "BRANDON", "wmType": "Overhead" }, "geometry": { "type": "LineString", "coordinates": [ [ -92.674400229019099, 46.837752296528599 ], [ -92.674149713898601, 46.836540856051002 ] ] } },
{ "type": "Feature", "properties": { "wmUplineSo": "BRANDON", "wmType": "Overhead" }, "geometry": { "type": "LineString", "coordinates": [ [ -92.719689753136905, 46.856629466326297 ], [ -92.718453100823595, 46.856464282562698 ] ] } },
{ "type": "Feature", "properties": { "wmUplineSo": "BRANDON", "wmType": "Overhead" }, "geometry": { "type": "LineString", "coordinates": [ [ -92.738163859990394, 46.853469100248503 ], [ -92.738839360886004, 46.853448738265598 ] ] } },
{ "type": "Feature", "properties": { "wmUplineSo": "BRANDON", "wmType": "Overhead" }, "geometry": { "type": "LineString", "coordinates": [ [ -92.705076019495806, 46.869263964066199 ], [ -92.705070784310294, 46.869097896374797 ] ] } },
{ "type": "Feature", "properties": { "wmUplineSo": "BRANDON", "wmType": "Overhead" }, "geometry": { "type": "LineString", "coordinates": [ [ -92.608637011211599, 46.869203465193401 ], [ -92.608970894791298, 46.869678102163 ] ] } },
{ "type": "Feature", "properties": { "wmUplineSo": "BRANDON", "wmType": "Overhead" }, "geometry": { "type": "LineString", "coordinates": [ [ -92.610152513244898, 46.8689435999705 ], [ -92.611156389349901, 46.869083176249497 ], [ -92.612131312447602, 46.869227643457897 ] ] } },
{ "type": "Feature", "properties": { "wmUplineSo": "BRANDON", "wmType": "Overhead" }, "geometry": { "type": "LineString", "coordinates": [ [ -92.701225297677496, 46.853669324012401 ], [ -92.701358207893193, 46.8534849059427 ] ] } },
{ "type": "Feature", "properties": { "wmUplineSo": "BRANDON", "wmType": "Overhead" }, "geometry": { "type": "LineString", "coordinates": [ [ -92.726834021783503, 46.850460908581603 ], [ -92.726182541348294, 46.850200062029302 ], [ -92.724951539513199, 46.849658530352301 ] ] } },
{ "type": "Feature", "properties": { "wmUplineSo": "BRANDON", "wmType": "Overhead" }, "geometry": { "type": "LineString", "coordinates": [ [ -92.724951539513199, 46.849658530352301 ], [ -92.724699435502501, 46.849483635677402 ] ] } },
{ "type": "Feature", "properties": { "wmUplineSo": "BRANDON", "wmType": "Overhead" }, "geometry": { "type": "LineString", "coordinates": [ [ -92.671938248790298, 46.837801747897899 ], [ -92.670586735595606, 46.837831289769099 ] ] } },
{ "type": "Feature", "properties": { "wmUplineSo": "BRANDON", "wmType": "Overhead" }, "geometry": { "type": "LineString", "coordinates": [ [ -92.680974426351099, 46.854093763579002 ], [ -92.6809253, 46.8539924000086 ] ] } },
{ "type": "Feature", "properties": { "wmUplineSo": "BRANDON", "wmType": "Overhead" }, "geometry": { "type": "LineString", "coordinates": [ [ -92.722275845723601, 46.855157588886698 ], [ -92.7222787172511, 46.855841866425003 ] ] } },
{ "type": "Feature", "properties": { "wmUplineSo": "BRANDON", "wmType": "Overhead" }, "geometry": { "type": "LineString", "coordinates": [ [ -92.7222787172511, 46.855841866425003 ], [ -92.7225336, 46.855768100008603 ] ] } },
{ "type": "Feature", "properties": { "wmUplineSo": "BRANDON", "wmType": "Overhead" }, "geometry": { "type": "LineString", "coordinates": [ [ -92.7222787172511, 46.855841866425003 ], [ -92.722277021701402, 46.856695241977697 ], [ -92.722277021701402, 46.856695241977697 ] ] } },
{ "type": "Feature", "properties": { "wmUplineSo": "BRANDON", "wmType": "Overhead" }, "geometry": { "type": "LineString", "coordinates": [ [ -92.677415437958203, 46.837736545860899 ], [ -92.674400229019099, 46.837752296528599 ] ] } },
{ "type": "Feature", "properties": { "wmUplineSo": "BRANDON", "wmType": "Overhead" }, "geometry": { "type": "LineString", "coordinates": [ [ -92.680396980926901, 46.854141450603201 ], [ -92.680974426351099, 46.854093763579002 ] ] } },
{ "type": "Feature", "properties": { "wmUplineSo": "BRANDON", "wmType": "Overhead" }, "geometry": { "type": "LineString", "coordinates": [ [ -92.701243806862294, 46.866813028486597 ], [ -92.7012210865458, 46.867532901452002 ] ] } },
{ "type": "Feature", "properties": { "wmUplineSo": "BRANDON", "wmType": "Overhead" }, "geometry": { "type": "LineString", "coordinates": [ [ -92.7012210865458, 46.867532901452002 ], [ -92.701236221636606, 46.868212469441801 ], [ -92.701218777281298, 46.869103864570398 ] ] } },
{ "type": "Feature", "properties": { "wmUplineSo": "BRANDON", "wmType": "Overhead" }, "geometry": { "type": "LineString", "coordinates": [ [ -92.629697751390196, 46.869741236234503 ], [ -92.629544907312805, 46.870058785870903 ] ] } },
{ "type": "Feature", "properties": { "wmUplineSo": "BRANDON", "wmType": "Overhead" }, "geometry": { "type": "LineString", "coordinates": [ [ -92.597638519600295, 46.867459983916397 ], [ -92.596345987410103, 46.867272424727503 ] ] } },
{ "type": "Feature", "properties": { "wmUplineSo": "BRANDON", "wmType": "Overhead" }, "geometry": { "type": "LineString", "coordinates": [ [ -92.7233811889555, 46.853976959982802 ], [ -92.724326407480703, 46.8539439944023 ] ] } },
{ "type": "Feature", "properties": { "wmUplineSo": "BRANDON", "wmType": "Overhead" }, "geometry": { "type": "LineString", "coordinates": [ [ -92.721475418399606, 46.854040197029299 ], [ -92.722505430012504, 46.854009397955998 ] ] } },
{ "type": "Feature", "properties": { "wmUplineSo": "BRANDON", "wmType": "Overhead" }, "geometry": { "type": "LineString", "coordinates": [ [ -92.596345987410103, 46.867272424727503 ], [ -92.5857500207633, 46.865438558795198 ], [ -92.584453863825303, 46.865155761552998 ], [ -92.583184279851906, 46.864850188888099 ], [ -92.580252766252002, 46.864165181209799 ], [ -92.579065278838499, 46.863843673067599 ], [ -92.577930023940596, 46.863414724484201 ], [ -92.576977495388604, 46.862882628876299 ], [ -92.576242863364598, 46.862174944881602 ], [ -92.575512482593098, 46.861403773923399 ], [ -92.575025131828994, 46.860614692118197 ], [ -92.574726768347105, 46.859705398045001 ], [ -92.574607704421595, 46.858909621036297 ], [ -92.574685720717298, 46.857958733586798 ], [ -92.575005771282704, 46.857117533647603 ], [ -92.575005771282704, 46.857117533647603 ] ] } },
{ "type": "Feature", "properties": { "wmUplineSo": "BRANDON", "wmType": "Overhead" }, "geometry": { "type": "LineString", "coordinates": [ [ -92.667538126038494, 46.841249440110403 ], [ -92.6664562, 46.841224800008597 ] ] } },
{ "type": "Feature", "properties": { "wmUplineSo": "BRANDON", "wmType": "Overhead" }, "geometry": { "type": "LineString", "coordinates": [ [ -92.666465456400601, 46.8422885098175 ], [ -92.666463, 46.842291400008598 ] ] } },
{ "type": "Feature", "properties": { "wmUplineSo": "BRANDON", "wmType": "Overhead" }, "geometry": { "type": "LineString", "coordinates": [ [ -92.6795696306921, 46.853194360316202 ], [ -92.679597, 46.853257700008598 ] ] } },
{ "type": "Feature", "properties": { "wmUplineSo": "BRANDON", "wmType": "Overhead" }, "geometry": { "type": "LineString", "coordinates": [ [ -92.679563178733403, 46.851757277760299 ], [ -92.679592154473099, 46.8516916503376 ] ] } },
{ "type": "Feature", "properties": { "wmUplineSo": "BRANDON", "wmType": "Overhead" }, "geometry": { "type": "LineString", "coordinates": [ [ -92.680369252687001, 46.8482850846978 ], [ -92.681395229283197, 46.848192909966599 ] ] } },
{ "type": "Feature", "properties": { "wmUplineSo": "BRANDON", "wmType": "Overhead" }, "geometry": { "type": "LineString", "coordinates": [ [ -92.680360861381502, 46.837623081710099 ], [ -92.6799586, 46.837139700008599 ] ] } },
{ "type": "Feature", "properties": { "wmUplineSo": "BRANDON", "wmType": "Overhead" }, "geometry": { "type": "LineString", "coordinates": [ [ -92.640962568095503, 46.868726184375902 ], [ -92.6407978, 46.868733800008599 ] ] } },
{ "type": "Feature", "properties": { "wmUplineSo": "BRANDON", "wmType": "Overhead" }, "geometry": { "type": "LineString", "coordinates": [ [ -92.652305313075402, 46.867367035862401 ], [ -92.652363799999904, 46.867351100008598 ] ] } },
{ "type": "Feature", "properties": { "wmUplineSo": "BRANDON", "wmType": "Overhead" }, "geometry": { "type": "LineString", "coordinates": [ [ -92.687801061664999, 46.873260731941897 ], [ -92.6875595, 46.873270700008597 ] ] } },
{ "type": "Feature", "properties": { "wmUplineSo": "BRANDON", "wmType": "Overhead" }, "geometry": { "type": "LineString", "coordinates": [ [ -92.692913235122106, 46.872285975629801 ], [ -92.6928706, 46.872272800008602 ] ] } },
{ "type": "Feature", "properties": { "wmUplineSo": "BRANDON", "wmType": "Overhead" }, "geometry": { "type": "LineString", "coordinates": [ [ -92.653480328014396, 46.869544676573803 ], [ -92.6540169, 46.869157800008601 ] ] } },
{ "type": "Feature", "properties": { "wmUplineSo": "BRANDON", "wmType": "Overhead" }, "geometry": { "type": "LineString", "coordinates": [ [ -92.643784061807196, 46.869370341311502 ], [ -92.6437864, 46.869945900008602 ] ] } },
{ "type": "Feature", "properties": { "wmUplineSo": "BRANDON", "wmType": "Overhead" }, "geometry": { "type": "LineString", "coordinates": [ [ -92.658413646602895, 46.868786397864099 ], [ -92.6584115, 46.868789600008597 ] ] } },
{ "type": "Feature", "properties": { "wmUplineSo": "BRANDON", "wmType": "Overhead" }, "geometry": { "type": "LineString", "coordinates": [ [ -92.667315075452905, 46.869100831593997 ], [ -92.6673283, 46.869087300008601 ] ] } },
{ "type": "Feature", "properties": { "wmUplineSo": "BRANDON", "wmType": "Overhead" }, "geometry": { "type": "LineString", "coordinates": [ [ -92.663808502106903, 46.869732738690701 ], [ -92.663757727333802, 46.870080213327398 ] ] } },
{ "type": "Feature", "properties": { "wmUplineSo": "BRANDON", "wmType": "Overhead" }, "geometry": { "type": "LineString", "coordinates": [ [ -92.670358589334697, 46.864929101354598 ], [ -92.670272, 46.864781000008598 ] ] } },
{ "type": "Feature", "properties": { "wmUplineSo": "BRANDON", "wmType": "Overhead" }, "geometry": { "type": "LineString", "coordinates": [ [ -92.676107762280495, 46.869272001626399 ], [ -92.6760858, 46.869138000008597 ] ] } },
{ "type": "Feature", "properties": { "wmUplineSo": "BRANDON", "wmType": "Overhead" }, "geometry": { "type": "LineString", "coordinates": [ [ -92.6724304386168, 46.866456499052603 ], [ -92.673349274557395, 46.866361704202603 ] ] } },
{ "type": "Feature", "properties": { "wmUplineSo": "BRANDON", "wmType": "Overhead" }, "geometry": { "type": "LineString", "coordinates": [ [ -92.679165506164907, 46.8692996602243 ], [ -92.679102867193095, 46.86937703996 ] ] } },
{ "type": "Feature", "properties": { "wmUplineSo": "BRANDON", "wmType": "Overhead" }, "geometry": { "type": "LineString", "coordinates": [ [ -92.612131312447602, 46.869227643457897 ], [ -92.6121243999999, 46.869229600008602 ] ] } },
{ "type": "Feature", "properties": { "wmUplineSo": "BRANDON", "wmType": "Overhead" }, "geometry": { "type": "LineString", "coordinates": [ [ -92.623145993894497, 46.868564963953098 ], [ -92.6231238, 46.868552300008602 ] ] } },
{ "type": "Feature", "properties": { "wmUplineSo": "BRANDON", "wmType": "Overhead" }, "geometry": { "type": "LineString", "coordinates": [ [ -92.623145993894497, 46.868564963953098 ], [ -92.622896599999905, 46.868204600008603 ] ] } },
{ "type": "Feature", "properties": { "wmUplineSo": "BRANDON", "wmType": "Overhead" }, "geometry": { "type": "LineString", "coordinates": [ [ -92.629396057207998, 46.869174662889897 ], [ -92.629682992907703, 46.868963084333501 ], [ -92.6299166669763, 46.868602994072397 ] ] } },
{ "type": "Feature", "properties": { "wmUplineSo": "BRANDON", "wmType": "Overhead" }, "geometry": { "type": "LineString", "coordinates": [ [ -92.642530106998507, 46.871646345577197 ], [ -92.642502245787199, 46.871898593014599 ] ] } },
{ "type": "Feature", "properties": { "wmUplineSo": "BRANDON", "wmType": "Overhead" }, "geometry": { "type": "LineString", "coordinates": [ [ -92.612999375662994, 46.868896799023702 ], [ -92.611607470404095, 46.868687628409397 ] ] } },
{ "type": "Feature", "properties": { "wmUplineSo": "BRANDON", "wmType": "Overhead" }, "geometry": { "type": "LineString", "coordinates": [ [ -92.610152513244898, 46.8689435999705 ], [ -92.610101973186801, 46.868849536490899 ] ] } },
{ "type": "Feature", "properties": { "wmUplineSo": "BRANDON", "wmType": "Overhead" }, "geometry": { "type": "LineString", "coordinates": [ [ -92.663193768084099, 46.868354365155596 ], [ -92.6632933, 46.868221300008599 ] ] } },
{ "type": "Feature", "properties": { "wmUplineSo": "BRANDON", "wmType": "Overhead" }, "geometry": { "type": "LineString", "coordinates": [ [ -92.609923113727803, 46.869335444435002 ], [ -92.610037163316306, 46.869229892858201 ] ] } },
{ "type": "Feature", "properties": { "wmUplineSo": "BRANDON", "wmType": "Overhead" }, "geometry": { "type": "LineString", "coordinates": [ [ -92.701393562024407, 46.854615294164297 ], [ -92.7016381, 46.854638600008599 ] ] } },
{ "type": "Feature", "properties": { "wmUplineSo": "BRANDON", "wmType": "Overhead" }, "geometry": { "type": "LineString", "coordinates": [ [ -92.705076019495806, 46.869263964066199 ], [ -92.705208, 46.869338000008597 ] ] } },
{ "type": "Feature", "properties": { "wmUplineSo": "BRANDON", "wmType": "Overhead" }, "geometry": { "type": "LineString", "coordinates": [ [ -92.700297627837401, 46.860910917998403 ], [ -92.7000258, 46.860947300008597 ] ] } },
{ "type": "Feature", "properties": { "wmUplineSo": "BRANDON", "wmType": "Overhead" }, "geometry": { "type": "LineString", "coordinates": [ [ -92.7020102004401, 46.859780079908901 ], [ -92.7023356, 46.8598446000086 ] ] } },
{ "type": "Feature", "properties": { "wmUplineSo": "BRANDON", "wmType": "Overhead" }, "geometry": { "type": "LineString", "coordinates": [ [ -92.7011406006812, 46.863741800960703 ], [ -92.7010123, 46.863764400008598 ] ] } },
{ "type": "Feature", "properties": { "wmUplineSo": "BRANDON", "wmType": "Overhead" }, "geometry": { "type": "LineString", "coordinates": [ [ -92.718453100823595, 46.856464282562698 ], [ -92.718394234268402, 46.856519703356099 ] ] } },
{ "type": "Feature", "properties": { "wmUplineSo": "BRANDON", "wmType": "Overhead" }, "geometry": { "type": "LineString", "coordinates": [ [ -92.723366327435002, 46.863916848593398 ], [ -92.7235933, 46.863900500008597 ] ] } },
{ "type": "Feature", "properties": { "wmUplineSo": "BRANDON", "wmType": "Overhead" }, "geometry": { "type": "LineString", "coordinates": [ [ -92.720606588366607, 46.866787888190302 ], [ -92.7204894, 46.866764400008599 ] ] } },
{ "type": "Feature", "properties": { "wmUplineSo": "BRANDON", "wmType": "Overhead" }, "geometry": { "type": "LineString", "coordinates": [ [ -92.726690431434406, 46.8680678065042 ], [ -92.7265374, 46.868145300008599 ] ] } },
{ "type": "Feature", "properties": { "wmUplineSo": "BRANDON", "wmType": "Overhead" }, "geometry": { "type": "LineString", "coordinates": [ [ -92.723125502920695, 46.869210869595399 ], [ -92.7229098, 46.869263300008598 ] ] } },
{ "type": "Feature", "properties": { "wmUplineSo": "BRANDON", "wmType": "Overhead" }, "geometry": { "type": "LineString", "coordinates": [ [ -92.723125502920695, 46.869210869595399 ], [ -92.722889187628297, 46.869388944365802 ] ] } },
{ "type": "Feature", "properties": { "wmUplineSo": "BRANDON", "wmType": "Overhead" }, "geometry": { "type": "LineString", "coordinates": [ [ -92.721907925814904, 46.867433815317703 ], [ -92.7216943, 46.8674771000086 ] ] } },
{ "type": "Feature", "properties": { "wmUplineSo": "BRANDON", "wmType": "Overhead" }, "geometry": { "type": "LineString", "coordinates": [ [ -92.722300169746205, 46.875408871817498 ], [ -92.7222784, 46.875418400008598 ] ] } },
{ "type": "Feature", "properties": { "wmUplineSo": "BRANDON", "wmType": "Overhead" }, "geometry": { "type": "LineString", "coordinates": [ [ -92.717401573580602, 46.878604065198402 ], [ -92.7174661, 46.878608600008597 ] ] } },
{ "type": "Feature", "properties": { "wmUplineSo": "BRANDON", "wmType": "Overhead" }, "geometry": { "type": "LineString", "coordinates": [ [ -92.734200447406195, 46.853600334775102 ], [ -92.73408, 46.853010600008602 ] ] } },
{ "type": "Feature", "properties": { "wmUplineSo": "BRANDON", "wmType": "Overhead" }, "geometry": { "type": "LineString", "coordinates": [ [ -92.728584689978604, 46.850158639269402 ], [ -92.729007954227498, 46.849968460809002 ] ] } },
{ "type": "Feature", "properties": { "wmUplineSo": "BRANDON", "wmType": "Overhead" }, "geometry": { "type": "LineString", "coordinates": [ [ -92.728901165446999, 46.850579396194703 ], [ -92.7292898, 46.850512300008603 ] ] } },
{ "type": "Feature", "properties": { "wmUplineSo": "BRANDON", "wmType": "Overhead" }, "geometry": { "type": "LineString", "coordinates": [ [ -92.726834021783503, 46.850460908581603 ], [ -92.7264639, 46.850272900008598 ] ] } },
{ "type": "Feature", "properties": { "wmUplineSo": "BRANDON", "wmType": "Overhead" }, "geometry": { "type": "LineString", "coordinates": [ [ -92.722969241173999, 46.848435741263401 ], [ -92.7231596, 46.848471100008602 ] ] } },
{ "type": "Feature", "properties": { "wmUplineSo": "BRANDON", "wmType": "Overhead" }, "geometry": { "type": "LineString", "coordinates": [ [ -92.698799263358694, 46.855344003521999 ], [ -92.699012605143494, 46.855445529015199 ] ] } },
{ "type": "Feature", "properties": { "wmUplineSo": "BRANDON", "wmType": "Overhead" }, "geometry": { "type": "LineString", "coordinates": [ [ -92.695640201619099, 46.857100660450698 ], [ -92.6956394, 46.857067700008599 ] ] } },
{ "type": "Feature", "properties": { "wmUplineSo": "BRANDON", "wmType": "Overhead" }, "geometry": { "type": "LineString", "coordinates": [ [ -92.678895531098902, 46.857052295248302 ], [ -92.6788021, 46.857111300008597 ] ] } },
{ "type": "Feature", "properties": { "wmUplineSo": "BRANDON", "wmType": "Overhead" }, "geometry": { "type": "LineString", "coordinates": [ [ -92.679169716859107, 46.862193972017103 ], [ -92.6790678, 46.862197000008599 ] ] } },
{ "type": "Feature", "properties": { "wmUplineSo": "BRANDON", "wmType": "Overhead" }, "geometry": { "type": "LineString", "coordinates": [ [ -92.681373212355396, 46.868780408219699 ], [ -92.6811111, 46.868878100008601 ] ] } },
{ "type": "Feature", "properties": { "wmUplineSo": "BRANDON", "wmType": "Overhead" }, "geometry": { "type": "LineString", "coordinates": [ [ -92.680391461499397, 46.866595195090198 ], [ -92.679858408573693, 46.866792622320403 ] ] } },
{ "type": "Feature", "properties": { "wmUplineSo": "BRANDON", "wmType": "Overhead" }, "geometry": { "type": "LineString", "coordinates": [ [ -92.575306997645399, 46.856323125710901 ], [ -92.575342529772996, 46.856259032484999 ] ] } },
{ "type": "Feature", "properties": { "wmUplineSo": "BRANDON", "wmType": "Overhead" }, "geometry": { "type": "LineString", "coordinates": [ [ -92.724326407480703, 46.8539439944023 ], [ -92.725440042473394, 46.853908344107097 ], [ -92.727800881748294, 46.853832552423498 ] ] } },
{ "type": "Feature", "properties": { "wmUplineSo": "BRANDON", "wmType": "Overhead" }, "geometry": { "type": "LineString", "coordinates": [ [ -92.680368741136903, 46.8432521371031 ], [ -92.6809046, 46.843453000008601 ] ] } },
{ "type": "Feature", "properties": { "wmUplineSo": "BRANDON", "wmType": "Overhead" }, "geometry": { "type": "LineString", "coordinates": [ [ -92.668756575216605, 46.8383615237654 ], [ -92.6686075, 46.838303200008603 ] ] } },
{ "type": "Feature", "properties": { "wmUplineSo": "BRANDON", "wmType": "Overhead" }, "geometry": { "type": "LineString", "coordinates": [ [ -92.674149713898601, 46.836540856051002 ], [ -92.6741201, 46.836349600008603 ] ] } },
{ "type": "Feature", "properties": { "wmUplineSo": "BRANDON", "wmType": "Overhead" }, "geometry": { "type": "LineString", "coordinates": [ [ -92.680408195308004, 46.854825302489999 ], [ -92.6803938, 46.854799500008603 ] ] } },
{ "type": "Feature", "properties": { "wmUplineSo": "BRANDON", "wmType": "Overhead" }, "geometry": { "type": "LineString", "coordinates": [ [ -92.608970894791298, 46.869678102163 ], [ -92.608370799999904, 46.870332800008597 ] ] } },
{ "type": "Feature", "properties": { "wmUplineSo": "BRANDON", "wmType": "Overhead" }, "geometry": { "type": "LineString", "coordinates": [ [ -92.722505430012504, 46.854009397955998 ], [ -92.7233811889555, 46.853976959982802 ] ] } },
{ "type": "Feature", "properties": { "wmUplineSo": "BRANDON", "wmType": "Overhead" }, "geometry": { "type": "LineString", "coordinates": [ [ -92.693610261459298, 46.854901283546397 ], [ -92.693644207087502, 46.8543085489462 ] ] } },
{ "type": "Feature", "properties": { "wmUplineSo": "BRANDON", "wmType": "Overhead" }, "geometry": { "type": "LineString", "coordinates": [ [ -92.575005771282704, 46.857117533647603 ], [ -92.575306997645399, 46.856323125710901 ] ] } },
{ "type": "Feature", "properties": { "wmUplineSo": "BRANDON", "wmType": "Overhead" }, "geometry": { "type": "LineString", "coordinates": [ [ -92.652144502752904, 46.8695229750358 ], [ -92.6516890807045, 46.869516859086701 ], [ -92.650630370401998, 46.8694898229937 ], [ -92.649545195835003, 46.869475077215299 ] ] } },
{ "type": "Feature", "properties": { "wmUplineSo": "BRANDON", "wmType": "Overhead" }, "geometry": { "type": "LineString", "coordinates": [ [ -92.696204004555497, 46.8549501189637 ], [ -92.694923291513803, 46.8549840904627 ] ] } },
{ "type": "Feature", "properties": { "wmUplineSo": "BRANDON", "wmType": "Overhead" }, "geometry": { "type": "LineString", "coordinates": [ [ -92.735438199823307, 46.853555553851102 ], [ -92.736759380262498, 46.853515403665398 ], [ -92.738163859990394, 46.853469100248503 ] ] } },
{ "type": "Feature", "properties": { "wmUplineSo": "BRANDON", "wmType": "Overhead" }, "geometry": { "type": "LineString", "coordinates": [ [ -92.611607470404095, 46.868687628409397 ], [ -92.610384902541, 46.868493670487403 ], [ -92.610152513244898, 46.8689435999705 ] ] } },
{ "type": "Feature", "properties": { "wmUplineSo": "BRANDON", "wmType": "Overhead" }, "geometry": { "type": "LineString", "coordinates": [ [ -92.660779009901404, 46.8690148112793 ], [ -92.660744600494297, 46.869079194372603 ] ] } },
{ "type": "Feature", "properties": { "wmUplineSo": "BRANDON", "wmType": "Overhead" }, "geometry": { "type": "LineString", "coordinates": [ [ -92.660148000079602, 46.8696728827708 ], [ -92.659517838383707, 46.869661062418203 ] ] } },
{ "type": "Feature", "properties": { "wmUplineSo": "BRANDON", "wmType": "Overhead" }, "geometry": { "type": "LineString", "coordinates": [ [ -92.701361524654601, 46.860542272345498 ], [ -92.700297627837401, 46.860910917998403 ] ] } },
{ "type": "Feature", "properties": { "wmUplineSo": "BRANDON", "wmType": "Overhead" }, "geometry": { "type": "LineString", "coordinates": [ [ -92.6706546691386, 46.841318623111299 ], [ -92.669388163500003, 46.842186660497802 ], [ -92.666465456400601, 46.8422885098175 ] ] } },
{ "type": "Feature", "properties": { "wmUplineSo": "BRANDON", "wmType": "Overhead" }, "geometry": { "type": "LineString", "coordinates": [ [ -92.693644207087502, 46.8543085489462 ], [ -92.6937169, 46.854060400008599 ] ] } },
{ "type": "Feature", "properties": { "wmUplineSo": "BRANDON", "wmType": "Overhead" }, "geometry": { "type": "LineString", "coordinates": [ [ -92.6706546691386, 46.841318623111299 ], [ -92.667538126038494, 46.841249440110403 ] ] } },
{ "type": "Feature", "properties": { "wmUplineSo": "BRANDON", "wmType": "Overhead" }, "geometry": { "type": "LineString", "coordinates": [ [ -92.679801744898697, 46.862096187453602 ], [ -92.679169716859107, 46.862193972017103 ] ] } },
{ "type": "Feature", "properties": { "wmUplineSo": "BRANDON", "wmType": "Overhead" }, "geometry": { "type": "LineString", "coordinates": [ [ -92.732923377344704, 46.853645735610897 ], [ -92.734200447406195, 46.853600334775102 ] ] } },
{ "type": "Feature", "properties": { "wmUplineSo": "BRANDON", "wmType": "Overhead" }, "geometry": { "type": "LineString", "coordinates": [ [ -92.680396980926901, 46.854141450603201 ], [ -92.680406302619303, 46.853506228193098 ] ] } },
{ "type": "Feature", "properties": { "wmUplineSo": "BRANDON", "wmType": "Overhead" }, "geometry": { "type": "LineString", "coordinates": [ [ -92.680406302619303, 46.853506228193098 ], [ -92.680393065736894, 46.853163328482097 ] ] } },
{ "type": "Feature", "properties": { "wmUplineSo": "BRANDON", "wmType": "Overhead" }, "geometry": { "type": "LineString", "coordinates": [ [ -92.680393065736894, 46.853163328482097 ], [ -92.6795696306921, 46.853194360316202 ] ] } },
{ "type": "Feature", "properties": { "wmUplineSo": "BRANDON", "wmType": "Overhead" }, "geometry": { "type": "LineString", "coordinates": [ [ -92.680393065736894, 46.853163328482097 ], [ -92.680395406489694, 46.8525347532495 ], [ -92.680390273281205, 46.852229971974403 ] ] } },
{ "type": "Feature", "properties": { "wmUplineSo": "BRANDON", "wmType": "Overhead" }, "geometry": { "type": "LineString", "coordinates": [ [ -92.680390273281205, 46.852229971974403 ], [ -92.680392676331394, 46.851779309340799 ] ] } },
{ "type": "Feature", "properties": { "wmUplineSo": "BRANDON", "wmType": "Overhead" }, "geometry": { "type": "LineString", "coordinates": [ [ -92.680392676331394, 46.851779309340799 ], [ -92.6803539621813, 46.851096518373097 ], [ -92.680397071636307, 46.850209999972002 ], [ -92.680397071636307, 46.850209999972002 ] ] } },
{ "type": "Feature", "properties": { "wmUplineSo": "BRANDON", "wmType": "Overhead" }, "geometry": { "type": "LineString", "coordinates": [ [ -92.680360861381502, 46.837623081710099 ], [ -92.681348822192604, 46.837364438389898 ] ] } },
{ "type": "Feature", "properties": { "wmUplineSo": "BRANDON", "wmType": "Overhead" }, "geometry": { "type": "LineString", "coordinates": [ [ -92.680355604522305, 46.838274491813799 ], [ -92.680360861381502, 46.837623081710099 ] ] } },
{ "type": "Feature", "properties": { "wmUplineSo": "BRANDON", "wmType": "Overhead" }, "geometry": { "type": "LineString", "coordinates": [ [ -92.670586735595606, 46.837831289769099 ], [ -92.6706546691386, 46.841318623111299 ] ] } },
{ "type": "Feature", "properties": { "wmUplineSo": "BRANDON", "wmType": "Overhead" }, "geometry": { "type": "LineString", "coordinates": [ [ -92.665476286902404, 46.836458575274797 ], [ -92.665478679168004, 46.836332075263897 ] ] } },
{ "type": "Feature", "properties": { "wmUplineSo": "BRANDON", "wmType": "Overhead" }, "geometry": { "type": "LineString", "coordinates": [ [ -92.680392676331394, 46.851779309340799 ], [ -92.679563178733403, 46.851757277760299 ] ] } },
{ "type": "Feature", "properties": { "wmUplineSo": "BRANDON", "wmType": "Overhead" }, "geometry": { "type": "LineString", "coordinates": [ [ -92.680397071636307, 46.850209999972002 ], [ -92.679299650569902, 46.849805482102198 ] ] } },
{ "type": "Feature", "properties": { "wmUplineSo": "BRANDON", "wmType": "Overhead" }, "geometry": { "type": "LineString", "coordinates": [ [ -92.680397071636307, 46.850209999972002 ], [ -92.680392375781395, 46.8493013571753 ], [ -92.680369252687001, 46.8482850846978 ] ] } },
{ "type": "Feature", "properties": { "wmUplineSo": "BRANDON", "wmType": "Overhead" }, "geometry": { "type": "LineString", "coordinates": [ [ -92.602907894857793, 46.869203226495301 ], [ -92.602572115078701, 46.870293505120003 ] ] } },
{ "type": "Feature", "properties": { "wmUplineSo": "BRANDON", "wmType": "Overhead" }, "geometry": { "type": "LineString", "coordinates": [ [ -92.603066500077503, 46.868687569787298 ], [ -92.602907894857793, 46.869203226495301 ] ] } },
{ "type": "Feature", "properties": { "wmUplineSo": "BRANDON", "wmType": "Overhead" }, "geometry": { "type": "LineString", "coordinates": [ [ -92.610152513244898, 46.8689435999705 ], [ -92.609923113727803, 46.869335444435002 ] ] } },
{ "type": "Feature", "properties": { "wmUplineSo": "BRANDON", "wmType": "Overhead" }, "geometry": { "type": "LineString", "coordinates": [ [ -92.623120386435701, 46.868949885059301 ], [ -92.623145993894497, 46.868564963953098 ] ] } },
{ "type": "Feature", "properties": { "wmUplineSo": "BRANDON", "wmType": "Overhead" }, "geometry": { "type": "LineString", "coordinates": [ [ -92.623119231506806, 46.869114883567697 ], [ -92.622097740201298, 46.869080801245303 ], [ -92.620981232961697, 46.869080681445901 ], [ -92.619649257571496, 46.8690626919457 ], [ -92.618456949583901, 46.869030152335696 ], [ -92.618067491948906, 46.869020282052901 ], [ -92.617109481066393, 46.868994224247899 ], [ -92.615756710139706, 46.8689718341193 ], [ -92.614474823208099, 46.8689410952001 ], [ -92.612999375662994, 46.868896799023702 ] ] } },
{ "type": "Feature", "properties": { "wmUplineSo": "BRANDON", "wmType": "Overhead" }, "geometry": { "type": "LineString", "coordinates": [ [ -92.623119231506806, 46.869114883567697 ], [ -92.623120386435701, 46.868949885059301 ] ] } },
{ "type": "Feature", "properties": { "wmUplineSo": "BRANDON", "wmType": "Overhead" }, "geometry": { "type": "LineString", "coordinates": [ [ -92.6297305599591, 46.869381821591197 ], [ -92.629697751390196, 46.869741236234503 ] ] } },
{ "type": "Feature", "properties": { "wmUplineSo": "BRANDON", "wmType": "Overhead" }, "geometry": { "type": "LineString", "coordinates": [ [ -92.652697538621595, 46.869530399421798 ], [ -92.652689243215903, 46.869363229103001 ] ] } },
{ "type": "Feature", "properties": { "wmUplineSo": "BRANDON", "wmType": "Overhead" }, "geometry": { "type": "LineString", "coordinates": [ [ -92.629396057207998, 46.869174662889897 ], [ -92.628191982894904, 46.869185758624901 ], [ -92.626902846892406, 46.8691472780881 ], [ -92.625693754047404, 46.869131187952199 ], [ -92.624388774653895, 46.8691247706018 ], [ -92.623119231506806, 46.869114883567697 ] ] } },
{ "type": "Feature", "properties": { "wmUplineSo": "BRANDON", "wmType": "Overhead" }, "geometry": { "type": "LineString", "coordinates": [ [ -92.629396057207998, 46.869174662889897 ], [ -92.6297305599591, 46.869381821591197 ] ] } },
{ "type": "Feature", "properties": { "wmUplineSo": "BRANDON", "wmType": "Overhead" }, "geometry": { "type": "LineString", "coordinates": [ [ -92.642757591635799, 46.869351428071397 ], [ -92.6427639541144, 46.869595975107799 ] ] } },
{ "type": "Feature", "properties": { "wmUplineSo": "BRANDON", "wmType": "Overhead" }, "geometry": { "type": "LineString", "coordinates": [ [ -92.6427639541144, 46.869595975107799 ], [ -92.642734792271796, 46.869962079605102 ], [ -92.642644281352105, 46.870894145521497 ], [ -92.642530106998507, 46.871646345577197 ] ] } },
{ "type": "Feature", "properties": { "wmUplineSo": "BRANDON", "wmType": "Overhead" }, "geometry": { "type": "LineString", "coordinates": [ [ -92.640654016406103, 46.869306164223097 ], [ -92.640962568095503, 46.868726184375902 ] ] } },
{ "type": "Feature", "properties": { "wmUplineSo": "BRANDON", "wmType": "Overhead" }, "geometry": { "type": "LineString", "coordinates": [ [ -92.642757591635799, 46.869351428071397 ], [ -92.641631860930502, 46.869327909154201 ], [ -92.640654016406103, 46.869306164223097 ] ] } },
{ "type": "Feature", "properties": { "wmUplineSo": "BRANDON", "wmType": "Overhead" }, "geometry": { "type": "LineString", "coordinates": [ [ -92.640654016406103, 46.869306164223097 ], [ -92.639443819400299, 46.8692981809711 ], [ -92.638125375499399, 46.869279734786602 ], [ -92.636826696999293, 46.869264907602698 ], [ -92.635521736458998, 46.869255045752702 ], [ -92.634235581698803, 46.869236657567903 ], [ -92.633045201957898, 46.869224990647403 ], [ -92.631968424242601, 46.869202247902898 ], [ -92.6308422290398, 46.869178010714101 ], [ -92.629396057207998, 46.869174662889897 ] ] } },
{ "type": "Feature", "properties": { "wmUplineSo": "BRANDON", "wmType": "Overhead" }, "geometry": { "type": "LineString", "coordinates": [ [ -92.652689243215903, 46.869363229103001 ], [ -92.652555793558605, 46.868415668193101 ], [ -92.652408150074606, 46.8675702081648 ], [ -92.652305313075402, 46.867367035862401 ] ] } },
{ "type": "Feature", "properties": { "wmUplineSo": "BRANDON", "wmType": "Overhead" }, "geometry": { "type": "LineString", "coordinates": [ [ -92.643784061807196, 46.869370341311502 ], [ -92.642757591635799, 46.869351428071397 ] ] } },
{ "type": "Feature", "properties": { "wmUplineSo": "BRANDON", "wmType": "Overhead" }, "geometry": { "type": "LineString", "coordinates": [ [ -92.649545195835003, 46.869475077215299 ], [ -92.6482649662059, 46.8694516266359 ], [ -92.646977788168897, 46.869429092704401 ], [ -92.645760054268607, 46.8694053306237 ], [ -92.644751537802094, 46.8693854908067 ], [ -92.643784061807196, 46.869370341311502 ] ] } },
{ "type": "Feature", "properties": { "wmUplineSo": "BRANDON", "wmType": "Overhead" }, "geometry": { "type": "LineString", "coordinates": [ [ -92.652697538621595, 46.869530399421798 ], [ -92.652144502752904, 46.8695229750358 ] ] } },
{ "type": "Feature", "properties": { "wmUplineSo": "BRANDON", "wmType": "Overhead" }, "geometry": { "type": "LineString", "coordinates": [ [ -92.653480328014396, 46.869544676573803 ], [ -92.652697538621595, 46.869530399421798 ] ] } },
{ "type": "Feature", "properties": { "wmUplineSo": "BRANDON", "wmType": "Overhead" }, "geometry": { "type": "LineString", "coordinates": [ [ -92.654032241171706, 46.8695596794335 ], [ -92.653480328014396, 46.869544676573803 ] ] } },
{ "type": "Feature", "properties": { "wmUplineSo": "BRANDON", "wmType": "Overhead" }, "geometry": { "type": "LineString", "coordinates": [ [ -92.659517838383707, 46.869661062418203 ], [ -92.658850854872796, 46.8696441419699 ], [ -92.657838602855904, 46.869626120633299 ] ] } },
{ "type": "Feature", "properties": { "wmUplineSo": "BRANDON", "wmType": "Overhead" }, "geometry": { "type": "LineString", "coordinates": [ [ -92.657838602855904, 46.869626120633299 ], [ -92.657987649625099, 46.869445134982897 ], [ -92.658413646602895, 46.868786397864099 ] ] } },
{ "type": "Feature", "properties": { "wmUplineSo": "BRANDON", "wmType": "Overhead" }, "geometry": { "type": "LineString", "coordinates": [ [ -92.657838602855904, 46.869626120633299 ], [ -92.656632662823995, 46.869602509469601 ], [ -92.655626661491794, 46.869584487321497 ], [ -92.654625859258005, 46.869567900609198 ], [ -92.654032241171706, 46.8695596794335 ] ] } },
{ "type": "Feature", "properties": { "wmUplineSo": "BRANDON", "wmType": "Overhead" }, "geometry": { "type": "LineString", "coordinates": [ [ -92.661313456949998, 46.869686692963597 ], [ -92.660148000079602, 46.8696728827708 ] ] } },
{ "type": "Feature", "properties": { "wmUplineSo": "BRANDON", "wmType": "Overhead" }, "geometry": { "type": "LineString", "coordinates": [ [ -92.661313456949998, 46.869686692963597 ], [ -92.661172848327993, 46.869521512716098 ] ] } },
{ "type": "Feature", "properties": { "wmUplineSo": "BRANDON", "wmType": "Overhead" }, "geometry": { "type": "LineString", "coordinates": [ [ -92.661172848327993, 46.869521512716098 ], [ -92.660779009901404, 46.8690148112793 ] ] } },
{ "type": "Feature", "properties": { "wmUplineSo": "BRANDON", "wmType": "Overhead" }, "geometry": { "type": "LineString", "coordinates": [ [ -92.662523077074894, 46.869705384644597 ], [ -92.661313456949998, 46.869686692963597 ] ] } },
{ "type": "Feature", "properties": { "wmUplineSo": "BRANDON", "wmType": "Overhead" }, "geometry": { "type": "LineString", "coordinates": [ [ -92.667568856486199, 46.869607290037401 ], [ -92.667315075452905, 46.869100831593997 ] ] } },
{ "type": "Feature", "properties": { "wmUplineSo": "BRANDON", "wmType": "Overhead" }, "geometry": { "type": "LineString", "coordinates": [ [ -92.663808502106903, 46.869732738690701 ], [ -92.662523077074894, 46.869705384644597 ] ] } },
{ "type": "Feature", "properties": { "wmUplineSo": "BRANDON", "wmType": "Overhead" }, "geometry": { "type": "LineString", "coordinates": [ [ -92.670219517996401, 46.866664439809902 ], [ -92.671506540827096, 46.866532424094601 ], [ -92.6724304386168, 46.866456499052603 ] ] } },
{ "type": "Feature", "properties": { "wmUplineSo": "BRANDON", "wmType": "Overhead" }, "geometry": { "type": "LineString", "coordinates": [ [ -92.670219517996401, 46.866664439809902 ], [ -92.670199890652995, 46.8656179398468 ], [ -92.670358589334697, 46.864929101354598 ] ] } },
{ "type": "Feature", "properties": { "wmUplineSo": "BRANDON", "wmType": "Overhead" }, "geometry": { "type": "LineString", "coordinates": [ [ -92.670311119634206, 46.868574023215999 ], [ -92.670274539737605, 46.8676003257047 ], [ -92.670219517996401, 46.866664439809902 ] ] } },
{ "type": "Feature", "properties": { "wmUplineSo": "BRANDON", "wmType": "Overhead" }, "geometry": { "type": "LineString", "coordinates": [ [ -92.670336400479897, 46.869404100140102 ], [ -92.670311119634206, 46.868574023215999 ] ] } },
{ "type": "Feature", "properties": { "wmUplineSo": "BRANDON", "wmType": "Overhead" }, "geometry": { "type": "LineString", "coordinates": [ [ -92.667669019166794, 46.869803774005 ], [ -92.667568856486199, 46.869607290037401 ] ] } },
{ "type": "Feature", "properties": { "wmUplineSo": "BRANDON", "wmType": "Overhead" }, "geometry": { "type": "LineString", "coordinates": [ [ -92.667669019166794, 46.869803774005 ], [ -92.666273141462895, 46.869778787803803 ], [ -92.665058260896998, 46.869752851834797 ], [ -92.663808502106903, 46.869732738690701 ] ] } },
{ "type": "Feature", "properties": { "wmUplineSo": "BRANDON", "wmType": "Overhead" }, "geometry": { "type": "LineString", "coordinates": [ [ -92.676107543310593, 46.869770102998601 ], [ -92.675852001155505, 46.869542709949499 ], [ -92.676107762280495, 46.869272001626399 ] ] } }
]
}
