{
"type": "FeatureCollection",
"crs": { "type": "name", "properties": { "name": "urn:ogc:def:crs:OGC:1.3:CRS84" } },
"features": [
{ "type": "Feature", "properties": { "wmUplineSo": "CEDAR VALLEY", "wmType": "Underground" }, "geometry": { "type": "LineString", "coordinates": [ [ -92.952153999996895, 47.094941003586698 ], [ -92.951948999996901, 47.094949003586599 ] ] } },
{ "type": "Feature", "properties": { "wmUplineSo": "CEDAR VALLEY", "wmType": "Underground" }, "geometry": { "type": "LineString", "coordinates": [ [ -92.951948999996901, 47.094949003586599 ], [ -92.951744999996905, 47.094962003586701 ] ] } },
{ "type": "Feature", "properties": { "wmUplineSo": "CEDAR VALLEY", "wmType": "Underground" }, "geometry": { "type": "LineString", "coordinates": [ [ -92.951744999996905, 47.094962003586701 ], [ -92.9517095, 47.094961900008897 ] ] } },
{ "type": "Feature", "properties": { "wmUplineSo": "CEDAR VALLEY", "wmType": "Underground" }, "geometry": { "type": "LineString", "coordinates": [ [ -92.8117419999882, 47.154352003603101 ], [ -92.812221999988296, 47.154325003602899 ] ] } },
{ "type": "Feature", "properties": { "wmUplineSo": "CEDAR VALLEY", "wmType": "Underground" }, "geometry": { "type": "LineString", "coordinates": [ [ -92.843214386807901, 47.173291910605599 ], [ -92.8432147, 47.173282500008902 ] ] } },
{ "type": "Feature", "properties": { "wmUplineSo": "CEDAR VALLEY", "wmType": "Underground" }, "geometry": { "type": "LineString", "coordinates": [ [ -92.842897976993697, 47.173453479210202 ], [ -92.843214386807901, 47.173291910605599 ] ] } },
{ "type": "Feature", "properties": { "wmUplineSo": "CEDAR VALLEY", "wmType": "Underground" }, "geometry": { "type": "LineString", "coordinates": [ [ -92.810877347071397, 47.264692851093997 ], [ -92.8109206, 47.264650400009103 ] ] } },
{ "type": "Feature", "properties": { "wmUplineSo": "CEDAR VALLEY", "wmType": "Underground" }, "geometry": { "type": "LineString", "coordinates": [ [ -92.782070999986402, 47.159401003604501 ], [ -92.782251999986499, 47.159471003604303 ] ] } },
{ "type": "Feature", "properties": { "wmUplineSo": "CEDAR VALLEY", "wmType": "Underground" }, "geometry": { "type": "LineString", "coordinates": [ [ -92.781994999986395, 47.159299003604403 ], [ -92.782070999986402, 47.159401003604501 ] ] } },
{ "type": "Feature", "properties": { "wmUplineSo": "CEDAR VALLEY", "wmType": "Underground" }, "geometry": { "type": "LineString", "coordinates": [ [ -92.782496999986407, 47.159440003604303 ], [ -92.7825271, 47.159483600008897 ] ] } },
{ "type": "Feature", "properties": { "wmUplineSo": "CEDAR VALLEY", "wmType": "Underground" }, "geometry": { "type": "LineString", "coordinates": [ [ -92.933740809655703, 47.033301913500097 ], [ -92.934641692629498, 47.033164790065797 ] ] } },
{ "type": "Feature", "properties": { "wmUplineSo": "CEDAR VALLEY", "wmType": "Underground" }, "geometry": { "type": "LineString", "coordinates": [ [ -92.833865115557899, 47.249117859829397 ], [ -92.835102696987605, 47.248908600887503 ] ] } },
{ "type": "Feature", "properties": { "wmUplineSo": "CEDAR VALLEY", "wmType": "Underground" }, "geometry": { "type": "LineString", "coordinates": [ [ -92.835102696987605, 47.248908600887503 ], [ -92.8353817, 47.248834500009004 ] ] } },
{ "type": "Feature", "properties": { "wmUplineSo": "CEDAR VALLEY", "wmType": "Underground" }, "geometry": { "type": "LineString", "coordinates": [ [ -92.758894185077494, 47.2108212608616 ], [ -92.759082864627004, 47.211007169012298 ] ] } },
{ "type": "Feature", "properties": { "wmUplineSo": "CEDAR VALLEY", "wmType": "Underground" }, "geometry": { "type": "LineString", "coordinates": [ [ -92.759082864627004, 47.211007169012298 ], [ -92.758849, 47.211076400008999 ] ] } },
{ "type": "Feature", "properties": { "wmUplineSo": "CEDAR VALLEY", "wmType": "Underground" }, "geometry": { "type": "LineString", "coordinates": [ [ -92.955283, 47.058895 ], [ -92.955285, 47.058742000000102 ] ] } },
{ "type": "Feature", "properties": { "wmUplineSo": "CEDAR VALLEY", "wmType": "Underground" }, "geometry": { "type": "LineString", "coordinates": [ [ -92.953526740771693, 47.060148072468799 ], [ -92.953545171322503, 47.060116565931402 ] ] } },
{ "type": "Feature", "properties": { "wmUplineSo": "CEDAR VALLEY", "wmType": "Underground" }, "geometry": { "type": "LineString", "coordinates": [ [ -92.953678717143802, 47.059888271691499 ], [ -92.955233, 47.058966 ] ] } },
{ "type": "Feature", "properties": { "wmUplineSo": "CEDAR VALLEY", "wmType": "Underground" }, "geometry": { "type": "LineString", "coordinates": [ [ -92.955233, 47.058966 ], [ -92.955283, 47.058895 ] ] } },
{ "type": "Feature", "properties": { "wmUplineSo": "CEDAR VALLEY", "wmType": "Underground" }, "geometry": { "type": "LineString", "coordinates": [ [ -92.808722597619493, 47.223622082542597 ], [ -92.808221, 47.223594 ] ] } },
{ "type": "Feature", "properties": { "wmUplineSo": "CEDAR VALLEY", "wmType": "Underground" }, "geometry": { "type": "LineString", "coordinates": [ [ -92.808221, 47.223594 ], [ -92.807961, 47.223407000000101 ] ] } },
{ "type": "Feature", "properties": { "wmUplineSo": "CEDAR VALLEY", "wmType": "Underground" }, "geometry": { "type": "LineString", "coordinates": [ [ -92.807961, 47.223407000000101 ], [ -92.807632, 47.223208999999898 ] ] } },
{ "type": "Feature", "properties": { "wmUplineSo": "CEDAR VALLEY", "wmType": "Underground" }, "geometry": { "type": "LineString", "coordinates": [ [ -92.807632, 47.223208999999898 ], [ -92.807249, 47.2229880000001 ] ] } },
{ "type": "Feature", "properties": { "wmUplineSo": "CEDAR VALLEY", "wmType": "Underground" }, "geometry": { "type": "LineString", "coordinates": [ [ -92.807249, 47.2229880000001 ], [ -92.806943, 47.222804 ] ] } },
{ "type": "Feature", "properties": { "wmUplineSo": "CEDAR VALLEY", "wmType": "Underground" }, "geometry": { "type": "LineString", "coordinates": [ [ -92.806943, 47.222804 ], [ -92.806475, 47.222534 ] ] } },
{ "type": "Feature", "properties": { "wmUplineSo": "CEDAR VALLEY", "wmType": "Underground" }, "geometry": { "type": "LineString", "coordinates": [ [ -92.806475, 47.222534 ], [ -92.806176, 47.222321 ] ] } },
{ "type": "Feature", "properties": { "wmUplineSo": "CEDAR VALLEY", "wmType": "Underground" }, "geometry": { "type": "LineString", "coordinates": [ [ -92.806176, 47.222321 ], [ -92.806164, 47.222307 ] ] } },
{ "type": "Feature", "properties": { "wmUplineSo": "CEDAR VALLEY", "wmType": "Underground" }, "geometry": { "type": "LineString", "coordinates": [ [ -92.726873482168003, 47.143905311504902 ], [ -92.726875478222794, 47.143924653356201 ] ] } },
{ "type": "Feature", "properties": { "wmUplineSo": "CEDAR VALLEY", "wmType": "Underground" }, "geometry": { "type": "LineString", "coordinates": [ [ -92.726875478222794, 47.143924653356201 ], [ -92.726853374658802, 47.144017053541702 ] ] } },
{ "type": "Feature", "properties": { "wmUplineSo": "CEDAR VALLEY", "wmType": "Underground" }, "geometry": { "type": "LineString", "coordinates": [ [ -92.726853374658802, 47.144017053541702 ], [ -92.726840305795307, 47.144149662406001 ] ] } },
{ "type": "Feature", "properties": { "wmUplineSo": "CEDAR VALLEY", "wmType": "Underground" }, "geometry": { "type": "LineString", "coordinates": [ [ -92.726840305795307, 47.144149662406001 ], [ -92.726842313044102, 47.144421999979699 ] ] } },
{ "type": "Feature", "properties": { "wmUplineSo": "CEDAR VALLEY", "wmType": "Underground" }, "geometry": { "type": "LineString", "coordinates": [ [ -92.726842313044102, 47.144421999979699 ], [ -92.726840304316895, 47.144807999980898 ] ] } },
{ "type": "Feature", "properties": { "wmUplineSo": "CEDAR VALLEY", "wmType": "Underground" }, "geometry": { "type": "LineString", "coordinates": [ [ -92.726840304316895, 47.144807999980898 ], [ -92.726833295605203, 47.145230999981898 ] ] } },
{ "type": "Feature", "properties": { "wmUplineSo": "CEDAR VALLEY", "wmType": "Underground" }, "geometry": { "type": "LineString", "coordinates": [ [ -92.726833295605203, 47.145230999981898 ], [ -92.7268194605102, 47.145483663885898 ] ] } },
{ "type": "Feature", "properties": { "wmUplineSo": "CEDAR VALLEY", "wmType": "Underground" }, "geometry": { "type": "LineString", "coordinates": [ [ -92.7268194605102, 47.145483663885898 ], [ -92.726790336674895, 47.145564587633103 ] ] } },
{ "type": "Feature", "properties": { "wmUplineSo": "CEDAR VALLEY", "wmType": "Underground" }, "geometry": { "type": "LineString", "coordinates": [ [ -92.726790336674895, 47.145564587633103 ], [ -92.726929775253296, 47.145654659619503 ] ] } },
{ "type": "Feature", "properties": { "wmUplineSo": "CEDAR VALLEY", "wmType": "Underground" }, "geometry": { "type": "LineString", "coordinates": [ [ -92.726929775253296, 47.145654659619503 ], [ -92.726955758459297, 47.145753657227701 ] ] } },
{ "type": "Feature", "properties": { "wmUplineSo": "CEDAR VALLEY", "wmType": "Underground" }, "geometry": { "type": "LineString", "coordinates": [ [ -92.726955758459297, 47.145753657227701 ], [ -92.726963163141505, 47.145770943608497 ] ] } },
{ "type": "Feature", "properties": { "wmUplineSo": "CEDAR VALLEY", "wmType": "Underground" }, "geometry": { "type": "LineString", "coordinates": [ [ -92.726875478222794, 47.143924653356201 ], [ -92.727082406045895, 47.143946013376798 ] ] } },
{ "type": "Feature", "properties": { "wmUplineSo": "CEDAR VALLEY", "wmType": "Underground" }, "geometry": { "type": "LineString", "coordinates": [ [ -92.852150571490995, 47.238613829379503 ], [ -92.8519668, 47.238480800009 ] ] } },
{ "type": "Feature", "properties": { "wmUplineSo": "CEDAR VALLEY", "wmType": "Underground" }, "geometry": { "type": "LineString", "coordinates": [ [ -92.778783033163293, 47.166722443218298 ], [ -92.7783428, 47.164886400009003 ] ] } },
{ "type": "Feature", "properties": { "wmUplineSo": "CEDAR VALLEY", "wmType": "Underground" }, "geometry": { "type": "LineString", "coordinates": [ [ -92.728856871801696, 47.143567546986297 ], [ -92.7287831, 47.143436300008901 ] ] } },
{ "type": "Feature", "properties": { "wmUplineSo": "CEDAR VALLEY", "wmType": "Underground" }, "geometry": { "type": "LineString", "coordinates": [ [ -92.811602090161102, 47.235048223677801 ], [ -92.811801723830101, 47.235250429460599 ] ] } },
{ "type": "Feature", "properties": { "wmUplineSo": "CEDAR VALLEY", "wmType": "Underground" }, "geometry": { "type": "LineString", "coordinates": [ [ -92.727263190110804, 47.054397756361197 ], [ -92.727208, 47.054416200008802 ] ] } },
{ "type": "Feature", "properties": { "wmUplineSo": "CEDAR VALLEY", "wmType": "Underground" }, "geometry": { "type": "LineString", "coordinates": [ [ -92.957602072205702, 47.068340927514498 ], [ -92.9573699, 47.068437400008797 ] ] } },
{ "type": "Feature", "properties": { "wmUplineSo": "CEDAR VALLEY", "wmType": "Underground" }, "geometry": { "type": "LineString", "coordinates": [ [ -92.751293324426001, 47.098966382678299 ], [ -92.7512896, 47.099292900008898 ] ] } },
{ "type": "Feature", "properties": { "wmUplineSo": "CEDAR VALLEY", "wmType": "Underground" }, "geometry": { "type": "LineString", "coordinates": [ [ -92.8104194951663, 47.163028046674903 ], [ -92.8103805, 47.163035200008899 ] ] } },
{ "type": "Feature", "properties": { "wmUplineSo": "CEDAR VALLEY", "wmType": "Underground" }, "geometry": { "type": "LineString", "coordinates": [ [ -92.959076375730902, 47.098855269684499 ], [ -92.9590016451276, 47.099271524066303 ] ] } },
{ "type": "Feature", "properties": { "wmUplineSo": "CEDAR VALLEY", "wmType": "Underground" }, "geometry": { "type": "LineString", "coordinates": [ [ -92.747637281414498, 47.2152385225194 ], [ -92.7468029, 47.215619900009003 ] ] } },
{ "type": "Feature", "properties": { "wmUplineSo": "CEDAR VALLEY", "wmType": "Underground" }, "geometry": { "type": "LineString", "coordinates": [ [ -92.824133694404907, 47.246191357243198 ], [ -92.8242606, 47.246163700008999 ] ] } },
{ "type": "Feature", "properties": { "wmUplineSo": "CEDAR VALLEY", "wmType": "Underground" }, "geometry": { "type": "LineString", "coordinates": [ [ -92.8509975461468, 47.176442996187703 ], [ -92.851144, 47.176308400008999 ] ] } },
{ "type": "Feature", "properties": { "wmUplineSo": "CEDAR VALLEY", "wmType": "Underground" }, "geometry": { "type": "LineString", "coordinates": [ [ -92.834487232668394, 47.182653582626898 ], [ -92.8345656, 47.182537100009 ] ] } },
{ "type": "Feature", "properties": { "wmUplineSo": "CEDAR VALLEY", "wmType": "Underground" }, "geometry": { "type": "LineString", "coordinates": [ [ -92.779141984399104, 47.159763459275503 ], [ -92.7785487, 47.159600400008898 ] ] } },
{ "type": "Feature", "properties": { "wmUplineSo": "CEDAR VALLEY", "wmType": "Underground" }, "geometry": { "type": "LineString", "coordinates": [ [ -92.755339428230002, 47.1676241223213 ], [ -92.755398579168798, 47.167963106810802 ] ] } },
{ "type": "Feature", "properties": { "wmUplineSo": "CEDAR VALLEY", "wmType": "Underground" }, "geometry": { "type": "LineString", "coordinates": [ [ -92.76851654, 47.196537020009004 ], [ -92.768102791373096, 47.196389385361897 ] ] } },
{ "type": "Feature", "properties": { "wmUplineSo": "CEDAR VALLEY", "wmType": "Underground" }, "geometry": { "type": "LineString", "coordinates": [ [ -92.751323227083802, 47.207492513087303 ], [ -92.7515214, 47.207418400008997 ] ] } },
{ "type": "Feature", "properties": { "wmUplineSo": "CEDAR VALLEY", "wmType": "Underground" }, "geometry": { "type": "LineString", "coordinates": [ [ -92.788425405088802, 47.115859349088801 ], [ -92.7880463, 47.1156319000089 ] ] } },
{ "type": "Feature", "properties": { "wmUplineSo": "CEDAR VALLEY", "wmType": "Underground" }, "geometry": { "type": "LineString", "coordinates": [ [ -92.786641829949602, 47.040572336520498 ], [ -92.7865828, 47.040698100008797 ] ] } },
{ "type": "Feature", "properties": { "wmUplineSo": "CEDAR VALLEY", "wmType": "Underground" }, "geometry": { "type": "LineString", "coordinates": [ [ -92.798727286303404, 47.046385873341201 ], [ -92.7990029, 47.046295600008797 ] ] } },
{ "type": "Feature", "properties": { "wmUplineSo": "CEDAR VALLEY", "wmType": "Underground" }, "geometry": { "type": "LineString", "coordinates": [ [ -92.765008738114204, 47.072827298717698 ], [ -92.7642208, 47.072306300008798 ] ] } },
{ "type": "Feature", "properties": { "wmUplineSo": "CEDAR VALLEY", "wmType": "Underground" }, "geometry": { "type": "LineString", "coordinates": [ [ -92.880500722786493, 47.067881751142302 ], [ -92.8802671, 47.067969600008801 ] ] } },
{ "type": "Feature", "properties": { "wmUplineSo": "CEDAR VALLEY", "wmType": "Underground" }, "geometry": { "type": "LineString", "coordinates": [ [ -92.932416204189593, 47.034509170691699 ], [ -92.9321536, 47.0345087000088 ] ] } },
{ "type": "Feature", "properties": { "wmUplineSo": "CEDAR VALLEY", "wmType": "Underground" }, "geometry": { "type": "LineString", "coordinates": [ [ -92.939877767449204, 47.055206397669899 ], [ -92.9402912, 47.054742900008797 ] ] } },
{ "type": "Feature", "properties": { "wmUplineSo": "CEDAR VALLEY", "wmType": "Underground" }, "geometry": { "type": "LineString", "coordinates": [ [ -92.8018755689871, 47.190094678851899 ], [ -92.8011547, 47.189731200009 ] ] } },
{ "type": "Feature", "properties": { "wmUplineSo": "CEDAR VALLEY", "wmType": "Underground" }, "geometry": { "type": "LineString", "coordinates": [ [ -92.854553150223296, 47.237461717603402 ], [ -92.854458209480796, 47.237321342559298 ] ] } },
{ "type": "Feature", "properties": { "wmUplineSo": "CEDAR VALLEY", "wmType": "Underground" }, "geometry": { "type": "LineString", "coordinates": [ [ -92.777797302423593, 47.1132775439821 ], [ -92.7777318, 47.113252400008903 ] ] } },
{ "type": "Feature", "properties": { "wmUplineSo": "CEDAR VALLEY", "wmType": "Underground" }, "geometry": { "type": "LineString", "coordinates": [ [ -92.735765999183698, 47.138404570599 ], [ -92.7347096, 47.1390870000089 ] ] } },
{ "type": "Feature", "properties": { "wmUplineSo": "CEDAR VALLEY", "wmType": "Underground" }, "geometry": { "type": "LineString", "coordinates": [ [ -92.829939739325098, 47.1795277273038 ], [ -92.8298075, 47.179548300009003 ] ] } },
{ "type": "Feature", "properties": { "wmUplineSo": "CEDAR VALLEY", "wmType": "Underground" }, "geometry": { "type": "LineString", "coordinates": [ [ -92.789805586026603, 47.154012250206598 ], [ -92.7899023, 47.1538742000089 ] ] } },
{ "type": "Feature", "properties": { "wmUplineSo": "CEDAR VALLEY", "wmType": "Underground" }, "geometry": { "type": "LineString", "coordinates": [ [ -92.808221, 47.223594 ], [ -92.8081466, 47.223560200008997 ] ] } },
{ "type": "Feature", "properties": { "wmUplineSo": "CEDAR VALLEY", "wmType": "Underground" }, "geometry": { "type": "LineString", "coordinates": [ [ -92.769089, 47.14511 ], [ -92.769296, 47.145128 ] ] } },
{ "type": "Feature", "properties": { "wmUplineSo": "CEDAR VALLEY", "wmType": "Underground" }, "geometry": { "type": "LineString", "coordinates": [ [ -92.791630772379406, 47.0891609827815 ], [ -92.7913861, 47.089429200008901 ] ] } },
{ "type": "Feature", "properties": { "wmUplineSo": "CEDAR VALLEY", "wmType": "Underground" }, "geometry": { "type": "LineString", "coordinates": [ [ -92.791630772379406, 47.0891609827815 ], [ -92.7914206, 47.089920600008902 ] ] } },
{ "type": "Feature", "properties": { "wmUplineSo": "CEDAR VALLEY", "wmType": "Underground" }, "geometry": { "type": "LineString", "coordinates": [ [ -92.955285, 47.058742000000102 ], [ -92.955402, 47.058339000000103 ] ] } },
{ "type": "Feature", "properties": { "wmUplineSo": "CEDAR VALLEY", "wmType": "Underground" }, "geometry": { "type": "LineString", "coordinates": [ [ -92.769296, 47.145128 ], [ -92.769418, 47.145144000000101 ] ] } },
{ "type": "Feature", "properties": { "wmUplineSo": "CEDAR VALLEY", "wmType": "Underground" }, "geometry": { "type": "LineString", "coordinates": [ [ -92.955402, 47.058339000000103 ], [ -92.955399, 47.058161 ] ] } },
{ "type": "Feature", "properties": { "wmUplineSo": "CEDAR VALLEY", "wmType": "Underground" }, "geometry": { "type": "LineString", "coordinates": [ [ -92.955399, 47.058161 ], [ -92.955323, 47.057949 ] ] } },
{ "type": "Feature", "properties": { "wmUplineSo": "CEDAR VALLEY", "wmType": "Underground" }, "geometry": { "type": "LineString", "coordinates": [ [ -92.955323, 47.057949 ], [ -92.955448, 47.057537 ] ] } },
{ "type": "Feature", "properties": { "wmUplineSo": "CEDAR VALLEY", "wmType": "Underground" }, "geometry": { "type": "LineString", "coordinates": [ [ -92.955448, 47.057537 ], [ -92.955573, 47.057004 ] ] } },
{ "type": "Feature", "properties": { "wmUplineSo": "CEDAR VALLEY", "wmType": "Underground" }, "geometry": { "type": "LineString", "coordinates": [ [ -92.955573, 47.057004 ], [ -92.955616, 47.056768 ] ] } },
{ "type": "Feature", "properties": { "wmUplineSo": "CEDAR VALLEY", "wmType": "Underground" }, "geometry": { "type": "LineString", "coordinates": [ [ -92.792285283960197, 47.089032246555 ], [ -92.791630772379406, 47.0891609827815 ] ] } },
{ "type": "Feature", "properties": { "wmUplineSo": "CEDAR VALLEY", "wmType": "Underground" }, "geometry": { "type": "LineString", "coordinates": [ [ -92.727082406045895, 47.143946013376798 ], [ -92.728856871801696, 47.143567546986297 ] ] } },
{ "type": "Feature", "properties": { "wmUplineSo": "CEDAR VALLEY", "wmType": "Underground" }, "geometry": { "type": "LineString", "coordinates": [ [ -92.812221999988296, 47.154325003602899 ], [ -92.8122601, 47.154355800008901 ] ] } },
{ "type": "Feature", "properties": { "wmUplineSo": "CEDAR VALLEY", "wmType": "Underground" }, "geometry": { "type": "LineString", "coordinates": [ [ -92.732513410685499, 47.055091911740497 ], [ -92.731162387563998, 47.055098713489897 ], [ -92.729802504837295, 47.055126056429302 ], [ -92.728854160399294, 47.0551487489981 ], [ -92.728112994767201, 47.055118926779897 ], [ -92.727498089887803, 47.055040553565803 ], [ -92.727339354349397, 47.054676966542601 ], [ -92.727263190110804, 47.054397756361197 ] ] } },
{ "type": "Feature", "properties": { "wmUplineSo": "CEDAR VALLEY", "wmType": "Underground" }, "geometry": { "type": "LineString", "coordinates": [ [ -92.751183150511693, 47.098326540674499 ], [ -92.7511507797376, 47.098502119322703 ], [ -92.751168876481998, 47.098650176315502 ], [ -92.751276173022205, 47.098784224585998 ], [ -92.751293324426001, 47.098966382678299 ] ] } },
{ "type": "Feature", "properties": { "wmUplineSo": "CEDAR VALLEY", "wmType": "Underground" }, "geometry": { "type": "LineString", "coordinates": [ [ -92.940059337360097, 47.055352042535098 ], [ -92.939877767449204, 47.055206397669899 ] ] } },
{ "type": "Feature", "properties": { "wmUplineSo": "CEDAR VALLEY", "wmType": "Underground" }, "geometry": { "type": "LineString", "coordinates": [ [ -92.747810594848701, 47.213209347613201 ], [ -92.747712470761996, 47.213517042870201 ] ] } },
{ "type": "Feature", "properties": { "wmUplineSo": "CEDAR VALLEY", "wmType": "Underground" }, "geometry": { "type": "LineString", "coordinates": [ [ -92.747712470761996, 47.213517042870201 ], [ -92.747637281414498, 47.2152385225194 ] ] } },
{ "type": "Feature", "properties": { "wmUplineSo": "CEDAR VALLEY", "wmType": "Underground" }, "geometry": { "type": "LineString", "coordinates": [ [ -92.851865796255396, 47.239438929650703 ], [ -92.852150571490995, 47.238613829379503 ] ] } },
{ "type": "Feature", "properties": { "wmUplineSo": "CEDAR VALLEY", "wmType": "Underground" }, "geometry": { "type": "LineString", "coordinates": [ [ -92.823618591286504, 47.2466097474477 ], [ -92.823781524033706, 47.246325170645903 ], [ -92.824133694404907, 47.246191357243198 ] ] } },
{ "type": "Feature", "properties": { "wmUplineSo": "CEDAR VALLEY", "wmType": "Underground" }, "geometry": { "type": "LineString", "coordinates": [ [ -92.809953681215006, 47.235181791265397 ], [ -92.811076479249394, 47.235068209266203 ], [ -92.811602090161102, 47.235048223677801 ] ] } },
{ "type": "Feature", "properties": { "wmUplineSo": "CEDAR VALLEY", "wmType": "Underground" }, "geometry": { "type": "LineString", "coordinates": [ [ -92.853270403476998, 47.1764831786152 ], [ -92.851608815654799, 47.1764038673127 ], [ -92.8509975461468, 47.176442996187703 ] ] } },
{ "type": "Feature", "properties": { "wmUplineSo": "CEDAR VALLEY", "wmType": "Underground" }, "geometry": { "type": "LineString", "coordinates": [ [ -92.842574609877303, 47.181763053107602 ], [ -92.8386656902547, 47.181701270064003 ], [ -92.837740747264206, 47.182045326578397 ], [ -92.836508792550603, 47.182051872210302 ], [ -92.835212559903596, 47.182100688683803 ], [ -92.834981376721302, 47.182485473651703 ], [ -92.834487232668394, 47.182653582626898 ] ] } },
{ "type": "Feature", "properties": { "wmUplineSo": "CEDAR VALLEY", "wmType": "Underground" }, "geometry": { "type": "LineString", "coordinates": [ [ -92.810808779518993, 47.163012024190401 ], [ -92.8104194951663, 47.163028046674903 ] ] } },
{ "type": "Feature", "properties": { "wmUplineSo": "CEDAR VALLEY", "wmType": "Underground" }, "geometry": { "type": "LineString", "coordinates": [ [ -92.779015112332203, 47.160395412420698 ], [ -92.779141984399104, 47.159763459275503 ] ] } },
{ "type": "Feature", "properties": { "wmUplineSo": "CEDAR VALLEY", "wmType": "Underground" }, "geometry": { "type": "LineString", "coordinates": [ [ -92.769781714162704, 47.167244353529597 ], [ -92.777971618359999, 47.166959142633601 ], [ -92.778783033163293, 47.166722443218298 ] ] } },
{ "type": "Feature", "properties": { "wmUplineSo": "CEDAR VALLEY", "wmType": "Underground" }, "geometry": { "type": "LineString", "coordinates": [ [ -92.762881645172698, 47.167637666710199 ], [ -92.762092251346701, 47.1676638676376 ] ] } },
{ "type": "Feature", "properties": { "wmUplineSo": "CEDAR VALLEY", "wmType": "Underground" }, "geometry": { "type": "LineString", "coordinates": [ [ -92.762092251346701, 47.1676638676376 ], [ -92.755339428230002, 47.1676241223213 ] ] } },
{ "type": "Feature", "properties": { "wmUplineSo": "CEDAR VALLEY", "wmType": "Underground" }, "geometry": { "type": "LineString", "coordinates": [ [ -92.750746284353298, 47.210745405862497 ], [ -92.751384248880697, 47.209445293663201 ], [ -92.751348987771394, 47.209118499937802 ], [ -92.7515876714276, 47.207550313354801 ], [ -92.751447172002301, 47.207500155243103 ], [ -92.751323227083802, 47.207492513087303 ] ] } },
{ "type": "Feature", "properties": { "wmUplineSo": "CEDAR VALLEY", "wmType": "Underground" }, "geometry": { "type": "LineString", "coordinates": [ [ -92.790166780854406, 47.116355845318402 ], [ -92.788425405088802, 47.115859349088801 ] ] } },
{ "type": "Feature", "properties": { "wmUplineSo": "CEDAR VALLEY", "wmType": "Underground" }, "geometry": { "type": "LineString", "coordinates": [ [ -92.776908619744404, 47.099048292524202 ], [ -92.776983587790099, 47.102804525624499 ] ] } },
{ "type": "Feature", "properties": { "wmUplineSo": "CEDAR VALLEY", "wmType": "Underground" }, "geometry": { "type": "LineString", "coordinates": [ [ -92.786403000112998, 47.0400864903824 ], [ -92.786641829949602, 47.040572336520498 ] ] } },
{ "type": "Feature", "properties": { "wmUplineSo": "CEDAR VALLEY", "wmType": "Underground" }, "geometry": { "type": "LineString", "coordinates": [ [ -92.785778012266604, 47.047367924170899 ], [ -92.7961487287983, 47.047419706647702 ], [ -92.798197920923997, 47.046845562176799 ], [ -92.798727286303404, 47.046385873341201 ] ] } },
{ "type": "Feature", "properties": { "wmUplineSo": "CEDAR VALLEY", "wmType": "Underground" }, "geometry": { "type": "LineString", "coordinates": [ [ -92.733194363695105, 47.055001669523101 ], [ -92.732513410685499, 47.055091911740497 ] ] } },
{ "type": "Feature", "properties": { "wmUplineSo": "CEDAR VALLEY", "wmType": "Underground" }, "geometry": { "type": "LineString", "coordinates": [ [ -92.764839510465904, 47.069848499954901 ], [ -92.765667173276597, 47.0698827816734 ], [ -92.765601629770003, 47.070743650319002 ], [ -92.765576890085697, 47.072042892010003 ], [ -92.7651464418541, 47.072590064239797 ], [ -92.765008738114204, 47.072827298717698 ] ] } },
{ "type": "Feature", "properties": { "wmUplineSo": "CEDAR VALLEY", "wmType": "Underground" }, "geometry": { "type": "LineString", "coordinates": [ [ -92.816998579639105, 47.090591537391703 ], [ -92.815759399980294, 47.0905366262092 ] ] } },
{ "type": "Feature", "properties": { "wmUplineSo": "CEDAR VALLEY", "wmType": "Underground" }, "geometry": { "type": "LineString", "coordinates": [ [ -92.880528118759798, 47.068818401554402 ], [ -92.880500722786493, 47.067881751142302 ] ] } },
{ "type": "Feature", "properties": { "wmUplineSo": "CEDAR VALLEY", "wmType": "Underground" }, "geometry": { "type": "LineString", "coordinates": [ [ -92.913350836073306, 47.0549979013363 ], [ -92.911970210819305, 47.054956695373299 ], [ -92.912024128917807, 47.0559166545913 ] ] } },
{ "type": "Feature", "properties": { "wmUplineSo": "CEDAR VALLEY", "wmType": "Underground" }, "geometry": { "type": "LineString", "coordinates": [ [ -92.953172529566899, 47.069597000862302 ], [ -92.955548921564002, 47.069564234221097 ], [ -92.957709915237899, 47.069632455402697 ], [ -92.957755929952896, 47.069508001014903 ], [ -92.957417349019195, 47.069268990191397 ], [ -92.957142430743602, 47.0690674465489 ], [ -92.957105032343904, 47.068831794913699 ], [ -92.957154213196802, 47.068575056023803 ], [ -92.957586397072404, 47.0684990147804 ], [ -92.957602072205702, 47.068340927514498 ] ] } },
{ "type": "Feature", "properties": { "wmUplineSo": "CEDAR VALLEY", "wmType": "Underground" }, "geometry": { "type": "LineString", "coordinates": [ [ -92.9524649262042, 47.069939122301697 ], [ -92.953172529566899, 47.069597000862302 ] ] } },
{ "type": "Feature", "properties": { "wmUplineSo": "CEDAR VALLEY", "wmType": "Underground" }, "geometry": { "type": "LineString", "coordinates": [ [ -92.801708195779895, 47.189077955813602 ], [ -92.8018755689871, 47.190094678851899 ] ] } },
{ "type": "Feature", "properties": { "wmUplineSo": "CEDAR VALLEY", "wmType": "Underground" }, "geometry": { "type": "LineString", "coordinates": [ [ -92.955616, 47.056768 ], [ -92.955886, 47.056727000000102 ] ] } },
{ "type": "Feature", "properties": { "wmUplineSo": "CEDAR VALLEY", "wmType": "Underground" }, "geometry": { "type": "LineString", "coordinates": [ [ -92.852981954390799, 47.2396739255189 ], [ -92.852943899720898, 47.2394356462571 ], [ -92.853273772034697, 47.239131463767599 ], [ -92.853826742640095, 47.238831073595399 ], [ -92.854089259597103, 47.238005951479302 ], [ -92.854553150223296, 47.237461717603402 ] ] } },
{ "type": "Feature", "properties": { "wmUplineSo": "CEDAR VALLEY", "wmType": "Underground" }, "geometry": { "type": "LineString", "coordinates": [ [ -92.774395473447996, 47.1134818970705 ], [ -92.777607527341999, 47.113332261447603 ], [ -92.777797302423593, 47.1132775439821 ] ] } },
{ "type": "Feature", "properties": { "wmUplineSo": "CEDAR VALLEY", "wmType": "Underground" }, "geometry": { "type": "LineString", "coordinates": [ [ -92.933368512354605, 47.033211296025698 ], [ -92.933740809655703, 47.033301913500097 ] ] } },
{ "type": "Feature", "properties": { "wmUplineSo": "CEDAR VALLEY", "wmType": "Underground" }, "geometry": { "type": "LineString", "coordinates": [ [ -92.953545171322503, 47.060116565931402 ], [ -92.953678717143802, 47.059888271691499 ] ] } },
{ "type": "Feature", "properties": { "wmUplineSo": "CEDAR VALLEY", "wmType": "Underground" }, "geometry": { "type": "LineString", "coordinates": [ [ -92.821169798973401, 47.181510696357101 ], [ -92.822709405833294, 47.181415950414198 ], [ -92.825000381526095, 47.181354713544401 ], [ -92.826125251271094, 47.180921682501797 ], [ -92.828164575854899, 47.180381924860797 ], [ -92.828720806537206, 47.180068485153903 ], [ -92.8292716439869, 47.179801461335401 ], [ -92.8296387744996, 47.179652014080098 ], [ -92.829939739325098, 47.1795277273038 ] ] } },
{ "type": "Feature", "properties": { "wmUplineSo": "CEDAR VALLEY", "wmType": "Underground" }, "geometry": { "type": "LineString", "coordinates": [ [ -92.818032504378294, 47.166961680713598 ], [ -92.817997182876297, 47.166638989738203 ] ] } },
{ "type": "Feature", "properties": { "wmUplineSo": "CEDAR VALLEY", "wmType": "Underground" }, "geometry": { "type": "LineString", "coordinates": [ [ -92.810002917969996, 47.223664788168399 ], [ -92.808722597619493, 47.223622082542597 ] ] } },
{ "type": "Feature", "properties": { "wmUplineSo": "CEDAR VALLEY", "wmType": "Underground" }, "geometry": { "type": "LineString", "coordinates": [ [ -92.790203333467502, 47.1540190683981 ], [ -92.790124862245506, 47.154141228140503 ], [ -92.789805586026603, 47.154012250206598 ] ] } },
{ "type": "Feature", "properties": { "wmUplineSo": "CEDAR VALLEY", "wmType": "Underground" }, "geometry": { "type": "LineString", "coordinates": [ [ -92.782251999986499, 47.159471003604303 ], [ -92.782496999986407, 47.159440003604303 ] ] } },
{ "type": "Feature", "properties": { "wmUplineSo": "CEDAR VALLEY", "wmType": "Underground" }, "geometry": { "type": "LineString", "coordinates": [ [ -92.769418, 47.145144000000101 ], [ -92.769434, 47.145193 ] ] } },
{ "type": "Feature", "properties": { "wmUplineSo": "CEDAR VALLEY", "wmType": "Underground" }, "geometry": { "type": "LineString", "coordinates": [ [ -92.769434, 47.145193 ], [ -92.769466, 47.145175 ] ] } },
{ "type": "Feature", "properties": { "wmUplineSo": "CEDAR VALLEY", "wmType": "Underground" }, "geometry": { "type": "LineString", "coordinates": [ [ -92.955886, 47.056727000000102 ], [ -92.955986, 47.056705 ] ] } },
{ "type": "Feature", "properties": { "wmUplineSo": "CEDAR VALLEY", "wmType": "Underground" }, "geometry": { "type": "LineString", "coordinates": [ [ -92.955986, 47.056705 ], [ -92.956279, 47.056554 ] ] } },
{ "type": "Feature", "properties": { "wmUplineSo": "CEDAR VALLEY", "wmType": "Underground" }, "geometry": { "type": "LineString", "coordinates": [ [ -92.956279, 47.056554 ], [ -92.95643, 47.056531999999898 ] ] } },
{ "type": "Feature", "properties": { "wmUplineSo": "CEDAR VALLEY", "wmType": "Underground" }, "geometry": { "type": "LineString", "coordinates": [ [ -92.95643, 47.056531999999898 ], [ -92.956455746832006, 47.056530267551402 ] ] } },
{ "type": "Feature", "properties": { "wmUplineSo": "CEDAR VALLEY", "wmType": "Underground" }, "geometry": { "type": "LineString", "coordinates": [ [ -92.952443686257396, 47.070709387375501 ], [ -92.952434037399499, 47.071401268487101 ] ] } },
{ "type": "Feature", "properties": { "wmUplineSo": "CEDAR VALLEY", "wmType": "Underground" }, "geometry": { "type": "LineString", "coordinates": [ [ -92.842749222578405, 47.180194121305398 ], [ -92.842749310978604, 47.180194047213 ], [ -92.842884937838306, 47.180080371567399 ] ] } },
{ "type": "Feature", "properties": { "wmUplineSo": "CEDAR VALLEY", "wmType": "Underground" }, "geometry": { "type": "LineString", "coordinates": [ [ -92.842884937838306, 47.180080371567399 ], [ -92.8432633388597, 47.180127545058298 ] ] } },
{ "type": "Feature", "properties": { "wmUplineSo": "CEDAR VALLEY", "wmType": "Underground" }, "geometry": { "type": "LineString", "coordinates": [ [ -92.8432633388597, 47.180127545058298 ], [ -92.843560267588103, 47.180180406753202 ] ] } },
{ "type": "Feature", "properties": { "wmUplineSo": "CEDAR VALLEY", "wmType": "Underground" }, "geometry": { "type": "LineString", "coordinates": [ [ -92.843560267588103, 47.180180406753202 ], [ -92.844033237258898, 47.180482894607302 ] ] } },
{ "type": "Feature", "properties": { "wmUplineSo": "CEDAR VALLEY", "wmType": "Underground" }, "geometry": { "type": "LineString", "coordinates": [ [ -92.844033237258898, 47.180482894607302 ], [ -92.844437119110907, 47.180795971964997 ] ] } },
{ "type": "Feature", "properties": { "wmUplineSo": "CEDAR VALLEY", "wmType": "Underground" }, "geometry": { "type": "LineString", "coordinates": [ [ -92.844437119110907, 47.180795971964997 ], [ -92.8445456009065, 47.181041586750403 ] ] } },
{ "type": "Feature", "properties": { "wmUplineSo": "CEDAR VALLEY", "wmType": "Underground" }, "geometry": { "type": "LineString", "coordinates": [ [ -92.8445456009065, 47.181041586750403 ], [ -92.844579844737694, 47.181063036060301 ] ] } },
{ "type": "Feature", "properties": { "wmUplineSo": "CEDAR VALLEY", "wmType": "Underground" }, "geometry": { "type": "LineString", "coordinates": [ [ -92.952748445956502, 47.0580808054291 ], [ -92.9529066949503, 47.058080870608698 ] ] } },
{ "type": "Feature", "properties": { "wmUplineSo": "CEDAR VALLEY", "wmType": "Underground" }, "geometry": { "type": "LineString", "coordinates": [ [ -92.9529066949503, 47.058080870608698 ], [ -92.953155085145497, 47.057980127942201 ] ] } },
{ "type": "Feature", "properties": { "wmUplineSo": "CEDAR VALLEY", "wmType": "Underground" }, "geometry": { "type": "LineString", "coordinates": [ [ -92.953155085145497, 47.057980127942201 ], [ -92.953179729160397, 47.057984293451703 ] ] } },
{ "type": "Feature", "properties": { "wmUplineSo": "CEDAR VALLEY", "wmType": "Underground" }, "geometry": { "type": "LineString", "coordinates": [ [ -92.9799825652279, 47.099564523992903 ], [ -92.979823840214607, 47.099674053308597 ] ] } },
{ "type": "Feature", "properties": { "wmUplineSo": "CEDAR VALLEY", "wmType": "Underground" }, "geometry": { "type": "LineString", "coordinates": [ [ -92.979823840214607, 47.099674053308597 ], [ -92.979866390475607, 47.099730489308698 ] ] } },
{ "type": "Feature", "properties": { "wmUplineSo": "CEDAR VALLEY", "wmType": "Underground" }, "geometry": { "type": "LineString", "coordinates": [ [ -92.979866390475607, 47.099730489308698 ], [ -92.979817168874504, 47.0998577234406 ] ] } },
{ "type": "Feature", "properties": { "wmUplineSo": "CEDAR VALLEY", "wmType": "Underground" }, "geometry": { "type": "LineString", "coordinates": [ [ -92.979817168874504, 47.0998577234406 ], [ -92.9798379095119, 47.099877368006602 ] ] } },
{ "type": "Feature", "properties": { "wmUplineSo": "CEDAR VALLEY", "wmType": "Underground" }, "geometry": { "type": "LineString", "coordinates": [ [ -92.842517703321903, 47.166771736115898 ], [ -92.842467606117296, 47.166602422027701 ] ] } },
{ "type": "Feature", "properties": { "wmUplineSo": "CEDAR VALLEY", "wmType": "Underground" }, "geometry": { "type": "LineString", "coordinates": [ [ -92.842467606117296, 47.166602422027701 ], [ -92.842383954144097, 47.166401720925599 ] ] } },
{ "type": "Feature", "properties": { "wmUplineSo": "CEDAR VALLEY", "wmType": "Underground" }, "geometry": { "type": "LineString", "coordinates": [ [ -92.842383954144097, 47.166401720925599 ], [ -92.842375803604398, 47.1663831548437 ] ] } },
{ "type": "Feature", "properties": { "wmUplineSo": "CEDAR VALLEY", "wmType": "Underground" }, "geometry": { "type": "LineString", "coordinates": [ [ -92.725665813383898, 47.2107332383978 ], [ -92.725490563123699, 47.210741988617698 ] ] } },
{ "type": "Feature", "properties": { "wmUplineSo": "CEDAR VALLEY", "wmType": "Underground" }, "geometry": { "type": "LineString", "coordinates": [ [ -92.725490563123699, 47.210741988617698 ], [ -92.725165876686006, 47.210706387049001 ] ] } },
{ "type": "Feature", "properties": { "wmUplineSo": "CEDAR VALLEY", "wmType": "Underground" }, "geometry": { "type": "LineString", "coordinates": [ [ -92.725165876686006, 47.210706387049001 ], [ -92.725013234513597, 47.210639521870803 ] ] } },
{ "type": "Feature", "properties": { "wmUplineSo": "CEDAR VALLEY", "wmType": "Underground" }, "geometry": { "type": "LineString", "coordinates": [ [ -92.725013234513597, 47.210639521870803 ], [ -92.724894429644607, 47.210678909918101 ] ] } },
{ "type": "Feature", "properties": { "wmUplineSo": "CEDAR VALLEY", "wmType": "Underground" }, "geometry": { "type": "LineString", "coordinates": [ [ -92.724894429644607, 47.210678909918101 ], [ -92.724635847536007, 47.210619734278801 ] ] } },
{ "type": "Feature", "properties": { "wmUplineSo": "CEDAR VALLEY", "wmType": "Underground" }, "geometry": { "type": "LineString", "coordinates": [ [ -92.724635847536007, 47.210619734278801 ], [ -92.724313906853496, 47.210411642690602 ] ] } },
{ "type": "Feature", "properties": { "wmUplineSo": "CEDAR VALLEY", "wmType": "Underground" }, "geometry": { "type": "LineString", "coordinates": [ [ -92.724313906853496, 47.210411642690602 ], [ -92.724020928051203, 47.210201981884197 ] ] } },
{ "type": "Feature", "properties": { "wmUplineSo": "CEDAR VALLEY", "wmType": "Underground" }, "geometry": { "type": "LineString", "coordinates": [ [ -92.724020928051203, 47.210201981884197 ], [ -92.723738366400497, 47.210127324780601 ] ] } },
{ "type": "Feature", "properties": { "wmUplineSo": "CEDAR VALLEY", "wmType": "Underground" }, "geometry": { "type": "LineString", "coordinates": [ [ -92.723738366400497, 47.210127324780601 ], [ -92.723548233272098, 47.210064968331899 ] ] } },
{ "type": "Feature", "properties": { "wmUplineSo": "CEDAR VALLEY", "wmType": "Underground" }, "geometry": { "type": "LineString", "coordinates": [ [ -92.723548233272098, 47.210064968331899 ], [ -92.7235234853636, 47.210069057232701 ] ] } }
]
}
