{
"type": "FeatureCollection",
"crs": { "type": "name", "properties": { "name": "urn:ogc:def:crs:OGC:1.3:CRS84" } },
"features": [
{ "type": "Feature", "properties": { "wmUplineSo": "CEDAR VALLEY", "wmType": "Overhead" }, "geometry": { "type": "LineString", "coordinates": [ [ -92.9097951894163, 46.978531857178702 ], [ -92.909504721841799, 46.978524485177097 ] ] } },
{ "type": "Feature", "properties": { "wmUplineSo": "CEDAR VALLEY", "wmType": "Overhead" }, "geometry": { "type": "LineString", "coordinates": [ [ -92.909504721841799, 46.978524485177097 ], [ -92.909201520330697, 46.978846862092702 ] ] } },
{ "type": "Feature", "properties": { "wmUplineSo": "CEDAR VALLEY", "wmType": "Overhead" }, "geometry": { "type": "LineString", "coordinates": [ [ -92.909470914786297, 46.957429345845298 ], [ -92.910630211002697, 46.957438993470497 ] ] } },
{ "type": "Feature", "properties": { "wmUplineSo": "CEDAR VALLEY", "wmType": "Overhead" }, "geometry": { "type": "LineString", "coordinates": [ [ -92.897352985791002, 46.965680947980402 ], [ -92.896290985793797, 46.965285947981002 ] ] } },
{ "type": "Feature", "properties": { "wmUplineSo": "CEDAR VALLEY", "wmType": "Overhead" }, "geometry": { "type": "LineString", "coordinates": [ [ -92.896290985793797, 46.965285947981002 ], [ -92.8959186, 46.965187300008701 ] ] } },
{ "type": "Feature", "properties": { "wmUplineSo": "CEDAR VALLEY", "wmType": "Overhead" }, "geometry": { "type": "LineString", "coordinates": [ [ -92.909841543625205, 47.013180935848297 ], [ -92.910598775694496, 47.013055016275501 ] ] } },
{ "type": "Feature", "properties": { "wmUplineSo": "CEDAR VALLEY", "wmType": "Overhead" }, "geometry": { "type": "LineString", "coordinates": [ [ -92.9482838, 46.977730300008702 ], [ -92.948272672494596, 46.977662153284001 ] ] } },
{ "type": "Feature", "properties": { "wmUplineSo": "CEDAR VALLEY", "wmType": "Overhead" }, "geometry": { "type": "LineString", "coordinates": [ [ -92.934852583508999, 46.981115022521202 ], [ -92.9348293, 46.981154500008699 ] ] } },
{ "type": "Feature", "properties": { "wmUplineSo": "CEDAR VALLEY", "wmType": "Overhead" }, "geometry": { "type": "LineString", "coordinates": [ [ -92.952824204679402, 46.9758490034678 ], [ -92.953831474460202, 46.9757905109497 ], [ -92.955204934678505, 46.9757791647056 ], [ -92.956384227327902, 46.975755561775301 ], [ -92.957391852851401, 46.975775543732503 ], [ -92.958184960699, 46.975799050250501 ], [ -92.958184960699, 46.975799050250501 ] ] } },
{ "type": "Feature", "properties": { "wmUplineSo": "CEDAR VALLEY", "wmType": "Overhead" }, "geometry": { "type": "LineString", "coordinates": [ [ -92.909658919482695, 46.991674155972497 ], [ -92.909642972047095, 46.990999589546199 ] ] } },
{ "type": "Feature", "properties": { "wmUplineSo": "CEDAR VALLEY", "wmType": "Overhead" }, "geometry": { "type": "LineString", "coordinates": [ [ -92.952843222706093, 46.976624062565797 ], [ -92.952824204679402, 46.9758490034678 ] ] } },
{ "type": "Feature", "properties": { "wmUplineSo": "CEDAR VALLEY", "wmType": "Overhead" }, "geometry": { "type": "LineString", "coordinates": [ [ -92.910630211002697, 46.957438993470497 ], [ -92.913203690842394, 46.957329068759897 ] ] } },
{ "type": "Feature", "properties": { "wmUplineSo": "CEDAR VALLEY", "wmType": "Overhead" }, "geometry": { "type": "LineString", "coordinates": [ [ -92.933328463983102, 47.033156416459803 ], [ -92.933315275701901, 47.033154403065303 ] ] } },
{ "type": "Feature", "properties": { "wmUplineSo": "CEDAR VALLEY", "wmType": "Overhead" }, "geometry": { "type": "LineString", "coordinates": [ [ -92.926186999995394, 46.986256003557003 ], [ -92.926031038423801, 46.988869663248899 ] ] } },
{ "type": "Feature", "properties": { "wmUplineSo": "CEDAR VALLEY", "wmType": "Overhead" }, "geometry": { "type": "LineString", "coordinates": [ [ -92.912873968872404, 47.011060023441097 ], [ -92.9114871821821, 47.0110594819567 ] ] } },
{ "type": "Feature", "properties": { "wmUplineSo": "CEDAR VALLEY", "wmType": "Overhead" }, "geometry": { "type": "LineString", "coordinates": [ [ -92.929330860144901, 47.021096732284001 ], [ -92.928970547720894, 47.020438939332202 ] ] } },
{ "type": "Feature", "properties": { "wmUplineSo": "CEDAR VALLEY", "wmType": "Overhead" }, "geometry": { "type": "LineString", "coordinates": [ [ -92.928970547720894, 47.020438939332202 ], [ -92.928581243769699, 47.019713769178203 ], [ -92.928214842931595, 47.019031242248403 ], [ -92.927837005069406, 47.018327391062897 ], [ -92.9274678060806, 47.017639613574403 ], [ -92.927091461436504, 47.016938505041303 ], [ -92.926726336162602, 47.016258278768902 ], [ -92.926357825316003, 47.015571726435901 ], [ -92.925987740658798, 47.014882223056397 ], [ -92.925616412249596, 47.0141903833442 ], [ -92.925238694992998, 47.013486620632698 ], [ -92.924861528448105, 47.012783864250402 ], [ -92.924520635650694, 47.012148678020701 ], [ -92.924520635650694, 47.012148678020601 ] ] } },
{ "type": "Feature", "properties": { "wmUplineSo": "CEDAR VALLEY", "wmType": "Overhead" }, "geometry": { "type": "LineString", "coordinates": [ [ -92.901795521217096, 46.954604676388598 ], [ -92.9021444, 46.954663000008701 ] ] } },
{ "type": "Feature", "properties": { "wmUplineSo": "CEDAR VALLEY", "wmType": "Overhead" }, "geometry": { "type": "LineString", "coordinates": [ [ -92.903038764682194, 46.961922841227803 ], [ -92.902557809017594, 46.961247133262503 ] ] } },
{ "type": "Feature", "properties": { "wmUplineSo": "CEDAR VALLEY", "wmType": "Overhead" }, "geometry": { "type": "LineString", "coordinates": [ [ -92.927958606706895, 47.005517617114101 ], [ -92.928261748569199, 47.0060549995356 ] ] } },
{ "type": "Feature", "properties": { "wmUplineSo": "CEDAR VALLEY", "wmType": "Overhead" }, "geometry": { "type": "LineString", "coordinates": [ [ -92.933623372401101, 47.011941965625702 ], [ -92.934822634179596, 47.0119610852364 ] ] } },
{ "type": "Feature", "properties": { "wmUplineSo": "CEDAR VALLEY", "wmType": "Overhead" }, "geometry": { "type": "LineString", "coordinates": [ [ -92.934822634179596, 47.0119610852364 ], [ -92.936016999930402, 47.011994462700301 ] ] } },
{ "type": "Feature", "properties": { "wmUplineSo": "CEDAR VALLEY", "wmType": "Overhead" }, "geometry": { "type": "LineString", "coordinates": [ [ -92.926424834447801, 46.9828423450342 ], [ -92.926328999995306, 46.983708003556302 ] ] } },
{ "type": "Feature", "properties": { "wmUplineSo": "CEDAR VALLEY", "wmType": "Overhead" }, "geometry": { "type": "LineString", "coordinates": [ [ -92.903894845355197, 46.982579410222797 ], [ -92.9038711, 46.982714500008697 ] ] } },
{ "type": "Feature", "properties": { "wmUplineSo": "CEDAR VALLEY", "wmType": "Overhead" }, "geometry": { "type": "LineString", "coordinates": [ [ -92.900762633728704, 46.952287786589103 ], [ -92.901466497649594, 46.952403782691398 ], [ -92.901871817421096, 46.952463538572403 ] ] } },
{ "type": "Feature", "properties": { "wmUplineSo": "CEDAR VALLEY", "wmType": "Overhead" }, "geometry": { "type": "LineString", "coordinates": [ [ -92.900803204469796, 46.952904748822299 ], [ -92.899419680496194, 46.953108041724299 ] ] } },
{ "type": "Feature", "properties": { "wmUplineSo": "CEDAR VALLEY", "wmType": "Overhead" }, "geometry": { "type": "LineString", "coordinates": [ [ -92.900940543788906, 46.954427763353102 ], [ -92.9010031986831, 46.953928563731502 ], [ -92.900817262226994, 46.953423436676601 ], [ -92.900803204469796, 46.952904748822299 ] ] } },
{ "type": "Feature", "properties": { "wmUplineSo": "CEDAR VALLEY", "wmType": "Overhead" }, "geometry": { "type": "LineString", "coordinates": [ [ -92.900762633728704, 46.952287786589103 ], [ -92.9007324841496, 46.951449196505003 ], [ -92.900734011356107, 46.950623200793999 ] ] } },
{ "type": "Feature", "properties": { "wmUplineSo": "CEDAR VALLEY", "wmType": "Overhead" }, "geometry": { "type": "LineString", "coordinates": [ [ -92.900803204469796, 46.952904748822299 ], [ -92.900762633728704, 46.952287786589103 ] ] } },
{ "type": "Feature", "properties": { "wmUplineSo": "CEDAR VALLEY", "wmType": "Overhead" }, "geometry": { "type": "LineString", "coordinates": [ [ -92.900940543788906, 46.954427763353102 ], [ -92.901795521217096, 46.954604676388598 ] ] } },
{ "type": "Feature", "properties": { "wmUplineSo": "CEDAR VALLEY", "wmType": "Overhead" }, "geometry": { "type": "LineString", "coordinates": [ [ -92.909841543625205, 47.013180935848297 ], [ -92.908903165509898, 47.013229555871703 ], [ -92.908678900137204, 47.013241174542998 ], [ -92.907576081001494, 47.013238543953698 ] ] } },
{ "type": "Feature", "properties": { "wmUplineSo": "CEDAR VALLEY", "wmType": "Overhead" }, "geometry": { "type": "LineString", "coordinates": [ [ -92.923394642434502, 47.011466391133602 ], [ -92.921750205372902, 47.011375161339899 ], [ -92.920392705982493, 47.0113313690835 ], [ -92.919165818963293, 47.011237653618601 ], [ -92.916569206278297, 47.011146555147697 ], [ -92.914003935717105, 47.011084591458498 ], [ -92.912873968872404, 47.011060023441097 ], [ -92.912873968872404, 47.011060023441097 ] ] } },
{ "type": "Feature", "properties": { "wmUplineSo": "CEDAR VALLEY", "wmType": "Overhead" }, "geometry": { "type": "LineString", "coordinates": [ [ -92.924185178418895, 47.011510119499597 ], [ -92.923394642434502, 47.011466391133602 ] ] } },
{ "type": "Feature", "properties": { "wmUplineSo": "CEDAR VALLEY", "wmType": "Overhead" }, "geometry": { "type": "LineString", "coordinates": [ [ -92.932179799771305, 46.979325003373397 ], [ -92.931408444788801, 46.978581691686102 ] ] } },
{ "type": "Feature", "properties": { "wmUplineSo": "CEDAR VALLEY", "wmType": "Overhead" }, "geometry": { "type": "LineString", "coordinates": [ [ -92.909010900458199, 46.982526447358602 ], [ -92.907998480606906, 46.982533971672702 ], [ -92.906725110450594, 46.982553179445098 ], [ -92.9053108416946, 46.982569875695503 ], [ -92.903894845355197, 46.982579410222797 ] ] } },
{ "type": "Feature", "properties": { "wmUplineSo": "CEDAR VALLEY", "wmType": "Overhead" }, "geometry": { "type": "LineString", "coordinates": [ [ -92.903894845355197, 46.982579410222797 ], [ -92.903706589634695, 46.981825686017103 ] ] } },
{ "type": "Feature", "properties": { "wmUplineSo": "CEDAR VALLEY", "wmType": "Overhead" }, "geometry": { "type": "LineString", "coordinates": [ [ -92.909738899846104, 46.985585113545397 ], [ -92.908891627579806, 46.985689899251 ] ] } },
{ "type": "Feature", "properties": { "wmUplineSo": "CEDAR VALLEY", "wmType": "Overhead" }, "geometry": { "type": "LineString", "coordinates": [ [ -92.909711436390694, 46.986398180777996 ], [ -92.909738899846104, 46.985585113545397 ] ] } },
{ "type": "Feature", "properties": { "wmUplineSo": "CEDAR VALLEY", "wmType": "Overhead" }, "geometry": { "type": "LineString", "coordinates": [ [ -92.909715132772305, 46.987270534588703 ], [ -92.909711436390694, 46.986398180777996 ] ] } },
{ "type": "Feature", "properties": { "wmUplineSo": "CEDAR VALLEY", "wmType": "Overhead" }, "geometry": { "type": "LineString", "coordinates": [ [ -92.909662899174094, 46.988925603793398 ], [ -92.908033824131493, 46.988997301336198 ], [ -92.906843812097705, 46.989014196407403 ] ] } },
{ "type": "Feature", "properties": { "wmUplineSo": "CEDAR VALLEY", "wmType": "Overhead" }, "geometry": { "type": "LineString", "coordinates": [ [ -92.912519666380206, 46.9966636512588 ], [ -92.910973571355797, 46.9966531421803 ], [ -92.909734764819007, 46.996614077504503 ], [ -92.909147640945406, 46.996942936742599 ], [ -92.908501133477998, 46.997356014602197 ], [ -92.907697945396507, 46.997742936178703 ] ] } },
{ "type": "Feature", "properties": { "wmUplineSo": "CEDAR VALLEY", "wmType": "Overhead" }, "geometry": { "type": "LineString", "coordinates": [ [ -92.915940826178399, 47.000619091267701 ], [ -92.916741979261602, 47.000435823469502 ], [ -92.917619789987697, 47.000313794733799 ] ] } },
{ "type": "Feature", "properties": { "wmUplineSo": "CEDAR VALLEY", "wmType": "Overhead" }, "geometry": { "type": "LineString", "coordinates": [ [ -92.919645597274595, 47.004834602326099 ], [ -92.919045589703501, 47.004151930979504 ], [ -92.918543357755098, 47.003580490083003 ], [ -92.918017680054305, 47.002982357083802 ], [ -92.917496281620899, 47.0023890775512 ], [ -92.9169732234012, 47.001793893778199 ], [ -92.916430037590402, 47.001175790406997 ], [ -92.915940826178399, 47.000619091267701 ] ] } },
{ "type": "Feature", "properties": { "wmUplineSo": "CEDAR VALLEY", "wmType": "Overhead" }, "geometry": { "type": "LineString", "coordinates": [ [ -92.909805062206104, 46.987276166446897 ], [ -92.910818779392798, 46.9874312615798 ], [ -92.911552814740602, 46.987646268149497 ] ] } },
{ "type": "Feature", "properties": { "wmUplineSo": "CEDAR VALLEY", "wmType": "Overhead" }, "geometry": { "type": "LineString", "coordinates": [ [ -92.909715132772305, 46.987270534588703 ], [ -92.909805062206104, 46.987276166446897 ] ] } },
{ "type": "Feature", "properties": { "wmUplineSo": "CEDAR VALLEY", "wmType": "Overhead" }, "geometry": { "type": "LineString", "coordinates": [ [ -92.9528393093955, 46.9886470512714 ], [ -92.953168264494195, 46.988634007765903 ] ] } },
{ "type": "Feature", "properties": { "wmUplineSo": "CEDAR VALLEY", "wmType": "Overhead" }, "geometry": { "type": "LineString", "coordinates": [ [ -92.9528393093955, 46.9886470512714 ], [ -92.952807209794003, 46.989408913906097 ] ] } },
{ "type": "Feature", "properties": { "wmUplineSo": "CEDAR VALLEY", "wmType": "Overhead" }, "geometry": { "type": "LineString", "coordinates": [ [ -92.913083446936298, 46.997317408869598 ], [ -92.912519666380206, 46.9966636512588 ] ] } },
{ "type": "Feature", "properties": { "wmUplineSo": "CEDAR VALLEY", "wmType": "Overhead" }, "geometry": { "type": "LineString", "coordinates": [ [ -92.950909954650498, 46.979566037395699 ], [ -92.952041512328293, 46.979574028655499 ] ] } },
{ "type": "Feature", "properties": { "wmUplineSo": "CEDAR VALLEY", "wmType": "Overhead" }, "geometry": { "type": "LineString", "coordinates": [ [ -92.952041512328293, 46.979574028655499 ], [ -92.952846949487096, 46.979584046040998 ] ] } },
{ "type": "Feature", "properties": { "wmUplineSo": "CEDAR VALLEY", "wmType": "Overhead" }, "geometry": { "type": "LineString", "coordinates": [ [ -92.935138061667601, 47.032191913282297 ], [ -92.934849161441406, 47.031641558030998 ] ] } },
{ "type": "Feature", "properties": { "wmUplineSo": "CEDAR VALLEY", "wmType": "Overhead" }, "geometry": { "type": "LineString", "coordinates": [ [ -92.932022159228794, 47.025968732150197 ], [ -92.935427044459004, 47.025799678612202 ], [ -92.935786689302603, 47.025910924178099 ] ] } },
{ "type": "Feature", "properties": { "wmUplineSo": "CEDAR VALLEY", "wmType": "Overhead" }, "geometry": { "type": "LineString", "coordinates": [ [ -92.934201821148903, 47.030216448450197 ], [ -92.933885125780606, 47.029505800912403 ] ] } },
{ "type": "Feature", "properties": { "wmUplineSo": "CEDAR VALLEY", "wmType": "Overhead" }, "geometry": { "type": "LineString", "coordinates": [ [ -92.925296935407104, 47.011800132282097 ], [ -92.930219208720601, 47.011837663536603 ] ] } },
{ "type": "Feature", "properties": { "wmUplineSo": "CEDAR VALLEY", "wmType": "Overhead" }, "geometry": { "type": "LineString", "coordinates": [ [ -92.930219208720601, 47.011837663536603 ], [ -92.931432450792599, 47.0118586846055 ], [ -92.932613938965005, 47.011866649601998 ], [ -92.933623372401101, 47.011941965625702 ] ] } },
{ "type": "Feature", "properties": { "wmUplineSo": "CEDAR VALLEY", "wmType": "Overhead" }, "geometry": { "type": "LineString", "coordinates": [ [ -92.942253178640598, 47.012058232223701 ], [ -92.942755379736596, 47.011868897299102 ] ] } },
{ "type": "Feature", "properties": { "wmUplineSo": "CEDAR VALLEY", "wmType": "Overhead" }, "geometry": { "type": "LineString", "coordinates": [ [ -92.942755379736596, 47.011868897299102 ], [ -92.951110082238003, 47.011869062824204 ] ] } },
{ "type": "Feature", "properties": { "wmUplineSo": "CEDAR VALLEY", "wmType": "Overhead" }, "geometry": { "type": "LineString", "coordinates": [ [ -92.951110082238003, 47.011869062824204 ], [ -92.951259593129393, 47.011678669515497 ] ] } },
{ "type": "Feature", "properties": { "wmUplineSo": "CEDAR VALLEY", "wmType": "Overhead" }, "geometry": { "type": "LineString", "coordinates": [ [ -92.924185178418895, 47.011510119499597 ], [ -92.925296935407104, 47.011800132282097 ] ] } },
{ "type": "Feature", "properties": { "wmUplineSo": "CEDAR VALLEY", "wmType": "Overhead" }, "geometry": { "type": "LineString", "coordinates": [ [ -92.924185178418895, 47.011510119499597 ], [ -92.923746597531903, 47.010718132870998 ], [ -92.923373486527197, 47.0100443515284 ], [ -92.9229924646325, 47.009356265525902 ], [ -92.922636764607404, 47.008713891042397 ], [ -92.922397820651497, 47.008282362234397 ], [ -92.922125225943404, 47.007790051601901 ], [ -92.921843844643902, 47.007461453274402 ], [ -92.921671779650495, 47.007260512679501 ], [ -92.921249613457405, 47.006767491899801 ], [ -92.920732071974399, 47.006163073897199 ], [ -92.920109641690303, 47.0054361388272 ], [ -92.920090239283795, 47.0054134784233 ] ] } },
{ "type": "Feature", "properties": { "wmUplineSo": "CEDAR VALLEY", "wmType": "Overhead" }, "geometry": { "type": "LineString", "coordinates": [ [ -92.920090239283795, 47.0054134784233 ], [ -92.918569719293401, 47.005893773510202 ] ] } },
{ "type": "Feature", "properties": { "wmUplineSo": "CEDAR VALLEY", "wmType": "Overhead" }, "geometry": { "type": "LineString", "coordinates": [ [ -92.920090239283795, 47.0054134784233 ], [ -92.919645597274595, 47.004834602326099 ] ] } },
{ "type": "Feature", "properties": { "wmUplineSo": "CEDAR VALLEY", "wmType": "Overhead" }, "geometry": { "type": "LineString", "coordinates": [ [ -92.919645597274595, 47.004834602326099 ], [ -92.920214665634106, 47.004508788145401 ] ] } },
{ "type": "Feature", "properties": { "wmUplineSo": "CEDAR VALLEY", "wmType": "Overhead" }, "geometry": { "type": "LineString", "coordinates": [ [ -92.921239779242299, 47.003882782307002 ], [ -92.922214986408804, 47.003264829832901 ], [ -92.922761481187095, 47.002760722457502 ] ] } },
{ "type": "Feature", "properties": { "wmUplineSo": "CEDAR VALLEY", "wmType": "Overhead" }, "geometry": { "type": "LineString", "coordinates": [ [ -92.921239779242299, 47.003882782307002 ], [ -92.922086543849304, 47.004251714255801 ], [ -92.9236864244712, 47.004370400342701 ], [ -92.925320614514405, 47.004491608032097 ], [ -92.926973295307604, 47.004614162902001 ], [ -92.928235854722701, 47.004707771795402 ], [ -92.927961049716302, 47.005510481160201 ], [ -92.927958606706895, 47.005517617114101 ] ] } },
{ "type": "Feature", "properties": { "wmUplineSo": "CEDAR VALLEY", "wmType": "Overhead" }, "geometry": { "type": "LineString", "coordinates": [ [ -92.952786348464102, 46.990180637452703 ], [ -92.953148128637295, 46.990180534848903 ] ] } },
{ "type": "Feature", "properties": { "wmUplineSo": "CEDAR VALLEY", "wmType": "Overhead" }, "geometry": { "type": "LineString", "coordinates": [ [ -92.952786348464102, 46.990180637452703 ], [ -92.952798336357603, 46.995418336574097 ], [ -92.952798336357603, 46.995418336574097 ] ] } },
{ "type": "Feature", "properties": { "wmUplineSo": "CEDAR VALLEY", "wmType": "Overhead" }, "geometry": { "type": "LineString", "coordinates": [ [ -92.952798336357603, 46.995418336574097 ], [ -92.953487799669205, 46.995233507581702 ] ] } },
{ "type": "Feature", "properties": { "wmUplineSo": "CEDAR VALLEY", "wmType": "Overhead" }, "geometry": { "type": "LineString", "coordinates": [ [ -92.953487799669205, 46.995233507581702 ], [ -92.954287327806895, 46.995118045847804 ], [ -92.955531945068799, 46.994900952437597 ] ] } },
{ "type": "Feature", "properties": { "wmUplineSo": "CEDAR VALLEY", "wmType": "Overhead" }, "geometry": { "type": "LineString", "coordinates": [ [ -92.952895180745202, 46.987904884006198 ], [ -92.951698453829806, 46.9876936729029 ] ] } },
{ "type": "Feature", "properties": { "wmUplineSo": "CEDAR VALLEY", "wmType": "Overhead" }, "geometry": { "type": "LineString", "coordinates": [ [ -92.952895180745202, 46.987904884006198 ], [ -92.9528393093955, 46.9886470512714 ] ] } },
{ "type": "Feature", "properties": { "wmUplineSo": "CEDAR VALLEY", "wmType": "Overhead" }, "geometry": { "type": "LineString", "coordinates": [ [ -92.953028567503097, 46.980179918077503 ], [ -92.952990085476699, 46.981038231278497 ] ] } },
{ "type": "Feature", "properties": { "wmUplineSo": "CEDAR VALLEY", "wmType": "Overhead" }, "geometry": { "type": "LineString", "coordinates": [ [ -92.953033970212402, 46.984093510709499 ], [ -92.952985917692999, 46.984800628469799 ] ] } },
{ "type": "Feature", "properties": { "wmUplineSo": "CEDAR VALLEY", "wmType": "Overhead" }, "geometry": { "type": "LineString", "coordinates": [ [ -92.952846949487096, 46.979584046040998 ], [ -92.953028567503097, 46.980179918077503 ] ] } },
{ "type": "Feature", "properties": { "wmUplineSo": "CEDAR VALLEY", "wmType": "Overhead" }, "geometry": { "type": "LineString", "coordinates": [ [ -92.952846949487096, 46.979584046040998 ], [ -92.952936584828194, 46.978772946857902 ], [ -92.952941492618706, 46.977937240051702 ], [ -92.952933632464195, 46.977380097537498 ] ] } },
{ "type": "Feature", "properties": { "wmUplineSo": "CEDAR VALLEY", "wmType": "Overhead" }, "geometry": { "type": "LineString", "coordinates": [ [ -92.952933632464195, 46.977380097537498 ], [ -92.952843222706093, 46.976624062565797 ] ] } },
{ "type": "Feature", "properties": { "wmUplineSo": "CEDAR VALLEY", "wmType": "Overhead" }, "geometry": { "type": "LineString", "coordinates": [ [ -92.958184960699, 46.975799050250501 ], [ -92.959019835034994, 46.975793399741399 ], [ -92.960094529452206, 46.975789224703803 ], [ -92.961380089023294, 46.9757835059036 ], [ -92.962511459720204, 46.975799396964199 ], [ -92.963716821571495, 46.9757724044645 ], [ -92.964806536121699, 46.975779848419997 ], [ -92.965906000047795, 46.975781834468897 ] ] } },
{ "type": "Feature", "properties": { "wmUplineSo": "CEDAR VALLEY", "wmType": "Overhead" }, "geometry": { "type": "LineString", "coordinates": [ [ -92.9348159999616, 46.979346174519499 ], [ -92.936065354615806, 46.979362146670397 ], [ -92.937312493163901, 46.979389026519698 ], [ -92.938516155443807, 46.979408726640102 ], [ -92.939881590876993, 46.979423737283803 ], [ -92.9411687383935, 46.979451786599299 ], [ -92.942017575115301, 46.979456981442397 ], [ -92.943770879648298, 46.979497141287602 ], [ -92.944862437320097, 46.979514539157002 ], [ -92.946062169041795, 46.979524617161999 ], [ -92.947233278284997, 46.979544094004602 ], [ -92.9484664219096, 46.979541953565899 ] ] } },
{ "type": "Feature", "properties": { "wmUplineSo": "CEDAR VALLEY", "wmType": "Overhead" }, "geometry": { "type": "LineString", "coordinates": [ [ -92.9484664219096, 46.979541953565899 ], [ -92.949735330778694, 46.979564200112002 ], [ -92.950909954650498, 46.979566037395699 ] ] } },
{ "type": "Feature", "properties": { "wmUplineSo": "CEDAR VALLEY", "wmType": "Overhead" }, "geometry": { "type": "LineString", "coordinates": [ [ -92.932179799771305, 46.979325003373397 ], [ -92.933435377641203, 46.9793261596379 ] ] } },
{ "type": "Feature", "properties": { "wmUplineSo": "CEDAR VALLEY", "wmType": "Overhead" }, "geometry": { "type": "LineString", "coordinates": [ [ -92.9348159999616, 46.979346174519499 ], [ -92.9348553727866, 46.980250744377898 ], [ -92.934852583508999, 46.981115022521202 ] ] } },
{ "type": "Feature", "properties": { "wmUplineSo": "CEDAR VALLEY", "wmType": "Overhead" }, "geometry": { "type": "LineString", "coordinates": [ [ -92.9484664219096, 46.979541953565899 ], [ -92.948380999193006, 46.978849316652301 ], [ -92.948383438583093, 46.978121941567103 ], [ -92.948357560965505, 46.977900502760598 ] ] } },
{ "type": "Feature", "properties": { "wmUplineSo": "CEDAR VALLEY", "wmType": "Overhead" }, "geometry": { "type": "LineString", "coordinates": [ [ -92.932112953045404, 46.986559135238302 ], [ -92.930835289829702, 46.9865565272029 ], [ -92.930654919082997, 46.987204270070997 ] ] } },
{ "type": "Feature", "properties": { "wmUplineSo": "CEDAR VALLEY", "wmType": "Overhead" }, "geometry": { "type": "LineString", "coordinates": [ [ -92.932112953045404, 46.986559135238302 ], [ -92.932143815190202, 46.986742110533598 ] ] } },
{ "type": "Feature", "properties": { "wmUplineSo": "CEDAR VALLEY", "wmType": "Overhead" }, "geometry": { "type": "LineString", "coordinates": [ [ -92.932174792242094, 46.984660200357098 ], [ -92.932159853479305, 46.985743040298701 ], [ -92.932112953045404, 46.986559135238302 ] ] } },
{ "type": "Feature", "properties": { "wmUplineSo": "CEDAR VALLEY", "wmType": "Overhead" }, "geometry": { "type": "LineString", "coordinates": [ [ -92.932192278623603, 46.982989786746401 ], [ -92.932158092031599, 46.983835196689 ], [ -92.932174792242094, 46.984660200357098 ] ] } },
{ "type": "Feature", "properties": { "wmUplineSo": "CEDAR VALLEY", "wmType": "Overhead" }, "geometry": { "type": "LineString", "coordinates": [ [ -92.932192278623603, 46.982989786746401 ], [ -92.933444280934395, 46.983035719319098 ], [ -92.934721781533696, 46.9830545498262 ], [ -92.935971453698897, 46.983070493401598 ], [ -92.937275379348094, 46.983104548175497 ], [ -92.938541752043704, 46.983121425220702 ], [ -92.9395437204589, 46.9831324347251 ] ] } },
{ "type": "Feature", "properties": { "wmUplineSo": "CEDAR VALLEY", "wmType": "Overhead" }, "geometry": { "type": "LineString", "coordinates": [ [ -92.929758660763, 46.982934470899799 ], [ -92.931050760896397, 46.982960256029401 ], [ -92.932192278623603, 46.982989786746401 ] ] } },
{ "type": "Feature", "properties": { "wmUplineSo": "CEDAR VALLEY", "wmType": "Overhead" }, "geometry": { "type": "LineString", "coordinates": [ [ -92.926424834447801, 46.9828423450342 ], [ -92.927548133089104, 46.982871665454098 ], [ -92.928491621766597, 46.982900829757597 ], [ -92.929758660763, 46.982934470899799 ] ] } },
{ "type": "Feature", "properties": { "wmUplineSo": "CEDAR VALLEY", "wmType": "Overhead" }, "geometry": { "type": "LineString", "coordinates": [ [ -92.922657830818196, 46.982740815735397 ], [ -92.923996550797597, 46.9827607596078 ], [ -92.9252336363339, 46.9828139546035 ], [ -92.926424834447801, 46.9828423450342 ] ] } },
{ "type": "Feature", "properties": { "wmUplineSo": "CEDAR VALLEY", "wmType": "Overhead" }, "geometry": { "type": "LineString", "coordinates": [ [ -92.910893341893996, 46.9825284572021 ], [ -92.911989922017796, 46.982540733771501 ] ] } },
{ "type": "Feature", "properties": { "wmUplineSo": "CEDAR VALLEY", "wmType": "Overhead" }, "geometry": { "type": "LineString", "coordinates": [ [ -92.888915084269598, 46.979730256405503 ], [ -92.890131479495295, 46.9796836734333 ] ] } },
{ "type": "Feature", "properties": { "wmUplineSo": "CEDAR VALLEY", "wmType": "Overhead" }, "geometry": { "type": "LineString", "coordinates": [ [ -92.907397507514801, 46.958102279528397 ], [ -92.907538767069795, 46.9574413006873 ], [ -92.9085268076484, 46.9574305708907 ] ] } },
{ "type": "Feature", "properties": { "wmUplineSo": "CEDAR VALLEY", "wmType": "Overhead" }, "geometry": { "type": "LineString", "coordinates": [ [ -92.919146554070196, 46.982640502065898 ], [ -92.920436873233797, 46.982684056391598 ], [ -92.921405401182099, 46.9827152012273 ], [ -92.922657830818196, 46.982740815735397 ] ] } },
{ "type": "Feature", "properties": { "wmUplineSo": "CEDAR VALLEY", "wmType": "Overhead" }, "geometry": { "type": "LineString", "coordinates": [ [ -92.909579461226599, 46.979588822912199 ], [ -92.909153669346196, 46.979301508022203 ] ] } },
{ "type": "Feature", "properties": { "wmUplineSo": "CEDAR VALLEY", "wmType": "Overhead" }, "geometry": { "type": "LineString", "coordinates": [ [ -92.909800919140196, 46.982521872596898 ], [ -92.909010900458199, 46.982526447358602 ] ] } },
{ "type": "Feature", "properties": { "wmUplineSo": "CEDAR VALLEY", "wmType": "Overhead" }, "geometry": { "type": "LineString", "coordinates": [ [ -92.909800919140196, 46.982521872596898 ], [ -92.910893341893996, 46.9825284572021 ] ] } },
{ "type": "Feature", "properties": { "wmUplineSo": "CEDAR VALLEY", "wmType": "Overhead" }, "geometry": { "type": "LineString", "coordinates": [ [ -92.909872301329401, 46.972169492398201 ], [ -92.911403416696501, 46.971928632087703 ] ] } },
{ "type": "Feature", "properties": { "wmUplineSo": "CEDAR VALLEY", "wmType": "Overhead" }, "geometry": { "type": "LineString", "coordinates": [ [ -92.909738899846104, 46.985585113545397 ], [ -92.9097568181067, 46.984700136871197 ], [ -92.909772935154294, 46.9839040955071 ], [ -92.909800919140196, 46.982521872596898 ], [ -92.909800919140196, 46.982521872596898 ] ] } },
{ "type": "Feature", "properties": { "wmUplineSo": "CEDAR VALLEY", "wmType": "Overhead" }, "geometry": { "type": "LineString", "coordinates": [ [ -92.909800919140196, 46.982521872596898 ], [ -92.909781037745006, 46.9817746811514 ], [ -92.909790970741895, 46.981040170317002 ], [ -92.909792184144393, 46.980318747667098 ], [ -92.909784700332395, 46.9795973180739 ] ] } },
{ "type": "Feature", "properties": { "wmUplineSo": "CEDAR VALLEY", "wmType": "Overhead" }, "geometry": { "type": "LineString", "coordinates": [ [ -92.9097951894163, 46.978531857178702 ], [ -92.909803490278193, 46.977733059335101 ], [ -92.909817000910905, 46.976939027357297 ], [ -92.909825271147895, 46.976158086299002 ], [ -92.909830066536202, 46.975374761458497 ], [ -92.909834847761203, 46.974599769784 ], [ -92.909834429100499, 46.973814059684599 ], [ -92.909851554674404, 46.9729378876008 ], [ -92.909872301329401, 46.972169492398201 ] ] } },
{ "type": "Feature", "properties": { "wmUplineSo": "CEDAR VALLEY", "wmType": "Overhead" }, "geometry": { "type": "LineString", "coordinates": [ [ -92.908647598347898, 46.969907753849199 ], [ -92.908104754948198, 46.969240089675097 ], [ -92.907606790119601, 46.968568263608397 ], [ -92.907265078970894, 46.968054894547898 ] ] } },
{ "type": "Feature", "properties": { "wmUplineSo": "CEDAR VALLEY", "wmType": "Overhead" }, "geometry": { "type": "LineString", "coordinates": [ [ -92.909872301329401, 46.972169492398201 ], [ -92.909725452746301, 46.971392558484602 ], [ -92.909227574565804, 46.970645740177297 ], [ -92.908647598347898, 46.969907753849199 ] ] } },
{ "type": "Feature", "properties": { "wmUplineSo": "CEDAR VALLEY", "wmType": "Overhead" }, "geometry": { "type": "LineString", "coordinates": [ [ -92.907265078970894, 46.968054894547898 ], [ -92.908816447225007, 46.968082846468 ] ] } },
{ "type": "Feature", "properties": { "wmUplineSo": "CEDAR VALLEY", "wmType": "Overhead" }, "geometry": { "type": "LineString", "coordinates": [ [ -92.911506428616093, 46.968081783562802 ], [ -92.911499033020107, 46.967975783693802 ], [ -92.911229324952998, 46.9677047905639 ] ] } },
{ "type": "Feature", "properties": { "wmUplineSo": "CEDAR VALLEY", "wmType": "Overhead" }, "geometry": { "type": "LineString", "coordinates": [ [ -92.911506428616093, 46.968081783562802 ], [ -92.911746013777702, 46.968477707506203 ] ] } },
{ "type": "Feature", "properties": { "wmUplineSo": "CEDAR VALLEY", "wmType": "Overhead" }, "geometry": { "type": "LineString", "coordinates": [ [ -92.911506428616093, 46.968081783562802 ], [ -92.912679779842804, 46.968080724657497 ], [ -92.913980589330706, 46.968086471150599 ], [ -92.915163941520504, 46.9681150205557 ] ] } },
{ "type": "Feature", "properties": { "wmUplineSo": "CEDAR VALLEY", "wmType": "Overhead" }, "geometry": { "type": "LineString", "coordinates": [ [ -92.908816447225007, 46.968082846468 ], [ -92.909578493401497, 46.968085852293399 ], [ -92.910572067231598, 46.968040805013601 ], [ -92.911506428616093, 46.968081783562802 ] ] } },
{ "type": "Feature", "properties": { "wmUplineSo": "CEDAR VALLEY", "wmType": "Overhead" }, "geometry": { "type": "LineString", "coordinates": [ [ -92.888850148116106, 46.971888532199699 ], [ -92.8888483102902, 46.973083158201398 ], [ -92.888846158279605, 46.9744819032409 ], [ -92.888844555507006, 46.975523583859001 ], [ -92.888842906838804, 46.976595025960897 ], [ -92.888841820730406, 46.977300832433798 ] ] } },
{ "type": "Feature", "properties": { "wmUplineSo": "CEDAR VALLEY", "wmType": "Overhead" }, "geometry": { "type": "LineString", "coordinates": [ [ -92.900896294036599, 46.954898417401701 ], [ -92.899805938918703, 46.9550314412745 ] ] } },
{ "type": "Feature", "properties": { "wmUplineSo": "CEDAR VALLEY", "wmType": "Overhead" }, "geometry": { "type": "LineString", "coordinates": [ [ -92.888850148116106, 46.971888532199699 ], [ -92.888847036812606, 46.970612776420403 ], [ -92.888844496504106, 46.969571122407501 ], [ -92.888841050857906, 46.968158193500003 ], [ -92.887830562409107, 46.967844569544603 ] ] } },
{ "type": "Feature", "properties": { "wmUplineSo": "CEDAR VALLEY", "wmType": "Overhead" }, "geometry": { "type": "LineString", "coordinates": [ [ -92.892324143582897, 46.971916993363401 ], [ -92.890291570780306, 46.971900354040898 ], [ -92.888850148116106, 46.971888532199699 ] ] } },
{ "type": "Feature", "properties": { "wmUplineSo": "CEDAR VALLEY", "wmType": "Overhead" }, "geometry": { "type": "LineString", "coordinates": [ [ -92.892324143582897, 46.971916993363401 ], [ -92.891247014701804, 46.973028038360603 ] ] } },
{ "type": "Feature", "properties": { "wmUplineSo": "CEDAR VALLEY", "wmType": "Overhead" }, "geometry": { "type": "LineString", "coordinates": [ [ -92.898766713658404, 46.971801672437103 ], [ -92.898727286154397, 46.973189542511598 ] ] } },
{ "type": "Feature", "properties": { "wmUplineSo": "CEDAR VALLEY", "wmType": "Overhead" }, "geometry": { "type": "LineString", "coordinates": [ [ -92.907265078970894, 46.968054894547898 ], [ -92.906904265541897, 46.967529604183802 ] ] } },
{ "type": "Feature", "properties": { "wmUplineSo": "CEDAR VALLEY", "wmType": "Overhead" }, "geometry": { "type": "LineString", "coordinates": [ [ -92.898766713658404, 46.971801672437103 ], [ -92.898121254100204, 46.971813242417298 ], [ -92.896082767509796, 46.971849758736496 ], [ -92.894076979379307, 46.971885653841703 ], [ -92.892324143582897, 46.971916993363401 ] ] } },
{ "type": "Feature", "properties": { "wmUplineSo": "CEDAR VALLEY", "wmType": "Overhead" }, "geometry": { "type": "LineString", "coordinates": [ [ -92.899640715005106, 46.966620054958 ], [ -92.897740073307105, 46.965839851944402 ], [ -92.897352985791002, 46.965680947980402 ], [ -92.897352985791002, 46.965680947980402 ] ] } },
{ "type": "Feature", "properties": { "wmUplineSo": "CEDAR VALLEY", "wmType": "Overhead" }, "geometry": { "type": "LineString", "coordinates": [ [ -92.904743713431898, 46.965353602334098 ], [ -92.903615836015405, 46.965609197223202 ], [ -92.901798703497207, 46.966020959713902 ], [ -92.900727224286996, 46.966318427797098 ], [ -92.899640715005106, 46.966620054958 ] ] } },
{ "type": "Feature", "properties": { "wmUplineSo": "CEDAR VALLEY", "wmType": "Overhead" }, "geometry": { "type": "LineString", "coordinates": [ [ -92.900896294036599, 46.954898417401701 ], [ -92.900940543788906, 46.954427763353102 ] ] } },
{ "type": "Feature", "properties": { "wmUplineSo": "CEDAR VALLEY", "wmType": "Overhead" }, "geometry": { "type": "LineString", "coordinates": [ [ -92.899640715005106, 46.966620054958 ], [ -92.899516842872799, 46.967774152379 ], [ -92.8994823359387, 46.968095639151002 ], [ -92.899473401241906, 46.969402421488802 ], [ -92.899465055934897, 46.9706229354505 ], [ -92.8994593595216, 46.971456008793702 ], [ -92.899345724226706, 46.9717460065526 ], [ -92.898766713658404, 46.971801672437103 ] ] } },
{ "type": "Feature", "properties": { "wmUplineSo": "CEDAR VALLEY", "wmType": "Overhead" }, "geometry": { "type": "LineString", "coordinates": [ [ -92.906904265541897, 46.967529604183802 ], [ -92.906432445960903, 46.966841127466999 ], [ -92.905806072494897, 46.966035855521298 ], [ -92.9051981297183, 46.965240980441003 ] ] } },
{ "type": "Feature", "properties": { "wmUplineSo": "CEDAR VALLEY", "wmType": "Overhead" }, "geometry": { "type": "LineString", "coordinates": [ [ -92.9051981297183, 46.965240980441003 ], [ -92.904889255979498, 46.964574151364701 ], [ -92.904435474633004, 46.963940918916897 ], [ -92.903992152751798, 46.963299121974103 ] ] } },
{ "type": "Feature", "properties": { "wmUplineSo": "CEDAR VALLEY", "wmType": "Overhead" }, "geometry": { "type": "LineString", "coordinates": [ [ -92.902411868021204, 46.9588571430304 ], [ -92.906013526064598, 46.958277166580203 ] ] } },
{ "type": "Feature", "properties": { "wmUplineSo": "CEDAR VALLEY", "wmType": "Overhead" }, "geometry": { "type": "LineString", "coordinates": [ [ -92.903992152751798, 46.963299121974103 ], [ -92.903516573985698, 46.962615153364098 ], [ -92.903038764682194, 46.961922841227803 ] ] } },
{ "type": "Feature", "properties": { "wmUplineSo": "CEDAR VALLEY", "wmType": "Overhead" }, "geometry": { "type": "LineString", "coordinates": [ [ -92.901753209502303, 46.958943448272699 ], [ -92.901549380615805, 46.958156125036602 ], [ -92.901365670350003, 46.957336825607101 ], [ -92.901195290998999, 46.9565301042933 ], [ -92.901009904170294, 46.955721084723699 ], [ -92.900896294036599, 46.954898417401701 ] ] } },
{ "type": "Feature", "properties": { "wmUplineSo": "CEDAR VALLEY", "wmType": "Overhead" }, "geometry": { "type": "LineString", "coordinates": [ [ -92.912519666380206, 46.9966636512588 ], [ -92.910893067885993, 46.994838811137001 ], [ -92.910330350759196, 46.994228853742101 ], [ -92.909858064580902, 46.993652297765898 ], [ -92.909650248914403, 46.993075948757799 ], [ -92.909652556627805, 46.992318885134203 ], [ -92.909658919482695, 46.991674155972497 ] ] } },
{ "type": "Feature", "properties": { "wmUplineSo": "CEDAR VALLEY", "wmType": "Overhead" }, "geometry": { "type": "LineString", "coordinates": [ [ -92.915940826178399, 47.000619091267701 ], [ -92.915360008601297, 46.9999587967122 ], [ -92.914748477894094, 46.999263565522199 ] ] } },
{ "type": "Feature", "properties": { "wmUplineSo": "CEDAR VALLEY", "wmType": "Overhead" }, "geometry": { "type": "LineString", "coordinates": [ [ -92.909662899174094, 46.988925603793398 ], [ -92.909704008878904, 46.988107771973702 ] ] } },
{ "type": "Feature", "properties": { "wmUplineSo": "CEDAR VALLEY", "wmType": "Overhead" }, "geometry": { "type": "LineString", "coordinates": [ [ -92.926312836148497, 46.984482405946999 ], [ -92.926220999995394, 46.985399003556701 ] ] } },
{ "type": "Feature", "properties": { "wmUplineSo": "CEDAR VALLEY", "wmType": "Overhead" }, "geometry": { "type": "LineString", "coordinates": [ [ -92.901753209502303, 46.958943448272699 ], [ -92.902411868021204, 46.9588571430304 ] ] } },
{ "type": "Feature", "properties": { "wmUplineSo": "CEDAR VALLEY", "wmType": "Overhead" }, "geometry": { "type": "LineString", "coordinates": [ [ -92.888835806791207, 46.978206999926002 ], [ -92.888915084269598, 46.979730256405503 ] ] } },
{ "type": "Feature", "properties": { "wmUplineSo": "CEDAR VALLEY", "wmType": "Overhead" }, "geometry": { "type": "LineString", "coordinates": [ [ -92.926220999995394, 46.985399003556701 ], [ -92.926186999995394, 46.986256003557003 ] ] } },
{ "type": "Feature", "properties": { "wmUplineSo": "CEDAR VALLEY", "wmType": "Overhead" }, "geometry": { "type": "LineString", "coordinates": [ [ -92.965906000047795, 46.975781834468897 ], [ -92.966998083372005, 46.975756691645699 ], [ -92.968434761152594, 46.975745192012504 ], [ -92.969047006007202, 46.975732263992498 ] ] } },
{ "type": "Feature", "properties": { "wmUplineSo": "CEDAR VALLEY", "wmType": "Overhead" }, "geometry": { "type": "LineString", "coordinates": [ [ -92.9051981297183, 46.965240980441003 ], [ -92.904743713431898, 46.965353602334098 ] ] } },
{ "type": "Feature", "properties": { "wmUplineSo": "CEDAR VALLEY", "wmType": "Overhead" }, "geometry": { "type": "LineString", "coordinates": [ [ -92.909784700332395, 46.9795973180739 ], [ -92.909579461226599, 46.979588822912199 ] ] } },
{ "type": "Feature", "properties": { "wmUplineSo": "CEDAR VALLEY", "wmType": "Overhead" }, "geometry": { "type": "LineString", "coordinates": [ [ -92.909784700332395, 46.9795973180739 ], [ -92.909790321087698, 46.979358038384497 ] ] } },
{ "type": "Feature", "properties": { "wmUplineSo": "CEDAR VALLEY", "wmType": "Overhead" }, "geometry": { "type": "LineString", "coordinates": [ [ -92.919146554070196, 46.982640502065898 ], [ -92.919481558830299, 46.982194820718597 ] ] } },
{ "type": "Feature", "properties": { "wmUplineSo": "CEDAR VALLEY", "wmType": "Overhead" }, "geometry": { "type": "LineString", "coordinates": [ [ -92.909790321087698, 46.979358038384497 ], [ -92.909796214076906, 46.978956855204899 ], [ -92.9097951894163, 46.978531857178702 ] ] } },
{ "type": "Feature", "properties": { "wmUplineSo": "CEDAR VALLEY", "wmType": "Overhead" }, "geometry": { "type": "LineString", "coordinates": [ [ -92.935138061667601, 47.032191913282297 ], [ -92.935175402234705, 47.032413359457898 ] ] } },
{ "type": "Feature", "properties": { "wmUplineSo": "CEDAR VALLEY", "wmType": "Overhead" }, "geometry": { "type": "LineString", "coordinates": [ [ -92.924520635650694, 47.012148678020601 ], [ -92.924185178418895, 47.011510119499597 ] ] } },
{ "type": "Feature", "properties": { "wmUplineSo": "CEDAR VALLEY", "wmType": "Overhead" }, "geometry": { "type": "LineString", "coordinates": [ [ -92.932022159228794, 47.025968732150197 ], [ -92.931637604731804, 47.025272639902802 ], [ -92.931249245732005, 47.024569641281502 ], [ -92.930855114261902, 47.023856173180597 ], [ -92.930471810537995, 47.023162286176102 ], [ -92.930093687636301, 47.022477758971299 ], [ -92.929707460195104, 47.021778540457397 ], [ -92.929330860144901, 47.021096732284001 ] ] } },
{ "type": "Feature", "properties": { "wmUplineSo": "CEDAR VALLEY", "wmType": "Overhead" }, "geometry": { "type": "LineString", "coordinates": [ [ -92.926328999995306, 46.983708003556302 ], [ -92.926312836148497, 46.984482405946999 ] ] } },
{ "type": "Feature", "properties": { "wmUplineSo": "CEDAR VALLEY", "wmType": "Overhead" }, "geometry": { "type": "LineString", "coordinates": [ [ -92.934607576254393, 47.031003335187897 ], [ -92.934201821148903, 47.030216448450197 ] ] } },
{ "type": "Feature", "properties": { "wmUplineSo": "CEDAR VALLEY", "wmType": "Overhead" }, "geometry": { "type": "LineString", "coordinates": [ [ -92.920214665634106, 47.004508788145401 ], [ -92.921239779242299, 47.003882782307002 ] ] } },
{ "type": "Feature", "properties": { "wmUplineSo": "CEDAR VALLEY", "wmType": "Overhead" }, "geometry": { "type": "LineString", "coordinates": [ [ -92.936016999930402, 47.011994462700301 ], [ -92.937207649989801, 47.012009354219899 ] ] } },
{ "type": "Feature", "properties": { "wmUplineSo": "CEDAR VALLEY", "wmType": "Overhead" }, "geometry": { "type": "LineString", "coordinates": [ [ -92.914748477894094, 46.999263565522199 ], [ -92.9142090324126, 46.998636575034602 ] ] } },
{ "type": "Feature", "properties": { "wmUplineSo": "CEDAR VALLEY", "wmType": "Overhead" }, "geometry": { "type": "LineString", "coordinates": [ [ -92.9142090324126, 46.998636575034602 ], [ -92.913626865232104, 46.997907850915198 ], [ -92.913083446936298, 46.997317408869598 ] ] } },
{ "type": "Feature", "properties": { "wmUplineSo": "CEDAR VALLEY", "wmType": "Overhead" }, "geometry": { "type": "LineString", "coordinates": [ [ -92.906904265541897, 46.967529604183802 ], [ -92.906505318439201, 46.967484538173601 ] ] } },
{ "type": "Feature", "properties": { "wmUplineSo": "CEDAR VALLEY", "wmType": "Overhead" }, "geometry": { "type": "LineString", "coordinates": [ [ -92.908390347128801, 46.969992493459301 ], [ -92.907976186144793, 46.970143147497197 ] ] } },
{ "type": "Feature", "properties": { "wmUplineSo": "CEDAR VALLEY", "wmType": "Overhead" }, "geometry": { "type": "LineString", "coordinates": [ [ -92.908647598347898, 46.969907753849199 ], [ -92.908390347128801, 46.969992493459301 ] ] } },
{ "type": "Feature", "properties": { "wmUplineSo": "CEDAR VALLEY", "wmType": "Overhead" }, "geometry": { "type": "LineString", "coordinates": [ [ -92.9085268076484, 46.9574305708907 ], [ -92.909470914786297, 46.957429345845298 ] ] } },
{ "type": "Feature", "properties": { "wmUplineSo": "CEDAR VALLEY", "wmType": "Overhead" }, "geometry": { "type": "LineString", "coordinates": [ [ -92.909470914786297, 46.957429345845298 ], [ -92.909119999449004, 46.956792120558497 ] ] } },
{ "type": "Feature", "properties": { "wmUplineSo": "CEDAR VALLEY", "wmType": "Overhead" }, "geometry": { "type": "LineString", "coordinates": [ [ -92.909119999449004, 46.956792120558497 ], [ -92.908693134754003, 46.955926382150501 ] ] } },
{ "type": "Feature", "properties": { "wmUplineSo": "CEDAR VALLEY", "wmType": "Overhead" }, "geometry": { "type": "LineString", "coordinates": [ [ -92.908693134754003, 46.955926382150501 ], [ -92.9082685667086, 46.955051612145702 ] ] } },
{ "type": "Feature", "properties": { "wmUplineSo": "CEDAR VALLEY", "wmType": "Overhead" }, "geometry": { "type": "LineString", "coordinates": [ [ -92.9082685667086, 46.955051612145702 ], [ -92.907493793238103, 46.954762018848598 ] ] } },
{ "type": "Feature", "properties": { "wmUplineSo": "CEDAR VALLEY", "wmType": "Overhead" }, "geometry": { "type": "LineString", "coordinates": [ [ -92.907493793238103, 46.954762018848598 ], [ -92.90689, 46.954535 ] ] } },
{ "type": "Feature", "properties": { "wmUplineSo": "CEDAR VALLEY", "wmType": "Overhead" }, "geometry": { "type": "LineString", "coordinates": [ [ -92.90689, 46.954535 ], [ -92.906970468667097, 46.954494181510398 ] ] } },
{ "type": "Feature", "properties": { "wmUplineSo": "CEDAR VALLEY", "wmType": "Overhead" }, "geometry": { "type": "LineString", "coordinates": [ [ -92.9073269949684, 46.9581946066697 ], [ -92.907436482602293, 46.958225409428898 ] ] } },
{ "type": "Feature", "properties": { "wmUplineSo": "CEDAR VALLEY", "wmType": "Overhead" }, "geometry": { "type": "LineString", "coordinates": [ [ -92.888841820730406, 46.977300832433798 ], [ -92.888835806791207, 46.978206999926002 ] ] } },
{ "type": "Feature", "properties": { "wmUplineSo": "CEDAR VALLEY", "wmType": "Overhead" }, "geometry": { "type": "LineString", "coordinates": [ [ -92.952798336357603, 46.995418336574097 ], [ -92.952794352005697, 46.996217161146703 ] ] } },
{ "type": "Feature", "properties": { "wmUplineSo": "CEDAR VALLEY", "wmType": "Overhead" }, "geometry": { "type": "LineString", "coordinates": [ [ -92.952794352005697, 46.996217161146703 ], [ -92.953056933763804, 46.996138003455101 ] ] } },
{ "type": "Feature", "properties": { "wmUplineSo": "CEDAR VALLEY", "wmType": "Overhead" }, "geometry": { "type": "LineString", "coordinates": [ [ -92.952794352005697, 46.996217161146703 ], [ -92.952151714649304, 46.9964106752021 ], [ -92.951459861265704, 46.996619003823099 ] ] } },
{ "type": "Feature", "properties": { "wmUplineSo": "CEDAR VALLEY", "wmType": "Overhead" }, "geometry": { "type": "LineString", "coordinates": [ [ -92.933435377641203, 46.9793261596379 ], [ -92.9348159999616, 46.979346174519499 ] ] } },
{ "type": "Feature", "properties": { "wmUplineSo": "CEDAR VALLEY", "wmType": "Overhead" }, "geometry": { "type": "LineString", "coordinates": [ [ -92.902557809017594, 46.961247133262503 ], [ -92.902618824471205, 46.961191262780602 ] ] } },
{ "type": "Feature", "properties": { "wmUplineSo": "CEDAR VALLEY", "wmType": "Overhead" }, "geometry": { "type": "LineString", "coordinates": [ [ -92.928261748569199, 47.0060549995356 ], [ -92.929842502632397, 47.008852367335898 ] ] } },
{ "type": "Feature", "properties": { "wmUplineSo": "CEDAR VALLEY", "wmType": "Overhead" }, "geometry": { "type": "LineString", "coordinates": [ [ -92.909800919140196, 46.982521872596898 ], [ -92.909710036510404, 46.982493001288603 ] ] } },
{ "type": "Feature", "properties": { "wmUplineSo": "CEDAR VALLEY", "wmType": "Overhead" }, "geometry": { "type": "LineString", "coordinates": [ [ -92.932192278623603, 46.982989786746401 ], [ -92.932184553983305, 46.982162563547597 ] ] } },
{ "type": "Feature", "properties": { "wmUplineSo": "CEDAR VALLEY", "wmType": "Overhead" }, "geometry": { "type": "LineString", "coordinates": [ [ -92.932184553983305, 46.982162563547597 ], [ -92.932170805230598, 46.981186665036397 ], [ -92.932152471127395, 46.980334692821501 ], [ -92.932179799771305, 46.979325003373397 ] ] } },
{ "type": "Feature", "properties": { "wmUplineSo": "CEDAR VALLEY", "wmType": "Overhead" }, "geometry": { "type": "LineString", "coordinates": [ [ -92.932184553983305, 46.982162563547597 ], [ -92.932104350439403, 46.982121463531001 ] ] } },
{ "type": "Feature", "properties": { "wmUplineSo": "CEDAR VALLEY", "wmType": "Overhead" }, "geometry": { "type": "LineString", "coordinates": [ [ -92.915163941520504, 46.9681150205557 ], [ -92.915268659689602, 46.967877956343997 ] ] } },
{ "type": "Feature", "properties": { "wmUplineSo": "CEDAR VALLEY", "wmType": "Overhead" }, "geometry": { "type": "LineString", "coordinates": [ [ -92.952985917692999, 46.984800628469799 ], [ -92.952981026783505, 46.985233406125197 ] ] } },
{ "type": "Feature", "properties": { "wmUplineSo": "CEDAR VALLEY", "wmType": "Overhead" }, "geometry": { "type": "LineString", "coordinates": [ [ -92.952981026783505, 46.985233406125197 ], [ -92.952967034270003, 46.985746968555198 ] ] } },
{ "type": "Feature", "properties": { "wmUplineSo": "CEDAR VALLEY", "wmType": "Overhead" }, "geometry": { "type": "LineString", "coordinates": [ [ -92.952967034270003, 46.985746968555198 ], [ -92.952895180745202, 46.987904884006198 ], [ -92.952895180745202, 46.987904884006198 ] ] } },
{ "type": "Feature", "properties": { "wmUplineSo": "CEDAR VALLEY", "wmType": "Overhead" }, "geometry": { "type": "LineString", "coordinates": [ [ -92.902557809017594, 46.961247133262503 ], [ -92.902184937991507, 46.9605391341264 ] ] } },
{ "type": "Feature", "properties": { "wmUplineSo": "CEDAR VALLEY", "wmType": "Overhead" }, "geometry": { "type": "LineString", "coordinates": [ [ -92.902184937991507, 46.9605391341264 ], [ -92.9019418648722, 46.959746087414302 ], [ -92.901753209502303, 46.958943448272699 ] ] } },
{ "type": "Feature", "properties": { "wmUplineSo": "CEDAR VALLEY", "wmType": "Overhead" }, "geometry": { "type": "LineString", "coordinates": [ [ -92.9114871821821, 47.0110594819567 ], [ -92.90978694559, 47.011036150091897 ], [ -92.909770451468901, 47.011528988201803 ], [ -92.909841543625205, 47.013180935848297 ] ] } },
{ "type": "Feature", "properties": { "wmUplineSo": "CEDAR VALLEY", "wmType": "Overhead" }, "geometry": { "type": "LineString", "coordinates": [ [ -92.909841543625205, 47.013180935848297 ], [ -92.909678929129598, 47.013887696088702 ] ] } },
{ "type": "Feature", "properties": { "wmUplineSo": "CEDAR VALLEY", "wmType": "Overhead" }, "geometry": { "type": "LineString", "coordinates": [ [ -92.909820465098093, 47.015111006242599 ], [ -92.909971855933904, 47.015934465371899 ] ] } },
{ "type": "Feature", "properties": { "wmUplineSo": "CEDAR VALLEY", "wmType": "Overhead" }, "geometry": { "type": "LineString", "coordinates": [ [ -92.909678929129598, 47.013887696088702 ], [ -92.909790952071205, 47.0145484902392 ] ] } },
{ "type": "Feature", "properties": { "wmUplineSo": "CEDAR VALLEY", "wmType": "Overhead" }, "geometry": { "type": "LineString", "coordinates": [ [ -92.909790952071205, 47.0145484902392 ], [ -92.909820465098093, 47.015111006242599 ], [ -92.909820465098093, 47.015111006242599 ] ] } },
{ "type": "Feature", "properties": { "wmUplineSo": "CEDAR VALLEY", "wmType": "Overhead" }, "geometry": { "type": "LineString", "coordinates": [ [ -92.909971855933904, 47.015934465371899 ], [ -92.910638285441706, 47.016894863560303 ] ] } },
{ "type": "Feature", "properties": { "wmUplineSo": "CEDAR VALLEY", "wmType": "Overhead" }, "geometry": { "type": "LineString", "coordinates": [ [ -92.911989922017796, 46.982540733771501 ], [ -92.913341143622404, 46.982569383194097 ], [ -92.913341143622404, 46.982569383194097 ] ] } },
{ "type": "Feature", "properties": { "wmUplineSo": "CEDAR VALLEY", "wmType": "Overhead" }, "geometry": { "type": "LineString", "coordinates": [ [ -92.913341143622404, 46.982569383194097 ], [ -92.914511475197898, 46.982585500903099 ] ] } },
{ "type": "Feature", "properties": { "wmUplineSo": "CEDAR VALLEY", "wmType": "Overhead" }, "geometry": { "type": "LineString", "coordinates": [ [ -92.914511475197898, 46.982585500903099 ], [ -92.915812624727295, 46.982598845782199 ], [ -92.917085948307601, 46.982608346234798 ] ] } },
{ "type": "Feature", "properties": { "wmUplineSo": "CEDAR VALLEY", "wmType": "Overhead" }, "geometry": { "type": "LineString", "coordinates": [ [ -92.917085948307601, 46.982608346234798 ], [ -92.918277270571807, 46.982621935185598 ], [ -92.919146554070196, 46.982640502065898 ], [ -92.919146554070196, 46.982640502065898 ] ] } },
{ "type": "Feature", "properties": { "wmUplineSo": "CEDAR VALLEY", "wmType": "Overhead" }, "geometry": { "type": "LineString", "coordinates": [ [ -92.953015127689994, 46.981866098108 ], [ -92.953035627830801, 46.984086372843798 ], [ -92.953033970212402, 46.984093510709499 ], [ -92.953033970212402, 46.984093510709499 ] ] } },
{ "type": "Feature", "properties": { "wmUplineSo": "CEDAR VALLEY", "wmType": "Overhead" }, "geometry": { "type": "LineString", "coordinates": [ [ -92.952807209794003, 46.989408913906097 ], [ -92.952786348464102, 46.990180637452703 ] ] } },
{ "type": "Feature", "properties": { "wmUplineSo": "CEDAR VALLEY", "wmType": "Overhead" }, "geometry": { "type": "LineString", "coordinates": [ [ -92.933885125780606, 47.029505800912403 ], [ -92.933518292354094, 47.028798932779601 ] ] } },
{ "type": "Feature", "properties": { "wmUplineSo": "CEDAR VALLEY", "wmType": "Overhead" }, "geometry": { "type": "LineString", "coordinates": [ [ -92.933518292354094, 47.028798932779601 ], [ -92.933090251723698, 47.028038695117999 ] ] } },
{ "type": "Feature", "properties": { "wmUplineSo": "CEDAR VALLEY", "wmType": "Overhead" }, "geometry": { "type": "LineString", "coordinates": [ [ -92.933090251723698, 47.028038695117999 ], [ -92.932751241947997, 47.027373744726397 ] ] } },
{ "type": "Feature", "properties": { "wmUplineSo": "CEDAR VALLEY", "wmType": "Overhead" }, "geometry": { "type": "LineString", "coordinates": [ [ -92.932751241947997, 47.027373744726397 ], [ -92.932367715203, 47.026674481771003 ] ] } },
{ "type": "Feature", "properties": { "wmUplineSo": "CEDAR VALLEY", "wmType": "Overhead" }, "geometry": { "type": "LineString", "coordinates": [ [ -92.932367715203, 47.026674481771003 ], [ -92.932022159228794, 47.025968732150197 ] ] } },
{ "type": "Feature", "properties": { "wmUplineSo": "CEDAR VALLEY", "wmType": "Overhead" }, "geometry": { "type": "LineString", "coordinates": [ [ -92.934849161441406, 47.031641558030998 ], [ -92.934607576254393, 47.031003335187897 ] ] } },
{ "type": "Feature", "properties": { "wmUplineSo": "CEDAR VALLEY", "wmType": "Overhead" }, "geometry": { "type": "LineString", "coordinates": [ [ -92.937207649989801, 47.012009354219899 ], [ -92.942253178640598, 47.012058232223701 ] ] } },
{ "type": "Feature", "properties": { "wmUplineSo": "CEDAR VALLEY", "wmType": "Overhead" }, "geometry": { "type": "LineString", "coordinates": [ [ -92.952990085476699, 46.981038231278497 ], [ -92.953015127689994, 46.981866098108 ] ] } },
{ "type": "Feature", "properties": { "wmUplineSo": "CEDAR VALLEY", "wmType": "Overhead" }, "geometry": { "type": "LineString", "coordinates": [ [ -92.909872301329401, 46.972169492398201 ], [ -92.909484, 46.971985600008701 ] ] } },
{ "type": "Feature", "properties": { "wmUplineSo": "CEDAR VALLEY", "wmType": "Overhead" }, "geometry": { "type": "LineString", "coordinates": [ [ -92.906013526064598, 46.958277166580203 ], [ -92.907397507514801, 46.958102279528397 ] ] } },
{ "type": "Feature", "properties": { "wmUplineSo": "CEDAR VALLEY", "wmType": "Overhead" }, "geometry": { "type": "LineString", "coordinates": [ [ -92.909642972047095, 46.990999589546199 ], [ -92.909658802152293, 46.990269857837497 ], [ -92.909660941897698, 46.989567806784699 ], [ -92.909662899174094, 46.988925603793398 ], [ -92.909662899174094, 46.988925603793398 ] ] } },
{ "type": "Feature", "properties": { "wmUplineSo": "CEDAR VALLEY", "wmType": "Overhead" }, "geometry": { "type": "LineString", "coordinates": [ [ -92.909715132772305, 46.987270534588703 ], [ -92.908724189582301, 46.987204571400198 ] ] } },
{ "type": "Feature", "properties": { "wmUplineSo": "CEDAR VALLEY", "wmType": "Overhead" }, "geometry": { "type": "LineString", "coordinates": [ [ -92.902557809017594, 46.961247133262503 ], [ -92.902315953695705, 46.961404834450001 ] ] } },
{ "type": "Feature", "properties": { "wmUplineSo": "CEDAR VALLEY", "wmType": "Overhead" }, "geometry": { "type": "LineString", "coordinates": [ [ -92.909704008878904, 46.988107771973702 ], [ -92.909715132772305, 46.987270534588703 ] ] } },
{ "type": "Feature", "properties": { "wmUplineSo": "CEDAR VALLEY", "wmType": "Overhead" }, "geometry": { "type": "LineString", "coordinates": [ [ -92.902315953695705, 46.961404834450001 ], [ -92.901996130675798, 46.961607903844502 ] ] } },
{ "type": "Feature", "properties": { "wmUplineSo": "CEDAR VALLEY", "wmType": "Overhead" }, "geometry": { "type": "LineString", "coordinates": [ [ -92.9348159999616, 46.979346174519499 ], [ -92.934900265440902, 46.9790423044794 ], [ -92.9348988, 46.978980000008697 ] ] } },
{ "type": "Feature", "properties": { "wmUplineSo": "CEDAR VALLEY", "wmType": "Overhead" }, "geometry": { "type": "LineString", "coordinates": [ [ -92.931408444788801, 46.978581691686102 ], [ -92.9313156, 46.978476300008701 ] ] } },
{ "type": "Feature", "properties": { "wmUplineSo": "CEDAR VALLEY", "wmType": "Overhead" }, "geometry": { "type": "LineString", "coordinates": [ [ -92.9395437204589, 46.9831324347251 ], [ -92.9394963, 46.983114600008697 ] ] } },
{ "type": "Feature", "properties": { "wmUplineSo": "CEDAR VALLEY", "wmType": "Overhead" }, "geometry": { "type": "LineString", "coordinates": [ [ -92.899419680496194, 46.953108041724299 ], [ -92.8993236, 46.953137500008701 ] ] } },
{ "type": "Feature", "properties": { "wmUplineSo": "CEDAR VALLEY", "wmType": "Overhead" }, "geometry": { "type": "LineString", "coordinates": [ [ -92.899805938918703, 46.9550314412745 ], [ -92.8990854, 46.955103300008702 ] ] } },
{ "type": "Feature", "properties": { "wmUplineSo": "CEDAR VALLEY", "wmType": "Overhead" }, "geometry": { "type": "LineString", "coordinates": [ [ -92.901871817421096, 46.952463538572403 ], [ -92.9025711, 46.952470600008702 ] ] } },
{ "type": "Feature", "properties": { "wmUplineSo": "CEDAR VALLEY", "wmType": "Overhead" }, "geometry": { "type": "LineString", "coordinates": [ [ -92.910598775694496, 47.013055016275501 ], [ -92.910695516095402, 47.013073010761097 ] ] } },
{ "type": "Feature", "properties": { "wmUplineSo": "CEDAR VALLEY", "wmType": "Overhead" }, "geometry": { "type": "LineString", "coordinates": [ [ -92.934201821148903, 47.030216448450197 ], [ -92.9345326, 47.030214900008801 ] ] } },
{ "type": "Feature", "properties": { "wmUplineSo": "CEDAR VALLEY", "wmType": "Overhead" }, "geometry": { "type": "LineString", "coordinates": [ [ -92.935786689302603, 47.025910924178099 ], [ -92.9362606, 47.025991400008799 ] ] } },
{ "type": "Feature", "properties": { "wmUplineSo": "CEDAR VALLEY", "wmType": "Overhead" }, "geometry": { "type": "LineString", "coordinates": [ [ -92.930219208720601, 47.011837663536603 ], [ -92.930092429430104, 47.011563323042701 ] ] } },
{ "type": "Feature", "properties": { "wmUplineSo": "CEDAR VALLEY", "wmType": "Overhead" }, "geometry": { "type": "LineString", "coordinates": [ [ -92.942253178640598, 47.012058232223701 ], [ -92.9419733, 47.012387500008799 ] ] } },
{ "type": "Feature", "properties": { "wmUplineSo": "CEDAR VALLEY", "wmType": "Overhead" }, "geometry": { "type": "LineString", "coordinates": [ [ -92.942755379736596, 47.011868897299102 ], [ -92.9422516, 47.0115193000088 ] ] } },
{ "type": "Feature", "properties": { "wmUplineSo": "CEDAR VALLEY", "wmType": "Overhead" }, "geometry": { "type": "LineString", "coordinates": [ [ -92.951259593129393, 47.011678669515497 ], [ -92.9512903, 47.011614300008802 ] ] } },
{ "type": "Feature", "properties": { "wmUplineSo": "CEDAR VALLEY", "wmType": "Overhead" }, "geometry": { "type": "LineString", "coordinates": [ [ -92.918569719293401, 47.005893773510202 ], [ -92.9184005, 47.005954500008798 ] ] } },
{ "type": "Feature", "properties": { "wmUplineSo": "CEDAR VALLEY", "wmType": "Overhead" }, "geometry": { "type": "LineString", "coordinates": [ [ -92.922761481187095, 47.002760722457502 ], [ -92.9225519, 47.002841900008796 ] ] } },
{ "type": "Feature", "properties": { "wmUplineSo": "CEDAR VALLEY", "wmType": "Overhead" }, "geometry": { "type": "LineString", "coordinates": [ [ -92.929842502632397, 47.008852367335898 ], [ -92.929985703796206, 47.008980869981897 ] ] } },
{ "type": "Feature", "properties": { "wmUplineSo": "CEDAR VALLEY", "wmType": "Overhead" }, "geometry": { "type": "LineString", "coordinates": [ [ -92.927958606706895, 47.005517617114101 ], [ -92.9279648, 47.005507600008798 ] ] } },
{ "type": "Feature", "properties": { "wmUplineSo": "CEDAR VALLEY", "wmType": "Overhead" }, "geometry": { "type": "LineString", "coordinates": [ [ -92.903706589634695, 46.981825686017103 ], [ -92.9037191, 46.9818003000087 ] ] } },
{ "type": "Feature", "properties": { "wmUplineSo": "CEDAR VALLEY", "wmType": "Overhead" }, "geometry": { "type": "LineString", "coordinates": [ [ -92.908891627579806, 46.985689899251 ], [ -92.9088766, 46.985671800008703 ] ] } },
{ "type": "Feature", "properties": { "wmUplineSo": "CEDAR VALLEY", "wmType": "Overhead" }, "geometry": { "type": "LineString", "coordinates": [ [ -92.909711436390694, 46.986398180777996 ], [ -92.910535594593597, 46.9864862431265 ] ] } },
{ "type": "Feature", "properties": { "wmUplineSo": "CEDAR VALLEY", "wmType": "Overhead" }, "geometry": { "type": "LineString", "coordinates": [ [ -92.911552814740602, 46.987646268149497 ], [ -92.9113769, 46.987694600008702 ] ] } },
{ "type": "Feature", "properties": { "wmUplineSo": "CEDAR VALLEY", "wmType": "Overhead" }, "geometry": { "type": "LineString", "coordinates": [ [ -92.906843812097705, 46.989014196407403 ], [ -92.9067983, 46.989010700008699 ] ] } },
{ "type": "Feature", "properties": { "wmUplineSo": "CEDAR VALLEY", "wmType": "Overhead" }, "geometry": { "type": "LineString", "coordinates": [ [ -92.907697945396507, 46.997742936178703 ], [ -92.9075606, 46.997844400008702 ] ] } },
{ "type": "Feature", "properties": { "wmUplineSo": "CEDAR VALLEY", "wmType": "Overhead" }, "geometry": { "type": "LineString", "coordinates": [ [ -92.917619789987697, 47.000313794733799 ], [ -92.9176091, 47.000141500008702 ] ] } },
{ "type": "Feature", "properties": { "wmUplineSo": "CEDAR VALLEY", "wmType": "Overhead" }, "geometry": { "type": "LineString", "coordinates": [ [ -92.951459861265704, 46.996619003823099 ], [ -92.9511933, 46.996662500008803 ] ] } },
{ "type": "Feature", "properties": { "wmUplineSo": "CEDAR VALLEY", "wmType": "Overhead" }, "geometry": { "type": "LineString", "coordinates": [ [ -92.952786348464102, 46.990180637452703 ], [ -92.9520349, 46.990218900008699 ] ] } },
{ "type": "Feature", "properties": { "wmUplineSo": "CEDAR VALLEY", "wmType": "Overhead" }, "geometry": { "type": "LineString", "coordinates": [ [ -92.955531945068799, 46.994900952437597 ], [ -92.9553521, 46.994942700008799 ] ] } },
{ "type": "Feature", "properties": { "wmUplineSo": "CEDAR VALLEY", "wmType": "Overhead" }, "geometry": { "type": "LineString", "coordinates": [ [ -92.953891712079496, 46.988276715116001 ], [ -92.9539225, 46.988287500008802 ] ] } },
{ "type": "Feature", "properties": { "wmUplineSo": "CEDAR VALLEY", "wmType": "Overhead" }, "geometry": { "type": "LineString", "coordinates": [ [ -92.951698453829806, 46.9876936729029 ], [ -92.9516588, 46.987684300008702 ] ] } },
{ "type": "Feature", "properties": { "wmUplineSo": "CEDAR VALLEY", "wmType": "Overhead" }, "geometry": { "type": "LineString", "coordinates": [ [ -92.952985917692999, 46.984800628469799 ], [ -92.9535276, 46.984802000008699 ] ] } },
{ "type": "Feature", "properties": { "wmUplineSo": "CEDAR VALLEY", "wmType": "Overhead" }, "geometry": { "type": "LineString", "coordinates": [ [ -92.952985917692999, 46.984800628469799 ], [ -92.952671322064205, 46.985017163873898 ], [ -92.952527105940504, 46.9851915249874 ], [ -92.9523496, 46.985218500008699 ] ] } },
{ "type": "Feature", "properties": { "wmUplineSo": "CEDAR VALLEY", "wmType": "Overhead" }, "geometry": { "type": "LineString", "coordinates": [ [ -92.953028567503097, 46.980179918077503 ], [ -92.9521914, 46.9801975000087 ] ] } },
{ "type": "Feature", "properties": { "wmUplineSo": "CEDAR VALLEY", "wmType": "Overhead" }, "geometry": { "type": "LineString", "coordinates": [ [ -92.953033970212402, 46.984093510709499 ], [ -92.9522246, 46.983684100008702 ] ] } },
{ "type": "Feature", "properties": { "wmUplineSo": "CEDAR VALLEY", "wmType": "Overhead" }, "geometry": { "type": "LineString", "coordinates": [ [ -92.953028567503097, 46.980179918077503 ], [ -92.9535279, 46.980097300008701 ] ] } },
{ "type": "Feature", "properties": { "wmUplineSo": "CEDAR VALLEY", "wmType": "Overhead" }, "geometry": { "type": "LineString", "coordinates": [ [ -92.948357560965505, 46.977900502760598 ], [ -92.9482838, 46.977730300008702 ] ] } },
{ "type": "Feature", "properties": { "wmUplineSo": "CEDAR VALLEY", "wmType": "Overhead" }, "geometry": { "type": "LineString", "coordinates": [ [ -92.952933632464195, 46.977380097537498 ], [ -92.953196635397603, 46.977367348278896 ], [ -92.953635, 46.977342800008699 ] ] } },
{ "type": "Feature", "properties": { "wmUplineSo": "CEDAR VALLEY", "wmType": "Overhead" }, "geometry": { "type": "LineString", "coordinates": [ [ -92.965906000047795, 46.975781834468897 ], [ -92.9659531, 46.975767800008697 ] ] } },
{ "type": "Feature", "properties": { "wmUplineSo": "CEDAR VALLEY", "wmType": "Overhead" }, "geometry": { "type": "LineString", "coordinates": [ [ -92.958184960699, 46.975799050250501 ], [ -92.958181205507898, 46.9761538086114 ], [ -92.9581161, 46.976551300008701 ] ] } },
{ "type": "Feature", "properties": { "wmUplineSo": "CEDAR VALLEY", "wmType": "Overhead" }, "geometry": { "type": "LineString", "coordinates": [ [ -92.930654919082997, 46.987204270070997 ], [ -92.9302055, 46.987102500008703 ] ] } },
{ "type": "Feature", "properties": { "wmUplineSo": "CEDAR VALLEY", "wmType": "Overhead" }, "geometry": { "type": "LineString", "coordinates": [ [ -92.932112953045404, 46.986559135238302 ], [ -92.932538659634901, 46.986763462902097 ] ] } },
{ "type": "Feature", "properties": { "wmUplineSo": "CEDAR VALLEY", "wmType": "Overhead" }, "geometry": { "type": "LineString", "coordinates": [ [ -92.932174792242094, 46.984660200357098 ], [ -92.9325241, 46.984379600008701 ] ] } },
{ "type": "Feature", "properties": { "wmUplineSo": "CEDAR VALLEY", "wmType": "Overhead" }, "geometry": { "type": "LineString", "coordinates": [ [ -92.929758660763, 46.982934470899799 ], [ -92.93014, 46.982506900008701 ] ] } },
{ "type": "Feature", "properties": { "wmUplineSo": "CEDAR VALLEY", "wmType": "Overhead" }, "geometry": { "type": "LineString", "coordinates": [ [ -92.929758660763, 46.982934470899799 ], [ -92.9302351, 46.983109400008701 ] ] } },
{ "type": "Feature", "properties": { "wmUplineSo": "CEDAR VALLEY", "wmType": "Overhead" }, "geometry": { "type": "LineString", "coordinates": [ [ -92.926031038423801, 46.988869663248899 ], [ -92.9258129, 46.989211400008699 ] ] } },
{ "type": "Feature", "properties": { "wmUplineSo": "CEDAR VALLEY", "wmType": "Overhead" }, "geometry": { "type": "LineString", "coordinates": [ [ -92.922657830818196, 46.982740815735397 ], [ -92.922120051872994, 46.982202359884504 ] ] } },
{ "type": "Feature", "properties": { "wmUplineSo": "CEDAR VALLEY", "wmType": "Overhead" }, "geometry": { "type": "LineString", "coordinates": [ [ -92.919481558830299, 46.982194820718597 ], [ -92.9194723, 46.9821754000087 ] ] } },
{ "type": "Feature", "properties": { "wmUplineSo": "CEDAR VALLEY", "wmType": "Overhead" }, "geometry": { "type": "LineString", "coordinates": [ [ -92.909153669346196, 46.979301508022203 ], [ -92.9089568, 46.979287400008701 ] ] } },
{ "type": "Feature", "properties": { "wmUplineSo": "CEDAR VALLEY", "wmType": "Overhead" }, "geometry": { "type": "LineString", "coordinates": [ [ -92.909504721841799, 46.978524485177097 ], [ -92.9091215, 46.978249300008699 ] ] } },
{ "type": "Feature", "properties": { "wmUplineSo": "CEDAR VALLEY", "wmType": "Overhead" }, "geometry": { "type": "LineString", "coordinates": [ [ -92.9097951894163, 46.978531857178702 ], [ -92.9100293, 46.978673400008702 ] ] } },
{ "type": "Feature", "properties": { "wmUplineSo": "CEDAR VALLEY", "wmType": "Overhead" }, "geometry": { "type": "LineString", "coordinates": [ [ -92.911403416696501, 46.971928632087703 ], [ -92.9114555, 46.971860500008702 ] ] } },
{ "type": "Feature", "properties": { "wmUplineSo": "CEDAR VALLEY", "wmType": "Overhead" }, "geometry": { "type": "LineString", "coordinates": [ [ -92.911746013777702, 46.968477707506203 ], [ -92.9115403, 46.968543100008702 ] ] } },
{ "type": "Feature", "properties": { "wmUplineSo": "CEDAR VALLEY", "wmType": "Overhead" }, "geometry": { "type": "LineString", "coordinates": [ [ -92.911229324952998, 46.9677047905639 ], [ -92.9110266, 46.967756400008703 ] ] } },
{ "type": "Feature", "properties": { "wmUplineSo": "CEDAR VALLEY", "wmType": "Overhead" }, "geometry": { "type": "LineString", "coordinates": [ [ -92.890131479495295, 46.9796836734333 ], [ -92.8905533, 46.9796740000087 ] ] } },
{ "type": "Feature", "properties": { "wmUplineSo": "CEDAR VALLEY", "wmType": "Overhead" }, "geometry": { "type": "LineString", "coordinates": [ [ -92.888915084269598, 46.979730256405503 ], [ -92.8883834, 46.979946300008699 ] ] } },
{ "type": "Feature", "properties": { "wmUplineSo": "CEDAR VALLEY", "wmType": "Overhead" }, "geometry": { "type": "LineString", "coordinates": [ [ -92.887830562409107, 46.967844569544603 ], [ -92.8881351, 46.967794000008702 ] ] } },
{ "type": "Feature", "properties": { "wmUplineSo": "CEDAR VALLEY", "wmType": "Overhead" }, "geometry": { "type": "LineString", "coordinates": [ [ -92.891247014701804, 46.973028038360603 ], [ -92.891264875085099, 46.973420295738997 ] ] } },
{ "type": "Feature", "properties": { "wmUplineSo": "CEDAR VALLEY", "wmType": "Overhead" }, "geometry": { "type": "LineString", "coordinates": [ [ -92.898727286154397, 46.973189542511598 ], [ -92.8983531, 46.973013400008703 ] ] } },
{ "type": "Feature", "properties": { "wmUplineSo": "CEDAR VALLEY", "wmType": "Overhead" }, "geometry": { "type": "LineString", "coordinates": [ [ -92.903992152751798, 46.963299121974103 ], [ -92.9046423, 46.9631716000087 ] ] } },
{ "type": "Feature", "properties": { "wmUplineSo": "CEDAR VALLEY", "wmType": "Overhead" }, "geometry": { "type": "LineString", "coordinates": [ [ -92.902411868021204, 46.9588571430304 ], [ -92.9024056, 46.958850100008704 ] ] } },
{ "type": "Feature", "properties": { "wmUplineSo": "CEDAR VALLEY", "wmType": "Overhead" }, "geometry": { "type": "LineString", "coordinates": [ [ -92.907397507514801, 46.958102279528397 ], [ -92.9073269949684, 46.9581946066697 ] ] } },
{ "type": "Feature", "properties": { "wmUplineSo": "CEDAR VALLEY", "wmType": "Overhead" }, "geometry": { "type": "LineString", "coordinates": [ [ -92.913203690842394, 46.957329068759897 ], [ -92.9132504, 46.956847300008697 ] ] } },
{ "type": "Feature", "properties": { "wmUplineSo": "CEDAR VALLEY", "wmType": "Overhead" }, "geometry": { "type": "LineString", "coordinates": [ [ -92.933315275701901, 47.033154403065303 ], [ -92.933187152640102, 47.033132423980597 ] ] } }
]
}
