{
"type": "FeatureCollection",
"crs": { "type": "name", "properties": { "name": "urn:ogc:def:crs:OGC:1.3:CRS84" } },
"features": [
{ "type": "Feature", "properties": { "wmUplineSo": "CEDAR VALLEY", "wmType": "Underground" }, "geometry": { "type": "LineString", "coordinates": [ [ -92.933229212525603, 47.0329349886199 ], [ -92.935028589047405, 47.032487007615302 ], [ -92.935138061667601, 47.032191913282297 ] ] } },
{ "type": "Feature", "properties": { "wmUplineSo": "CEDAR VALLEY", "wmType": "Underground" }, "geometry": { "type": "LineString", "coordinates": [ [ -92.910638285441706, 47.016894863560303 ], [ -92.910966685480105, 47.017245114707002 ], [ -92.911269009384796, 47.017577487784301 ], [ -92.911550566860399, 47.017838416392799 ], [ -92.911915580045502, 47.018160121988302 ], [ -92.912218067178699, 47.018399636742998 ], [ -92.912144471844996, 47.018696004866598 ], [ -92.912089508409295, 47.018886352833498 ] ] } },
{ "type": "Feature", "properties": { "wmUplineSo": "CEDAR VALLEY", "wmType": "Underground" }, "geometry": { "type": "LineString", "coordinates": [ [ -92.912089508409295, 47.018886352833498 ], [ -92.9121473, 47.018878500008803 ] ] } },
{ "type": "Feature", "properties": { "wmUplineSo": "CEDAR VALLEY", "wmType": "Underground" }, "geometry": { "type": "LineString", "coordinates": [ [ -92.931352506413802, 46.974536076620197 ], [ -92.931137, 46.974625300008697 ] ] } },
{ "type": "Feature", "properties": { "wmUplineSo": "CEDAR VALLEY", "wmType": "Underground" }, "geometry": { "type": "LineString", "coordinates": [ [ -92.954367516056095, 47.012265482428703 ], [ -92.954474994619602, 47.012352095076203 ] ] } },
{ "type": "Feature", "properties": { "wmUplineSo": "CEDAR VALLEY", "wmType": "Underground" }, "geometry": { "type": "LineString", "coordinates": [ [ -92.903292925069195, 46.989514200792698 ], [ -92.9032493, 46.989523300008798 ] ] } },
{ "type": "Feature", "properties": { "wmUplineSo": "CEDAR VALLEY", "wmType": "Underground" }, "geometry": { "type": "LineString", "coordinates": [ [ -92.956670547241998, 46.989940103133897 ], [ -92.9569319, 46.989879600008699 ] ] } },
{ "type": "Feature", "properties": { "wmUplineSo": "CEDAR VALLEY", "wmType": "Underground" }, "geometry": { "type": "LineString", "coordinates": [ [ -92.910414211986705, 46.979273935380803 ], [ -92.910616140830598, 46.978874353751401 ] ] } },
{ "type": "Feature", "properties": { "wmUplineSo": "CEDAR VALLEY", "wmType": "Underground" }, "geometry": { "type": "LineString", "coordinates": [ [ -92.910414211986705, 46.979273935380803 ], [ -92.910870066027798, 46.979504017203197 ] ] } },
{ "type": "Feature", "properties": { "wmUplineSo": "CEDAR VALLEY", "wmType": "Underground" }, "geometry": { "type": "LineString", "coordinates": [ [ -92.887767066257595, 46.977931903892397 ], [ -92.8873055, 46.978137100008702 ] ] } },
{ "type": "Feature", "properties": { "wmUplineSo": "CEDAR VALLEY", "wmType": "Underground" }, "geometry": { "type": "LineString", "coordinates": [ [ -92.969180636754899, 46.976555761163503 ], [ -92.9689211, 46.976649600008699 ] ] } },
{ "type": "Feature", "properties": { "wmUplineSo": "CEDAR VALLEY", "wmType": "Underground" }, "geometry": { "type": "LineString", "coordinates": [ [ -92.910335783670106, 46.9794865311341 ], [ -92.910264910140597, 46.979526760261201 ] ] } },
{ "type": "Feature", "properties": { "wmUplineSo": "CEDAR VALLEY", "wmType": "Underground" }, "geometry": { "type": "LineString", "coordinates": [ [ -92.9148023197789, 46.986056351479597 ], [ -92.914798, 46.986038400008702 ] ] } },
{ "type": "Feature", "properties": { "wmUplineSo": "CEDAR VALLEY", "wmType": "Underground" }, "geometry": { "type": "LineString", "coordinates": [ [ -92.915268659689602, 46.967877956343997 ], [ -92.915516270964801, 46.967897186837199 ], [ -92.915601660547296, 46.968006535013302 ], [ -92.9159484, 46.967959500008703 ] ] } },
{ "type": "Feature", "properties": { "wmUplineSo": "CEDAR VALLEY", "wmType": "Underground" }, "geometry": { "type": "LineString", "coordinates": [ [ -92.915268659689602, 46.967877956343997 ], [ -92.915367754958297, 46.967697065084799 ], [ -92.9154855, 46.9676753000087 ] ] } },
{ "type": "Feature", "properties": { "wmUplineSo": "CEDAR VALLEY", "wmType": "Underground" }, "geometry": { "type": "LineString", "coordinates": [ [ -92.952687999996996, 46.9747280035538 ], [ -92.952249999996994, 46.974664003553897 ] ] } },
{ "type": "Feature", "properties": { "wmUplineSo": "CEDAR VALLEY", "wmType": "Underground" }, "geometry": { "type": "LineString", "coordinates": [ [ -92.952249999996994, 46.974664003553897 ], [ -92.952058999996893, 46.974442003553797 ] ] } },
{ "type": "Feature", "properties": { "wmUplineSo": "CEDAR VALLEY", "wmType": "Underground" }, "geometry": { "type": "LineString", "coordinates": [ [ -92.952058999996893, 46.974442003553797 ], [ -92.951882999996897, 46.974333003553703 ] ] } },
{ "type": "Feature", "properties": { "wmUplineSo": "CEDAR VALLEY", "wmType": "Underground" }, "geometry": { "type": "LineString", "coordinates": [ [ -92.952824204679402, 46.9758490034678 ], [ -92.952809999997001, 46.975776003554103 ] ] } },
{ "type": "Feature", "properties": { "wmUplineSo": "CEDAR VALLEY", "wmType": "Underground" }, "geometry": { "type": "LineString", "coordinates": [ [ -92.952809999997001, 46.975776003554103 ], [ -92.952799999996998, 46.975689003554102 ] ] } },
{ "type": "Feature", "properties": { "wmUplineSo": "CEDAR VALLEY", "wmType": "Underground" }, "geometry": { "type": "LineString", "coordinates": [ [ -92.932179799771305, 46.979325003373397 ], [ -92.932181002681205, 46.975659352912103 ], [ -92.931352506413802, 46.974536076620197 ] ] } },
{ "type": "Feature", "properties": { "wmUplineSo": "CEDAR VALLEY", "wmType": "Underground" }, "geometry": { "type": "LineString", "coordinates": [ [ -92.951110082238003, 47.011869062824204 ], [ -92.951504372842194, 47.012092307167599 ] ] } },
{ "type": "Feature", "properties": { "wmUplineSo": "CEDAR VALLEY", "wmType": "Underground" }, "geometry": { "type": "LineString", "coordinates": [ [ -92.951504372842194, 47.012092307167599 ], [ -92.951826728491199, 47.0120833216872 ], [ -92.954257970346006, 47.0120835487009 ], [ -92.954367516056095, 47.012265482428703 ] ] } },
{ "type": "Feature", "properties": { "wmUplineSo": "CEDAR VALLEY", "wmType": "Underground" }, "geometry": { "type": "LineString", "coordinates": [ [ -92.906843812097705, 46.989014196407403 ], [ -92.903292925069195, 46.989514200792698 ] ] } },
{ "type": "Feature", "properties": { "wmUplineSo": "CEDAR VALLEY", "wmType": "Underground" }, "geometry": { "type": "LineString", "coordinates": [ [ -92.910065730179795, 46.979278538649602 ], [ -92.910414211986705, 46.979273935380803 ] ] } },
{ "type": "Feature", "properties": { "wmUplineSo": "CEDAR VALLEY", "wmType": "Underground" }, "geometry": { "type": "LineString", "coordinates": [ [ -92.909790321087698, 46.979358038384497 ], [ -92.910065730179795, 46.979278538649602 ] ] } },
{ "type": "Feature", "properties": { "wmUplineSo": "CEDAR VALLEY", "wmType": "Underground" }, "geometry": { "type": "LineString", "coordinates": [ [ -92.888841820730406, 46.977300832433798 ], [ -92.887767066257595, 46.977931903892397 ] ] } },
{ "type": "Feature", "properties": { "wmUplineSo": "CEDAR VALLEY", "wmType": "Underground" }, "geometry": { "type": "LineString", "coordinates": [ [ -92.969047006007202, 46.975732263992498 ], [ -92.969180636754899, 46.976555761163503 ] ] } },
{ "type": "Feature", "properties": { "wmUplineSo": "CEDAR VALLEY", "wmType": "Underground" }, "geometry": { "type": "LineString", "coordinates": [ [ -92.933328463983102, 47.033156416459803 ], [ -92.933229212525603, 47.0329349886199 ] ] } },
{ "type": "Feature", "properties": { "wmUplineSo": "CEDAR VALLEY", "wmType": "Underground" }, "geometry": { "type": "LineString", "coordinates": [ [ -92.910414211986705, 46.979273935380803 ], [ -92.910335783670106, 46.9794865311341 ] ] } },
{ "type": "Feature", "properties": { "wmUplineSo": "CEDAR VALLEY", "wmType": "Underground" }, "geometry": { "type": "LineString", "coordinates": [ [ -92.909738899846104, 46.985585113545397 ], [ -92.9148023197789, 46.986056351479597 ] ] } },
{ "type": "Feature", "properties": { "wmUplineSo": "CEDAR VALLEY", "wmType": "Underground" }, "geometry": { "type": "LineString", "coordinates": [ [ -92.909658919482695, 46.991674155972497 ], [ -92.911097, 46.991487999999897 ] ] } },
{ "type": "Feature", "properties": { "wmUplineSo": "CEDAR VALLEY", "wmType": "Underground" }, "geometry": { "type": "LineString", "coordinates": [ [ -92.911097, 46.991487999999897 ], [ -92.911636, 46.991050000000101 ] ] } },
{ "type": "Feature", "properties": { "wmUplineSo": "CEDAR VALLEY", "wmType": "Underground" }, "geometry": { "type": "LineString", "coordinates": [ [ -92.911636, 46.991050000000101 ], [ -92.911644, 46.990845 ] ] } },
{ "type": "Feature", "properties": { "wmUplineSo": "CEDAR VALLEY", "wmType": "Underground" }, "geometry": { "type": "LineString", "coordinates": [ [ -92.911644, 46.990845 ], [ -92.911697075962707, 46.990833310407702 ] ] } },
{ "type": "Feature", "properties": { "wmUplineSo": "CEDAR VALLEY", "wmType": "Underground" }, "geometry": { "type": "LineString", "coordinates": [ [ -92.951882999996897, 46.974333003553703 ], [ -92.951951999996894, 46.974181003553603 ] ] } },
{ "type": "Feature", "properties": { "wmUplineSo": "CEDAR VALLEY", "wmType": "Underground" }, "geometry": { "type": "LineString", "coordinates": [ [ -92.951951999996894, 46.974181003553603 ], [ -92.951916999996897, 46.974102003553703 ] ] } },
{ "type": "Feature", "properties": { "wmUplineSo": "CEDAR VALLEY", "wmType": "Underground" }, "geometry": { "type": "LineString", "coordinates": [ [ -92.951916999996897, 46.974102003553703 ], [ -92.9518852, 46.974042700008702 ] ] } },
{ "type": "Feature", "properties": { "wmUplineSo": "CEDAR VALLEY", "wmType": "Underground" }, "geometry": { "type": "LineString", "coordinates": [ [ -92.952799999996998, 46.975689003554102 ], [ -92.952729999997004, 46.975421003553798 ] ] } },
{ "type": "Feature", "properties": { "wmUplineSo": "CEDAR VALLEY", "wmType": "Underground" }, "geometry": { "type": "LineString", "coordinates": [ [ -92.952729999997004, 46.975421003553798 ], [ -92.952718999997003, 46.975100003553798 ] ] } },
{ "type": "Feature", "properties": { "wmUplineSo": "CEDAR VALLEY", "wmType": "Underground" }, "geometry": { "type": "LineString", "coordinates": [ [ -92.952718999997003, 46.975100003553798 ], [ -92.952723999997005, 46.974932003553903 ] ] } },
{ "type": "Feature", "properties": { "wmUplineSo": "CEDAR VALLEY", "wmType": "Underground" }, "geometry": { "type": "LineString", "coordinates": [ [ -92.911697075962707, 46.990833310407702 ], [ -92.911692059519794, 46.990816116088098 ] ] } },
{ "type": "Feature", "properties": { "wmUplineSo": "CEDAR VALLEY", "wmType": "Underground" }, "geometry": { "type": "LineString", "coordinates": [ [ -92.952723999997005, 46.974932003553903 ], [ -92.952687999996996, 46.9747280035538 ] ] } },
{ "type": "Feature", "properties": { "wmUplineSo": "CEDAR VALLEY", "wmType": "Underground" }, "geometry": { "type": "LineString", "coordinates": [ [ -92.888835806791207, 46.978206999926002 ], [ -92.889134201825797, 46.978209152479003 ] ] } },
{ "type": "Feature", "properties": { "wmUplineSo": "CEDAR VALLEY", "wmType": "Underground" }, "geometry": { "type": "LineString", "coordinates": [ [ -92.889134201825797, 46.978209152479003 ], [ -92.889505479037297, 46.9783949195552 ] ] } },
{ "type": "Feature", "properties": { "wmUplineSo": "CEDAR VALLEY", "wmType": "Underground" }, "geometry": { "type": "LineString", "coordinates": [ [ -92.889505479037297, 46.9783949195552 ], [ -92.889505049380702, 46.978422879767898 ] ] } },
{ "type": "Feature", "properties": { "wmUplineSo": "CEDAR VALLEY", "wmType": "Underground" }, "geometry": { "type": "LineString", "coordinates": [ [ -92.953148128637295, 46.990180534848903 ], [ -92.956670547241998, 46.989940103133897 ], [ -92.956670547241998, 46.989940103133897 ] ] } },
{ "type": "Feature", "properties": { "wmUplineSo": "CEDAR VALLEY", "wmType": "Underground" }, "geometry": { "type": "LineString", "coordinates": [ [ -92.953168264494195, 46.988634007765903 ], [ -92.953891712079496, 46.988276715116001 ], [ -92.953891712079496, 46.988276715116001 ] ] } },
{ "type": "Feature", "properties": { "wmUplineSo": "CEDAR VALLEY", "wmType": "Underground" }, "geometry": { "type": "LineString", "coordinates": [ [ -92.953056933763804, 46.996138003455101 ], [ -92.953091140679206, 46.996352003404098 ] ] } },
{ "type": "Feature", "properties": { "wmUplineSo": "CEDAR VALLEY", "wmType": "Underground" }, "geometry": { "type": "LineString", "coordinates": [ [ -92.953091140679206, 46.996352003404098 ], [ -92.9530850322503, 46.996671591305201 ] ] } },
{ "type": "Feature", "properties": { "wmUplineSo": "CEDAR VALLEY", "wmType": "Underground" }, "geometry": { "type": "LineString", "coordinates": [ [ -92.9530850322503, 46.996671591305201 ], [ -92.953077011167096, 46.997053109390102 ] ] } },
{ "type": "Feature", "properties": { "wmUplineSo": "CEDAR VALLEY", "wmType": "Underground" }, "geometry": { "type": "LineString", "coordinates": [ [ -92.953077011167096, 46.997053109390102 ], [ -92.953071598642097, 46.997382984855399 ] ] } },
{ "type": "Feature", "properties": { "wmUplineSo": "CEDAR VALLEY", "wmType": "Underground" }, "geometry": { "type": "LineString", "coordinates": [ [ -92.953071598642097, 46.997382984855399 ], [ -92.953072007391199, 46.997680073598801 ] ] } },
{ "type": "Feature", "properties": { "wmUplineSo": "CEDAR VALLEY", "wmType": "Underground" }, "geometry": { "type": "LineString", "coordinates": [ [ -92.953072007391199, 46.997680073598801 ], [ -92.953075940458703, 46.997997015148698 ] ] } },
{ "type": "Feature", "properties": { "wmUplineSo": "CEDAR VALLEY", "wmType": "Underground" }, "geometry": { "type": "LineString", "coordinates": [ [ -92.953075940458703, 46.997997015148698 ], [ -92.953051209486304, 46.998206288270701 ] ] } },
{ "type": "Feature", "properties": { "wmUplineSo": "CEDAR VALLEY", "wmType": "Underground" }, "geometry": { "type": "LineString", "coordinates": [ [ -92.953051209486304, 46.998206288270701 ], [ -92.953106547319805, 46.998305829060797 ] ] } },
{ "type": "Feature", "properties": { "wmUplineSo": "CEDAR VALLEY", "wmType": "Underground" }, "geometry": { "type": "LineString", "coordinates": [ [ -92.953106547319805, 46.998305829060797 ], [ -92.9530703610274, 46.998407358722801 ] ] } },
{ "type": "Feature", "properties": { "wmUplineSo": "CEDAR VALLEY", "wmType": "Underground" }, "geometry": { "type": "LineString", "coordinates": [ [ -92.9530703610274, 46.998407358722801 ], [ -92.953099403885901, 46.998937193897497 ] ] } },
{ "type": "Feature", "properties": { "wmUplineSo": "CEDAR VALLEY", "wmType": "Underground" }, "geometry": { "type": "LineString", "coordinates": [ [ -92.953099403885901, 46.998937193897497 ], [ -92.953085292809604, 46.999205089040103 ] ] } },
{ "type": "Feature", "properties": { "wmUplineSo": "CEDAR VALLEY", "wmType": "Underground" }, "geometry": { "type": "LineString", "coordinates": [ [ -92.953085292809604, 46.999205089040103 ], [ -92.953069063240505, 46.9995702281524 ] ] } },
{ "type": "Feature", "properties": { "wmUplineSo": "CEDAR VALLEY", "wmType": "Underground" }, "geometry": { "type": "LineString", "coordinates": [ [ -92.953069063240505, 46.9995702281524 ], [ -92.953073236272004, 46.999919708022802 ] ] } },
{ "type": "Feature", "properties": { "wmUplineSo": "CEDAR VALLEY", "wmType": "Underground" }, "geometry": { "type": "LineString", "coordinates": [ [ -92.953073236272004, 46.999919708022802 ], [ -92.953053106180406, 47.000486003418096 ] ] } },
{ "type": "Feature", "properties": { "wmUplineSo": "CEDAR VALLEY", "wmType": "Underground" }, "geometry": { "type": "LineString", "coordinates": [ [ -92.953053106180406, 47.000486003418096 ], [ -92.953049972113305, 47.000866003450902 ] ] } },
{ "type": "Feature", "properties": { "wmUplineSo": "CEDAR VALLEY", "wmType": "Underground" }, "geometry": { "type": "LineString", "coordinates": [ [ -92.953049972113305, 47.000866003450902 ], [ -92.953040049465699, 47.001283280973702 ] ] } },
{ "type": "Feature", "properties": { "wmUplineSo": "CEDAR VALLEY", "wmType": "Underground" }, "geometry": { "type": "LineString", "coordinates": [ [ -92.953040049465699, 47.001283280973702 ], [ -92.953009827041697, 47.001937116727603 ] ] } },
{ "type": "Feature", "properties": { "wmUplineSo": "CEDAR VALLEY", "wmType": "Underground" }, "geometry": { "type": "LineString", "coordinates": [ [ -92.953009827041697, 47.001937116727603 ], [ -92.9530409878504, 47.002493987031301 ] ] } },
{ "type": "Feature", "properties": { "wmUplineSo": "CEDAR VALLEY", "wmType": "Underground" }, "geometry": { "type": "LineString", "coordinates": [ [ -92.9530409878504, 47.002493987031301 ], [ -92.953005931781902, 47.003247885149001 ] ] } },
{ "type": "Feature", "properties": { "wmUplineSo": "CEDAR VALLEY", "wmType": "Underground" }, "geometry": { "type": "LineString", "coordinates": [ [ -92.953005931781902, 47.003247885149001 ], [ -92.952986587417101, 47.003384261262603 ] ] } },
{ "type": "Feature", "properties": { "wmUplineSo": "CEDAR VALLEY", "wmType": "Underground" }, "geometry": { "type": "LineString", "coordinates": [ [ -92.952986587417101, 47.003384261262603 ], [ -92.953390735270403, 47.003426802854698 ] ] } },
{ "type": "Feature", "properties": { "wmUplineSo": "CEDAR VALLEY", "wmType": "Underground" }, "geometry": { "type": "LineString", "coordinates": [ [ -92.953390735270403, 47.003426802854698 ], [ -92.954125938551002, 47.003523732167402 ] ] } },
{ "type": "Feature", "properties": { "wmUplineSo": "CEDAR VALLEY", "wmType": "Underground" }, "geometry": { "type": "LineString", "coordinates": [ [ -92.954125938551002, 47.003523732167402 ], [ -92.9543522520664, 47.003509248529397 ] ] } },
{ "type": "Feature", "properties": { "wmUplineSo": "CEDAR VALLEY", "wmType": "Underground" }, "geometry": { "type": "LineString", "coordinates": [ [ -92.9543522520664, 47.003509248529397 ], [ -92.9543794, 47.003444900008802 ] ] } }
]
}
