{
"type": "FeatureCollection",
"crs": { "type": "name", "properties": { "name": "urn:ogc:def:crs:OGC:1.3:CRS84" } },
"features": [
{ "type": "Feature", "properties": { "wmUplineSo": "CLEAR LAKE", "wmType": "Underground" }, "geometry": { "type": "LineString", "coordinates": [ [ -92.122597226736701, 47.8089247259771 ], [ -92.122694891143098, 47.808930826260202 ] ] } },
{ "type": "Feature", "properties": { "wmUplineSo": "CLEAR LAKE", "wmType": "Underground" }, "geometry": { "type": "LineString", "coordinates": [ [ -92.188893999945705, 47.848785003796699 ], [ -92.188847099999805, 47.848882600009702 ] ] } },
{ "type": "Feature", "properties": { "wmUplineSo": "CLEAR LAKE", "wmType": "Underground" }, "geometry": { "type": "LineString", "coordinates": [ [ -92.187536987007903, 47.843410946735901 ], [ -92.187457999999793, 47.843440900009703 ] ] } },
{ "type": "Feature", "properties": { "wmUplineSo": "CLEAR LAKE", "wmType": "Underground" }, "geometry": { "type": "LineString", "coordinates": [ [ -92.190490987000302, 47.844355946734602 ], [ -92.190576099999802, 47.844285000009698 ] ] } },
{ "type": "Feature", "properties": { "wmUplineSo": "CLEAR LAKE", "wmType": "Underground" }, "geometry": { "type": "LineString", "coordinates": [ [ -92.194639986990495, 47.843758946735697 ], [ -92.194641899999795, 47.843737400009701 ] ] } },
{ "type": "Feature", "properties": { "wmUplineSo": "CLEAR LAKE", "wmType": "Underground" }, "geometry": { "type": "LineString", "coordinates": [ [ -92.2002549869772, 47.843190946736598 ], [ -92.200249599999793, 47.843158300009698 ] ] } },
{ "type": "Feature", "properties": { "wmUplineSo": "CLEAR LAKE", "wmType": "Underground" }, "geometry": { "type": "LineString", "coordinates": [ [ -92.190767815719596, 47.844035036325501 ], [ -92.190795799999805, 47.844017800009702 ] ] } },
{ "type": "Feature", "properties": { "wmUplineSo": "CLEAR LAKE", "wmType": "Underground" }, "geometry": { "type": "LineString", "coordinates": [ [ -92.165318484597194, 47.8499201652699 ], [ -92.165366999999804, 47.849919800009701 ] ] } },
{ "type": "Feature", "properties": { "wmUplineSo": "CLEAR LAKE", "wmType": "Underground" }, "geometry": { "type": "LineString", "coordinates": [ [ -92.082729370830606, 47.790382505041102 ], [ -92.083478825067203, 47.791493386151998 ] ] } },
{ "type": "Feature", "properties": { "wmUplineSo": "CLEAR LAKE", "wmType": "Underground" }, "geometry": { "type": "LineString", "coordinates": [ [ -92.082454999938705, 47.822545003789202 ], [ -92.082364999938704, 47.822416003789002 ] ] } },
{ "type": "Feature", "properties": { "wmUplineSo": "CLEAR LAKE", "wmType": "Underground" }, "geometry": { "type": "LineString", "coordinates": [ [ -92.0826819999387, 47.823529003789403 ], [ -92.082662999938705, 47.823236003789198 ] ] } },
{ "type": "Feature", "properties": { "wmUplineSo": "CLEAR LAKE", "wmType": "Underground" }, "geometry": { "type": "LineString", "coordinates": [ [ -92.060669999937204, 47.8241130037894 ], [ -92.060645799999804, 47.8240422000097 ] ] } },
{ "type": "Feature", "properties": { "wmUplineSo": "CLEAR LAKE", "wmType": "Underground" }, "geometry": { "type": "LineString", "coordinates": [ [ -92.166829256296893, 47.850597628612199 ], [ -92.166884030918496, 47.850596992548603 ] ] } },
{ "type": "Feature", "properties": { "wmUplineSo": "CLEAR LAKE", "wmType": "Underground" }, "geometry": { "type": "LineString", "coordinates": [ [ -92.082662999938705, 47.823236003789198 ], [ -92.082610999938694, 47.822916003789203 ] ] } },
{ "type": "Feature", "properties": { "wmUplineSo": "CLEAR LAKE", "wmType": "Underground" }, "geometry": { "type": "LineString", "coordinates": [ [ -92.183660987015401, 47.846973946730898 ], [ -92.183725692406597, 47.846974603305597 ] ] } },
{ "type": "Feature", "properties": { "wmUplineSo": "CLEAR LAKE", "wmType": "Underground" }, "geometry": { "type": "LineString", "coordinates": [ [ -92.193997986992102, 47.843730946735597 ], [ -92.194323986991293, 47.843793946735701 ] ] } },
{ "type": "Feature", "properties": { "wmUplineSo": "CLEAR LAKE", "wmType": "Underground" }, "geometry": { "type": "LineString", "coordinates": [ [ -92.058654649965504, 47.859316324399998 ], [ -92.058572499999798, 47.8593283000098 ] ] } },
{ "type": "Feature", "properties": { "wmUplineSo": "CLEAR LAKE", "wmType": "Underground" }, "geometry": { "type": "LineString", "coordinates": [ [ -92.240348942866206, 47.8861132948022 ], [ -92.240140699999898, 47.885855300009801 ] ] } },
{ "type": "Feature", "properties": { "wmUplineSo": "CLEAR LAKE", "wmType": "Underground" }, "geometry": { "type": "LineString", "coordinates": [ [ -92.230047925233393, 47.882826168945797 ], [ -92.230572599999803, 47.883051700009801 ] ] } },
{ "type": "Feature", "properties": { "wmUplineSo": "CLEAR LAKE", "wmType": "Underground" }, "geometry": { "type": "LineString", "coordinates": [ [ -92.058923365066207, 47.858585112518398 ], [ -92.058913199999793, 47.858634100009802 ] ] } },
{ "type": "Feature", "properties": { "wmUplineSo": "CLEAR LAKE", "wmType": "Underground" }, "geometry": { "type": "LineString", "coordinates": [ [ -92.071324550997403, 47.845586193754301 ], [ -92.071546899999802, 47.845398800009697 ] ] } },
{ "type": "Feature", "properties": { "wmUplineSo": "CLEAR LAKE", "wmType": "Underground" }, "geometry": { "type": "LineString", "coordinates": [ [ -92.229821171121102, 47.8815287908836 ], [ -92.229559955358894, 47.8816379001561 ] ] } },
{ "type": "Feature", "properties": { "wmUplineSo": "CLEAR LAKE", "wmType": "Underground" }, "geometry": { "type": "LineString", "coordinates": [ [ -92.062003408697606, 47.850795933731199 ], [ -92.061510999999797, 47.851090600009698 ] ] } },
{ "type": "Feature", "properties": { "wmUplineSo": "CLEAR LAKE", "wmType": "Underground" }, "geometry": { "type": "LineString", "coordinates": [ [ -92.066932154006395, 47.847804276013697 ], [ -92.066771699999805, 47.847914200009697 ] ] } },
{ "type": "Feature", "properties": { "wmUplineSo": "CLEAR LAKE", "wmType": "Underground" }, "geometry": { "type": "LineString", "coordinates": [ [ -92.230378925071307, 47.881519403472403 ], [ -92.230200099999806, 47.881457500009802 ] ] } },
{ "type": "Feature", "properties": { "wmUplineSo": "CLEAR LAKE", "wmType": "Underground" }, "geometry": { "type": "LineString", "coordinates": [ [ -92.058479497136801, 47.857846961596302 ], [ -92.058633399999806, 47.857913400009799 ] ] } },
{ "type": "Feature", "properties": { "wmUplineSo": "CLEAR LAKE", "wmType": "Underground" }, "geometry": { "type": "LineString", "coordinates": [ [ -92.083478825067203, 47.791493386151998 ], [ -92.083475450153301, 47.791439656389898 ] ] } },
{ "type": "Feature", "properties": { "wmUplineSo": "CLEAR LAKE", "wmType": "Underground" }, "geometry": { "type": "LineString", "coordinates": [ [ -92.059736321287303, 47.851237301966897 ], [ -92.059883299999797, 47.851220700009698 ] ] } },
{ "type": "Feature", "properties": { "wmUplineSo": "CLEAR LAKE", "wmType": "Underground" }, "geometry": { "type": "LineString", "coordinates": [ [ -92.069539206541194, 47.846323693757697 ], [ -92.069942299999795, 47.846234000009702 ] ] } },
{ "type": "Feature", "properties": { "wmUplineSo": "CLEAR LAKE", "wmType": "Underground" }, "geometry": { "type": "LineString", "coordinates": [ [ -92.062415278653106, 47.851492422219003 ], [ -92.062534748470597, 47.851251155949498 ] ] } },
{ "type": "Feature", "properties": { "wmUplineSo": "CLEAR LAKE", "wmType": "Underground" }, "geometry": { "type": "LineString", "coordinates": [ [ -92.063103017030798, 47.851421628646598 ], [ -92.063227108861994, 47.851169108665097 ] ] } },
{ "type": "Feature", "properties": { "wmUplineSo": "CLEAR LAKE", "wmType": "Underground" }, "geometry": { "type": "LineString", "coordinates": [ [ -92.081653334763004, 47.8266501188576 ], [ -92.081466799999802, 47.826276400009696 ] ] } },
{ "type": "Feature", "properties": { "wmUplineSo": "CLEAR LAKE", "wmType": "Underground" }, "geometry": { "type": "LineString", "coordinates": [ [ -92.068859200502203, 47.846676575008502 ], [ -92.068655899999797, 47.846773900009701 ] ] } },
{ "type": "Feature", "properties": { "wmUplineSo": "CLEAR LAKE", "wmType": "Underground" }, "geometry": { "type": "LineString", "coordinates": [ [ -92.185781368652101, 47.847826831243999 ], [ -92.186047399999794, 47.847609500009703 ] ] } },
{ "type": "Feature", "properties": { "wmUplineSo": "CLEAR LAKE", "wmType": "Underground" }, "geometry": { "type": "LineString", "coordinates": [ [ -92.179093606300597, 47.851814018336498 ], [ -92.178986699999797, 47.851715600009697 ] ] } },
{ "type": "Feature", "properties": { "wmUplineSo": "CLEAR LAKE", "wmType": "Underground" }, "geometry": { "type": "LineString", "coordinates": [ [ -92.165532745873804, 47.850544985176001 ], [ -92.165417597101595, 47.850667939222298 ] ] } },
{ "type": "Feature", "properties": { "wmUplineSo": "CLEAR LAKE", "wmType": "Underground" }, "geometry": { "type": "LineString", "coordinates": [ [ -92.165318484597194, 47.8499201652699 ], [ -92.165319799999807, 47.849922000009698 ] ] } },
{ "type": "Feature", "properties": { "wmUplineSo": "CLEAR LAKE", "wmType": "Underground" }, "geometry": { "type": "LineString", "coordinates": [ [ -92.167972578131696, 47.848870322886697 ], [ -92.168215199999807, 47.848836400009702 ] ] } },
{ "type": "Feature", "properties": { "wmUplineSo": "CLEAR LAKE", "wmType": "Underground" }, "geometry": { "type": "LineString", "coordinates": [ [ -92.0578185570199, 47.8240562410327 ], [ -92.057630799999799, 47.823992200009698 ] ] } },
{ "type": "Feature", "properties": { "wmUplineSo": "CLEAR LAKE", "wmType": "Underground" }, "geometry": { "type": "LineString", "coordinates": [ [ -92.078872307544202, 47.794778944755301 ], [ -92.0789095459685, 47.794568939969402 ] ] } },
{ "type": "Feature", "properties": { "wmUplineSo": "CLEAR LAKE", "wmType": "Underground" }, "geometry": { "type": "LineString", "coordinates": [ [ -92.085141707309305, 47.791277090446798 ], [ -92.085049199999801, 47.791502500009699 ] ] } },
{ "type": "Feature", "properties": { "wmUplineSo": "CLEAR LAKE", "wmType": "Underground" }, "geometry": { "type": "LineString", "coordinates": [ [ -92.106048501913506, 47.806157722675501 ], [ -92.106178999999798, 47.806203100009697 ] ] } },
{ "type": "Feature", "properties": { "wmUplineSo": "CLEAR LAKE", "wmType": "Underground" }, "geometry": { "type": "LineString", "coordinates": [ [ -92.114561902771101, 47.808926506700402 ], [ -92.114686299999804, 47.809291000009701 ] ] } },
{ "type": "Feature", "properties": { "wmUplineSo": "CLEAR LAKE", "wmType": "Underground" }, "geometry": { "type": "LineString", "coordinates": [ [ -92.107541812273695, 47.817435118204997 ], [ -92.107128099999798, 47.817301300009703 ] ] } },
{ "type": "Feature", "properties": { "wmUplineSo": "CLEAR LAKE", "wmType": "Underground" }, "geometry": { "type": "LineString", "coordinates": [ [ -92.107541812273695, 47.817435118204997 ], [ -92.106981799999801, 47.817522940009702 ] ] } },
{ "type": "Feature", "properties": { "wmUplineSo": "CLEAR LAKE", "wmType": "Underground" }, "geometry": { "type": "LineString", "coordinates": [ [ -92.089572418088295, 47.825460894080202 ], [ -92.089856299999795, 47.825325800009701 ] ] } },
{ "type": "Feature", "properties": { "wmUplineSo": "CLEAR LAKE", "wmType": "Underground" }, "geometry": { "type": "LineString", "coordinates": [ [ -92.0578185570199, 47.8240562410327 ], [ -92.057716999999798, 47.823993200009703 ] ] } },
{ "type": "Feature", "properties": { "wmUplineSo": "CLEAR LAKE", "wmType": "Underground" }, "geometry": { "type": "LineString", "coordinates": [ [ -92.076162307978905, 47.854505785394799 ], [ -92.076026999999797, 47.8544270000097 ] ] } },
{ "type": "Feature", "properties": { "wmUplineSo": "CLEAR LAKE", "wmType": "Underground" }, "geometry": { "type": "LineString", "coordinates": [ [ -92.059097484979802, 47.851860646560901 ], [ -92.059081999999805, 47.851797100009698 ] ] } },
{ "type": "Feature", "properties": { "wmUplineSo": "CLEAR LAKE", "wmType": "Underground" }, "geometry": { "type": "LineString", "coordinates": [ [ -92.060567192524701, 47.8518916151423 ], [ -92.060556694393696, 47.851764023714502 ] ] } },
{ "type": "Feature", "properties": { "wmUplineSo": "CLEAR LAKE", "wmType": "Underground" }, "geometry": { "type": "LineString", "coordinates": [ [ -92.058558942274303, 47.8525063656 ], [ -92.058533099999806, 47.852321800009697 ] ] } },
{ "type": "Feature", "properties": { "wmUplineSo": "CLEAR LAKE", "wmType": "Underground" }, "geometry": { "type": "LineString", "coordinates": [ [ -92.055880529899994, 47.856019761168 ], [ -92.055908999999801, 47.855906800009798 ] ] } },
{ "type": "Feature", "properties": { "wmUplineSo": "CLEAR LAKE", "wmType": "Underground" }, "geometry": { "type": "LineString", "coordinates": [ [ -92.077126086884903, 47.854657637539098 ], [ -92.077167315185207, 47.854619255248899 ] ] } },
{ "type": "Feature", "properties": { "wmUplineSo": "CLEAR LAKE", "wmType": "Underground" }, "geometry": { "type": "LineString", "coordinates": [ [ -92.122381916773094, 47.808925747275502 ], [ -92.1223604999998, 47.808924800009699 ] ] } },
{ "type": "Feature", "properties": { "wmUplineSo": "CLEAR LAKE", "wmType": "Underground" }, "geometry": { "type": "LineString", "coordinates": [ [ -92.079535663759103, 47.786682503161302 ], [ -92.079501299999805, 47.787102500009702 ] ] } },
{ "type": "Feature", "properties": { "wmUplineSo": "CLEAR LAKE", "wmType": "Underground" }, "geometry": { "type": "LineString", "coordinates": [ [ -92.115078275927004, 47.808810237491997 ], [ -92.114988799999793, 47.808942100009702 ] ] } },
{ "type": "Feature", "properties": { "wmUplineSo": "CLEAR LAKE", "wmType": "Underground" }, "geometry": { "type": "LineString", "coordinates": [ [ -92.122694891143098, 47.808930826260202 ], [ -92.122691599999797, 47.808906600009699 ] ] } },
{ "type": "Feature", "properties": { "wmUplineSo": "CLEAR LAKE", "wmType": "Underground" }, "geometry": { "type": "LineString", "coordinates": [ [ -92.083478825067203, 47.791493386151998 ], [ -92.083469741589894, 47.791532855191797 ] ] } },
{ "type": "Feature", "properties": { "wmUplineSo": "CLEAR LAKE", "wmType": "Underground" }, "geometry": { "type": "LineString", "coordinates": [ [ -92.120791, 47.816605000000102 ], [ -92.120575, 47.816623 ] ] } },
{ "type": "Feature", "properties": { "wmUplineSo": "CLEAR LAKE", "wmType": "Underground" }, "geometry": { "type": "LineString", "coordinates": [ [ -92.170758619900099, 47.847942912254702 ], [ -92.170743999944406, 47.8478820037963 ] ] } },
{ "type": "Feature", "properties": { "wmUplineSo": "CLEAR LAKE", "wmType": "Underground" }, "geometry": { "type": "LineString", "coordinates": [ [ -92.165532745873804, 47.850544985176001 ], [ -92.166829256296893, 47.850597628612199 ] ] } },
{ "type": "Feature", "properties": { "wmUplineSo": "CLEAR LAKE", "wmType": "Underground" }, "geometry": { "type": "LineString", "coordinates": [ [ -92.183725692406597, 47.846974603305597 ], [ -92.183646099999805, 47.847282000009699 ] ] } },
{ "type": "Feature", "properties": { "wmUplineSo": "CLEAR LAKE", "wmType": "Underground" }, "geometry": { "type": "LineString", "coordinates": [ [ -92.082874102493406, 47.794393901659397 ], [ -92.082990799999806, 47.794336900009696 ] ] } },
{ "type": "Feature", "properties": { "wmUplineSo": "CLEAR LAKE", "wmType": "Underground" }, "geometry": { "type": "LineString", "coordinates": [ [ -92.062196881569406, 47.852545493386799 ], [ -92.0613431307045, 47.852775121158203 ] ] } },
{ "type": "Feature", "properties": { "wmUplineSo": "CLEAR LAKE", "wmType": "Underground" }, "geometry": { "type": "LineString", "coordinates": [ [ -92.082610999938694, 47.822916003789203 ], [ -92.082613128282006, 47.822889480024301 ] ] } },
{ "type": "Feature", "properties": { "wmUplineSo": "CLEAR LAKE", "wmType": "Underground" }, "geometry": { "type": "LineString", "coordinates": [ [ -92.082610999938694, 47.822916003789203 ], [ -92.082458999938694, 47.822873003788999 ] ] } },
{ "type": "Feature", "properties": { "wmUplineSo": "CLEAR LAKE", "wmType": "Underground" }, "geometry": { "type": "LineString", "coordinates": [ [ -92.114918496395006, 47.825535923902201 ], [ -92.114567595186102, 47.826102086238599 ] ] } },
{ "type": "Feature", "properties": { "wmUplineSo": "CLEAR LAKE", "wmType": "Underground" }, "geometry": { "type": "LineString", "coordinates": [ [ -92.123563692466007, 47.8088118676053 ], [ -92.123586031651399, 47.808843620900902 ] ] } },
{ "type": "Feature", "properties": { "wmUplineSo": "CLEAR LAKE", "wmType": "Underground" }, "geometry": { "type": "LineString", "coordinates": [ [ -92.060557240291104, 47.859401757844402 ], [ -92.060490213075894, 47.859355538831501 ] ] } },
{ "type": "Feature", "properties": { "wmUplineSo": "CLEAR LAKE", "wmType": "Underground" }, "geometry": { "type": "LineString", "coordinates": [ [ -92.066254081337405, 47.848256621946803 ], [ -92.066309349811903, 47.848059202892998 ], [ -92.066932154006395, 47.847804276013697 ] ] } },
{ "type": "Feature", "properties": { "wmUplineSo": "CLEAR LAKE", "wmType": "Underground" }, "geometry": { "type": "LineString", "coordinates": [ [ -92.065936715530199, 47.848454246844298 ], [ -92.066254081337405, 47.848256621946803 ] ] } },
{ "type": "Feature", "properties": { "wmUplineSo": "CLEAR LAKE", "wmType": "Underground" }, "geometry": { "type": "LineString", "coordinates": [ [ -92.230047925233393, 47.882826168945797 ], [ -92.230535552058001, 47.882627424403601 ], [ -92.230776420950605, 47.882430616310501 ], [ -92.230873984601203, 47.882074357962203 ], [ -92.230874197556105, 47.881823179514399 ], [ -92.230702667886604, 47.881669524072102 ], [ -92.230381635900699, 47.881519580615702 ], [ -92.230378925071307, 47.881519403472403 ] ] } },
{ "type": "Feature", "properties": { "wmUplineSo": "CLEAR LAKE", "wmType": "Underground" }, "geometry": { "type": "LineString", "coordinates": [ [ -92.240348942866206, 47.8861132948022 ], [ -92.240846066074099, 47.885992948143603 ], [ -92.241273667998499, 47.8855401053235 ], [ -92.241051204313493, 47.884910501951602 ], [ -92.240143697158004, 47.884306002429703 ], [ -92.238766452412506, 47.883822302568198 ], [ -92.236460173498003, 47.883304274749399 ], [ -92.234200378915801, 47.882796634315199 ], [ -92.232103728439796, 47.882732627186897 ], [ -92.230047925233393, 47.882826168945797 ] ] } },
{ "type": "Feature", "properties": { "wmUplineSo": "CLEAR LAKE", "wmType": "Underground" }, "geometry": { "type": "LineString", "coordinates": [ [ -92.230047925233393, 47.882826168945797 ], [ -92.231659210164395, 47.882909056852696 ], [ -92.232440351159298, 47.883235366851103 ], [ -92.233632388858297, 47.8835503114706 ], [ -92.233924813885693, 47.883776198292402 ], [ -92.233501535798098, 47.884024123559598 ], [ -92.233355704894507, 47.884109538868898 ] ] } },
{ "type": "Feature", "properties": { "wmUplineSo": "CLEAR LAKE", "wmType": "Underground" }, "geometry": { "type": "LineString", "coordinates": [ [ -92.060549344284894, 47.858373291521403 ], [ -92.058923365066207, 47.858585112518398 ] ] } },
{ "type": "Feature", "properties": { "wmUplineSo": "CLEAR LAKE", "wmType": "Underground" }, "geometry": { "type": "LineString", "coordinates": [ [ -92.060490213075894, 47.859355538831501 ], [ -92.058654649965504, 47.859316324399998 ] ] } },
{ "type": "Feature", "properties": { "wmUplineSo": "CLEAR LAKE", "wmType": "Underground" }, "geometry": { "type": "LineString", "coordinates": [ [ -92.060645999936995, 47.858371003799299 ], [ -92.060549344284894, 47.858373291521403 ] ] } },
{ "type": "Feature", "properties": { "wmUplineSo": "CLEAR LAKE", "wmType": "Underground" }, "geometry": { "type": "LineString", "coordinates": [ [ -92.063079221806106, 47.848190000399498 ], [ -92.063685943575095, 47.847347136466396 ] ] } },
{ "type": "Feature", "properties": { "wmUplineSo": "CLEAR LAKE", "wmType": "Underground" }, "geometry": { "type": "LineString", "coordinates": [ [ -92.191498999945793, 47.847878003796197 ], [ -92.191567112517404, 47.847911218726999 ] ] } },
{ "type": "Feature", "properties": { "wmUplineSo": "CLEAR LAKE", "wmType": "Underground" }, "geometry": { "type": "LineString", "coordinates": [ [ -92.069539206541194, 47.846323693757697 ], [ -92.071324550997403, 47.845586193754301 ] ] } },
{ "type": "Feature", "properties": { "wmUplineSo": "CLEAR LAKE", "wmType": "Underground" }, "geometry": { "type": "LineString", "coordinates": [ [ -92.062351252933993, 47.8525039722348 ], [ -92.062292315541796, 47.852437993378601 ] ] } },
{ "type": "Feature", "properties": { "wmUplineSo": "CLEAR LAKE", "wmType": "Underground" }, "geometry": { "type": "LineString", "coordinates": [ [ -92.062269835461294, 47.851970364850203 ], [ -92.062118724116601, 47.851536943502502 ], [ -92.0620513896951, 47.851431491834099 ] ] } },
{ "type": "Feature", "properties": { "wmUplineSo": "CLEAR LAKE", "wmType": "Underground" }, "geometry": { "type": "LineString", "coordinates": [ [ -92.062292315541796, 47.852437993378601 ], [ -92.062269835461294, 47.851970364850203 ] ] } },
{ "type": "Feature", "properties": { "wmUplineSo": "CLEAR LAKE", "wmType": "Underground" }, "geometry": { "type": "LineString", "coordinates": [ [ -92.062269835461294, 47.851970364850203 ], [ -92.062415278653106, 47.851492422219003 ] ] } },
{ "type": "Feature", "properties": { "wmUplineSo": "CLEAR LAKE", "wmType": "Underground" }, "geometry": { "type": "LineString", "coordinates": [ [ -92.062415278653106, 47.851492422219003 ], [ -92.063103017030798, 47.851421628646598 ] ] } },
{ "type": "Feature", "properties": { "wmUplineSo": "CLEAR LAKE", "wmType": "Underground" }, "geometry": { "type": "LineString", "coordinates": [ [ -92.066932154006395, 47.847804276013697 ], [ -92.068859200502203, 47.846676575008502 ] ] } },
{ "type": "Feature", "properties": { "wmUplineSo": "CLEAR LAKE", "wmType": "Underground" }, "geometry": { "type": "LineString", "coordinates": [ [ -92.068859200502203, 47.846676575008502 ], [ -92.069539206541194, 47.846323693757697 ] ] } },
{ "type": "Feature", "properties": { "wmUplineSo": "CLEAR LAKE", "wmType": "Underground" }, "geometry": { "type": "LineString", "coordinates": [ [ -92.241024558797406, 47.892745795792301 ], [ -92.240783159017099, 47.886819222752102 ], [ -92.240348942866206, 47.8861132948022 ] ] } },
{ "type": "Feature", "properties": { "wmUplineSo": "CLEAR LAKE", "wmType": "Underground" }, "geometry": { "type": "LineString", "coordinates": [ [ -92.241009919550507, 47.892771106046503 ], [ -92.241024558797406, 47.892745795792301 ] ] } },
{ "type": "Feature", "properties": { "wmUplineSo": "CLEAR LAKE", "wmType": "Underground" }, "geometry": { "type": "LineString", "coordinates": [ [ -92.105613566407996, 47.816997696207601 ], [ -92.106025297113604, 47.8171051421877 ] ] } },
{ "type": "Feature", "properties": { "wmUplineSo": "CLEAR LAKE", "wmType": "Underground" }, "geometry": { "type": "LineString", "coordinates": [ [ -92.106025297113604, 47.8171051421877 ], [ -92.107163077312805, 47.8173199285498 ], [ -92.107541812273695, 47.817435118204997 ] ] } },
{ "type": "Feature", "properties": { "wmUplineSo": "CLEAR LAKE", "wmType": "Underground" }, "geometry": { "type": "LineString", "coordinates": [ [ -92.090234691837694, 47.825109498489297 ], [ -92.089655718156905, 47.825105665140399 ], [ -92.089572418088295, 47.825460894080202 ] ] } },
{ "type": "Feature", "properties": { "wmUplineSo": "CLEAR LAKE", "wmType": "Underground" }, "geometry": { "type": "LineString", "coordinates": [ [ -92.0904938793215, 47.825094927566496 ], [ -92.090234691837694, 47.825109498489297 ] ] } },
{ "type": "Feature", "properties": { "wmUplineSo": "CLEAR LAKE", "wmType": "Underground" }, "geometry": { "type": "LineString", "coordinates": [ [ -92.114942999940894, 47.825473003790002 ], [ -92.114918496395006, 47.825535923902201 ] ] } },
{ "type": "Feature", "properties": { "wmUplineSo": "CLEAR LAKE", "wmType": "Underground" }, "geometry": { "type": "LineString", "coordinates": [ [ -92.179544999945094, 47.848037003796399 ], [ -92.179410327923506, 47.848261650389098 ] ] } },
{ "type": "Feature", "properties": { "wmUplineSo": "CLEAR LAKE", "wmType": "Underground" }, "geometry": { "type": "LineString", "coordinates": [ [ -92.179410327923506, 47.848261650389098 ], [ -92.179511787359004, 47.850531152247697 ], [ -92.179093606300597, 47.851814018336498 ] ] } },
{ "type": "Feature", "properties": { "wmUplineSo": "CLEAR LAKE", "wmType": "Underground" }, "geometry": { "type": "LineString", "coordinates": [ [ -92.179093606300597, 47.851814018336498 ], [ -92.167972578131696, 47.848870322886697 ] ] } },
{ "type": "Feature", "properties": { "wmUplineSo": "CLEAR LAKE", "wmType": "Underground" }, "geometry": { "type": "LineString", "coordinates": [ [ -92.167972578131696, 47.848870322886697 ], [ -92.167497557873304, 47.849645280525102 ], [ -92.166699526524198, 47.849979261168002 ], [ -92.166017371768007, 47.849995832944799 ], [ -92.165318484597194, 47.8499201652699 ] ] } },
{ "type": "Feature", "properties": { "wmUplineSo": "CLEAR LAKE", "wmType": "Underground" }, "geometry": { "type": "LineString", "coordinates": [ [ -92.165318484597194, 47.8499201652699 ], [ -92.165532745873804, 47.850544985176001 ] ] } },
{ "type": "Feature", "properties": { "wmUplineSo": "CLEAR LAKE", "wmType": "Underground" }, "geometry": { "type": "LineString", "coordinates": [ [ -92.081050171968997, 47.825485113933098 ], [ -92.081653334763004, 47.8266501188576 ] ] } },
{ "type": "Feature", "properties": { "wmUplineSo": "CLEAR LAKE", "wmType": "Underground" }, "geometry": { "type": "LineString", "coordinates": [ [ -92.058261720385204, 47.8246910383819 ], [ -92.0578185570199, 47.8240562410327 ] ] } },
{ "type": "Feature", "properties": { "wmUplineSo": "CLEAR LAKE", "wmType": "Underground" }, "geometry": { "type": "LineString", "coordinates": [ [ -92.080425703521499, 47.795405075787599 ], [ -92.079650871988406, 47.7950968822771 ], [ -92.078848612952299, 47.794936994811003 ], [ -92.078872307544202, 47.794778944755301 ] ] } },
{ "type": "Feature", "properties": { "wmUplineSo": "CLEAR LAKE", "wmType": "Underground" }, "geometry": { "type": "LineString", "coordinates": [ [ -92.083023327668002, 47.794303904055099 ], [ -92.083037275721694, 47.794234025093402 ] ] } },
{ "type": "Feature", "properties": { "wmUplineSo": "CLEAR LAKE", "wmType": "Underground" }, "geometry": { "type": "LineString", "coordinates": [ [ -92.082729370830606, 47.790382505041102 ], [ -92.083276944626704, 47.790046153184697 ], [ -92.085141707309305, 47.791277090446798 ] ] } },
{ "type": "Feature", "properties": { "wmUplineSo": "CLEAR LAKE", "wmType": "Underground" }, "geometry": { "type": "LineString", "coordinates": [ [ -92.083037275721694, 47.794234025093402 ], [ -92.083082131396907, 47.7936565480166 ], [ -92.082729370830606, 47.790382505041102 ] ] } },
{ "type": "Feature", "properties": { "wmUplineSo": "CLEAR LAKE", "wmType": "Underground" }, "geometry": { "type": "LineString", "coordinates": [ [ -92.060152426730099, 47.857149762028698 ], [ -92.059457425763497, 47.857560378016998 ], [ -92.058479497136801, 47.857846961596302 ] ] } },
{ "type": "Feature", "properties": { "wmUplineSo": "CLEAR LAKE", "wmType": "Underground" }, "geometry": { "type": "LineString", "coordinates": [ [ -92.077126086884903, 47.854657637539098 ], [ -92.076162307978905, 47.854505785394799 ] ] } },
{ "type": "Feature", "properties": { "wmUplineSo": "CLEAR LAKE", "wmType": "Underground" }, "geometry": { "type": "LineString", "coordinates": [ [ -92.120708787013399, 47.8048315772173 ], [ -92.122427568484795, 47.804996743164999 ], [ -92.124338342484506, 47.805180327190598 ], [ -92.124991944068995, 47.805243116567198 ], [ -92.125450911920396, 47.805551749454203 ] ] } },
{ "type": "Feature", "properties": { "wmUplineSo": "CLEAR LAKE", "wmType": "Underground" }, "geometry": { "type": "LineString", "coordinates": [ [ -92.0613431307045, 47.852775121158203 ], [ -92.0608109894048, 47.852691208607503 ], [ -92.060782840784995, 47.852578081330201 ] ] } },
{ "type": "Feature", "properties": { "wmUplineSo": "CLEAR LAKE", "wmType": "Underground" }, "geometry": { "type": "LineString", "coordinates": [ [ -92.059089140285593, 47.851943661158103 ], [ -92.059097484979802, 47.851860646560901 ] ] } },
{ "type": "Feature", "properties": { "wmUplineSo": "CLEAR LAKE", "wmType": "Underground" }, "geometry": { "type": "LineString", "coordinates": [ [ -92.0605321729021, 47.852571507144297 ], [ -92.060567192524701, 47.8518916151423 ] ] } },
{ "type": "Feature", "properties": { "wmUplineSo": "CLEAR LAKE", "wmType": "Underground" }, "geometry": { "type": "LineString", "coordinates": [ [ -92.0605321729021, 47.852571507144297 ], [ -92.059983350666499, 47.8525571106317 ] ] } },
{ "type": "Feature", "properties": { "wmUplineSo": "CLEAR LAKE", "wmType": "Underground" }, "geometry": { "type": "LineString", "coordinates": [ [ -92.060782840784995, 47.852578081330201 ], [ -92.0605321729021, 47.852571507144297 ] ] } },
{ "type": "Feature", "properties": { "wmUplineSo": "CLEAR LAKE", "wmType": "Underground" }, "geometry": { "type": "LineString", "coordinates": [ [ -92.059983350666499, 47.8525571106317 ], [ -92.059126171197605, 47.852523897064103 ] ] } },
{ "type": "Feature", "properties": { "wmUplineSo": "CLEAR LAKE", "wmType": "Underground" }, "geometry": { "type": "LineString", "coordinates": [ [ -92.055900268354094, 47.856620027463499 ], [ -92.055880529899994, 47.856019761168 ] ] } },
{ "type": "Feature", "properties": { "wmUplineSo": "CLEAR LAKE", "wmType": "Underground" }, "geometry": { "type": "LineString", "coordinates": [ [ -92.0774730296543, 47.8547122995408 ], [ -92.077126086884903, 47.854657637539098 ] ] } },
{ "type": "Feature", "properties": { "wmUplineSo": "CLEAR LAKE", "wmType": "Underground" }, "geometry": { "type": "LineString", "coordinates": [ [ -92.122597226736701, 47.8089247259771 ], [ -92.122381916773094, 47.808925747275502 ], [ -92.122381916773094, 47.808925747275502 ] ] } },
{ "type": "Feature", "properties": { "wmUplineSo": "CLEAR LAKE", "wmType": "Underground" }, "geometry": { "type": "LineString", "coordinates": [ [ -92.078872307544202, 47.794778944755301 ], [ -92.077907115137407, 47.794791349452098 ], [ -92.077736916335297, 47.790522380778498 ], [ -92.079535663759103, 47.786682503161302 ] ] } },
{ "type": "Feature", "properties": { "wmUplineSo": "CLEAR LAKE", "wmType": "Underground" }, "geometry": { "type": "LineString", "coordinates": [ [ -92.106303599095099, 47.805821061768803 ], [ -92.106160369217903, 47.805888209549501 ] ] } },
{ "type": "Feature", "properties": { "wmUplineSo": "CLEAR LAKE", "wmType": "Underground" }, "geometry": { "type": "LineString", "coordinates": [ [ -92.106160369217903, 47.805888209549501 ], [ -92.106186014828197, 47.806028005483903 ], [ -92.106048501913506, 47.806157722675501 ] ] } },
{ "type": "Feature", "properties": { "wmUplineSo": "CLEAR LAKE", "wmType": "Underground" }, "geometry": { "type": "LineString", "coordinates": [ [ -92.114511540102399, 47.808279009931702 ], [ -92.114540108470095, 47.808410499318498 ] ] } },
{ "type": "Feature", "properties": { "wmUplineSo": "CLEAR LAKE", "wmType": "Underground" }, "geometry": { "type": "LineString", "coordinates": [ [ -92.114540108470095, 47.808410499318498 ], [ -92.114548730730405, 47.808456537228501 ], [ -92.115078275927004, 47.808810237491997 ] ] } },
{ "type": "Feature", "properties": { "wmUplineSo": "CLEAR LAKE", "wmType": "Underground" }, "geometry": { "type": "LineString", "coordinates": [ [ -92.113722176363893, 47.808812842000201 ], [ -92.113790760004306, 47.808841965866797 ] ] } },
{ "type": "Feature", "properties": { "wmUplineSo": "CLEAR LAKE", "wmType": "Underground" }, "geometry": { "type": "LineString", "coordinates": [ [ -92.113790760004306, 47.808841965866797 ], [ -92.114031361380199, 47.808810268317004 ], [ -92.114375126069305, 47.808941920183798 ], [ -92.114561902771101, 47.808926506700402 ] ] } },
{ "type": "Feature", "properties": { "wmUplineSo": "CLEAR LAKE", "wmType": "Underground" }, "geometry": { "type": "LineString", "coordinates": [ [ -92.111160884598107, 47.810578333552598 ], [ -92.110694634334493, 47.810237973615799 ] ] } },
{ "type": "Feature", "properties": { "wmUplineSo": "CLEAR LAKE", "wmType": "Underground" }, "geometry": { "type": "LineString", "coordinates": [ [ -92.111142705631906, 47.8105550216303 ], [ -92.111160884598107, 47.810578333552598 ] ] } },
{ "type": "Feature", "properties": { "wmUplineSo": "CLEAR LAKE", "wmType": "Underground" }, "geometry": { "type": "LineString", "coordinates": [ [ -92.061495196709402, 47.855843098031698 ], [ -92.062259033153097, 47.856322666929998 ] ] } },
{ "type": "Feature", "properties": { "wmUplineSo": "CLEAR LAKE", "wmType": "Underground" }, "geometry": { "type": "LineString", "coordinates": [ [ -92.062351252933993, 47.8525039722348 ], [ -92.062196881569406, 47.852545493386799 ] ] } },
{ "type": "Feature", "properties": { "wmUplineSo": "CLEAR LAKE", "wmType": "Underground" }, "geometry": { "type": "LineString", "coordinates": [ [ -92.230378925071307, 47.881519403472403 ], [ -92.230120899132601, 47.881502542078501 ], [ -92.229821171121102, 47.8815287908836 ] ] } },
{ "type": "Feature", "properties": { "wmUplineSo": "CLEAR LAKE", "wmType": "Underground" }, "geometry": { "type": "LineString", "coordinates": [ [ -92.082458999938694, 47.822873003788999 ], [ -92.082411999938699, 47.822710003788998 ] ] } },
{ "type": "Feature", "properties": { "wmUplineSo": "CLEAR LAKE", "wmType": "Underground" }, "geometry": { "type": "LineString", "coordinates": [ [ -92.082411999938699, 47.822710003788998 ], [ -92.082454999938705, 47.822545003789202 ] ] } },
{ "type": "Feature", "properties": { "wmUplineSo": "CLEAR LAKE", "wmType": "Underground" }, "geometry": { "type": "LineString", "coordinates": [ [ -92.122494132618399, 47.808610186920397 ], [ -92.122227237471705, 47.808574875465098 ] ] } },
{ "type": "Feature", "properties": { "wmUplineSo": "CLEAR LAKE", "wmType": "Underground" }, "geometry": { "type": "LineString", "coordinates": [ [ -92.122227237471705, 47.808574875465098 ], [ -92.121488228350898, 47.808508550309497 ] ] } },
{ "type": "Feature", "properties": { "wmUplineSo": "CLEAR LAKE", "wmType": "Underground" }, "geometry": { "type": "LineString", "coordinates": [ [ -92.121488228350898, 47.808508550309497 ], [ -92.121221005628001, 47.808455159584099 ] ] } },
{ "type": "Feature", "properties": { "wmUplineSo": "CLEAR LAKE", "wmType": "Underground" }, "geometry": { "type": "LineString", "coordinates": [ [ -92.121221005628001, 47.808455159584099 ], [ -92.1209287598424, 47.808296168157199 ] ] } },
{ "type": "Feature", "properties": { "wmUplineSo": "CLEAR LAKE", "wmType": "Underground" }, "geometry": { "type": "LineString", "coordinates": [ [ -92.1209287598424, 47.808296168157199 ], [ -92.120581599482705, 47.808076991198803 ] ] } },
{ "type": "Feature", "properties": { "wmUplineSo": "CLEAR LAKE", "wmType": "Underground" }, "geometry": { "type": "LineString", "coordinates": [ [ -92.120581599482705, 47.808076991198803 ], [ -92.1204293903684, 47.8079521878268 ] ] } },
{ "type": "Feature", "properties": { "wmUplineSo": "CLEAR LAKE", "wmType": "Underground" }, "geometry": { "type": "LineString", "coordinates": [ [ -92.1204293903684, 47.8079521878268 ], [ -92.120407719936907, 47.807937458480303 ] ] } },
{ "type": "Feature", "properties": { "wmUplineSo": "CLEAR LAKE", "wmType": "Underground" }, "geometry": { "type": "LineString", "coordinates": [ [ -92.120575, 47.816623 ], [ -92.120344, 47.816471 ] ] } },
{ "type": "Feature", "properties": { "wmUplineSo": "CLEAR LAKE", "wmType": "Underground" }, "geometry": { "type": "LineString", "coordinates": [ [ -92.120344, 47.816471 ], [ -92.120314711400795, 47.816422722986999 ] ] } },
{ "type": "Feature", "properties": { "wmUplineSo": "CLEAR LAKE", "wmType": "Underground" }, "geometry": { "type": "LineString", "coordinates": [ [ -92.114567595186102, 47.826102086238599 ], [ -92.114483845617499, 47.826115002430001 ] ] } },
{ "type": "Feature", "properties": { "wmUplineSo": "CLEAR LAKE", "wmType": "Underground" }, "geometry": { "type": "LineString", "coordinates": [ [ -92.122694891143098, 47.808930826260202 ], [ -92.123073489633697, 47.808908919244601 ], [ -92.123563692466007, 47.8088118676053 ], [ -92.123563692466007, 47.8088118676053 ] ] } },
{ "type": "Feature", "properties": { "wmUplineSo": "CLEAR LAKE", "wmType": "Underground" }, "geometry": { "type": "LineString", "coordinates": [ [ -92.123563692466007, 47.8088118676053 ], [ -92.124386, 47.808673 ] ] } },
{ "type": "Feature", "properties": { "wmUplineSo": "CLEAR LAKE", "wmType": "Underground" }, "geometry": { "type": "LineString", "coordinates": [ [ -92.112355990702099, 47.807943138069803 ], [ -92.112418913599598, 47.807938047250403 ] ] } },
{ "type": "Feature", "properties": { "wmUplineSo": "CLEAR LAKE", "wmType": "Underground" }, "geometry": { "type": "LineString", "coordinates": [ [ -92.125562, 47.809184000000101 ], [ -92.125550124706393, 47.809218786334299 ] ] } },
{ "type": "Feature", "properties": { "wmUplineSo": "CLEAR LAKE", "wmType": "Underground" }, "geometry": { "type": "LineString", "coordinates": [ [ -92.111342, 47.801905 ], [ -92.11128, 47.802072000000102 ] ] } },
{ "type": "Feature", "properties": { "wmUplineSo": "CLEAR LAKE", "wmType": "Underground" }, "geometry": { "type": "LineString", "coordinates": [ [ -92.11128, 47.802072000000102 ], [ -92.111253, 47.802267 ] ] } },
{ "type": "Feature", "properties": { "wmUplineSo": "CLEAR LAKE", "wmType": "Underground" }, "geometry": { "type": "LineString", "coordinates": [ [ -92.111253, 47.802267 ], [ -92.111417, 47.802401 ] ] } },
{ "type": "Feature", "properties": { "wmUplineSo": "CLEAR LAKE", "wmType": "Underground" }, "geometry": { "type": "LineString", "coordinates": [ [ -92.111417, 47.802401 ], [ -92.111414, 47.802552 ] ] } },
{ "type": "Feature", "properties": { "wmUplineSo": "CLEAR LAKE", "wmType": "Underground" }, "geometry": { "type": "LineString", "coordinates": [ [ -92.111414, 47.802552 ], [ -92.111449741743996, 47.8025868492199 ] ] } },
{ "type": "Feature", "properties": { "wmUplineSo": "CLEAR LAKE", "wmType": "Underground" }, "geometry": { "type": "LineString", "coordinates": [ [ -92.126095150781396, 47.808606829418999 ], [ -92.126525560725298, 47.808730946327699 ] ] } },
{ "type": "Feature", "properties": { "wmUplineSo": "CLEAR LAKE", "wmType": "Underground" }, "geometry": { "type": "LineString", "coordinates": [ [ -92.126525560725298, 47.808730946327699 ], [ -92.127014, 47.808908 ] ] } },
{ "type": "Feature", "properties": { "wmUplineSo": "CLEAR LAKE", "wmType": "Underground" }, "geometry": { "type": "LineString", "coordinates": [ [ -92.127014, 47.808908 ], [ -92.127204, 47.809082 ] ] } },
{ "type": "Feature", "properties": { "wmUplineSo": "CLEAR LAKE", "wmType": "Underground" }, "geometry": { "type": "LineString", "coordinates": [ [ -92.127204, 47.809082 ], [ -92.127507, 47.809187 ] ] } },
{ "type": "Feature", "properties": { "wmUplineSo": "CLEAR LAKE", "wmType": "Underground" }, "geometry": { "type": "LineString", "coordinates": [ [ -92.127507, 47.809187 ], [ -92.127811, 47.809324000000103 ] ] } },
{ "type": "Feature", "properties": { "wmUplineSo": "CLEAR LAKE", "wmType": "Underground" }, "geometry": { "type": "LineString", "coordinates": [ [ -92.127811, 47.809324000000103 ], [ -92.128137, 47.809529 ] ] } },
{ "type": "Feature", "properties": { "wmUplineSo": "CLEAR LAKE", "wmType": "Underground" }, "geometry": { "type": "LineString", "coordinates": [ [ -92.128137, 47.809529 ], [ -92.128439, 47.809699 ] ] } },
{ "type": "Feature", "properties": { "wmUplineSo": "CLEAR LAKE", "wmType": "Underground" }, "geometry": { "type": "LineString", "coordinates": [ [ -92.128439, 47.809699 ], [ -92.128677847826296, 47.809699381386501 ] ] } },
{ "type": "Feature", "properties": { "wmUplineSo": "CLEAR LAKE", "wmType": "Underground" }, "geometry": { "type": "LineString", "coordinates": [ [ -92.128677847826296, 47.809699381386501 ], [ -92.128638553456696, 47.809711218114998 ] ] } },
{ "type": "Feature", "properties": { "wmUplineSo": "CLEAR LAKE", "wmType": "Underground" }, "geometry": { "type": "LineString", "coordinates": [ [ -92.112945, 47.802296 ], [ -92.112879, 47.802397 ] ] } },
{ "type": "Feature", "properties": { "wmUplineSo": "CLEAR LAKE", "wmType": "Underground" }, "geometry": { "type": "LineString", "coordinates": [ [ -92.112879, 47.802397 ], [ -92.112648, 47.802608 ] ] } },
{ "type": "Feature", "properties": { "wmUplineSo": "CLEAR LAKE", "wmType": "Underground" }, "geometry": { "type": "LineString", "coordinates": [ [ -92.112648, 47.802608 ], [ -92.112572, 47.802712 ] ] } },
{ "type": "Feature", "properties": { "wmUplineSo": "CLEAR LAKE", "wmType": "Underground" }, "geometry": { "type": "LineString", "coordinates": [ [ -92.112572, 47.802712 ], [ -92.112562, 47.802723 ] ] } },
{ "type": "Feature", "properties": { "wmUplineSo": "CLEAR LAKE", "wmType": "Underground" }, "geometry": { "type": "LineString", "coordinates": [ [ -92.234447002175202, 47.8798903342133 ], [ -92.234532404209304, 47.879697702488301 ] ] } },
{ "type": "Feature", "properties": { "wmUplineSo": "CLEAR LAKE", "wmType": "Underground" }, "geometry": { "type": "LineString", "coordinates": [ [ -92.234532404209304, 47.879697702488301 ], [ -92.234585, 47.879547 ] ] } },
{ "type": "Feature", "properties": { "wmUplineSo": "CLEAR LAKE", "wmType": "Underground" }, "geometry": { "type": "LineString", "coordinates": [ [ -92.234585, 47.879547 ], [ -92.234735, 47.879257 ] ] } },
{ "type": "Feature", "properties": { "wmUplineSo": "CLEAR LAKE", "wmType": "Underground" }, "geometry": { "type": "LineString", "coordinates": [ [ -92.234735, 47.879257 ], [ -92.234695, 47.879021 ] ] } },
{ "type": "Feature", "properties": { "wmUplineSo": "CLEAR LAKE", "wmType": "Underground" }, "geometry": { "type": "LineString", "coordinates": [ [ -92.234695, 47.879021 ], [ -92.235216, 47.878769 ] ] } },
{ "type": "Feature", "properties": { "wmUplineSo": "CLEAR LAKE", "wmType": "Underground" }, "geometry": { "type": "LineString", "coordinates": [ [ -92.235216, 47.878769 ], [ -92.235154868958801, 47.8786968031432 ] ] } },
{ "type": "Feature", "properties": { "wmUplineSo": "CLEAR LAKE", "wmType": "Underground" }, "geometry": { "type": "LineString", "coordinates": [ [ -92.233777822059494, 47.879851461149698 ], [ -92.233850284654807, 47.8796929562617 ] ] } },
{ "type": "Feature", "properties": { "wmUplineSo": "CLEAR LAKE", "wmType": "Underground" }, "geometry": { "type": "LineString", "coordinates": [ [ -92.233850284654807, 47.8796929562617 ], [ -92.234003149032404, 47.879845677016 ] ] } },
{ "type": "Feature", "properties": { "wmUplineSo": "CLEAR LAKE", "wmType": "Underground" }, "geometry": { "type": "LineString", "coordinates": [ [ -92.234003149032404, 47.879845677016 ], [ -92.234447002175202, 47.8798903342133 ] ] } },
{ "type": "Feature", "properties": { "wmUplineSo": "CLEAR LAKE", "wmType": "Underground" }, "geometry": { "type": "LineString", "coordinates": [ [ -92.230378925071307, 47.881519403472403 ], [ -92.231630152417395, 47.881211818132201 ] ] } },
{ "type": "Feature", "properties": { "wmUplineSo": "CLEAR LAKE", "wmType": "Underground" }, "geometry": { "type": "LineString", "coordinates": [ [ -92.231630152417395, 47.881211818132201 ], [ -92.231277364836203, 47.880763501149303 ] ] } },
{ "type": "Feature", "properties": { "wmUplineSo": "CLEAR LAKE", "wmType": "Underground" }, "geometry": { "type": "LineString", "coordinates": [ [ -92.231277364836203, 47.880763501149303 ], [ -92.230251435440707, 47.880466488049301 ] ] } },
{ "type": "Feature", "properties": { "wmUplineSo": "CLEAR LAKE", "wmType": "Underground" }, "geometry": { "type": "LineString", "coordinates": [ [ -92.230251435440707, 47.880466488049301 ], [ -92.231567492116895, 47.880588135573298 ] ] } },
{ "type": "Feature", "properties": { "wmUplineSo": "CLEAR LAKE", "wmType": "Underground" }, "geometry": { "type": "LineString", "coordinates": [ [ -92.231567492116895, 47.880588135573298 ], [ -92.233591813334002, 47.880343763662403 ] ] } },
{ "type": "Feature", "properties": { "wmUplineSo": "CLEAR LAKE", "wmType": "Underground" }, "geometry": { "type": "LineString", "coordinates": [ [ -92.233591813334002, 47.880343763662403 ], [ -92.233777822059494, 47.879851461149698 ] ] } },
{ "type": "Feature", "properties": { "wmUplineSo": "CLEAR LAKE", "wmType": "Underground" }, "geometry": { "type": "LineString", "coordinates": [ [ -92.233850284654807, 47.8796929562617 ], [ -92.233850821775803, 47.879624399831201 ] ] } },
{ "type": "Feature", "properties": { "wmUplineSo": "CLEAR LAKE", "wmType": "Underground" }, "geometry": { "type": "LineString", "coordinates": [ [ -92.124386, 47.808673 ], [ -92.124447, 47.808694 ] ] } },
{ "type": "Feature", "properties": { "wmUplineSo": "CLEAR LAKE", "wmType": "Underground" }, "geometry": { "type": "LineString", "coordinates": [ [ -92.124447, 47.808694 ], [ -92.124446, 47.808698 ] ] } },
{ "type": "Feature", "properties": { "wmUplineSo": "CLEAR LAKE", "wmType": "Underground" }, "geometry": { "type": "LineString", "coordinates": [ [ -92.124386, 47.808673 ], [ -92.124907485634694, 47.8086525189387 ], [ -92.126081311354696, 47.808582015753998 ], [ -92.126095150781396, 47.808606829418999 ] ] } },
{ "type": "Feature", "properties": { "wmUplineSo": "CLEAR LAKE", "wmType": "Underground" }, "geometry": { "type": "LineString", "coordinates": [ [ -92.124239100002896, 47.808589088125103 ], [ -92.123462849968703, 47.808753256748503 ], [ -92.123148724791093, 47.808794702638998 ], [ -92.122897184299902, 47.808737948674299 ], [ -92.122494132618399, 47.808610186920397 ] ] } },
{ "type": "Feature", "properties": { "wmUplineSo": "CLEAR LAKE", "wmType": "Underground" }, "geometry": { "type": "LineString", "coordinates": [ [ -92.122494132618399, 47.808610186920397 ], [ -92.122599, 47.8086610000001 ] ] } },
{ "type": "Feature", "properties": { "wmUplineSo": "CLEAR LAKE", "wmType": "Underground" }, "geometry": { "type": "LineString", "coordinates": [ [ -92.122599, 47.8086610000001 ], [ -92.122816, 47.808643 ] ] } },
{ "type": "Feature", "properties": { "wmUplineSo": "CLEAR LAKE", "wmType": "Underground" }, "geometry": { "type": "LineString", "coordinates": [ [ -92.122816, 47.808643 ], [ -92.122838, 47.8086330000001 ] ] } },
{ "type": "Feature", "properties": { "wmUplineSo": "CLEAR LAKE", "wmType": "Underground" }, "geometry": { "type": "LineString", "coordinates": [ [ -92.122838, 47.8086330000001 ], [ -92.1228503951737, 47.808584267360601 ] ] } },
{ "type": "Feature", "properties": { "wmUplineSo": "CLEAR LAKE", "wmType": "Underground" }, "geometry": { "type": "LineString", "coordinates": [ [ -92.122494132618399, 47.808610186920397 ], [ -92.122482647228907, 47.808803628933397 ], [ -92.122597226736701, 47.8089247259771 ] ] } },
{ "type": "Feature", "properties": { "wmUplineSo": "CLEAR LAKE", "wmType": "Underground" }, "geometry": { "type": "LineString", "coordinates": [ [ -92.125686386614404, 47.8084305272398 ], [ -92.1256473853541, 47.808411704528098 ], [ -92.125496726889196, 47.808474173703701 ], [ -92.124677993916805, 47.8084943817137 ], [ -92.124239100002896, 47.808589088125103 ] ] } },
{ "type": "Feature", "properties": { "wmUplineSo": "CLEAR LAKE", "wmType": "Underground" }, "geometry": { "type": "LineString", "coordinates": [ [ -92.126095150781396, 47.808606829418999 ], [ -92.12557, 47.808638 ] ] } },
{ "type": "Feature", "properties": { "wmUplineSo": "CLEAR LAKE", "wmType": "Underground" }, "geometry": { "type": "LineString", "coordinates": [ [ -92.12557, 47.808638 ], [ -92.125426, 47.808823 ] ] } },
{ "type": "Feature", "properties": { "wmUplineSo": "CLEAR LAKE", "wmType": "Underground" }, "geometry": { "type": "LineString", "coordinates": [ [ -92.125426, 47.808823 ], [ -92.125497, 47.8090550000001 ] ] } },
{ "type": "Feature", "properties": { "wmUplineSo": "CLEAR LAKE", "wmType": "Underground" }, "geometry": { "type": "LineString", "coordinates": [ [ -92.125497, 47.8090550000001 ], [ -92.125562, 47.809184000000101 ] ] } },
{ "type": "Feature", "properties": { "wmUplineSo": "CLEAR LAKE", "wmType": "Underground" }, "geometry": { "type": "LineString", "coordinates": [ [ -92.060645999936995, 47.858371003799299 ], [ -92.060629999937007, 47.858377003799099 ] ] } },
{ "type": "Feature", "properties": { "wmUplineSo": "CLEAR LAKE", "wmType": "Underground" }, "geometry": { "type": "LineString", "coordinates": [ [ -92.060629999937007, 47.858377003799099 ], [ -92.060655999936998, 47.858634003799303 ] ] } },
{ "type": "Feature", "properties": { "wmUplineSo": "CLEAR LAKE", "wmType": "Underground" }, "geometry": { "type": "LineString", "coordinates": [ [ -92.060655999936998, 47.858634003799303 ], [ -92.060971999936996, 47.858635003799201 ] ] } },
{ "type": "Feature", "properties": { "wmUplineSo": "CLEAR LAKE", "wmType": "Underground" }, "geometry": { "type": "LineString", "coordinates": [ [ -92.060971999936996, 47.858635003799201 ], [ -92.061025670053894, 47.858621139196899 ] ] } },
{ "type": "Feature", "properties": { "wmUplineSo": "CLEAR LAKE", "wmType": "Underground" }, "geometry": { "type": "LineString", "coordinates": [ [ -92.121542, 47.816435999999896 ], [ -92.121142, 47.816472 ] ] } },
{ "type": "Feature", "properties": { "wmUplineSo": "CLEAR LAKE", "wmType": "Underground" }, "geometry": { "type": "LineString", "coordinates": [ [ -92.059126171197605, 47.852523897064103 ], [ -92.059089140285593, 47.851943661158103 ] ] } },
{ "type": "Feature", "properties": { "wmUplineSo": "CLEAR LAKE", "wmType": "Underground" }, "geometry": { "type": "LineString", "coordinates": [ [ -92.059126171197605, 47.852523897064103 ], [ -92.058558942274303, 47.8525063656 ] ] } },
{ "type": "Feature", "properties": { "wmUplineSo": "CLEAR LAKE", "wmType": "Underground" }, "geometry": { "type": "LineString", "coordinates": [ [ -92.0620513896951, 47.851431491834099 ], [ -92.061917294558398, 47.851221485592497 ], [ -92.062003408697606, 47.850795933731199 ] ] } },
{ "type": "Feature", "properties": { "wmUplineSo": "CLEAR LAKE", "wmType": "Underground" }, "geometry": { "type": "LineString", "coordinates": [ [ -92.059097484979802, 47.851860646560901 ], [ -92.058899557372996, 47.851821476658202 ], [ -92.058952403335098, 47.851547886371002 ], [ -92.059540474927999, 47.851313402475398 ], [ -92.059736321287303, 47.851237301966897 ] ] } },
{ "type": "Feature", "properties": { "wmUplineSo": "CLEAR LAKE", "wmType": "Underground" }, "geometry": { "type": "LineString", "coordinates": [ [ -92.121142, 47.816472 ], [ -92.120791, 47.816605000000102 ] ] } },
{ "type": "Feature", "properties": { "wmUplineSo": "CLEAR LAKE", "wmType": "Underground" }, "geometry": { "type": "LineString", "coordinates": [ [ -92.185781368652101, 47.847826831243999 ], [ -92.186560384513598, 47.847797798834698 ], [ -92.187088254579393, 47.847962793318601 ], [ -92.187521756179294, 47.8481443949238 ], [ -92.188146071898601, 47.848160329812501 ], [ -92.188533370575598, 47.848013330771501 ], [ -92.188669886715203, 47.8480373321215 ], [ -92.188898015561904, 47.8487703528263 ], [ -92.188893999945705, 47.848785003796699 ] ] } },
{ "type": "Feature", "properties": { "wmUplineSo": "CLEAR LAKE", "wmType": "Underground" }, "geometry": { "type": "LineString", "coordinates": [ [ -92.188893999945705, 47.848785003796699 ], [ -92.188839999945699, 47.848629003796702 ] ] } },
{ "type": "Feature", "properties": { "wmUplineSo": "CLEAR LAKE", "wmType": "Underground" }, "geometry": { "type": "LineString", "coordinates": [ [ -92.188839999945699, 47.848629003796702 ], [ -92.1886709999457, 47.848033003796402 ] ] } },
{ "type": "Feature", "properties": { "wmUplineSo": "CLEAR LAKE", "wmType": "Underground" }, "geometry": { "type": "LineString", "coordinates": [ [ -92.1886709999457, 47.848033003796402 ], [ -92.188813999945694, 47.847993003796397 ] ] } },
{ "type": "Feature", "properties": { "wmUplineSo": "CLEAR LAKE", "wmType": "Underground" }, "geometry": { "type": "LineString", "coordinates": [ [ -92.188813999945694, 47.847993003796397 ], [ -92.189435999945701, 47.848180003796401 ] ] } },
{ "type": "Feature", "properties": { "wmUplineSo": "CLEAR LAKE", "wmType": "Underground" }, "geometry": { "type": "LineString", "coordinates": [ [ -92.189435999945701, 47.848180003796401 ], [ -92.1897909999457, 47.848190003796397 ] ] } },
{ "type": "Feature", "properties": { "wmUplineSo": "CLEAR LAKE", "wmType": "Underground" }, "geometry": { "type": "LineString", "coordinates": [ [ -92.1897909999457, 47.848190003796397 ], [ -92.190162999945798, 47.8481350037965 ] ] } },
{ "type": "Feature", "properties": { "wmUplineSo": "CLEAR LAKE", "wmType": "Underground" }, "geometry": { "type": "LineString", "coordinates": [ [ -92.190162999945798, 47.8481350037965 ], [ -92.190626999945806, 47.848019003796402 ] ] } },
{ "type": "Feature", "properties": { "wmUplineSo": "CLEAR LAKE", "wmType": "Underground" }, "geometry": { "type": "LineString", "coordinates": [ [ -92.190626999945806, 47.848019003796402 ], [ -92.190845999945793, 47.847926003796303 ] ] } },
{ "type": "Feature", "properties": { "wmUplineSo": "CLEAR LAKE", "wmType": "Underground" }, "geometry": { "type": "LineString", "coordinates": [ [ -92.190845999945793, 47.847926003796303 ], [ -92.191353999945804, 47.8478120037962 ] ] } },
{ "type": "Feature", "properties": { "wmUplineSo": "CLEAR LAKE", "wmType": "Underground" }, "geometry": { "type": "LineString", "coordinates": [ [ -92.191353999945804, 47.8478120037962 ], [ -92.191498999945793, 47.847878003796197 ] ] } },
{ "type": "Feature", "properties": { "wmUplineSo": "CLEAR LAKE", "wmType": "Underground" }, "geometry": { "type": "LineString", "coordinates": [ [ -92.134189987134903, 47.847572946728498 ], [ -92.134027, 47.847403 ] ] } },
{ "type": "Feature", "properties": { "wmUplineSo": "CLEAR LAKE", "wmType": "Underground" }, "geometry": { "type": "LineString", "coordinates": [ [ -92.125450911920396, 47.805551749454203 ], [ -92.125600099999801, 47.805522500009701 ] ] } },
{ "type": "Feature", "properties": { "wmUplineSo": "CLEAR LAKE", "wmType": "Underground" }, "geometry": { "type": "LineString", "coordinates": [ [ -92.125450911920396, 47.805551749454203 ], [ -92.125801876310604, 47.805787751730598 ], [ -92.125733823683206, 47.807178847284803 ], [ -92.125686386614404, 47.8084305272398 ] ] } },
{ "type": "Feature", "properties": { "wmUplineSo": "CLEAR LAKE", "wmType": "Underground" }, "geometry": { "type": "LineString", "coordinates": [ [ -92.157318999943598, 47.8422790037948 ], [ -92.157290399999795, 47.8422805000097 ] ] } },
{ "type": "Feature", "properties": { "wmUplineSo": "CLEAR LAKE", "wmType": "Underground" }, "geometry": { "type": "LineString", "coordinates": [ [ -92.157318999943598, 47.8422790037948 ], [ -92.157274599999795, 47.842322000009702 ] ] } },
{ "type": "Feature", "properties": { "wmUplineSo": "CLEAR LAKE", "wmType": "Underground" }, "geometry": { "type": "LineString", "coordinates": [ [ -92.060635999937205, 47.825093003789704 ], [ -92.060679999937193, 47.824981003789802 ] ] } },
{ "type": "Feature", "properties": { "wmUplineSo": "CLEAR LAKE", "wmType": "Underground" }, "geometry": { "type": "LineString", "coordinates": [ [ -92.060679999937193, 47.824981003789802 ], [ -92.060780999937194, 47.8248330037896 ] ] } },
{ "type": "Feature", "properties": { "wmUplineSo": "CLEAR LAKE", "wmType": "Underground" }, "geometry": { "type": "LineString", "coordinates": [ [ -92.060780999937194, 47.8248330037896 ], [ -92.060912999937202, 47.824576003789701 ] ] } },
{ "type": "Feature", "properties": { "wmUplineSo": "CLEAR LAKE", "wmType": "Underground" }, "geometry": { "type": "LineString", "coordinates": [ [ -92.060912999937202, 47.824576003789701 ], [ -92.060700999937197, 47.824362003789503 ] ] } },
{ "type": "Feature", "properties": { "wmUplineSo": "CLEAR LAKE", "wmType": "Underground" }, "geometry": { "type": "LineString", "coordinates": [ [ -92.060700999937197, 47.824362003789503 ], [ -92.060535999937201, 47.824192003789499 ] ] } },
{ "type": "Feature", "properties": { "wmUplineSo": "CLEAR LAKE", "wmType": "Underground" }, "geometry": { "type": "LineString", "coordinates": [ [ -92.060535999937201, 47.824192003789499 ], [ -92.060669999937204, 47.8241130037894 ] ] } },
{ "type": "Feature", "properties": { "wmUplineSo": "CLEAR LAKE", "wmType": "Underground" }, "geometry": { "type": "LineString", "coordinates": [ [ -92.194323986991293, 47.843793946735701 ], [ -92.194639986990495, 47.843758946735697 ] ] } },
{ "type": "Feature", "properties": { "wmUplineSo": "CLEAR LAKE", "wmType": "Underground" }, "geometry": { "type": "LineString", "coordinates": [ [ -92.194639986990495, 47.843758946735697 ], [ -92.195436986988696, 47.843538946735897 ] ] } },
{ "type": "Feature", "properties": { "wmUplineSo": "CLEAR LAKE", "wmType": "Underground" }, "geometry": { "type": "LineString", "coordinates": [ [ -92.195436986988696, 47.843538946735897 ], [ -92.195586986988303, 47.843549946735997 ] ] } },
{ "type": "Feature", "properties": { "wmUplineSo": "CLEAR LAKE", "wmType": "Underground" }, "geometry": { "type": "LineString", "coordinates": [ [ -92.195586986988303, 47.843549946735997 ], [ -92.195589406458794, 47.843548927586603 ], [ -92.195814518397697, 47.843418934248 ], [ -92.195899774511503, 47.843403326294997 ], [ -92.195936356626405, 47.843332728539004 ], [ -92.195940986987594, 47.8433319467362 ] ] } },
{ "type": "Feature", "properties": { "wmUplineSo": "CLEAR LAKE", "wmType": "Underground" }, "geometry": { "type": "LineString", "coordinates": [ [ -92.195940986987594, 47.8433319467362 ], [ -92.197819986982793, 47.843716946735697 ] ] } },
{ "type": "Feature", "properties": { "wmUplineSo": "CLEAR LAKE", "wmType": "Underground" }, "geometry": { "type": "LineString", "coordinates": [ [ -92.197819986982793, 47.843716946735697 ], [ -92.199401986978998, 47.843831946735698 ] ] } },
{ "type": "Feature", "properties": { "wmUplineSo": "CLEAR LAKE", "wmType": "Underground" }, "geometry": { "type": "LineString", "coordinates": [ [ -92.199401986978998, 47.843831946735698 ], [ -92.199449703122596, 47.843692254744902 ] ] } },
{ "type": "Feature", "properties": { "wmUplineSo": "CLEAR LAKE", "wmType": "Underground" }, "geometry": { "type": "LineString", "coordinates": [ [ -92.199449703122596, 47.843692254744902 ], [ -92.199577383106103, 47.843610640429397 ] ] } },
{ "type": "Feature", "properties": { "wmUplineSo": "CLEAR LAKE", "wmType": "Underground" }, "geometry": { "type": "LineString", "coordinates": [ [ -92.199577383106103, 47.843610640429397 ], [ -92.199773986978201, 47.843487946736097 ] ] } },
{ "type": "Feature", "properties": { "wmUplineSo": "CLEAR LAKE", "wmType": "Underground" }, "geometry": { "type": "LineString", "coordinates": [ [ -92.199773986978201, 47.843487946736097 ], [ -92.200342986976906, 47.843306946736597 ] ] } },
{ "type": "Feature", "properties": { "wmUplineSo": "CLEAR LAKE", "wmType": "Underground" }, "geometry": { "type": "LineString", "coordinates": [ [ -92.200342986976906, 47.843306946736597 ], [ -92.2002549869772, 47.843190946736598 ] ] } },
{ "type": "Feature", "properties": { "wmUplineSo": "CLEAR LAKE", "wmType": "Underground" }, "geometry": { "type": "LineString", "coordinates": [ [ -92.169751362942606, 47.842454654431201 ], [ -92.171738157394799, 47.842035510278997 ] ] } },
{ "type": "Feature", "properties": { "wmUplineSo": "CLEAR LAKE", "wmType": "Underground" }, "geometry": { "type": "LineString", "coordinates": [ [ -92.171738157394799, 47.842035510278997 ], [ -92.172126987045701, 47.842562946736599 ] ] } },
{ "type": "Feature", "properties": { "wmUplineSo": "CLEAR LAKE", "wmType": "Underground" }, "geometry": { "type": "LineString", "coordinates": [ [ -92.172126987045701, 47.842562946736599 ], [ -92.172750034234795, 47.842529254510303 ] ] } },
{ "type": "Feature", "properties": { "wmUplineSo": "CLEAR LAKE", "wmType": "Underground" }, "geometry": { "type": "LineString", "coordinates": [ [ -92.172750034234795, 47.842529254510303 ], [ -92.174007617954999, 47.842425192031698 ] ] } },
{ "type": "Feature", "properties": { "wmUplineSo": "CLEAR LAKE", "wmType": "Underground" }, "geometry": { "type": "LineString", "coordinates": [ [ -92.174007617954999, 47.842425192031698 ], [ -92.174880727521995, 47.842494642560702 ] ] } },
{ "type": "Feature", "properties": { "wmUplineSo": "CLEAR LAKE", "wmType": "Underground" }, "geometry": { "type": "LineString", "coordinates": [ [ -92.174880727521995, 47.842494642560702 ], [ -92.176903965674398, 47.842534916465503 ] ] } },
{ "type": "Feature", "properties": { "wmUplineSo": "CLEAR LAKE", "wmType": "Underground" }, "geometry": { "type": "LineString", "coordinates": [ [ -92.176903965674398, 47.842534916465503 ], [ -92.178072979650807, 47.842634152374501 ] ] } },
{ "type": "Feature", "properties": { "wmUplineSo": "CLEAR LAKE", "wmType": "Underground" }, "geometry": { "type": "LineString", "coordinates": [ [ -92.178072979650807, 47.842634152374501 ], [ -92.1790789993929, 47.842693694683398 ] ] } },
{ "type": "Feature", "properties": { "wmUplineSo": "CLEAR LAKE", "wmType": "Underground" }, "geometry": { "type": "LineString", "coordinates": [ [ -92.1790789993929, 47.842693694683398 ], [ -92.180064297590704, 47.843248544669102 ] ] } },
{ "type": "Feature", "properties": { "wmUplineSo": "CLEAR LAKE", "wmType": "Underground" }, "geometry": { "type": "LineString", "coordinates": [ [ -92.180064297590704, 47.843248544669102 ], [ -92.182024456616006, 47.843787617954 ] ] } },
{ "type": "Feature", "properties": { "wmUplineSo": "CLEAR LAKE", "wmType": "Underground" }, "geometry": { "type": "LineString", "coordinates": [ [ -92.182024456616006, 47.843787617954 ], [ -92.182449558045704, 47.843792558286999 ] ] } },
{ "type": "Feature", "properties": { "wmUplineSo": "CLEAR LAKE", "wmType": "Underground" }, "geometry": { "type": "LineString", "coordinates": [ [ -92.182449558045704, 47.843792558286999 ], [ -92.183552385988506, 47.8434960259899 ] ] } },
{ "type": "Feature", "properties": { "wmUplineSo": "CLEAR LAKE", "wmType": "Underground" }, "geometry": { "type": "LineString", "coordinates": [ [ -92.183552385988506, 47.8434960259899 ], [ -92.184836987111893, 47.843338153798399 ] ] } },
{ "type": "Feature", "properties": { "wmUplineSo": "CLEAR LAKE", "wmType": "Underground" }, "geometry": { "type": "LineString", "coordinates": [ [ -92.184836987111893, 47.843338153798399 ], [ -92.185638184915803, 47.843479427987702 ] ] } },
{ "type": "Feature", "properties": { "wmUplineSo": "CLEAR LAKE", "wmType": "Underground" }, "geometry": { "type": "LineString", "coordinates": [ [ -92.185638184915803, 47.843479427987702 ], [ -92.186439987010303, 47.843940946735202 ] ] } },
{ "type": "Feature", "properties": { "wmUplineSo": "CLEAR LAKE", "wmType": "Underground" }, "geometry": { "type": "LineString", "coordinates": [ [ -92.186439987010303, 47.843940946735202 ], [ -92.186139987010904, 47.844033946734903 ] ] } },
{ "type": "Feature", "properties": { "wmUplineSo": "CLEAR LAKE", "wmType": "Underground" }, "geometry": { "type": "LineString", "coordinates": [ [ -92.186139987010904, 47.844033946734903 ], [ -92.186101987010701, 47.8446759467341 ] ] } },
{ "type": "Feature", "properties": { "wmUplineSo": "CLEAR LAKE", "wmType": "Underground" }, "geometry": { "type": "LineString", "coordinates": [ [ -92.186101987010701, 47.8446759467341 ], [ -92.184908987013401, 47.844963946733799 ] ] } },
{ "type": "Feature", "properties": { "wmUplineSo": "CLEAR LAKE", "wmType": "Underground" }, "geometry": { "type": "LineString", "coordinates": [ [ -92.184908987013401, 47.844963946733799 ], [ -92.184902770248399, 47.8449694075642 ], [ -92.184318021777898, 47.845163924568503 ], [ -92.184133859218605, 47.845286711395502 ], [ -92.184070076575395, 47.845322347337401 ], [ -92.184013682007702, 47.845368614748502 ], [ -92.183909094250495, 47.845450791793603 ], [ -92.183852699407197, 47.845497059123602 ], [ -92.1838043027808, 47.845538216041298 ], [ -92.183691512629693, 47.845630750567601 ], [ -92.183621220207101, 47.845834299837399 ], [ -92.183619389523102, 47.845881525527197 ], [ -92.183619987016101, 47.845892946732398 ] ] } },
{ "type": "Feature", "properties": { "wmUplineSo": "CLEAR LAKE", "wmType": "Underground" }, "geometry": { "type": "LineString", "coordinates": [ [ -92.183619987016101, 47.845892946732398 ], [ -92.183770987015293, 47.8467279467311 ] ] } },
{ "type": "Feature", "properties": { "wmUplineSo": "CLEAR LAKE", "wmType": "Underground" }, "geometry": { "type": "LineString", "coordinates": [ [ -92.183770987015293, 47.8467279467311 ], [ -92.183660987015401, 47.846973946730898 ] ] } },
{ "type": "Feature", "properties": { "wmUplineSo": "CLEAR LAKE", "wmType": "Underground" }, "geometry": { "type": "LineString", "coordinates": [ [ -92.183660987015401, 47.846973946730898 ], [ -92.183649731972196, 47.8469986135703 ], [ -92.183658510516594, 47.847004839507903 ], [ -92.183667289063095, 47.847011065445201 ], [ -92.183667053854904, 47.8470171330517 ], [ -92.183675832404504, 47.847023358987997 ], [ -92.183684610956007, 47.847029584923597 ], [ -92.183684375749806, 47.847035652530103 ], [ -92.183693389509699, 47.8470358108586 ], [ -92.183693154304393, 47.847041878465099 ], [ -92.183701697656701, 47.847054172005997 ], [ -92.183710241012903, 47.8470664655459 ], [ -92.183719019575605, 47.847072691478999 ], [ -92.183718549170493, 47.8470848266915 ], [ -92.183727327737202, 47.847091052623703 ], [ -92.183727092535506, 47.847097120229897 ], [ -92.183744649676996, 47.847109572092499 ], [ -92.183744179277298, 47.8471217073049 ], [ -92.183752722654205, 47.8471340008414 ], [ -92.183752487455195, 47.8471400684477 ], [ -92.183761030836905, 47.847152361983298 ], [ -92.183760560440703, 47.847164497195301 ], [ -92.183769574222495, 47.847164655518199 ], [ -92.183769103828098, 47.847176790730302 ], [ -92.183768633433502, 47.847188925942099 ], [ -92.183777412023105, 47.847195151870402 ], [ -92.183785955419395, 47.847207445403903 ], [ -92.183794498819594, 47.847219738936403 ], [ -92.183819658660198, 47.847268754741798 ], [ -92.183836745499704, 47.8472933418008 ], [ -92.183836510309604, 47.847299409406403 ], [ -92.183836275119404, 47.847305477012199 ], [ -92.183845053736206, 47.847311702934803 ], [ -92.183844818547001, 47.8473177705404 ], [ -92.183853832354998, 47.847317928856803 ], [ -92.183853597166703, 47.8473239964624 ], [ -92.183862375788607, 47.847330222383597 ], [ -92.183862140601207, 47.847336289989201 ], [ -92.183861905413806, 47.847342357594798 ], [ -92.183870919226095, 47.847342515909602 ], [ -92.183879697852902, 47.847348741829599 ], [ -92.183879462667505, 47.847354809435203 ], [ -92.183888241297396, 47.847361035354297 ], [ -92.183897019929404, 47.847367261273 ], [ -92.183896784745798, 47.847373328878298 ], [ -92.183896549562206, 47.847379396483902 ], [ -92.183905563380804, 47.847379554796298 ], [ -92.1839143420178, 47.847385780713402 ], [ -92.183914106836099, 47.8473918483188 ], [ -92.183922885476207, 47.847398074235301 ], [ -92.1839226502955, 47.847404141840897 ], [ -92.183931664118305, 47.847404300150998 ], [ -92.183940442762506, 47.847410526066099 ], [ -92.183940207583703, 47.847416593671603 ], [ -92.183949221408696, 47.847416751980603 ], [ -92.183948986230902, 47.847422819586001 ], [ -92.183948751052995, 47.847428887191498 ], [ -92.183957764880105, 47.847429045499801 ], [ -92.183957529703207, 47.847435113105298 ], [ -92.183957294526195, 47.847441180710703 ], [ -92.183966308355394, 47.847441339018403 ], [ -92.183975322184693, 47.847441497325399 ], [ -92.183974851834705, 47.847453632536102 ], [ -92.183974616659597, 47.8474597001413 ], [ -92.183992409151401, 47.8474660843588 ], [ -92.183992173978297, 47.847472151964098 ], [ -92.184000952640702, 47.847478377874602 ], [ -92.184009966476296, 47.847478536178897 ], [ -92.184018745141898, 47.847484762087703 ], [ -92.184027523809405, 47.847490987995997 ], [ -92.184027288640195, 47.847497055601302 ], [ -92.1840360673107, 47.8475032815088 ], [ -92.184035832142399, 47.847509349114198 ], [ -92.184053154325298, 47.847527868532701 ], [ -92.184062168169504, 47.847528026832897 ], [ -92.184070711684697, 47.847540320343001 ], [ -92.184079490367495, 47.847546546247202 ], [ -92.184079255203898, 47.8475526138524 ], [ -92.184088033889793, 47.847558839755997 ], [ -92.184096812577593, 47.847565065658699 ], [ -92.184123148653597, 47.847583743363003 ], [ -92.184122913494704, 47.847589810968202 ], [ -92.1841407060477, 47.847596195162701 ], [ -92.184140470890895, 47.847602262767602 ], [ -92.184158263450101, 47.847608646959401 ], [ -92.184158028295201, 47.8476147145646 ], [ -92.184184364417106, 47.847633392254799 ], [ -92.184193378279502, 47.847633550544799 ], [ -92.184202156992001, 47.8476397764395 ], [ -92.184201921841904, 47.8476458440446 ], [ -92.184210935706503, 47.847646002333498 ], [ -92.184228493141703, 47.847658454119603 ], [ -92.184237507008504, 47.847658612406399 ], [ -92.184246285730197, 47.847664838297497 ], [ -92.184255299598107, 47.847664996582999 ], [ -92.184255064454007, 47.847671064188198 ], [ -92.1842730921921, 47.847671380757099 ], [ -92.184290414510002, 47.847689900138697 ], [ -92.184299428382204, 47.847690058420703 ], [ -92.184317220989797, 47.847696442588003 ], [ -92.184325999727093, 47.847702668473303 ], [ -92.1843440274762, 47.847702985031397 ], [ -92.184353041350903, 47.847703143309303 ], [ -92.184352806217703, 47.847709210914402 ], [ -92.1843618200935, 47.847709369191797 ], [ -92.184370833969297, 47.847709527468297 ], [ -92.184379612715006, 47.847715753349497 ], [ -92.184397405340803, 47.847722137504498 ], [ -92.184406419218803, 47.847722295778397 ], [ -92.1844061840916, 47.847728363383702 ], [ -92.184415197970694, 47.847728521656897 ], [ -92.184424211849901, 47.847728679929503 ], [ -92.184442004485305, 47.847735064077597 ], [ -92.184450783243605, 47.847741289953397 ], [ -92.184468811006496, 47.847741606492299 ], [ -92.184477589768903, 47.847747832365997 ], [ -92.184495382417097, 47.847754216506203 ], [ -92.184504396300895, 47.847754374772499 ], [ -92.184513175069597, 47.847760600643603 ], [ -92.184522188954404, 47.8477607589084 ], [ -92.184521953840303, 47.847766826513698 ], [ -92.184530967726204, 47.847766984778197 ], [ -92.184530732613098, 47.847773052383502 ], [ -92.184539746500107, 47.847773210646999 ], [ -92.184548760387202, 47.847773368910097 ], [ -92.184557774274396, 47.8477735271725 ], [ -92.184575566940694, 47.8477799113003 ], [ -92.184584580829096, 47.847780069560599 ], [ -92.184593594717498, 47.847780227820202 ], [ -92.1846026086059, 47.847780386079002 ], [ -92.184611387390405, 47.847786611942396 ], [ -92.18462040128, 47.847786770199903 ], [ -92.184629415169596, 47.847786928456898 ], [ -92.184647442949, 47.847787244968401 ], [ -92.184647207848997, 47.847793312573899 ], [ -92.184665235630703, 47.847793629082602 ], [ -92.184674014424601, 47.847799854941499 ], [ -92.184683028316698, 47.847800013194103 ], [ -92.184692042208695, 47.847800171446202 ], [ -92.184701056100806, 47.847800329697698 ], [ -92.184710069993002, 47.847800487948099 ], [ -92.184709834900005, 47.847806555553603 ], [ -92.184718848793295, 47.8478067138036 ], [ -92.1847278626866, 47.847806872052999 ], [ -92.184736876580004, 47.847807030301603 ], [ -92.184754669279002, 47.847813414401998 ], [ -92.1847636831735, 47.847813572648597 ], [ -92.184763448086599, 47.847819640254201 ], [ -92.184772461982206, 47.847819798499998 ], [ -92.184781475877898, 47.847819956745198 ], [ -92.184790489773604, 47.847820114989602 ], [ -92.184799503669396, 47.847820273233602 ], [ -92.184808517565202, 47.847820431476599 ], [ -92.184817296380302, 47.847826657324703 ], [ -92.184826310277302, 47.8478268155663 ], [ -92.1848443380714, 47.847827132047698 ], [ -92.184862365865598, 47.847827448526303 ], [ -92.184862130789895, 47.847833516132098 ], [ -92.184871144688202, 47.847833674370499 ], [ -92.184880158586495, 47.847833832607897 ], [ -92.184889172484802, 47.847833990844897 ], [ -92.184897951311598, 47.847840216686798 ], [ -92.184915979110599, 47.847840533157303 ], [ -92.184934006909899, 47.847840849624902 ], [ -92.184943020809598, 47.847841007857703 ], [ -92.184961048609196, 47.847841324321301 ], [ -92.184979076408993, 47.847841640781901 ], [ -92.1849878552474, 47.8478478666173 ], [ -92.185005883049598, 47.8478481830739 ], [ -92.185023910851996, 47.8478484995277 ], [ -92.185041938654606, 47.847848815978701 ], [ -92.185068745306594, 47.847855358256403 ], [ -92.185086773111706, 47.847855674700597 ], [ -92.185095787014404, 47.847855832921603 ], [ -92.1851138148199, 47.847856149361597 ], [ -92.185131842625694, 47.847856465798998 ], [ -92.185140856528605, 47.847856624016799 ], [ -92.185158884334598, 47.847856940450001 ], [ -92.185176912140903, 47.847857256880303 ], [ -92.185194939947294, 47.847857573308097 ], [ -92.185203953850703, 47.847857731521003 ], [ -92.185212967753998, 47.847857889732801 ], [ -92.1852309955609, 47.847858206155202 ], [ -92.185249023368002, 47.847858522574498 ], [ -92.185258037271595, 47.847858680783098 ], [ -92.185276065079094, 47.8478589971985 ], [ -92.185294092886707, 47.847859313611004 ], [ -92.185303106790599, 47.847859471816001 ], [ -92.185312120694604, 47.847859630020601 ], [ -92.185321134598595, 47.847859788224497 ], [ -92.185339162406706, 47.847860104630001 ], [ -92.185348176310896, 47.847860262831702 ], [ -92.1853571902152, 47.847860421032799 ], [ -92.185375218023793, 47.847860737432903 ], [ -92.185384231928097, 47.847860895631797 ], [ -92.1853932458326, 47.847861053830101 ], [ -92.1854024947515, 47.847855144421203 ], [ -92.185411508654894, 47.847855302618001 ], [ -92.185429536462195, 47.8478556190097 ], [ -92.185438550365802, 47.847855777204401 ], [ -92.185447564269595, 47.847855935398698 ], [ -92.185456578173302, 47.847856093592199 ], [ -92.185474605981099, 47.847856409976899 ], [ -92.185483619885005, 47.847856568168403 ], [ -92.185492633788996, 47.847856726359097 ], [ -92.185501647693101, 47.847856884549103 ], [ -92.185501882696101, 47.847850816942099 ], [ -92.185510896599197, 47.847850975131401 ], [ -92.185519910502407, 47.847851133320198 ], [ -92.185528924405503, 47.8478512915081 ], [ -92.185537938308798, 47.847851449695199 ], [ -92.185546952212107, 47.847851607881701 ], [ -92.185555966115402, 47.8478517660674 ], [ -92.185564980018796, 47.847851924252701 ], [ -92.185573993922304, 47.847852082437001 ], [ -92.185583007825798, 47.847852240620902 ], [ -92.185592021729306, 47.8478523988041 ], [ -92.185601035632999, 47.847852556986297 ], [ -92.185619063440399, 47.847852873349098 ], [ -92.185628077344106, 47.847853031529198 ], [ -92.185637091247997, 47.8478531897089 ], [ -92.185646105151903, 47.847853347887799 ], [ -92.185655119055795, 47.847853506066102 ], [ -92.185655354041401, 47.847847438458899 ], [ -92.185673381847295, 47.8478477548135 ], [ -92.185682395750405, 47.8478479129896 ], [ -92.1856914096536, 47.847848071164897 ], [ -92.185700423556696, 47.847848229339597 ], [ -92.185709672439302, 47.847842319906597 ], [ -92.185718686341602, 47.847842478079798 ], [ -92.185727700243902, 47.847842636252601 ], [ -92.185736714146302, 47.8478427944247 ], [ -92.185745728048701, 47.847842952595798 ], [ -92.1857547419512, 47.847843110766497 ], [ -92.185772769756298, 47.847843427105701 ], [ -92.185781368652101, 47.847826831243999 ] ] } },
{ "type": "Feature", "properties": { "wmUplineSo": "CLEAR LAKE", "wmType": "Underground" }, "geometry": { "type": "LineString", "coordinates": [ [ -92.186439987010303, 47.843940946735202 ], [ -92.186449893552705, 47.843957364920499 ], [ -92.186929485987307, 47.843819448253903 ], [ -92.187668925250406, 47.843732644960298 ], [ -92.187527971590598, 47.8434175614982 ], [ -92.187536987007903, 47.843410946735901 ] ] } },
{ "type": "Feature", "properties": { "wmUplineSo": "CLEAR LAKE", "wmType": "Underground" }, "geometry": { "type": "LineString", "coordinates": [ [ -92.187536987007903, 47.843410946735901 ], [ -92.187552526786902, 47.843421317702301 ], [ -92.187709190947004, 47.843713396949802 ], [ -92.188394761263297, 47.843742042769101 ], [ -92.189359747343602, 47.8436990896002 ], [ -92.190255674083701, 47.843781294281499 ], [ -92.190683576358495, 47.843702319192197 ], [ -92.190728824180397, 47.844065607897498 ], [ -92.190677883778406, 47.844154278382298 ] ] } },
{ "type": "Feature", "properties": { "wmUplineSo": "CLEAR LAKE", "wmType": "Underground" }, "geometry": { "type": "LineString", "coordinates": [ [ -92.190677883778406, 47.844154278382298 ], [ -92.1906758611714, 47.844157799069002 ], [ -92.190511790265901, 47.844184857509198 ], [ -92.190592634998694, 47.844266088667403 ], [ -92.190480814588497, 47.8443472723241 ], [ -92.190490987000302, 47.844355946734602 ] ] } },
{ "type": "Feature", "properties": { "wmUplineSo": "CLEAR LAKE", "wmType": "Underground" }, "geometry": { "type": "LineString", "coordinates": [ [ -92.190490987000302, 47.844355946734602 ], [ -92.190563466534797, 47.844312762293598 ], [ -92.190617127682302, 47.844273146571403 ], [ -92.190558844509297, 47.844194109166601 ], [ -92.190701401432506, 47.844175183903303 ], [ -92.190767118778794, 47.844033319480502 ], [ -92.190767815719596, 47.844035036325501 ] ] } },
{ "type": "Feature", "properties": { "wmUplineSo": "CLEAR LAKE", "wmType": "Underground" }, "geometry": { "type": "LineString", "coordinates": [ [ -92.190767815719596, 47.844035036325501 ], [ -92.190770697294695, 47.844026247692902 ], [ -92.190808707225202, 47.843963060488598 ], [ -92.190749017398801, 47.843666697245602 ], [ -92.190752195946303, 47.843673625583499 ] ] } },
{ "type": "Feature", "properties": { "wmUplineSo": "CLEAR LAKE", "wmType": "Underground" }, "geometry": { "type": "LineString", "coordinates": [ [ -92.190752195946303, 47.843673625583499 ], [ -92.191486467647593, 47.843528508981002 ] ] } },
{ "type": "Feature", "properties": { "wmUplineSo": "CLEAR LAKE", "wmType": "Underground" }, "geometry": { "type": "LineString", "coordinates": [ [ -92.191486467647593, 47.843528508981002 ], [ -92.1917469869977, 47.843504946735898 ] ] } },
{ "type": "Feature", "properties": { "wmUplineSo": "CLEAR LAKE", "wmType": "Underground" }, "geometry": { "type": "LineString", "coordinates": [ [ -92.1917469869977, 47.843504946735898 ], [ -92.192134286492703, 47.843489959243698 ] ] } },
{ "type": "Feature", "properties": { "wmUplineSo": "CLEAR LAKE", "wmType": "Underground" }, "geometry": { "type": "LineString", "coordinates": [ [ -92.192134286492703, 47.843489959243698 ], [ -92.192375986996097, 47.843479946735897 ] ] } },
{ "type": "Feature", "properties": { "wmUplineSo": "CLEAR LAKE", "wmType": "Underground" }, "geometry": { "type": "LineString", "coordinates": [ [ -92.192375986996097, 47.843479946735897 ], [ -92.193447986993505, 47.843657946735703 ] ] } },
{ "type": "Feature", "properties": { "wmUplineSo": "CLEAR LAKE", "wmType": "Underground" }, "geometry": { "type": "LineString", "coordinates": [ [ -92.193447986993505, 47.843657946735703 ], [ -92.193867986992402, 47.843759946735503 ] ] } },
{ "type": "Feature", "properties": { "wmUplineSo": "CLEAR LAKE", "wmType": "Underground" }, "geometry": { "type": "LineString", "coordinates": [ [ -92.193867986992402, 47.843759946735503 ], [ -92.193997986992102, 47.843730946735597 ] ] } }
]
}
