{
"type": "FeatureCollection",
"crs": { "type": "name", "properties": { "name": "urn:ogc:def:crs:OGC:1.3:CRS84" } },
"features": [
{ "type": "Feature", "properties": { "wmUplineSo": "COHASSET", "wmType": "Underground" }, "geometry": { "type": "LineString", "coordinates": [ [ -93.606809918858602, 47.246490463871801 ], [ -93.606071315335498, 47.246382711777201 ] ] } },
{ "type": "Feature", "properties": { "wmUplineSo": "COHASSET", "wmType": "Underground" }, "geometry": { "type": "LineString", "coordinates": [ [ -93.607253318522297, 47.2468633344807 ], [ -93.607351307630395, 47.246626636306701 ] ] } },
{ "type": "Feature", "properties": { "wmUplineSo": "COHASSET", "wmType": "Underground" }, "geometry": { "type": "LineString", "coordinates": [ [ -93.608231490041803, 47.247074819547798 ], [ -93.607253318522297, 47.2468633344807 ] ] } },
{ "type": "Feature", "properties": { "wmUplineSo": "COHASSET", "wmType": "Underground" }, "geometry": { "type": "LineString", "coordinates": [ [ -93.633565686096006, 47.253267116731401 ], [ -93.633106431788306, 47.252963007343602 ], [ -93.631967952334193, 47.2526485678912 ] ] } },
{ "type": "Feature", "properties": { "wmUplineSo": "COHASSET", "wmType": "Underground" }, "geometry": { "type": "LineString", "coordinates": [ [ -93.619090983932693, 47.2429809476195 ], [ -93.618383145670293, 47.242961725523898 ] ] } },
{ "type": "Feature", "properties": { "wmUplineSo": "COHASSET", "wmType": "Underground" }, "geometry": { "type": "LineString", "coordinates": [ [ -93.624669049181705, 47.249328550808102 ], [ -93.625153219187595, 47.2499892832559 ] ] } },
{ "type": "Feature", "properties": { "wmUplineSo": "COHASSET", "wmType": "Underground" }, "geometry": { "type": "LineString", "coordinates": [ [ -93.635435520857897, 47.2688733518509 ], [ -93.634683838465307, 47.2688365568224 ] ] } },
{ "type": "Feature", "properties": { "wmUplineSo": "COHASSET", "wmType": "Underground" }, "geometry": { "type": "LineString", "coordinates": [ [ -93.635435520857897, 47.2688733518509 ], [ -93.6354553790312, 47.266660248442001 ] ] } },
{ "type": "Feature", "properties": { "wmUplineSo": "COHASSET", "wmType": "Underground" }, "geometry": { "type": "LineString", "coordinates": [ [ -93.619491495992506, 47.235766888024799 ], [ -93.619627125632505, 47.235749842341498 ] ] } },
{ "type": "Feature", "properties": { "wmUplineSo": "COHASSET", "wmType": "Underground" }, "geometry": { "type": "LineString", "coordinates": [ [ -93.625158870665601, 47.253194114878497 ], [ -93.6246627265444, 47.252982403828902 ] ] } },
{ "type": "Feature", "properties": { "wmUplineSo": "COHASSET", "wmType": "Underground" }, "geometry": { "type": "LineString", "coordinates": [ [ -93.628414037674204, 47.252832397346097 ], [ -93.628299694027604, 47.2533535071342 ] ] } },
{ "type": "Feature", "properties": { "wmUplineSo": "COHASSET", "wmType": "Underground" }, "geometry": { "type": "LineString", "coordinates": [ [ -93.606071315335498, 47.246382711777201 ], [ -93.606418640394395, 47.246134671985502 ] ] } },
{ "type": "Feature", "properties": { "wmUplineSo": "COHASSET", "wmType": "Underground" }, "geometry": { "type": "LineString", "coordinates": [ [ -93.606418640394395, 47.246134671985502 ], [ -93.606159467607597, 47.245850343091099 ] ] } },
{ "type": "Feature", "properties": { "wmUplineSo": "COHASSET", "wmType": "Underground" }, "geometry": { "type": "LineString", "coordinates": [ [ -93.619187702159905, 47.242240194451398 ], [ -93.619534600000094, 47.242171600009002 ] ] } },
{ "type": "Feature", "properties": { "wmUplineSo": "COHASSET", "wmType": "Underground" }, "geometry": { "type": "LineString", "coordinates": [ [ -93.613017, 47.243242 ], [ -93.612784, 47.242958 ] ] } },
{ "type": "Feature", "properties": { "wmUplineSo": "COHASSET", "wmType": "Underground" }, "geometry": { "type": "LineString", "coordinates": [ [ -93.609727259013994, 47.247327126394097 ], [ -93.609092835881697, 47.247245752080502 ], [ -93.608231490041803, 47.247074819547798 ] ] } },
{ "type": "Feature", "properties": { "wmUplineSo": "COHASSET", "wmType": "Underground" }, "geometry": { "type": "LineString", "coordinates": [ [ -93.612784, 47.242958 ], [ -93.610172, 47.241938 ] ] } },
{ "type": "Feature", "properties": { "wmUplineSo": "COHASSET", "wmType": "Underground" }, "geometry": { "type": "LineString", "coordinates": [ [ -93.613258949393895, 47.2436545026885 ], [ -93.61306, 47.243415 ] ] } },
{ "type": "Feature", "properties": { "wmUplineSo": "COHASSET", "wmType": "Underground" }, "geometry": { "type": "LineString", "coordinates": [ [ -93.61306, 47.243415 ], [ -93.613017, 47.243242 ] ] } },
{ "type": "Feature", "properties": { "wmUplineSo": "COHASSET", "wmType": "Underground" }, "geometry": { "type": "LineString", "coordinates": [ [ -93.617216928065304, 47.251582075323498 ], [ -93.617264327375395, 47.251564004892003 ] ] } },
{ "type": "Feature", "properties": { "wmUplineSo": "COHASSET", "wmType": "Underground" }, "geometry": { "type": "LineString", "coordinates": [ [ -93.625645932775896, 47.252137917180598 ], [ -93.625614400000103, 47.252254100008997 ] ] } },
{ "type": "Feature", "properties": { "wmUplineSo": "COHASSET", "wmType": "Underground" }, "geometry": { "type": "LineString", "coordinates": [ [ -93.625158870665601, 47.253194114878497 ], [ -93.625645932775896, 47.252137917180598 ] ] } },
{ "type": "Feature", "properties": { "wmUplineSo": "COHASSET", "wmType": "Underground" }, "geometry": { "type": "LineString", "coordinates": [ [ -93.615363583596306, 47.248013342196899 ], [ -93.615256000038002, 47.248194003628797 ] ] } },
{ "type": "Feature", "properties": { "wmUplineSo": "COHASSET", "wmType": "Underground" }, "geometry": { "type": "LineString", "coordinates": [ [ -93.615172000038001, 47.248385003628698 ], [ -93.614954600000104, 47.248337100009003 ] ] } },
{ "type": "Feature", "properties": { "wmUplineSo": "COHASSET", "wmType": "Underground" }, "geometry": { "type": "LineString", "coordinates": [ [ -93.615250000038003, 47.248353003628701 ], [ -93.615172000038001, 47.248385003628698 ] ] } },
{ "type": "Feature", "properties": { "wmUplineSo": "COHASSET", "wmType": "Underground" }, "geometry": { "type": "LineString", "coordinates": [ [ -93.615256000038002, 47.248194003628797 ], [ -93.615250000038003, 47.248353003628701 ] ] } },
{ "type": "Feature", "properties": { "wmUplineSo": "COHASSET", "wmType": "Underground" }, "geometry": { "type": "LineString", "coordinates": [ [ -93.618191000038195, 47.2413270036269 ], [ -93.617833000038203, 47.241370003626699 ] ] } },
{ "type": "Feature", "properties": { "wmUplineSo": "COHASSET", "wmType": "Underground" }, "geometry": { "type": "LineString", "coordinates": [ [ -93.617833000038203, 47.241370003626699 ], [ -93.617907685278695, 47.241821896733398 ] ] } },
{ "type": "Feature", "properties": { "wmUplineSo": "COHASSET", "wmType": "Underground" }, "geometry": { "type": "LineString", "coordinates": [ [ -93.617907685278695, 47.241821896733398 ], [ -93.616225422048203, 47.2418698255075 ] ] } },
{ "type": "Feature", "properties": { "wmUplineSo": "COHASSET", "wmType": "Underground" }, "geometry": { "type": "LineString", "coordinates": [ [ -93.616225422048203, 47.2418698255075 ], [ -93.615369627807397, 47.241872520090297 ] ] } },
{ "type": "Feature", "properties": { "wmUplineSo": "COHASSET", "wmType": "Underground" }, "geometry": { "type": "LineString", "coordinates": [ [ -93.635212145686907, 47.269650576121897 ], [ -93.635786169067103, 47.269587441901898 ] ] } },
{ "type": "Feature", "properties": { "wmUplineSo": "COHASSET", "wmType": "Underground" }, "geometry": { "type": "LineString", "coordinates": [ [ -93.635786169067103, 47.269587441901898 ], [ -93.635435520857897, 47.2688733518509 ] ] } },
{ "type": "Feature", "properties": { "wmUplineSo": "COHASSET", "wmType": "Underground" }, "geometry": { "type": "LineString", "coordinates": [ [ -93.619187725353896, 47.242350890283497 ], [ -93.619487000000106, 47.242512000009 ] ] } },
{ "type": "Feature", "properties": { "wmUplineSo": "COHASSET", "wmType": "Underground" }, "geometry": { "type": "LineString", "coordinates": [ [ -93.620534634287907, 47.235628372763699 ], [ -93.6228511241072, 47.235183348139003 ] ] } },
{ "type": "Feature", "properties": { "wmUplineSo": "COHASSET", "wmType": "Underground" }, "geometry": { "type": "LineString", "coordinates": [ [ -93.620534634287907, 47.235628372763699 ], [ -93.620608187191607, 47.235561889588404 ] ] } },
{ "type": "Feature", "properties": { "wmUplineSo": "COHASSET", "wmType": "Underground" }, "geometry": { "type": "LineString", "coordinates": [ [ -93.631581880388396, 47.252252242601003 ], [ -93.631616400000098, 47.251953000009003 ] ] } },
{ "type": "Feature", "properties": { "wmUplineSo": "COHASSET", "wmType": "Underground" }, "geometry": { "type": "LineString", "coordinates": [ [ -93.631581880388396, 47.252252242601003 ], [ -93.631559100000104, 47.251991800009002 ] ] } },
{ "type": "Feature", "properties": { "wmUplineSo": "COHASSET", "wmType": "Underground" }, "geometry": { "type": "LineString", "coordinates": [ [ -93.628414037674204, 47.252832397346097 ], [ -93.628144300000102, 47.252228300009001 ] ] } },
{ "type": "Feature", "properties": { "wmUplineSo": "COHASSET", "wmType": "Underground" }, "geometry": { "type": "LineString", "coordinates": [ [ -93.626589323200307, 47.253060822774202 ], [ -93.626755300000099, 47.252478300009003 ] ] } },
{ "type": "Feature", "properties": { "wmUplineSo": "COHASSET", "wmType": "Underground" }, "geometry": { "type": "LineString", "coordinates": [ [ -93.623676868484395, 47.255171131072899 ], [ -93.623482300000106, 47.255177800009001 ] ] } },
{ "type": "Feature", "properties": { "wmUplineSo": "COHASSET", "wmType": "Underground" }, "geometry": { "type": "LineString", "coordinates": [ [ -93.625092400593203, 47.254073780483097 ], [ -93.625069900000099, 47.254130000008999 ] ] } },
{ "type": "Feature", "properties": { "wmUplineSo": "COHASSET", "wmType": "Underground" }, "geometry": { "type": "LineString", "coordinates": [ [ -93.625645932775896, 47.252137917180598 ], [ -93.625908800000104, 47.252076800009 ] ] } },
{ "type": "Feature", "properties": { "wmUplineSo": "COHASSET", "wmType": "Underground" }, "geometry": { "type": "LineString", "coordinates": [ [ -93.610172, 47.241938 ], [ -93.609971000000101, 47.241824300009 ] ] } },
{ "type": "Feature", "properties": { "wmUplineSo": "COHASSET", "wmType": "Underground" }, "geometry": { "type": "LineString", "coordinates": [ [ -93.617907685278695, 47.241821896733398 ], [ -93.618251100000094, 47.242249600009004 ] ] } },
{ "type": "Feature", "properties": { "wmUplineSo": "COHASSET", "wmType": "Underground" }, "geometry": { "type": "LineString", "coordinates": [ [ -93.616056372803499, 47.241672363161904 ], [ -93.615733100000099, 47.241552100009002 ] ] } },
{ "type": "Feature", "properties": { "wmUplineSo": "COHASSET", "wmType": "Underground" }, "geometry": { "type": "LineString", "coordinates": [ [ -93.617399426434801, 47.236359577088102 ], [ -93.616941300000093, 47.236513800009 ] ] } },
{ "type": "Feature", "properties": { "wmUplineSo": "COHASSET", "wmType": "Underground" }, "geometry": { "type": "LineString", "coordinates": [ [ -93.617770771620997, 47.235248510285501 ], [ -93.617478100000099, 47.235876100009001 ] ] } },
{ "type": "Feature", "properties": { "wmUplineSo": "COHASSET", "wmType": "Underground" }, "geometry": { "type": "LineString", "coordinates": [ [ -93.617770771620997, 47.235248510285501 ], [ -93.617638953558, 47.235048838548302 ] ] } },
{ "type": "Feature", "properties": { "wmUplineSo": "COHASSET", "wmType": "Underground" }, "geometry": { "type": "LineString", "coordinates": [ [ -93.6228511241072, 47.235183348139003 ], [ -93.623162900000096, 47.235056400009 ] ] } },
{ "type": "Feature", "properties": { "wmUplineSo": "COHASSET", "wmType": "Underground" }, "geometry": { "type": "LineString", "coordinates": [ [ -93.619858980923098, 47.251370388614902 ], [ -93.6196719000001, 47.251752500008998 ] ] } },
{ "type": "Feature", "properties": { "wmUplineSo": "COHASSET", "wmType": "Underground" }, "geometry": { "type": "LineString", "coordinates": [ [ -93.619858980923098, 47.251370388614902 ], [ -93.619923200000102, 47.251084600009001 ] ] } },
{ "type": "Feature", "properties": { "wmUplineSo": "COHASSET", "wmType": "Underground" }, "geometry": { "type": "LineString", "coordinates": [ [ -93.617258081354393, 47.254625353109603 ], [ -93.617413117928194, 47.254637472215201 ] ] } },
{ "type": "Feature", "properties": { "wmUplineSo": "COHASSET", "wmType": "Underground" }, "geometry": { "type": "LineString", "coordinates": [ [ -93.617204030593498, 47.249615437627398 ], [ -93.617471884525102, 47.249413636903903 ] ] } },
{ "type": "Feature", "properties": { "wmUplineSo": "COHASSET", "wmType": "Underground" }, "geometry": { "type": "LineString", "coordinates": [ [ -93.617211368146002, 47.250163812773003 ], [ -93.617307351199997, 47.250294248364803 ] ] } },
{ "type": "Feature", "properties": { "wmUplineSo": "COHASSET", "wmType": "Underground" }, "geometry": { "type": "LineString", "coordinates": [ [ -93.617211368146002, 47.250163812773003 ], [ -93.616422349731096, 47.250447345849203 ] ] } },
{ "type": "Feature", "properties": { "wmUplineSo": "COHASSET", "wmType": "Underground" }, "geometry": { "type": "LineString", "coordinates": [ [ -93.617226704550305, 47.250894763184 ], [ -93.6173562705428, 47.2512964601991 ] ] } },
{ "type": "Feature", "properties": { "wmUplineSo": "COHASSET", "wmType": "Underground" }, "geometry": { "type": "LineString", "coordinates": [ [ -93.617226704550305, 47.250894763184 ], [ -93.617415837421206, 47.250909102604297 ] ] } },
{ "type": "Feature", "properties": { "wmUplineSo": "COHASSET", "wmType": "Underground" }, "geometry": { "type": "LineString", "coordinates": [ [ -93.617252967801406, 47.252584927851601 ], [ -93.617524263015994, 47.252581160691498 ] ] } },
{ "type": "Feature", "properties": { "wmUplineSo": "COHASSET", "wmType": "Underground" }, "geometry": { "type": "LineString", "coordinates": [ [ -93.617257717276004, 47.252949138091203 ], [ -93.617577260715606, 47.252973460846299 ] ] } },
{ "type": "Feature", "properties": { "wmUplineSo": "COHASSET", "wmType": "Underground" }, "geometry": { "type": "LineString", "coordinates": [ [ -93.617258081354393, 47.254625353109603 ], [ -93.617418771413, 47.254614604274003 ] ] } },
{ "type": "Feature", "properties": { "wmUplineSo": "COHASSET", "wmType": "Underground" }, "geometry": { "type": "LineString", "coordinates": [ [ -93.617251236261296, 47.253745561501603 ], [ -93.617718300000107, 47.254128900009 ] ] } },
{ "type": "Feature", "properties": { "wmUplineSo": "COHASSET", "wmType": "Underground" }, "geometry": { "type": "LineString", "coordinates": [ [ -93.617251236261296, 47.253745561501603 ], [ -93.617628600000103, 47.2536601000091 ] ] } },
{ "type": "Feature", "properties": { "wmUplineSo": "COHASSET", "wmType": "Underground" }, "geometry": { "type": "LineString", "coordinates": [ [ -93.617251236261296, 47.253745561501603 ], [ -93.616828600000105, 47.253845100009002 ] ] } },
{ "type": "Feature", "properties": { "wmUplineSo": "COHASSET", "wmType": "Underground" }, "geometry": { "type": "LineString", "coordinates": [ [ -93.622626204378903, 47.251047486096802 ], [ -93.623131600000093, 47.250934100008998 ] ] } },
{ "type": "Feature", "properties": { "wmUplineSo": "COHASSET", "wmType": "Underground" }, "geometry": { "type": "LineString", "coordinates": [ [ -93.618004522821593, 47.248562196348999 ], [ -93.618157900000099, 47.248240800009 ] ] } },
{ "type": "Feature", "properties": { "wmUplineSo": "COHASSET", "wmType": "Underground" }, "geometry": { "type": "LineString", "coordinates": [ [ -93.609428480582693, 47.248487083728399 ], [ -93.609284300000098, 47.249139300008999 ] ] } },
{ "type": "Feature", "properties": { "wmUplineSo": "COHASSET", "wmType": "Underground" }, "geometry": { "type": "LineString", "coordinates": [ [ -93.607880775481306, 47.248240359502503 ], [ -93.607714311372007, 47.248396233317301 ] ] } },
{ "type": "Feature", "properties": { "wmUplineSo": "COHASSET", "wmType": "Underground" }, "geometry": { "type": "LineString", "coordinates": [ [ -93.618383145670293, 47.242961725523898 ], [ -93.618204300000102, 47.242958000008997 ] ] } },
{ "type": "Feature", "properties": { "wmUplineSo": "COHASSET", "wmType": "Underground" }, "geometry": { "type": "LineString", "coordinates": [ [ -93.625153219187595, 47.2499892832559 ], [ -93.625418700000097, 47.250072300009002 ] ] } },
{ "type": "Feature", "properties": { "wmUplineSo": "COHASSET", "wmType": "Underground" }, "geometry": { "type": "LineString", "coordinates": [ [ -93.622044408055004, 47.248141126489301 ], [ -93.621965600000095, 47.248240500008997 ] ] } },
{ "type": "Feature", "properties": { "wmUplineSo": "COHASSET", "wmType": "Underground" }, "geometry": { "type": "LineString", "coordinates": [ [ -93.606159467607597, 47.245850343091099 ], [ -93.6061811000001, 47.245805000009 ] ] } },
{ "type": "Feature", "properties": { "wmUplineSo": "COHASSET", "wmType": "Underground" }, "geometry": { "type": "LineString", "coordinates": [ [ -93.607253318522297, 47.2468633344807 ], [ -93.607261600000101, 47.246948000008999 ] ] } },
{ "type": "Feature", "properties": { "wmUplineSo": "COHASSET", "wmType": "Underground" }, "geometry": { "type": "LineString", "coordinates": [ [ -93.607351307630395, 47.246626636306701 ], [ -93.607612100000097, 47.246424800009002 ] ] } },
{ "type": "Feature", "properties": { "wmUplineSo": "COHASSET", "wmType": "Underground" }, "geometry": { "type": "LineString", "coordinates": [ [ -93.608231490041803, 47.247074819547798 ], [ -93.608423000000101, 47.247264600008997 ] ] } },
{ "type": "Feature", "properties": { "wmUplineSo": "COHASSET", "wmType": "Underground" }, "geometry": { "type": "LineString", "coordinates": [ [ -93.607351307630395, 47.246626636306701 ], [ -93.607968300000095, 47.246449800009003 ] ] } },
{ "type": "Feature", "properties": { "wmUplineSo": "COHASSET", "wmType": "Underground" }, "geometry": { "type": "LineString", "coordinates": [ [ -93.608231490041803, 47.247074819547798 ], [ -93.608625600000096, 47.246813100009 ] ] } },
{ "type": "Feature", "properties": { "wmUplineSo": "COHASSET", "wmType": "Underground" }, "geometry": { "type": "LineString", "coordinates": [ [ -93.615369627807397, 47.241872520090297 ], [ -93.614771100000098, 47.242065000008999 ] ] } },
{ "type": "Feature", "properties": { "wmUplineSo": "COHASSET", "wmType": "Underground" }, "geometry": { "type": "LineString", "coordinates": [ [ -93.617216928065304, 47.251582075323498 ], [ -93.616317570503398, 47.251502257454398 ] ] } },
{ "type": "Feature", "properties": { "wmUplineSo": "COHASSET", "wmType": "Underground" }, "geometry": { "type": "LineString", "coordinates": [ [ -93.618928557343907, 47.250496199992199 ], [ -93.618421, 47.250548600008997 ] ] } },
{ "type": "Feature", "properties": { "wmUplineSo": "COHASSET", "wmType": "Underground" }, "geometry": { "type": "LineString", "coordinates": [ [ -93.618480511218806, 47.244959137795497 ], [ -93.618389800000102, 47.244963900008997 ] ] } },
{ "type": "Feature", "properties": { "wmUplineSo": "COHASSET", "wmType": "Underground" }, "geometry": { "type": "LineString", "coordinates": [ [ -93.607351307630395, 47.246626636306701 ], [ -93.606809918858602, 47.246490463871801 ] ] } },
{ "type": "Feature", "properties": { "wmUplineSo": "COHASSET", "wmType": "Underground" }, "geometry": { "type": "LineString", "coordinates": [ [ -93.619581806953903, 47.235604797443202 ], [ -93.620534634287907, 47.235628372763699 ] ] } },
{ "type": "Feature", "properties": { "wmUplineSo": "COHASSET", "wmType": "Underground" }, "geometry": { "type": "LineString", "coordinates": [ [ -93.619581806953903, 47.235604797443202 ], [ -93.619491495992506, 47.235766888024799 ] ] } },
{ "type": "Feature", "properties": { "wmUplineSo": "COHASSET", "wmType": "Underground" }, "geometry": { "type": "LineString", "coordinates": [ [ -93.6137861961423, 47.252079325190799 ], [ -93.613422300000096, 47.252462800008999 ] ] } },
{ "type": "Feature", "properties": { "wmUplineSo": "COHASSET", "wmType": "Underground" }, "geometry": { "type": "LineString", "coordinates": [ [ -93.618142000038205, 47.237667003625802 ], [ -93.618179600000104, 47.237773600009 ] ] } },
{ "type": "Feature", "properties": { "wmUplineSo": "COHASSET", "wmType": "Underground" }, "geometry": { "type": "LineString", "coordinates": [ [ -93.618371997116995, 47.2355315622994 ], [ -93.619581806953903, 47.235604797443202 ] ] } },
{ "type": "Feature", "properties": { "wmUplineSo": "COHASSET", "wmType": "Underground" }, "geometry": { "type": "LineString", "coordinates": [ [ -93.640227311647095, 47.2642907755029 ], [ -93.642366075555501, 47.264297460776 ] ] } },
{ "type": "Feature", "properties": { "wmUplineSo": "COHASSET", "wmType": "Underground" }, "geometry": { "type": "LineString", "coordinates": [ [ -93.631023797798406, 47.252623668475501 ], [ -93.631240229867203, 47.252934736439599 ] ] } },
{ "type": "Feature", "properties": { "wmUplineSo": "COHASSET", "wmType": "Underground" }, "geometry": { "type": "LineString", "coordinates": [ [ -93.631240229867203, 47.252934736439599 ], [ -93.631581880388396, 47.252252242601003 ] ] } },
{ "type": "Feature", "properties": { "wmUplineSo": "COHASSET", "wmType": "Underground" }, "geometry": { "type": "LineString", "coordinates": [ [ -93.631967952334193, 47.2526485678912 ], [ -93.6307797185504, 47.252380776377002 ], [ -93.628414037674204, 47.252832397346097 ] ] } },
{ "type": "Feature", "properties": { "wmUplineSo": "COHASSET", "wmType": "Underground" }, "geometry": { "type": "LineString", "coordinates": [ [ -93.628299694027604, 47.2533535071342 ], [ -93.626939974384001, 47.253278771767597 ] ] } },
{ "type": "Feature", "properties": { "wmUplineSo": "COHASSET", "wmType": "Underground" }, "geometry": { "type": "LineString", "coordinates": [ [ -93.625158870665601, 47.253194114878497 ], [ -93.625189102693994, 47.253136030396703 ], [ -93.626552257034007, 47.253166490529402 ] ] } },
{ "type": "Feature", "properties": { "wmUplineSo": "COHASSET", "wmType": "Underground" }, "geometry": { "type": "LineString", "coordinates": [ [ -93.626552257034007, 47.253166490529402 ], [ -93.626589323200307, 47.253060822774202 ] ] } },
{ "type": "Feature", "properties": { "wmUplineSo": "COHASSET", "wmType": "Underground" }, "geometry": { "type": "LineString", "coordinates": [ [ -93.625092400593203, 47.254073780483097 ], [ -93.623676868484395, 47.255171131072899 ] ] } },
{ "type": "Feature", "properties": { "wmUplineSo": "COHASSET", "wmType": "Underground" }, "geometry": { "type": "LineString", "coordinates": [ [ -93.635058394730507, 47.269549015625302 ], [ -93.635212145686907, 47.269650576121897 ] ] } },
{ "type": "Feature", "properties": { "wmUplineSo": "COHASSET", "wmType": "Underground" }, "geometry": { "type": "LineString", "coordinates": [ [ -93.640227311647095, 47.2642907755029 ], [ -93.640229196781505, 47.2635574887518 ], [ -93.640034090414403, 47.263536768431798 ] ] } },
{ "type": "Feature", "properties": { "wmUplineSo": "COHASSET", "wmType": "Underground" }, "geometry": { "type": "LineString", "coordinates": [ [ -93.6354553790312, 47.266660248442001 ], [ -93.635460342783603, 47.266106961438801 ], [ -93.637866294641498, 47.264288834819702 ], [ -93.640227311647095, 47.2642907755029 ] ] } },
{ "type": "Feature", "properties": { "wmUplineSo": "COHASSET", "wmType": "Underground" }, "geometry": { "type": "LineString", "coordinates": [ [ -93.625158870665601, 47.253194114878497 ], [ -93.625092400593203, 47.254073780483097 ] ] } },
{ "type": "Feature", "properties": { "wmUplineSo": "COHASSET", "wmType": "Underground" }, "geometry": { "type": "LineString", "coordinates": [ [ -93.616225422048203, 47.2418698255075 ], [ -93.616056372803499, 47.241672363161904 ] ] } },
{ "type": "Feature", "properties": { "wmUplineSo": "COHASSET", "wmType": "Underground" }, "geometry": { "type": "LineString", "coordinates": [ [ -93.618499832856202, 47.236371734465799 ], [ -93.617399426434801, 47.236359577088102 ] ] } },
{ "type": "Feature", "properties": { "wmUplineSo": "COHASSET", "wmType": "Underground" }, "geometry": { "type": "LineString", "coordinates": [ [ -93.618371997116995, 47.2355315622994 ], [ -93.617770771620997, 47.235248510285501 ] ] } },
{ "type": "Feature", "properties": { "wmUplineSo": "COHASSET", "wmType": "Underground" }, "geometry": { "type": "LineString", "coordinates": [ [ -93.617211368146002, 47.250163812773003 ], [ -93.617204030593498, 47.249615437627398 ] ] } },
{ "type": "Feature", "properties": { "wmUplineSo": "COHASSET", "wmType": "Underground" }, "geometry": { "type": "LineString", "coordinates": [ [ -93.617226704550305, 47.250894763184 ], [ -93.617211368146002, 47.250163812773003 ] ] } },
{ "type": "Feature", "properties": { "wmUplineSo": "COHASSET", "wmType": "Underground" }, "geometry": { "type": "LineString", "coordinates": [ [ -93.617216928065304, 47.251582075323498 ], [ -93.617226704550305, 47.250894763184 ] ] } },
{ "type": "Feature", "properties": { "wmUplineSo": "COHASSET", "wmType": "Underground" }, "geometry": { "type": "LineString", "coordinates": [ [ -93.617252967801406, 47.252584927851601 ], [ -93.617216928065304, 47.251582075323498 ] ] } },
{ "type": "Feature", "properties": { "wmUplineSo": "COHASSET", "wmType": "Underground" }, "geometry": { "type": "LineString", "coordinates": [ [ -93.617257717276004, 47.252949138091203 ], [ -93.617252967801406, 47.252584927851601 ] ] } },
{ "type": "Feature", "properties": { "wmUplineSo": "COHASSET", "wmType": "Underground" }, "geometry": { "type": "LineString", "coordinates": [ [ -93.617251236261296, 47.253745561501603 ], [ -93.617255468805396, 47.253735485095198 ], [ -93.617257717276004, 47.252949138091203 ] ] } },
{ "type": "Feature", "properties": { "wmUplineSo": "COHASSET", "wmType": "Underground" }, "geometry": { "type": "LineString", "coordinates": [ [ -93.6246627265444, 47.252982403828902 ], [ -93.623206541902206, 47.252361010498802 ], [ -93.623327891253297, 47.251616540493202 ], [ -93.622132252734701, 47.251404585950198 ] ] } },
{ "type": "Feature", "properties": { "wmUplineSo": "COHASSET", "wmType": "Underground" }, "geometry": { "type": "LineString", "coordinates": [ [ -93.626939974384001, 47.253278771767597 ], [ -93.625158870665601, 47.253194114878497 ] ] } },
{ "type": "Feature", "properties": { "wmUplineSo": "COHASSET", "wmType": "Underground" }, "geometry": { "type": "LineString", "coordinates": [ [ -93.622132252734701, 47.251404585950198 ], [ -93.618930696753097, 47.251369946038402 ] ] } },
{ "type": "Feature", "properties": { "wmUplineSo": "COHASSET", "wmType": "Underground" }, "geometry": { "type": "LineString", "coordinates": [ [ -93.622132252734701, 47.251404585950198 ], [ -93.622626204378903, 47.251047486096802 ] ] } },
{ "type": "Feature", "properties": { "wmUplineSo": "COHASSET", "wmType": "Underground" }, "geometry": { "type": "LineString", "coordinates": [ [ -93.618930696753097, 47.251369946038402 ], [ -93.619209546340997, 47.249806526908301 ], [ -93.619420819639103, 47.248901705943702 ] ] } },
{ "type": "Feature", "properties": { "wmUplineSo": "COHASSET", "wmType": "Underground" }, "geometry": { "type": "LineString", "coordinates": [ [ -93.608231490041803, 47.247074819547798 ], [ -93.607880775481306, 47.248240359502503 ] ] } },
{ "type": "Feature", "properties": { "wmUplineSo": "COHASSET", "wmType": "Underground" }, "geometry": { "type": "LineString", "coordinates": [ [ -93.607880775481306, 47.248240359502503 ], [ -93.608532757195803, 47.248392427940601 ], [ -93.609428480582693, 47.248487083728399 ] ] } }
]
}
