{
"type": "FeatureCollection",
"crs": { "type": "name", "properties": { "name": "urn:ogc:def:crs:OGC:1.3:CRS84" } },
"features": [
{ "type": "Feature", "properties": { "wmUplineSo": "COOK", "wmType": "Underground" }, "geometry": { "type": "LineString", "coordinates": [ [ -92.747837999982806, 47.929410003819797 ], [ -92.747903999982796, 47.929341003819701 ] ] } },
{ "type": "Feature", "properties": { "wmUplineSo": "COOK", "wmType": "Underground" }, "geometry": { "type": "LineString", "coordinates": [ [ -92.747903999982796, 47.929341003819701 ], [ -92.756472999983401, 47.932534003820798 ] ] } },
{ "type": "Feature", "properties": { "wmUplineSo": "COOK", "wmType": "Underground" }, "geometry": { "type": "LineString", "coordinates": [ [ -92.756472999983401, 47.932534003820798 ], [ -92.756421999983402, 47.932603003820802 ] ] } },
{ "type": "Feature", "properties": { "wmUplineSo": "COOK", "wmType": "Underground" }, "geometry": { "type": "LineString", "coordinates": [ [ -92.756421999983402, 47.932603003820802 ], [ -92.756493999983405, 47.932549003820597 ] ] } },
{ "type": "Feature", "properties": { "wmUplineSo": "COOK", "wmType": "Underground" }, "geometry": { "type": "LineString", "coordinates": [ [ -92.756493999983405, 47.932549003820597 ], [ -92.765069999983993, 47.935732003821499 ] ] } },
{ "type": "Feature", "properties": { "wmUplineSo": "COOK", "wmType": "Underground" }, "geometry": { "type": "LineString", "coordinates": [ [ -92.765069999983993, 47.935732003821499 ], [ -92.765045816412496, 47.935805203616702 ] ] } },
{ "type": "Feature", "properties": { "wmUplineSo": "COOK", "wmType": "Underground" }, "geometry": { "type": "LineString", "coordinates": [ [ -92.765045816412496, 47.935805203616702 ], [ -92.765091816413303, 47.935742203617103 ] ] } },
{ "type": "Feature", "properties": { "wmUplineSo": "COOK", "wmType": "Underground" }, "geometry": { "type": "LineString", "coordinates": [ [ -92.765091816413303, 47.935742203617103 ], [ -92.766719999984105, 47.936345003821799 ] ] } },
{ "type": "Feature", "properties": { "wmUplineSo": "COOK", "wmType": "Underground" }, "geometry": { "type": "LineString", "coordinates": [ [ -92.766719999984105, 47.936345003821799 ], [ -92.766685999984105, 47.936410003821898 ] ] } },
{ "type": "Feature", "properties": { "wmUplineSo": "COOK", "wmType": "Underground" }, "geometry": { "type": "LineString", "coordinates": [ [ -92.766685999984105, 47.936410003821898 ], [ -92.7666563, 47.9363735000098 ] ] } },
{ "type": "Feature", "properties": { "wmUplineSo": "COOK", "wmType": "Underground" }, "geometry": { "type": "LineString", "coordinates": [ [ -92.747837999982806, 47.929410003819797 ], [ -92.7477508, 47.929355000009799 ] ] } },
{ "type": "Feature", "properties": { "wmUplineSo": "COOK", "wmType": "Underground" }, "geometry": { "type": "LineString", "coordinates": [ [ -92.71816, 47.881348 ], [ -92.717608349735599, 47.881319626567297 ] ] } },
{ "type": "Feature", "properties": { "wmUplineSo": "COOK", "wmType": "Underground" }, "geometry": { "type": "LineString", "coordinates": [ [ -92.717608349735599, 47.881319626567297 ], [ -92.717549258909202, 47.8813142219051 ] ] } },
{ "type": "Feature", "properties": { "wmUplineSo": "COOK", "wmType": "Underground" }, "geometry": { "type": "LineString", "coordinates": [ [ -92.761684, 47.886037000000101 ], [ -92.761475, 47.886052 ] ] } },
{ "type": "Feature", "properties": { "wmUplineSo": "COOK", "wmType": "Underground" }, "geometry": { "type": "LineString", "coordinates": [ [ -92.761475, 47.886052 ], [ -92.761137, 47.886022 ] ] } },
{ "type": "Feature", "properties": { "wmUplineSo": "COOK", "wmType": "Underground" }, "geometry": { "type": "LineString", "coordinates": [ [ -92.761137, 47.886022 ], [ -92.760997, 47.886071 ] ] } },
{ "type": "Feature", "properties": { "wmUplineSo": "COOK", "wmType": "Underground" }, "geometry": { "type": "LineString", "coordinates": [ [ -92.760997, 47.886071 ], [ -92.760935052828202, 47.886069596602603 ] ] } },
{ "type": "Feature", "properties": { "wmUplineSo": "COOK", "wmType": "Underground" }, "geometry": { "type": "LineString", "coordinates": [ [ -92.740479999982298, 47.926834003819103 ], [ -92.740553999982396, 47.9268490038191 ] ] } },
{ "type": "Feature", "properties": { "wmUplineSo": "COOK", "wmType": "Underground" }, "geometry": { "type": "LineString", "coordinates": [ [ -92.781547078358201, 47.895105960104402 ], [ -92.7813929, 47.8954133000098 ] ] } },
{ "type": "Feature", "properties": { "wmUplineSo": "COOK", "wmType": "Underground" }, "geometry": { "type": "LineString", "coordinates": [ [ -92.777159633943, 47.887634508547997 ], [ -92.7771702, 47.887497000009802 ] ] } },
{ "type": "Feature", "properties": { "wmUplineSo": "COOK", "wmType": "Underground" }, "geometry": { "type": "LineString", "coordinates": [ [ -92.827020810955204, 47.938084342904297 ], [ -92.826867728863803, 47.938067751804603 ] ] } },
{ "type": "Feature", "properties": { "wmUplineSo": "COOK", "wmType": "Underground" }, "geometry": { "type": "LineString", "coordinates": [ [ -92.774301645042598, 47.888124399698299 ], [ -92.7736289, 47.887418200009797 ] ] } },
{ "type": "Feature", "properties": { "wmUplineSo": "COOK", "wmType": "Underground" }, "geometry": { "type": "LineString", "coordinates": [ [ -92.776298512460997, 47.886106812675997 ], [ -92.7764181, 47.885546600009803 ] ] } },
{ "type": "Feature", "properties": { "wmUplineSo": "COOK", "wmType": "Underground" }, "geometry": { "type": "LineString", "coordinates": [ [ -92.830123208270194, 47.949842627581901 ], [ -92.8296603, 47.949699800009803 ] ] } },
{ "type": "Feature", "properties": { "wmUplineSo": "COOK", "wmType": "Underground" }, "geometry": { "type": "LineString", "coordinates": [ [ -92.717456159500401, 47.900238494576897 ], [ -92.7173271, 47.900242700009798 ] ] } },
{ "type": "Feature", "properties": { "wmUplineSo": "COOK", "wmType": "Underground" }, "geometry": { "type": "LineString", "coordinates": [ [ -92.740553999982396, 47.9268490038191 ], [ -92.740743999982399, 47.926713003819103 ] ] } },
{ "type": "Feature", "properties": { "wmUplineSo": "COOK", "wmType": "Underground" }, "geometry": { "type": "LineString", "coordinates": [ [ -92.740743999982399, 47.926713003819103 ], [ -92.747898999982894, 47.929329003819703 ] ] } },
{ "type": "Feature", "properties": { "wmUplineSo": "COOK", "wmType": "Underground" }, "geometry": { "type": "LineString", "coordinates": [ [ -92.779064523261297, 47.895919145796597 ], [ -92.780405327243798, 47.895327228896001 ], [ -92.781547078358201, 47.895105960104402 ] ] } },
{ "type": "Feature", "properties": { "wmUplineSo": "COOK", "wmType": "Underground" }, "geometry": { "type": "LineString", "coordinates": [ [ -92.824741840960598, 47.926502293384701 ], [ -92.824923683089494, 47.926396557398299 ], [ -92.825168984782707, 47.926547789447902 ] ] } },
{ "type": "Feature", "properties": { "wmUplineSo": "COOK", "wmType": "Underground" }, "geometry": { "type": "LineString", "coordinates": [ [ -92.823698159635697, 47.925786177550201 ], [ -92.824741840960598, 47.926502293384701 ] ] } },
{ "type": "Feature", "properties": { "wmUplineSo": "COOK", "wmType": "Underground" }, "geometry": { "type": "LineString", "coordinates": [ [ -92.776643772694996, 47.887969495131102 ], [ -92.774301645042598, 47.888124399698299 ] ] } },
{ "type": "Feature", "properties": { "wmUplineSo": "COOK", "wmType": "Underground" }, "geometry": { "type": "LineString", "coordinates": [ [ -92.777159633943, 47.887634508547997 ], [ -92.777153761126996, 47.886641163304297 ], [ -92.776298512460997, 47.886106812675997 ] ] } },
{ "type": "Feature", "properties": { "wmUplineSo": "COOK", "wmType": "Underground" }, "geometry": { "type": "LineString", "coordinates": [ [ -92.828299269296295, 47.938121854087903 ], [ -92.827020810955204, 47.938084342904297 ] ] } },
{ "type": "Feature", "properties": { "wmUplineSo": "COOK", "wmType": "Underground" }, "geometry": { "type": "LineString", "coordinates": [ [ -92.775998237489105, 47.891896926940099 ], [ -92.778294425084397, 47.891835761353498 ], [ -92.776643772694996, 47.887969495131102 ] ] } },
{ "type": "Feature", "properties": { "wmUplineSo": "COOK", "wmType": "Underground" }, "geometry": { "type": "LineString", "coordinates": [ [ -92.776643772694996, 47.887969495131102 ], [ -92.777159633943, 47.887634508547997 ] ] } },
{ "type": "Feature", "properties": { "wmUplineSo": "COOK", "wmType": "Underground" }, "geometry": { "type": "LineString", "coordinates": [ [ -92.717681775364696, 47.862739414505299 ], [ -92.718702846138697, 47.863050040139399 ] ] } },
{ "type": "Feature", "properties": { "wmUplineSo": "COOK", "wmType": "Underground" }, "geometry": { "type": "LineString", "coordinates": [ [ -92.718702846138697, 47.863050040139399 ], [ -92.718653308476704, 47.863001681355399 ] ] } },
{ "type": "Feature", "properties": { "wmUplineSo": "COOK", "wmType": "Underground" }, "geometry": { "type": "LineString", "coordinates": [ [ -92.7215948885204, 47.903136713412799 ], [ -92.721512181823897, 47.903212224757702 ] ] } },
{ "type": "Feature", "properties": { "wmUplineSo": "COOK", "wmType": "Underground" }, "geometry": { "type": "LineString", "coordinates": [ [ -92.721512181823897, 47.903212224757702 ], [ -92.720798923302695, 47.903744983600802 ] ] } },
{ "type": "Feature", "properties": { "wmUplineSo": "COOK", "wmType": "Underground" }, "geometry": { "type": "LineString", "coordinates": [ [ -92.828868650720693, 47.9501915327631 ], [ -92.829503851719593, 47.950225325902402 ], [ -92.829500631373193, 47.949816075371302 ], [ -92.830123208270194, 47.949842627581901 ] ] } },
{ "type": "Feature", "properties": { "wmUplineSo": "COOK", "wmType": "Underground" }, "geometry": { "type": "LineString", "coordinates": [ [ -92.828605981161502, 47.950417069360398 ], [ -92.828868650720693, 47.9501915327631 ] ] } },
{ "type": "Feature", "properties": { "wmUplineSo": "COOK", "wmType": "Underground" }, "geometry": { "type": "LineString", "coordinates": [ [ -92.720189130602506, 47.900254917745897 ], [ -92.717456159500401, 47.900238494576897 ] ] } },
{ "type": "Feature", "properties": { "wmUplineSo": "COOK", "wmType": "Underground" }, "geometry": { "type": "LineString", "coordinates": [ [ -92.720171175064806, 47.898000889209399 ], [ -92.719993204256198, 47.897998572115 ] ] } },
{ "type": "Feature", "properties": { "wmUplineSo": "COOK", "wmType": "Underground" }, "geometry": { "type": "LineString", "coordinates": [ [ -92.747898999982894, 47.929329003819703 ], [ -92.747837999982806, 47.929410003819797 ] ] } }
]
}
