{
"type": "FeatureCollection",
"crs": { "type": "name", "properties": { "name": "urn:ogc:def:crs:OGC:1.3:CRS84" } },
"features": [
{ "type": "Feature", "properties": { "wmUplineSo": "COOK", "wmType": "Underground" }, "geometry": { "type": "LineString", "coordinates": [ [ -92.681769881631396, 47.819337821879003 ], [ -92.681239, 47.818928999999898 ] ] } },
{ "type": "Feature", "properties": { "wmUplineSo": "COOK", "wmType": "Underground" }, "geometry": { "type": "LineString", "coordinates": [ [ -92.681239, 47.818928999999898 ], [ -92.680968325036403, 47.819292126311801 ] ] } },
{ "type": "Feature", "properties": { "wmUplineSo": "COOK", "wmType": "Underground" }, "geometry": { "type": "LineString", "coordinates": [ [ -92.680968325036403, 47.819292126311801 ], [ -92.680469443824194, 47.819634906851199 ] ] } },
{ "type": "Feature", "properties": { "wmUplineSo": "COOK", "wmType": "Underground" }, "geometry": { "type": "LineString", "coordinates": [ [ -92.680469443824194, 47.819634906851199 ], [ -92.680298193223607, 47.819759564670903 ] ] } },
{ "type": "Feature", "properties": { "wmUplineSo": "COOK", "wmType": "Underground" }, "geometry": { "type": "LineString", "coordinates": [ [ -92.680298193223607, 47.819759564670903 ], [ -92.680833981708304, 47.820069280589301 ] ] } },
{ "type": "Feature", "properties": { "wmUplineSo": "COOK", "wmType": "Underground" }, "geometry": { "type": "LineString", "coordinates": [ [ -92.680833981708304, 47.820069280589301 ], [ -92.680840824442498, 47.820173883999303 ] ] } },
{ "type": "Feature", "properties": { "wmUplineSo": "COOK", "wmType": "Underground" }, "geometry": { "type": "LineString", "coordinates": [ [ -92.680840824442498, 47.820173883999303 ], [ -92.681297, 47.820445999999897 ] ] } },
{ "type": "Feature", "properties": { "wmUplineSo": "COOK", "wmType": "Underground" }, "geometry": { "type": "LineString", "coordinates": [ [ -92.681297, 47.820445999999897 ], [ -92.68172, 47.820701 ] ] } },
{ "type": "Feature", "properties": { "wmUplineSo": "COOK", "wmType": "Underground" }, "geometry": { "type": "LineString", "coordinates": [ [ -92.68172, 47.820701 ], [ -92.682189407741504, 47.820785083154902 ] ] } },
{ "type": "Feature", "properties": { "wmUplineSo": "COOK", "wmType": "Underground" }, "geometry": { "type": "LineString", "coordinates": [ [ -92.682189407741504, 47.820785083154902 ], [ -92.682597, 47.820866 ] ] } },
{ "type": "Feature", "properties": { "wmUplineSo": "COOK", "wmType": "Underground" }, "geometry": { "type": "LineString", "coordinates": [ [ -92.682597, 47.820866 ], [ -92.682799, 47.82078 ] ] } },
{ "type": "Feature", "properties": { "wmUplineSo": "COOK", "wmType": "Underground" }, "geometry": { "type": "LineString", "coordinates": [ [ -92.682799, 47.82078 ], [ -92.68295, 47.820673999999897 ] ] } },
{ "type": "Feature", "properties": { "wmUplineSo": "COOK", "wmType": "Underground" }, "geometry": { "type": "LineString", "coordinates": [ [ -92.680968325036403, 47.819292126311801 ], [ -92.681367168850699, 47.819562648122798 ] ] } },
{ "type": "Feature", "properties": { "wmUplineSo": "COOK", "wmType": "Underground" }, "geometry": { "type": "LineString", "coordinates": [ [ -92.681367168850699, 47.819562648122798 ], [ -92.681802385323607, 47.819826039452501 ] ] } },
{ "type": "Feature", "properties": { "wmUplineSo": "COOK", "wmType": "Underground" }, "geometry": { "type": "LineString", "coordinates": [ [ -92.68295, 47.820673999999897 ], [ -92.683009464274505, 47.820618352737 ] ] } },
{ "type": "Feature", "properties": { "wmUplineSo": "COOK", "wmType": "Underground" }, "geometry": { "type": "LineString", "coordinates": [ [ -92.691512999979196, 47.851991003797899 ], [ -92.691510162188095, 47.851987355210397 ] ] } },
{ "type": "Feature", "properties": { "wmUplineSo": "COOK", "wmType": "Underground" }, "geometry": { "type": "LineString", "coordinates": [ [ -92.691510162188095, 47.851987355210397 ], [ -92.691498999979203, 47.851973003797703 ] ] } },
{ "type": "Feature", "properties": { "wmUplineSo": "COOK", "wmType": "Underground" }, "geometry": { "type": "LineString", "coordinates": [ [ -92.689581999979097, 47.852007003797702 ], [ -92.689908999979096, 47.851884003797799 ] ] } },
{ "type": "Feature", "properties": { "wmUplineSo": "COOK", "wmType": "Underground" }, "geometry": { "type": "LineString", "coordinates": [ [ -92.689908999979096, 47.851884003797799 ], [ -92.689966751159204, 47.851875782143402 ] ] } },
{ "type": "Feature", "properties": { "wmUplineSo": "COOK", "wmType": "Underground" }, "geometry": { "type": "LineString", "coordinates": [ [ -92.689908999979096, 47.851884003797799 ], [ -92.689966751159204, 47.851875782143402 ] ] } },
{ "type": "Feature", "properties": { "wmUplineSo": "COOK", "wmType": "Underground" }, "geometry": { "type": "LineString", "coordinates": [ [ -92.672916676960398, 47.803128621602603 ], [ -92.673082473312206, 47.803100551876597 ] ] } },
{ "type": "Feature", "properties": { "wmUplineSo": "COOK", "wmType": "Underground" }, "geometry": { "type": "LineString", "coordinates": [ [ -92.673082473312206, 47.803100551876597 ], [ -92.673022972457801, 47.8027284142185 ] ] } },
{ "type": "Feature", "properties": { "wmUplineSo": "COOK", "wmType": "Underground" }, "geometry": { "type": "LineString", "coordinates": [ [ -92.672971166644004, 47.8025378189189 ], [ -92.672053140744694, 47.802543174894403 ] ] } },
{ "type": "Feature", "properties": { "wmUplineSo": "COOK", "wmType": "Underground" }, "geometry": { "type": "LineString", "coordinates": [ [ -92.673022972457801, 47.8027284142185 ], [ -92.672971166644004, 47.8025378189189 ] ] } },
{ "type": "Feature", "properties": { "wmUplineSo": "COOK", "wmType": "Underground" }, "geometry": { "type": "LineString", "coordinates": [ [ -92.672053140744694, 47.802543174894403 ], [ -92.6722325, 47.8025346000097 ] ] } },
{ "type": "Feature", "properties": { "wmUplineSo": "COOK", "wmType": "Underground" }, "geometry": { "type": "LineString", "coordinates": [ [ -92.682263800694898, 47.852472320967401 ], [ -92.682254779056507, 47.852232812558697 ], [ -92.680755094503098, 47.852243888041301 ], [ -92.680646308300794, 47.852000856004103 ], [ -92.680646308300794, 47.852000856004103 ] ] } },
{ "type": "Feature", "properties": { "wmUplineSo": "COOK", "wmType": "Underground" }, "geometry": { "type": "LineString", "coordinates": [ [ -92.682266972683905, 47.852572544877702 ], [ -92.681499999978598, 47.852502003797902 ] ] } },
{ "type": "Feature", "properties": { "wmUplineSo": "COOK", "wmType": "Underground" }, "geometry": { "type": "LineString", "coordinates": [ [ -92.681499999978598, 47.852502003797902 ], [ -92.6814879999786, 47.852471003797902 ] ] } },
{ "type": "Feature", "properties": { "wmUplineSo": "COOK", "wmType": "Underground" }, "geometry": { "type": "LineString", "coordinates": [ [ -92.697210999979703, 47.817989003788199 ], [ -92.697246999979697, 47.817903003788203 ] ] } },
{ "type": "Feature", "properties": { "wmUplineSo": "COOK", "wmType": "Underground" }, "geometry": { "type": "LineString", "coordinates": [ [ -92.697246999979697, 47.817903003788203 ], [ -92.697244999979702, 47.8178730037883 ] ] } },
{ "type": "Feature", "properties": { "wmUplineSo": "COOK", "wmType": "Underground" }, "geometry": { "type": "LineString", "coordinates": [ [ -92.681769881631396, 47.819337821879003 ], [ -92.6816890999999, 47.819357000009703 ] ] } },
{ "type": "Feature", "properties": { "wmUplineSo": "COOK", "wmType": "Underground" }, "geometry": { "type": "LineString", "coordinates": [ [ -92.685435113846594, 47.847963873720303 ], [ -92.685444643766303, 47.847882284109801 ] ] } },
{ "type": "Feature", "properties": { "wmUplineSo": "COOK", "wmType": "Underground" }, "geometry": { "type": "LineString", "coordinates": [ [ -92.685444643766303, 47.847882284109801 ], [ -92.685747722425901, 47.847600800916098 ] ] } },
{ "type": "Feature", "properties": { "wmUplineSo": "COOK", "wmType": "Underground" }, "geometry": { "type": "LineString", "coordinates": [ [ -92.685747722425901, 47.847600800916098 ], [ -92.685951206498103, 47.847599601690597 ] ] } },
{ "type": "Feature", "properties": { "wmUplineSo": "COOK", "wmType": "Underground" }, "geometry": { "type": "LineString", "coordinates": [ [ -92.680893, 47.819145 ], [ -92.680840414896096, 47.819154190236297 ] ] } },
{ "type": "Feature", "properties": { "wmUplineSo": "COOK", "wmType": "Underground" }, "geometry": { "type": "LineString", "coordinates": [ [ -92.682596513048594, 47.8483775721729 ], [ -92.682388639859496, 47.848491604491997 ], [ -92.682451774046697, 47.848577479909501 ], [ -92.682532678253494, 47.848649120965597 ], [ -92.682698372356498, 47.848735279791001 ], [ -92.683076215903696, 47.8488291659203 ], [ -92.683104696748998, 47.848798297032801 ] ] } },
{ "type": "Feature", "properties": { "wmUplineSo": "COOK", "wmType": "Underground" }, "geometry": { "type": "LineString", "coordinates": [ [ -92.686678999978895, 47.852054003797903 ], [ -92.686629999999894, 47.852049200009802 ] ] } },
{ "type": "Feature", "properties": { "wmUplineSo": "COOK", "wmType": "Underground" }, "geometry": { "type": "LineString", "coordinates": [ [ -92.624412999974894, 47.808362003785497 ], [ -92.624868999974893, 47.808916003785598 ] ] } },
{ "type": "Feature", "properties": { "wmUplineSo": "COOK", "wmType": "Underground" }, "geometry": { "type": "LineString", "coordinates": [ [ -92.683104696748998, 47.848798297032801 ], [ -92.6836818, 47.848885800009697 ] ] } },
{ "type": "Feature", "properties": { "wmUplineSo": "COOK", "wmType": "Underground" }, "geometry": { "type": "LineString", "coordinates": [ [ -92.685951206498103, 47.847599601690597 ], [ -92.686279957106507, 47.847603115310598 ] ] } },
{ "type": "Feature", "properties": { "wmUplineSo": "COOK", "wmType": "Underground" }, "geometry": { "type": "LineString", "coordinates": [ [ -92.624868999974893, 47.808916003785598 ], [ -92.624940999974996, 47.809161003785597 ] ] } },
{ "type": "Feature", "properties": { "wmUplineSo": "COOK", "wmType": "Underground" }, "geometry": { "type": "LineString", "coordinates": [ [ -92.624940999974996, 47.809161003785597 ], [ -92.624853599999895, 47.809210400009697 ] ] } },
{ "type": "Feature", "properties": { "wmUplineSo": "COOK", "wmType": "Underground" }, "geometry": { "type": "LineString", "coordinates": [ [ -92.680491507461397, 47.8529064212196 ], [ -92.6805333, 47.852712500009702 ] ] } },
{ "type": "Feature", "properties": { "wmUplineSo": "COOK", "wmType": "Underground" }, "geometry": { "type": "LineString", "coordinates": [ [ -92.681499999978598, 47.852502003797902 ], [ -92.681731299999896, 47.852875500009802 ] ] } },
{ "type": "Feature", "properties": { "wmUplineSo": "COOK", "wmType": "Underground" }, "geometry": { "type": "LineString", "coordinates": [ [ -92.681499999978598, 47.852502003797902 ], [ -92.6815403, 47.8527325000098 ] ] } },
{ "type": "Feature", "properties": { "wmUplineSo": "COOK", "wmType": "Underground" }, "geometry": { "type": "LineString", "coordinates": [ [ -92.681499999978598, 47.852502003797902 ], [ -92.6814325, 47.852854600009699 ] ] } },
{ "type": "Feature", "properties": { "wmUplineSo": "COOK", "wmType": "Underground" }, "geometry": { "type": "LineString", "coordinates": [ [ -92.681499999978598, 47.852502003797902 ], [ -92.681205, 47.852766000009801 ] ] } },
{ "type": "Feature", "properties": { "wmUplineSo": "COOK", "wmType": "Underground" }, "geometry": { "type": "LineString", "coordinates": [ [ -92.680646308300794, 47.852000856004103 ], [ -92.680618199999898, 47.851933200009697 ] ] } },
{ "type": "Feature", "properties": { "wmUplineSo": "COOK", "wmType": "Underground" }, "geometry": { "type": "LineString", "coordinates": [ [ -92.680646308300794, 47.852000856004103 ], [ -92.680722849558407, 47.851949258086997 ] ] } },
{ "type": "Feature", "properties": { "wmUplineSo": "COOK", "wmType": "Underground" }, "geometry": { "type": "LineString", "coordinates": [ [ -92.680646308300794, 47.852000856004103 ], [ -92.6805344, 47.852035700009701 ] ] } },
{ "type": "Feature", "properties": { "wmUplineSo": "COOK", "wmType": "Underground" }, "geometry": { "type": "LineString", "coordinates": [ [ -92.680646308300794, 47.852000856004103 ], [ -92.6805715, 47.851989000009702 ] ] } },
{ "type": "Feature", "properties": { "wmUplineSo": "COOK", "wmType": "Underground" }, "geometry": { "type": "LineString", "coordinates": [ [ -92.680646308300794, 47.852000856004103 ], [ -92.680618199999898, 47.851932500009703 ] ] } },
{ "type": "Feature", "properties": { "wmUplineSo": "COOK", "wmType": "Underground" }, "geometry": { "type": "LineString", "coordinates": [ [ -92.680646308300794, 47.852000856004103 ], [ -92.6804722, 47.852098600009697 ] ] } },
{ "type": "Feature", "properties": { "wmUplineSo": "COOK", "wmType": "Underground" }, "geometry": { "type": "LineString", "coordinates": [ [ -92.680646308300794, 47.852000856004103 ], [ -92.6805328, 47.852037900009698 ] ] } },
{ "type": "Feature", "properties": { "wmUplineSo": "COOK", "wmType": "Underground" }, "geometry": { "type": "LineString", "coordinates": [ [ -92.680646308300794, 47.852000856004103 ], [ -92.680641499999894, 47.851901700009797 ] ] } },
{ "type": "Feature", "properties": { "wmUplineSo": "COOK", "wmType": "Underground" }, "geometry": { "type": "LineString", "coordinates": [ [ -92.680646308300794, 47.852000856004103 ], [ -92.6805453, 47.852021000009699 ] ] } },
{ "type": "Feature", "properties": { "wmUplineSo": "COOK", "wmType": "Underground" }, "geometry": { "type": "LineString", "coordinates": [ [ -92.680646308300794, 47.852000856004103 ], [ -92.6806181, 47.851932600009697 ] ] } },
{ "type": "Feature", "properties": { "wmUplineSo": "COOK", "wmType": "Underground" }, "geometry": { "type": "LineString", "coordinates": [ [ -92.680646308300794, 47.852000856004103 ], [ -92.680618199999898, 47.851933200009697 ] ] } },
{ "type": "Feature", "properties": { "wmUplineSo": "COOK", "wmType": "Underground" }, "geometry": { "type": "LineString", "coordinates": [ [ -92.680646308300794, 47.852000856004103 ], [ -92.6805389, 47.852035900009703 ] ] } },
{ "type": "Feature", "properties": { "wmUplineSo": "COOK", "wmType": "Underground" }, "geometry": { "type": "LineString", "coordinates": [ [ -92.680646308300794, 47.852000856004103 ], [ -92.6805325, 47.852038000009699 ] ] } },
{ "type": "Feature", "properties": { "wmUplineSo": "COOK", "wmType": "Underground" }, "geometry": { "type": "LineString", "coordinates": [ [ -92.680646308300794, 47.852000856004103 ], [ -92.6804781, 47.8521074000097 ] ] } },
{ "type": "Feature", "properties": { "wmUplineSo": "COOK", "wmType": "Underground" }, "geometry": { "type": "LineString", "coordinates": [ [ -92.680646308300794, 47.852000856004103 ], [ -92.680618299999907, 47.851932400009701 ] ] } },
{ "type": "Feature", "properties": { "wmUplineSo": "COOK", "wmType": "Underground" }, "geometry": { "type": "LineString", "coordinates": [ [ -92.680646308300794, 47.852000856004103 ], [ -92.680618199999898, 47.851932500009703 ] ] } },
{ "type": "Feature", "properties": { "wmUplineSo": "COOK", "wmType": "Underground" }, "geometry": { "type": "LineString", "coordinates": [ [ -92.680646308300794, 47.852000856004103 ], [ -92.6805766516989, 47.8519124286262 ] ] } },
{ "type": "Feature", "properties": { "wmUplineSo": "COOK", "wmType": "Underground" }, "geometry": { "type": "LineString", "coordinates": [ [ -92.680646308300794, 47.852000856004103 ], [ -92.680618299999907, 47.851932400009701 ] ] } },
{ "type": "Feature", "properties": { "wmUplineSo": "COOK", "wmType": "Underground" }, "geometry": { "type": "LineString", "coordinates": [ [ -92.680646308300794, 47.852000856004103 ], [ -92.680618199999898, 47.851933200009697 ] ] } },
{ "type": "Feature", "properties": { "wmUplineSo": "COOK", "wmType": "Underground" }, "geometry": { "type": "LineString", "coordinates": [ [ -92.680646308300794, 47.852000856004103 ], [ -92.6806225, 47.851928100009701 ] ] } },
{ "type": "Feature", "properties": { "wmUplineSo": "COOK", "wmType": "Underground" }, "geometry": { "type": "LineString", "coordinates": [ [ -92.680646308300794, 47.852000856004103 ], [ -92.680618199999898, 47.851932500009703 ] ] } },
{ "type": "Feature", "properties": { "wmUplineSo": "COOK", "wmType": "Underground" }, "geometry": { "type": "LineString", "coordinates": [ [ -92.680646308300794, 47.852000856004103 ], [ -92.6806168, 47.851934300009802 ] ] } },
{ "type": "Feature", "properties": { "wmUplineSo": "COOK", "wmType": "Underground" }, "geometry": { "type": "LineString", "coordinates": [ [ -92.680646308300794, 47.852000856004103 ], [ -92.6804437, 47.852131000009699 ] ] } },
{ "type": "Feature", "properties": { "wmUplineSo": "COOK", "wmType": "Underground" }, "geometry": { "type": "LineString", "coordinates": [ [ -92.680646308300794, 47.852000856004103 ], [ -92.680617899999902, 47.851932800009699 ] ] } },
{ "type": "Feature", "properties": { "wmUplineSo": "COOK", "wmType": "Underground" }, "geometry": { "type": "LineString", "coordinates": [ [ -92.6081963670986, 47.817725170591501 ], [ -92.608157599999899, 47.820421100009703 ] ] } },
{ "type": "Feature", "properties": { "wmUplineSo": "COOK", "wmType": "Underground" }, "geometry": { "type": "LineString", "coordinates": [ [ -92.695386963371107, 47.851664518228297 ], [ -92.695299, 47.8516678000098 ] ] } },
{ "type": "Feature", "properties": { "wmUplineSo": "COOK", "wmType": "Underground" }, "geometry": { "type": "LineString", "coordinates": [ [ -92.680893, 47.819145 ], [ -92.680884599999899, 47.819114400009703 ] ] } },
{ "type": "Feature", "properties": { "wmUplineSo": "COOK", "wmType": "Underground" }, "geometry": { "type": "LineString", "coordinates": [ [ -92.682282939183395, 47.819770171067098 ], [ -92.682317699999899, 47.8197891000097 ] ] } },
{ "type": "Feature", "properties": { "wmUplineSo": "COOK", "wmType": "Underground" }, "geometry": { "type": "LineString", "coordinates": [ [ -92.682282939183395, 47.819770171067098 ], [ -92.6822861, 47.8198152000097 ] ] } },
{ "type": "Feature", "properties": { "wmUplineSo": "COOK", "wmType": "Underground" }, "geometry": { "type": "LineString", "coordinates": [ [ -92.681769881631396, 47.819337821879003 ], [ -92.6816705, 47.819326200009698 ] ] } },
{ "type": "Feature", "properties": { "wmUplineSo": "COOK", "wmType": "Underground" }, "geometry": { "type": "LineString", "coordinates": [ [ -92.681769881631396, 47.819337821879003 ], [ -92.681653899999901, 47.819269500009703 ] ] } },
{ "type": "Feature", "properties": { "wmUplineSo": "COOK", "wmType": "Underground" }, "geometry": { "type": "LineString", "coordinates": [ [ -92.681239, 47.818928999999898 ], [ -92.6812369, 47.8189330000097 ] ] } },
{ "type": "Feature", "properties": { "wmUplineSo": "COOK", "wmType": "Underground" }, "geometry": { "type": "LineString", "coordinates": [ [ -92.681239, 47.818928999999898 ], [ -92.6812505, 47.818889300009701 ] ] } },
{ "type": "Feature", "properties": { "wmUplineSo": "COOK", "wmType": "Underground" }, "geometry": { "type": "LineString", "coordinates": [ [ -92.681239, 47.818928999999898 ], [ -92.68094, 47.818734400009703 ] ] } },
{ "type": "Feature", "properties": { "wmUplineSo": "COOK", "wmType": "Underground" }, "geometry": { "type": "LineString", "coordinates": [ [ -92.681239, 47.818928999999898 ], [ -92.6809318, 47.818716100009702 ] ] } },
{ "type": "Feature", "properties": { "wmUplineSo": "COOK", "wmType": "Underground" }, "geometry": { "type": "LineString", "coordinates": [ [ -92.681239, 47.818928999999898 ], [ -92.6809588, 47.8186910000097 ] ] } },
{ "type": "Feature", "properties": { "wmUplineSo": "COOK", "wmType": "Underground" }, "geometry": { "type": "LineString", "coordinates": [ [ -92.681239, 47.818928999999898 ], [ -92.6809319, 47.818740000009697 ] ] } },
{ "type": "Feature", "properties": { "wmUplineSo": "COOK", "wmType": "Underground" }, "geometry": { "type": "LineString", "coordinates": [ [ -92.682282939183395, 47.819770171067098 ], [ -92.682291499999906, 47.8197897000097 ] ] } },
{ "type": "Feature", "properties": { "wmUplineSo": "COOK", "wmType": "Underground" }, "geometry": { "type": "LineString", "coordinates": [ [ -92.645085229410597, 47.795685014253202 ], [ -92.644750099999897, 47.795211200009703 ] ] } },
{ "type": "Feature", "properties": { "wmUplineSo": "COOK", "wmType": "Underground" }, "geometry": { "type": "LineString", "coordinates": [ [ -92.675992002653203, 47.802579912170003 ], [ -92.679921099999902, 47.801570500009703 ] ] } },
{ "type": "Feature", "properties": { "wmUplineSo": "COOK", "wmType": "Underground" }, "geometry": { "type": "LineString", "coordinates": [ [ -92.6717512085946, 47.851326405798297 ], [ -92.672271299999906, 47.8511054000098 ] ] } },
{ "type": "Feature", "properties": { "wmUplineSo": "COOK", "wmType": "Underground" }, "geometry": { "type": "LineString", "coordinates": [ [ -92.677710530360201, 47.849112829596997 ], [ -92.678022199999901, 47.849014300009799 ] ] } },
{ "type": "Feature", "properties": { "wmUplineSo": "COOK", "wmType": "Underground" }, "geometry": { "type": "LineString", "coordinates": [ [ -92.686548286854205, 47.848700811799802 ], [ -92.6868187, 47.848669300009703 ] ] } },
{ "type": "Feature", "properties": { "wmUplineSo": "COOK", "wmType": "Underground" }, "geometry": { "type": "LineString", "coordinates": [ [ -92.686335214371795, 47.847908202064502 ], [ -92.686340733967299, 47.847933521589802 ] ] } },
{ "type": "Feature", "properties": { "wmUplineSo": "COOK", "wmType": "Underground" }, "geometry": { "type": "LineString", "coordinates": [ [ -92.693244300716302, 47.849626112415898 ], [ -92.692563799999903, 47.849166100009697 ] ] } },
{ "type": "Feature", "properties": { "wmUplineSo": "COOK", "wmType": "Underground" }, "geometry": { "type": "LineString", "coordinates": [ [ -92.706096023272806, 47.856419925707399 ], [ -92.705932, 47.856698100009801 ] ] } },
{ "type": "Feature", "properties": { "wmUplineSo": "COOK", "wmType": "Underground" }, "geometry": { "type": "LineString", "coordinates": [ [ -92.678690160854501, 47.854826283707098 ], [ -92.678668799999897, 47.854873100009698 ] ] } },
{ "type": "Feature", "properties": { "wmUplineSo": "COOK", "wmType": "Underground" }, "geometry": { "type": "LineString", "coordinates": [ [ -92.678676543429603, 47.855092206304199 ], [ -92.678586099999904, 47.854995400009699 ] ] } },
{ "type": "Feature", "properties": { "wmUplineSo": "COOK", "wmType": "Underground" }, "geometry": { "type": "LineString", "coordinates": [ [ -92.678841504570897, 47.8530105550361 ], [ -92.6791099, 47.852885600009699 ] ] } },
{ "type": "Feature", "properties": { "wmUplineSo": "COOK", "wmType": "Underground" }, "geometry": { "type": "LineString", "coordinates": [ [ -92.679341499999893, 47.853602100009802 ], [ -92.679879, 47.853061000009703 ] ] } },
{ "type": "Feature", "properties": { "wmUplineSo": "COOK", "wmType": "Underground" }, "geometry": { "type": "LineString", "coordinates": [ [ -92.679531472847501, 47.8536486310608 ], [ -92.679341499999893, 47.853602100009802 ] ] } },
{ "type": "Feature", "properties": { "wmUplineSo": "COOK", "wmType": "Underground" }, "geometry": { "type": "LineString", "coordinates": [ [ -92.678794510557296, 47.854097874668703 ], [ -92.6791461, 47.854094000009802 ], [ -92.6791461, 47.854094000009802 ] ] } },
{ "type": "Feature", "properties": { "wmUplineSo": "COOK", "wmType": "Underground" }, "geometry": { "type": "LineString", "coordinates": [ [ -92.6791461, 47.854094000009802 ], [ -92.6799141, 47.8541285000098 ] ] } },
{ "type": "Feature", "properties": { "wmUplineSo": "COOK", "wmType": "Underground" }, "geometry": { "type": "LineString", "coordinates": [ [ -92.679779981211794, 47.8180710207929 ], [ -92.679519099999894, 47.817797400009702 ] ] } },
{ "type": "Feature", "properties": { "wmUplineSo": "COOK", "wmType": "Underground" }, "geometry": { "type": "LineString", "coordinates": [ [ -92.679779981211794, 47.8180710207929 ], [ -92.679494599999899, 47.817777300009702 ] ] } },
{ "type": "Feature", "properties": { "wmUplineSo": "COOK", "wmType": "Underground" }, "geometry": { "type": "LineString", "coordinates": [ [ -92.679779981211794, 47.8180710207929 ], [ -92.679484599999896, 47.817777600009698 ] ] } },
{ "type": "Feature", "properties": { "wmUplineSo": "COOK", "wmType": "Underground" }, "geometry": { "type": "LineString", "coordinates": [ [ -92.679779981211794, 47.8180710207929 ], [ -92.679774503554697, 47.817887703360903 ] ] } },
{ "type": "Feature", "properties": { "wmUplineSo": "COOK", "wmType": "Underground" }, "geometry": { "type": "LineString", "coordinates": [ [ -92.647002150985401, 47.798748161818999 ], [ -92.647114099999897, 47.798688400009702 ] ] } },
{ "type": "Feature", "properties": { "wmUplineSo": "COOK", "wmType": "Underground" }, "geometry": { "type": "LineString", "coordinates": [ [ -92.678794510557296, 47.854097874668703 ], [ -92.678487, 47.854296400009702 ] ] } },
{ "type": "Feature", "properties": { "wmUplineSo": "COOK", "wmType": "Underground" }, "geometry": { "type": "LineString", "coordinates": [ [ -92.678794510557296, 47.854097874668703 ], [ -92.6785348, 47.8540269000097 ] ] } },
{ "type": "Feature", "properties": { "wmUplineSo": "COOK", "wmType": "Underground" }, "geometry": { "type": "LineString", "coordinates": [ [ -92.677710530360201, 47.849112829596997 ], [ -92.6780023, 47.849259600009702 ] ] } },
{ "type": "Feature", "properties": { "wmUplineSo": "COOK", "wmType": "Underground" }, "geometry": { "type": "LineString", "coordinates": [ [ -92.662362836184798, 47.798331640132503 ], [ -92.662159499999902, 47.798314700009698 ] ] } },
{ "type": "Feature", "properties": { "wmUplineSo": "COOK", "wmType": "Underground" }, "geometry": { "type": "LineString", "coordinates": [ [ -92.685196762862006, 47.852214934759203 ], [ -92.685204, 47.852215800009702 ] ] } },
{ "type": "Feature", "properties": { "wmUplineSo": "COOK", "wmType": "Underground" }, "geometry": { "type": "LineString", "coordinates": [ [ -92.683006670366794, 47.853285680768401 ], [ -92.683153499999904, 47.853332900009697 ] ] } },
{ "type": "Feature", "properties": { "wmUplineSo": "COOK", "wmType": "Underground" }, "geometry": { "type": "LineString", "coordinates": [ [ -92.695386963371107, 47.851664518228297 ], [ -92.695286799999906, 47.851649800009703 ] ] } },
{ "type": "Feature", "properties": { "wmUplineSo": "COOK", "wmType": "Underground" }, "geometry": { "type": "LineString", "coordinates": [ [ -92.686470982891905, 47.850267614478803 ], [ -92.686191, 47.850122500009697 ] ] } },
{ "type": "Feature", "properties": { "wmUplineSo": "COOK", "wmType": "Underground" }, "geometry": { "type": "LineString", "coordinates": [ [ -92.648290057780898, 47.803866249872002 ], [ -92.6480896, 47.803819700009697 ] ] } },
{ "type": "Feature", "properties": { "wmUplineSo": "COOK", "wmType": "Underground" }, "geometry": { "type": "LineString", "coordinates": [ [ -92.715877861676503, 47.8625836813669 ], [ -92.7158383, 47.862636800009803 ] ] } },
{ "type": "Feature", "properties": { "wmUplineSo": "COOK", "wmType": "Underground" }, "geometry": { "type": "LineString", "coordinates": [ [ -92.695832483824404, 47.850066049790698 ], [ -92.695776599999903, 47.850076900009697 ] ] } },
{ "type": "Feature", "properties": { "wmUplineSo": "COOK", "wmType": "Underground" }, "geometry": { "type": "LineString", "coordinates": [ [ -92.675691272720499, 47.822138823985497 ], [ -92.6756675, 47.822186100009702 ] ] } },
{ "type": "Feature", "properties": { "wmUplineSo": "COOK", "wmType": "Underground" }, "geometry": { "type": "LineString", "coordinates": [ [ -92.6799141, 47.8541285000098 ], [ -92.680921522071799, 47.854144585272799 ] ] } },
{ "type": "Feature", "properties": { "wmUplineSo": "COOK", "wmType": "Underground" }, "geometry": { "type": "LineString", "coordinates": [ [ -92.697247999979695, 47.819778003788699 ], [ -92.697255999979703, 47.820185003788801 ] ] } },
{ "type": "Feature", "properties": { "wmUplineSo": "COOK", "wmType": "Underground" }, "geometry": { "type": "LineString", "coordinates": [ [ -92.697255999979703, 47.820185003788801 ], [ -92.697285999979698, 47.822556003789501 ] ] } },
{ "type": "Feature", "properties": { "wmUplineSo": "COOK", "wmType": "Underground" }, "geometry": { "type": "LineString", "coordinates": [ [ -92.696287420268604, 47.8533726154484 ], [ -92.6962969, 47.853374600009701 ] ] } },
{ "type": "Feature", "properties": { "wmUplineSo": "COOK", "wmType": "Underground" }, "geometry": { "type": "LineString", "coordinates": [ [ -92.686279957106507, 47.847603115310598 ], [ -92.686335214371795, 47.847908202064502 ] ] } },
{ "type": "Feature", "properties": { "wmUplineSo": "COOK", "wmType": "Underground" }, "geometry": { "type": "LineString", "coordinates": [ [ -92.703412999980102, 47.8228660037895 ], [ -92.703094999980095, 47.822487003789497 ] ] } },
{ "type": "Feature", "properties": { "wmUplineSo": "COOK", "wmType": "Underground" }, "geometry": { "type": "LineString", "coordinates": [ [ -92.697285999979698, 47.822556003789501 ], [ -92.698027999979701, 47.8225560037896 ] ] } },
{ "type": "Feature", "properties": { "wmUplineSo": "COOK", "wmType": "Underground" }, "geometry": { "type": "LineString", "coordinates": [ [ -92.698027999979701, 47.8225560037896 ], [ -92.698223999979803, 47.822661003789399 ] ] } },
{ "type": "Feature", "properties": { "wmUplineSo": "COOK", "wmType": "Underground" }, "geometry": { "type": "LineString", "coordinates": [ [ -92.698223999979803, 47.822661003789399 ], [ -92.698723999979805, 47.822677003789401 ] ] } },
{ "type": "Feature", "properties": { "wmUplineSo": "COOK", "wmType": "Underground" }, "geometry": { "type": "LineString", "coordinates": [ [ -92.698723999979805, 47.822677003789401 ], [ -92.701426999980001, 47.822691003789402 ] ] } },
{ "type": "Feature", "properties": { "wmUplineSo": "COOK", "wmType": "Underground" }, "geometry": { "type": "LineString", "coordinates": [ [ -92.673374999978194, 47.8080520037852 ], [ -92.673302999978105, 47.808003003785402 ] ] } },
{ "type": "Feature", "properties": { "wmUplineSo": "COOK", "wmType": "Underground" }, "geometry": { "type": "LineString", "coordinates": [ [ -92.691498999979203, 47.851973003797703 ], [ -92.691513495119096, 47.851905141515402 ] ] } },
{ "type": "Feature", "properties": { "wmUplineSo": "COOK", "wmType": "Underground" }, "geometry": { "type": "LineString", "coordinates": [ [ -92.704992607824806, 47.856390909547699 ], [ -92.7054889558719, 47.8561874544856 ], [ -92.706096023272806, 47.856419925707399 ] ] } },
{ "type": "Feature", "properties": { "wmUplineSo": "COOK", "wmType": "Underground" }, "geometry": { "type": "LineString", "coordinates": [ [ -92.682267398591193, 47.852567838120201 ], [ -92.682263800694898, 47.852472320967401 ] ] } },
{ "type": "Feature", "properties": { "wmUplineSo": "COOK", "wmType": "Underground" }, "geometry": { "type": "LineString", "coordinates": [ [ -92.693007012679601, 47.850493314680797 ], [ -92.6930268694001, 47.850248644012197 ], [ -92.692988588533296, 47.850237234258799 ], [ -92.692951931277506, 47.850223622958801 ], [ -92.692917176541101, 47.850207912727598 ], [ -92.692884586679298, 47.850190223947699 ], [ -92.692854412966696, 47.8501706903442 ], [ -92.692826882164198, 47.850149461504799 ], [ -92.692802204689102, 47.850126697592501 ], [ -92.692780570503501, 47.850102572887501 ], [ -92.692762142621305, 47.850077269407201 ], [ -92.692747060956293, 47.850050982352002 ], [ -92.692735438605794, 47.850023910163998 ], [ -92.692727368396604, 47.849996259110497 ], [ -92.6927229069113, 47.849968241273302 ], [ -92.692722093422901, 47.849940066706303 ], [ -92.692724929598896, 47.849911952159196 ], [ -92.692731394507902, 47.849884110485199 ], [ -92.692741440508499, 47.8498567541833 ], [ -92.692754990683, 47.849830091767501 ], [ -92.692771942949804, 47.849804324224003 ], [ -92.692792165899107, 47.849779650351699 ], [ -92.692815505760095, 47.8497562569626 ], [ -92.692841787683903, 47.8497343206975 ], [ -92.692870807651602, 47.849714010616502 ], [ -92.692902348763596, 47.849695479421797 ], [ -92.692936169036102, 47.8496788695916 ], [ -92.692972012295201, 47.849664306329998 ], [ -92.693009602703299, 47.849651901990804 ], [ -92.693048658298906, 47.849641749961997 ], [ -92.693088877561706, 47.849633927185899 ], [ -92.693129958136396, 47.849628493507701 ], [ -92.693171584838893, 47.849625490617399 ], [ -92.693213443037905, 47.849624941327797 ], [ -92.693244300716302, 47.849626112415898 ] ] } },
{ "type": "Feature", "properties": { "wmUplineSo": "COOK", "wmType": "Underground" }, "geometry": { "type": "LineString", "coordinates": [ [ -92.717313041513606, 47.862344024950701 ], [ -92.717073479049802, 47.862379127438402 ] ] } },
{ "type": "Feature", "properties": { "wmUplineSo": "COOK", "wmType": "Underground" }, "geometry": { "type": "LineString", "coordinates": [ [ -92.678562995632007, 47.8172727688438 ], [ -92.686253722601904, 47.817198754892502 ], [ -92.686364663717896, 47.817197683446899 ] ] } },
{ "type": "Feature", "properties": { "wmUplineSo": "COOK", "wmType": "Underground" }, "geometry": { "type": "LineString", "coordinates": [ [ -92.672916676960398, 47.803128621602603 ], [ -92.673614024921505, 47.803117698842499 ], [ -92.673666622780104, 47.802887061912401 ], [ -92.675992002653203, 47.802579912170003 ] ] } },
{ "type": "Feature", "properties": { "wmUplineSo": "COOK", "wmType": "Underground" }, "geometry": { "type": "LineString", "coordinates": [ [ -92.674597877451404, 47.850233312037197 ], [ -92.672608274410706, 47.850266935315801 ], [ -92.6717512085946, 47.851326405798297 ] ] } },
{ "type": "Feature", "properties": { "wmUplineSo": "COOK", "wmType": "Underground" }, "geometry": { "type": "LineString", "coordinates": [ [ -92.677335173269398, 47.8502209936564 ], [ -92.677419904845607, 47.849360111986996 ], [ -92.677710530360201, 47.849112829596997 ] ] } },
{ "type": "Feature", "properties": { "wmUplineSo": "COOK", "wmType": "Underground" }, "geometry": { "type": "LineString", "coordinates": [ [ -92.686235568764999, 47.849023248560997 ], [ -92.686548286854205, 47.848700811799802 ] ] } },
{ "type": "Feature", "properties": { "wmUplineSo": "COOK", "wmType": "Underground" }, "geometry": { "type": "LineString", "coordinates": [ [ -92.686304808300804, 47.849221989737401 ], [ -92.686235568764999, 47.849023248560997 ] ] } },
{ "type": "Feature", "properties": { "wmUplineSo": "COOK", "wmType": "Underground" }, "geometry": { "type": "LineString", "coordinates": [ [ -92.678690160854501, 47.854826283707098 ], [ -92.678676543429603, 47.855092206304199 ] ] } },
{ "type": "Feature", "properties": { "wmUplineSo": "COOK", "wmType": "Underground" }, "geometry": { "type": "LineString", "coordinates": [ [ -92.678293999978294, 47.853717003798401 ], [ -92.678298581020201, 47.853656413812701 ], [ -92.678299094531198, 47.853649621980097 ] ] } },
{ "type": "Feature", "properties": { "wmUplineSo": "COOK", "wmType": "Underground" }, "geometry": { "type": "LineString", "coordinates": [ [ -92.678299094531198, 47.853649621980097 ], [ -92.678301048877103, 47.853016327508897 ], [ -92.678841504570897, 47.8530105550361 ] ] } },
{ "type": "Feature", "properties": { "wmUplineSo": "COOK", "wmType": "Underground" }, "geometry": { "type": "LineString", "coordinates": [ [ -92.679683360049495, 47.853725238684603 ], [ -92.679618233429395, 47.8536888668595 ], [ -92.679531472847501, 47.8536486310608 ] ] } },
{ "type": "Feature", "properties": { "wmUplineSo": "COOK", "wmType": "Underground" }, "geometry": { "type": "LineString", "coordinates": [ [ -92.680893, 47.819145 ], [ -92.681011949205597, 47.8192174496997 ], [ -92.681901942799101, 47.819810724638302 ], [ -92.682282939183395, 47.819770171067098 ] ] } },
{ "type": "Feature", "properties": { "wmUplineSo": "COOK", "wmType": "Underground" }, "geometry": { "type": "LineString", "coordinates": [ [ -92.647002150985401, 47.798748161818999 ], [ -92.645085229410597, 47.795685014253202 ] ] } },
{ "type": "Feature", "properties": { "wmUplineSo": "COOK", "wmType": "Underground" }, "geometry": { "type": "LineString", "coordinates": [ [ -92.678794510557296, 47.854097874668703 ], [ -92.678690160854501, 47.854826283707098 ], [ -92.678690160854501, 47.854826283707098 ] ] } },
{ "type": "Feature", "properties": { "wmUplineSo": "COOK", "wmType": "Underground" }, "geometry": { "type": "LineString", "coordinates": [ [ -92.686676870195299, 47.852431539149201 ], [ -92.685196762862006, 47.852214934759203 ] ] } },
{ "type": "Feature", "properties": { "wmUplineSo": "COOK", "wmType": "Underground" }, "geometry": { "type": "LineString", "coordinates": [ [ -92.682305572910806, 47.853295580994903 ], [ -92.683006670366794, 47.853285680768401 ] ] } },
{ "type": "Feature", "properties": { "wmUplineSo": "COOK", "wmType": "Underground" }, "geometry": { "type": "LineString", "coordinates": [ [ -92.659432085714897, 47.799073506117203 ], [ -92.659435651131304, 47.798881158640903 ], [ -92.660638969823097, 47.798890697828298 ], [ -92.661133621662501, 47.798896614168498 ], [ -92.661388474919093, 47.798738351554199 ], [ -92.6618662775372, 47.798168882414402 ], [ -92.662362836184798, 47.798331640132503 ] ] } },
{ "type": "Feature", "properties": { "wmUplineSo": "COOK", "wmType": "Underground" }, "geometry": { "type": "LineString", "coordinates": [ [ -92.701426999980001, 47.822691003789402 ], [ -92.702901999980099, 47.822750003789501 ] ] } },
{ "type": "Feature", "properties": { "wmUplineSo": "COOK", "wmType": "Underground" }, "geometry": { "type": "LineString", "coordinates": [ [ -92.686587359642701, 47.850343354525499 ], [ -92.686470982891905, 47.850267614478803 ] ] } },
{ "type": "Feature", "properties": { "wmUplineSo": "COOK", "wmType": "Underground" }, "geometry": { "type": "LineString", "coordinates": [ [ -92.686610679606503, 47.850358531530603 ], [ -92.686587359642701, 47.850343354525499 ] ] } },
{ "type": "Feature", "properties": { "wmUplineSo": "COOK", "wmType": "Underground" }, "geometry": { "type": "LineString", "coordinates": [ [ -92.682282939183395, 47.819770171067098 ], [ -92.681769881631396, 47.819337821879003 ] ] } },
{ "type": "Feature", "properties": { "wmUplineSo": "COOK", "wmType": "Underground" }, "geometry": { "type": "LineString", "coordinates": [ [ -92.678562995632007, 47.8172727688438 ], [ -92.679779981211794, 47.8180710207929 ] ] } },
{ "type": "Feature", "properties": { "wmUplineSo": "COOK", "wmType": "Underground" }, "geometry": { "type": "LineString", "coordinates": [ [ -92.6778378539736, 47.817279721428299 ], [ -92.677860938062906, 47.817293395549903 ] ] } },
{ "type": "Feature", "properties": { "wmUplineSo": "COOK", "wmType": "Underground" }, "geometry": { "type": "LineString", "coordinates": [ [ -92.677860938062906, 47.817293395549903 ], [ -92.680893, 47.819145 ] ] } },
{ "type": "Feature", "properties": { "wmUplineSo": "COOK", "wmType": "Underground" }, "geometry": { "type": "LineString", "coordinates": [ [ -92.6778378539736, 47.817279721428299 ], [ -92.678562995632007, 47.8172727688438 ] ] } },
{ "type": "Feature", "properties": { "wmUplineSo": "COOK", "wmType": "Underground" }, "geometry": { "type": "LineString", "coordinates": [ [ -92.649755999571795, 47.803029961902801 ], [ -92.649667237896793, 47.802853411860902 ] ] } },
{ "type": "Feature", "properties": { "wmUplineSo": "COOK", "wmType": "Underground" }, "geometry": { "type": "LineString", "coordinates": [ [ -92.649667237896793, 47.802853411860902 ], [ -92.647002150985401, 47.798748161818999 ] ] } },
{ "type": "Feature", "properties": { "wmUplineSo": "COOK", "wmType": "Underground" }, "geometry": { "type": "LineString", "coordinates": [ [ -92.626436532503604, 47.8030374958376 ], [ -92.626522390996698, 47.8028911182451 ] ] } },
{ "type": "Feature", "properties": { "wmUplineSo": "COOK", "wmType": "Underground" }, "geometry": { "type": "LineString", "coordinates": [ [ -92.626522390996698, 47.8028911182451 ], [ -92.627047668518799, 47.801995563955899 ], [ -92.626574188602206, 47.801177053636401 ] ] } },
{ "type": "Feature", "properties": { "wmUplineSo": "COOK", "wmType": "Underground" }, "geometry": { "type": "LineString", "coordinates": [ [ -92.609547054335806, 47.816474825952199 ], [ -92.609541974280503, 47.816481886101101 ], [ -92.609297297533004, 47.816821929899398 ] ] } },
{ "type": "Feature", "properties": { "wmUplineSo": "COOK", "wmType": "Underground" }, "geometry": { "type": "LineString", "coordinates": [ [ -92.609297297533004, 47.816821929899398 ], [ -92.6081963670986, 47.817725170591501 ] ] } },
{ "type": "Feature", "properties": { "wmUplineSo": "COOK", "wmType": "Underground" }, "geometry": { "type": "LineString", "coordinates": [ [ -92.648264311894295, 47.803041936880497 ], [ -92.648267175000299, 47.803133602211403 ] ] } },
{ "type": "Feature", "properties": { "wmUplineSo": "COOK", "wmType": "Underground" }, "geometry": { "type": "LineString", "coordinates": [ [ -92.648267175000299, 47.803133602211403 ], [ -92.648290057780898, 47.803866249872002 ] ] } },
{ "type": "Feature", "properties": { "wmUplineSo": "COOK", "wmType": "Underground" }, "geometry": { "type": "LineString", "coordinates": [ [ -92.717073479049802, 47.862379127438402 ], [ -92.715872018260001, 47.862277555589401 ], [ -92.715877861676503, 47.8625836813669 ] ] } },
{ "type": "Feature", "properties": { "wmUplineSo": "COOK", "wmType": "Underground" }, "geometry": { "type": "LineString", "coordinates": [ [ -92.6964588842187, 47.851466221583301 ], [ -92.695579263345095, 47.851434850833598 ], [ -92.695386963371107, 47.851664518228297 ] ] } },
{ "type": "Feature", "properties": { "wmUplineSo": "COOK", "wmType": "Underground" }, "geometry": { "type": "LineString", "coordinates": [ [ -92.696483789434694, 47.8499374794606 ], [ -92.695832483824404, 47.850066049790698 ] ] } },
{ "type": "Feature", "properties": { "wmUplineSo": "COOK", "wmType": "Underground" }, "geometry": { "type": "LineString", "coordinates": [ [ -92.676102796439196, 47.821899546370702 ], [ -92.675691272720499, 47.822138823985497 ] ] } },
{ "type": "Feature", "properties": { "wmUplineSo": "COOK", "wmType": "Underground" }, "geometry": { "type": "LineString", "coordinates": [ [ -92.678770999978397, 47.853723003798301 ], [ -92.678794510557296, 47.854097874668703 ] ] } },
{ "type": "Feature", "properties": { "wmUplineSo": "COOK", "wmType": "Underground" }, "geometry": { "type": "LineString", "coordinates": [ [ -92.688102, 47.853995 ], [ -92.688186, 47.854169 ] ] } },
{ "type": "Feature", "properties": { "wmUplineSo": "COOK", "wmType": "Underground" }, "geometry": { "type": "LineString", "coordinates": [ [ -92.688186, 47.854169 ], [ -92.68835, 47.85422 ] ] } },
{ "type": "Feature", "properties": { "wmUplineSo": "COOK", "wmType": "Underground" }, "geometry": { "type": "LineString", "coordinates": [ [ -92.68835, 47.85422 ], [ -92.688634, 47.8542050000001 ] ] } },
{ "type": "Feature", "properties": { "wmUplineSo": "COOK", "wmType": "Underground" }, "geometry": { "type": "LineString", "coordinates": [ [ -92.673302999978105, 47.808003003785402 ], [ -92.673377699999904, 47.807795100009699 ] ] } },
{ "type": "Feature", "properties": { "wmUplineSo": "COOK", "wmType": "Underground" }, "geometry": { "type": "LineString", "coordinates": [ [ -92.658933330594905, 47.802885771919897 ], [ -92.657409883992699, 47.802867915587903 ], [ -92.656113882088107, 47.802856990408003 ], [ -92.654952197583896, 47.802847185072601 ], [ -92.653907018638193, 47.802838353066697 ], [ -92.653078131115294, 47.802831342005703 ] ] } },
{ "type": "Feature", "properties": { "wmUplineSo": "COOK", "wmType": "Underground" }, "geometry": { "type": "LineString", "coordinates": [ [ -92.663042670416601, 47.8029017369252 ], [ -92.662965756219606, 47.802664207917097 ], [ -92.658963195219201, 47.802640812416797 ], [ -92.658933330594905, 47.802885771919897 ] ] } },
{ "type": "Feature", "properties": { "wmUplineSo": "COOK", "wmType": "Underground" }, "geometry": { "type": "LineString", "coordinates": [ [ -92.679683360049495, 47.853725238684603 ], [ -92.679625779793497, 47.853716810019797 ], [ -92.678813201938397, 47.853711564004598 ], [ -92.678770999978397, 47.853723003798301 ] ] } },
{ "type": "Feature", "properties": { "wmUplineSo": "COOK", "wmType": "Underground" }, "geometry": { "type": "LineString", "coordinates": [ [ -92.682283999978594, 47.852860003798099 ], [ -92.680491507461397, 47.8529064212196 ] ] } },
{ "type": "Feature", "properties": { "wmUplineSo": "COOK", "wmType": "Underground" }, "geometry": { "type": "LineString", "coordinates": [ [ -92.702901999980099, 47.822750003789501 ], [ -92.703412999980102, 47.8228660037895 ] ] } },
{ "type": "Feature", "properties": { "wmUplineSo": "COOK", "wmType": "Underground" }, "geometry": { "type": "LineString", "coordinates": [ [ -92.703412999980102, 47.8228660037895 ], [ -92.703479052802393, 47.822834727878799 ] ] } }
]
}
