{
"type": "FeatureCollection",
"crs": { "type": "name", "properties": { "name": "urn:ogc:def:crs:OGC:1.3:CRS84" } },
"features": [
{ "type": "Feature", "properties": { "wmUplineSo": "COTTON", "wmType": "Underground" }, "geometry": { "type": "LineString", "coordinates": [ [ -92.604981, 47.138838 ], [ -92.605011, 47.1388350000001 ] ] } },
{ "type": "Feature", "properties": { "wmUplineSo": "COTTON", "wmType": "Underground" }, "geometry": { "type": "LineString", "coordinates": [ [ -92.601063999999894, 47.139313000008897 ], [ -92.601174421790006, 47.139421316633303 ] ] } },
{ "type": "Feature", "properties": { "wmUplineSo": "COTTON", "wmType": "Underground" }, "geometry": { "type": "LineString", "coordinates": [ [ -92.601174421790006, 47.139421316633303 ], [ -92.601482679738197, 47.139443932695301 ] ] } },
{ "type": "Feature", "properties": { "wmUplineSo": "COTTON", "wmType": "Underground" }, "geometry": { "type": "LineString", "coordinates": [ [ -92.601482679738197, 47.139443932695301 ], [ -92.602036793520895, 47.139547314304799 ] ] } },
{ "type": "Feature", "properties": { "wmUplineSo": "COTTON", "wmType": "Underground" }, "geometry": { "type": "LineString", "coordinates": [ [ -92.602036793520895, 47.139547314304799 ], [ -92.602117827195102, 47.1394062523107 ] ] } },
{ "type": "Feature", "properties": { "wmUplineSo": "COTTON", "wmType": "Underground" }, "geometry": { "type": "LineString", "coordinates": [ [ -92.602117827195102, 47.1394062523107 ], [ -92.602400421524905, 47.139374987506997 ] ] } },
{ "type": "Feature", "properties": { "wmUplineSo": "COTTON", "wmType": "Underground" }, "geometry": { "type": "LineString", "coordinates": [ [ -92.602400421524905, 47.139374987506997 ], [ -92.602542586117906, 47.139339461548701 ] ] } },
{ "type": "Feature", "properties": { "wmUplineSo": "COTTON", "wmType": "Underground" }, "geometry": { "type": "LineString", "coordinates": [ [ -92.602542586117906, 47.139339461548701 ], [ -92.602806, 47.13926 ] ] } },
{ "type": "Feature", "properties": { "wmUplineSo": "COTTON", "wmType": "Underground" }, "geometry": { "type": "LineString", "coordinates": [ [ -92.602806, 47.13926 ], [ -92.603098, 47.139305 ] ] } },
{ "type": "Feature", "properties": { "wmUplineSo": "COTTON", "wmType": "Underground" }, "geometry": { "type": "LineString", "coordinates": [ [ -92.603098, 47.139305 ], [ -92.603997, 47.139299999999899 ] ] } },
{ "type": "Feature", "properties": { "wmUplineSo": "COTTON", "wmType": "Underground" }, "geometry": { "type": "LineString", "coordinates": [ [ -92.603997, 47.139299999999899 ], [ -92.604131, 47.139280999999897 ] ] } },
{ "type": "Feature", "properties": { "wmUplineSo": "COTTON", "wmType": "Underground" }, "geometry": { "type": "LineString", "coordinates": [ [ -92.604131, 47.139280999999897 ], [ -92.604981, 47.138838 ] ] } },
{ "type": "Feature", "properties": { "wmUplineSo": "COTTON", "wmType": "Underground" }, "geometry": { "type": "LineString", "coordinates": [ [ -92.602106310743693, 47.139509600784997 ], [ -92.602133814538206, 47.1395072246628 ] ] } },
{ "type": "Feature", "properties": { "wmUplineSo": "COTTON", "wmType": "Underground" }, "geometry": { "type": "LineString", "coordinates": [ [ -92.602133814538206, 47.1395072246628 ], [ -92.602155630037103, 47.139503606488702 ] ] } },
{ "type": "Feature", "properties": { "wmUplineSo": "COTTON", "wmType": "Underground" }, "geometry": { "type": "LineString", "coordinates": [ [ -92.651868886654796, 47.145731324267103 ], [ -92.651588, 47.145752000000101 ] ] } },
{ "type": "Feature", "properties": { "wmUplineSo": "COTTON", "wmType": "Underground" }, "geometry": { "type": "LineString", "coordinates": [ [ -92.651588, 47.145752000000101 ], [ -92.650739, 47.14574 ] ] } },
{ "type": "Feature", "properties": { "wmUplineSo": "COTTON", "wmType": "Underground" }, "geometry": { "type": "LineString", "coordinates": [ [ -92.650739, 47.14574 ], [ -92.649922, 47.145751 ] ] } },
{ "type": "Feature", "properties": { "wmUplineSo": "COTTON", "wmType": "Underground" }, "geometry": { "type": "LineString", "coordinates": [ [ -92.649922, 47.145751 ], [ -92.648592, 47.145775 ] ] } },
{ "type": "Feature", "properties": { "wmUplineSo": "COTTON", "wmType": "Underground" }, "geometry": { "type": "LineString", "coordinates": [ [ -92.648592, 47.145775 ], [ -92.647296, 47.145735000000101 ] ] } },
{ "type": "Feature", "properties": { "wmUplineSo": "COTTON", "wmType": "Underground" }, "geometry": { "type": "LineString", "coordinates": [ [ -92.647296, 47.145735000000101 ], [ -92.647043, 47.145628 ] ] } },
{ "type": "Feature", "properties": { "wmUplineSo": "COTTON", "wmType": "Underground" }, "geometry": { "type": "LineString", "coordinates": [ [ -92.647043, 47.145628 ], [ -92.646893653781504, 47.145440236961598 ] ] } },
{ "type": "Feature", "properties": { "wmUplineSo": "COTTON", "wmType": "Underground" }, "geometry": { "type": "LineString", "coordinates": [ [ -92.646893653781504, 47.145440236961598 ], [ -92.646891753916407, 47.145424634688503 ] ] } },
{ "type": "Feature", "properties": { "wmUplineSo": "COTTON", "wmType": "Underground" }, "geometry": { "type": "LineString", "coordinates": [ [ -92.557534, 47.153833000008902 ], [ -92.557478974602205, 47.156239022663797 ] ] } },
{ "type": "Feature", "properties": { "wmUplineSo": "COTTON", "wmType": "Underground" }, "geometry": { "type": "LineString", "coordinates": [ [ -92.557478974602205, 47.156239022663797 ], [ -92.557695327705403, 47.156214022781597 ] ] } },
{ "type": "Feature", "properties": { "wmUplineSo": "COTTON", "wmType": "Underground" }, "geometry": { "type": "LineString", "coordinates": [ [ -92.557695327705403, 47.156214022781597 ], [ -92.5587482476151, 47.156562281145497 ] ] } },
{ "type": "Feature", "properties": { "wmUplineSo": "COTTON", "wmType": "Underground" }, "geometry": { "type": "LineString", "coordinates": [ [ -92.5587482476151, 47.156562281145497 ], [ -92.559003183221094, 47.156636757360801 ] ] } },
{ "type": "Feature", "properties": { "wmUplineSo": "COTTON", "wmType": "Underground" }, "geometry": { "type": "LineString", "coordinates": [ [ -92.559003183221094, 47.156636757360801 ], [ -92.559255196250504, 47.1568004111693 ] ] } },
{ "type": "Feature", "properties": { "wmUplineSo": "COTTON", "wmType": "Underground" }, "geometry": { "type": "LineString", "coordinates": [ [ -92.472278986866399, 47.1600947527998 ], [ -92.472448228861893, 47.160247424147002 ] ] } },
{ "type": "Feature", "properties": { "wmUplineSo": "COTTON", "wmType": "Underground" }, "geometry": { "type": "LineString", "coordinates": [ [ -92.472448228861893, 47.160247424147002 ], [ -92.472452821701395, 47.160281348122297 ] ] } },
{ "type": "Feature", "properties": { "wmUplineSo": "COTTON", "wmType": "Underground" }, "geometry": { "type": "LineString", "coordinates": [ [ -92.472452821701395, 47.160281348122297 ], [ -92.472659082687201, 47.160312005985297 ] ] } },
{ "type": "Feature", "properties": { "wmUplineSo": "COTTON", "wmType": "Underground" }, "geometry": { "type": "LineString", "coordinates": [ [ -92.472659082687201, 47.160312005985297 ], [ -92.473048864038802, 47.160351999875601 ] ] } },
{ "type": "Feature", "properties": { "wmUplineSo": "COTTON", "wmType": "Underground" }, "geometry": { "type": "LineString", "coordinates": [ [ -92.473048864038802, 47.160351999875601 ], [ -92.473088105633806, 47.160682256386401 ] ] } },
{ "type": "Feature", "properties": { "wmUplineSo": "COTTON", "wmType": "Underground" }, "geometry": { "type": "LineString", "coordinates": [ [ -92.473088105633806, 47.160682256386401 ], [ -92.473059, 47.161143000008899 ] ] } },
{ "type": "Feature", "properties": { "wmUplineSo": "COTTON", "wmType": "Underground" }, "geometry": { "type": "LineString", "coordinates": [ [ -92.472169718136598, 47.160053733756598 ], [ -92.472192550226893, 47.160053838954099 ] ] } },
{ "type": "Feature", "properties": { "wmUplineSo": "COTTON", "wmType": "Underground" }, "geometry": { "type": "LineString", "coordinates": [ [ -92.472192550226893, 47.160053838954099 ], [ -92.472192609074995, 47.160047896836701 ] ] } },
{ "type": "Feature", "properties": { "wmUplineSo": "COTTON", "wmType": "Underground" }, "geometry": { "type": "LineString", "coordinates": [ [ -92.472192609074995, 47.160047896836701 ], [ -92.472199623635902, 47.160047929154999 ] ] } },
{ "type": "Feature", "properties": { "wmUplineSo": "COTTON", "wmType": "Underground" }, "geometry": { "type": "LineString", "coordinates": [ [ -92.472199623635902, 47.160047929154999 ], [ -92.472219947876496, 47.160048022792701 ] ] } },
{ "type": "Feature", "properties": { "wmUplineSo": "COTTON", "wmType": "Underground" }, "geometry": { "type": "LineString", "coordinates": [ [ -92.472219947876496, 47.160048022792701 ], [ -92.472242070722501, 47.160048124712802 ] ] } },
{ "type": "Feature", "properties": { "wmUplineSo": "COTTON", "wmType": "Underground" }, "geometry": { "type": "LineString", "coordinates": [ [ -92.472219947876496, 47.160048022792701 ], [ -92.472220059038094, 47.160036797780002 ] ] } },
{ "type": "Feature", "properties": { "wmUplineSo": "COTTON", "wmType": "Underground" }, "geometry": { "type": "LineString", "coordinates": [ [ -92.559499882404793, 47.156809668362001 ], [ -92.559521095661594, 47.156805017046203 ] ] } },
{ "type": "Feature", "properties": { "wmUplineSo": "COTTON", "wmType": "Underground" }, "geometry": { "type": "LineString", "coordinates": [ [ -92.485009, 47.169326000009001 ], [ -92.484696999999898, 47.168767000008998 ] ] } },
{ "type": "Feature", "properties": { "wmUplineSo": "COTTON", "wmType": "Underground" }, "geometry": { "type": "LineString", "coordinates": [ [ -92.602036793520895, 47.139547314304799 ], [ -92.602106310743693, 47.139509600784997 ] ] } },
{ "type": "Feature", "properties": { "wmUplineSo": "COTTON", "wmType": "Underground" }, "geometry": { "type": "LineString", "coordinates": [ [ -92.603360918533198, 47.211617223940699 ], [ -92.603341918668605, 47.211345223938203 ] ] } },
{ "type": "Feature", "properties": { "wmUplineSo": "COTTON", "wmType": "Underground" }, "geometry": { "type": "LineString", "coordinates": [ [ -92.603341918668605, 47.211345223938203 ], [ -92.6033529207035, 47.207671223972397 ] ] } },
{ "type": "Feature", "properties": { "wmUplineSo": "COTTON", "wmType": "Underground" }, "geometry": { "type": "LineString", "coordinates": [ [ -92.6033529207035, 47.207671223972397 ], [ -92.603391922521496, 47.204429224010298 ] ] } },
{ "type": "Feature", "properties": { "wmUplineSo": "COTTON", "wmType": "Underground" }, "geometry": { "type": "LineString", "coordinates": [ [ -92.603391922521496, 47.204429224010298 ], [ -92.603436923344802, 47.202999224034002 ] ] } },
{ "type": "Feature", "properties": { "wmUplineSo": "COTTON", "wmType": "Underground" }, "geometry": { "type": "LineString", "coordinates": [ [ -92.603436923344802, 47.202999224034002 ], [ -92.603274925798004, 47.198322224032701 ] ] } },
{ "type": "Feature", "properties": { "wmUplineSo": "COTTON", "wmType": "Underground" }, "geometry": { "type": "LineString", "coordinates": [ [ -92.603274925798004, 47.198322224032701 ], [ -92.603188926587507, 47.196769224024003 ] ] } },
{ "type": "Feature", "properties": { "wmUplineSo": "COTTON", "wmType": "Underground" }, "geometry": { "type": "LineString", "coordinates": [ [ -92.603188926587507, 47.196769224024003 ], [ -92.603278926346206, 47.197333224041998 ] ] } },
{ "type": "Feature", "properties": { "wmUplineSo": "COTTON", "wmType": "Underground" }, "geometry": { "type": "LineString", "coordinates": [ [ -92.603278926346206, 47.197333224041998 ], [ -92.6032545999999, 47.197278300009003 ] ] } },
{ "type": "Feature", "properties": { "wmUplineSo": "COTTON", "wmType": "Underground" }, "geometry": { "type": "LineString", "coordinates": [ [ -92.603835, 47.211577000009001 ], [ -92.603360918533198, 47.211617223940699 ] ] } },
{ "type": "Feature", "properties": { "wmUplineSo": "COTTON", "wmType": "Underground" }, "geometry": { "type": "LineString", "coordinates": [ [ -92.603360918533198, 47.211617223940699 ], [ -92.603304916239594, 47.215696223891399 ] ] } },
{ "type": "Feature", "properties": { "wmUplineSo": "COTTON", "wmType": "Underground" }, "geometry": { "type": "LineString", "coordinates": [ [ -92.603304916239594, 47.215696223891399 ], [ -92.603310913825098, 47.220080223855597 ] ] } },
{ "type": "Feature", "properties": { "wmUplineSo": "COTTON", "wmType": "Underground" }, "geometry": { "type": "LineString", "coordinates": [ [ -92.603310913825098, 47.220080223855597 ], [ -92.603279911734106, 47.223825223815403 ] ] } },
{ "type": "Feature", "properties": { "wmUplineSo": "COTTON", "wmType": "Underground" }, "geometry": { "type": "LineString", "coordinates": [ [ -92.603279911734106, 47.223825223815403 ], [ -92.603316910769095, 47.225625223809701 ] ] } },
{ "type": "Feature", "properties": { "wmUplineSo": "COTTON", "wmType": "Underground" }, "geometry": { "type": "LineString", "coordinates": [ [ -92.603316910769095, 47.225625223809701 ], [ -92.603356827235899, 47.226191811874799 ] ] } },
{ "type": "Feature", "properties": { "wmUplineSo": "COTTON", "wmType": "Underground" }, "geometry": { "type": "LineString", "coordinates": [ [ -92.536896999999897, 47.161645000009003 ], [ -92.541472647094196, 47.161536680100902 ] ] } },
{ "type": "Feature", "properties": { "wmUplineSo": "COTTON", "wmType": "Underground" }, "geometry": { "type": "LineString", "coordinates": [ [ -92.541472647094196, 47.161536680100902 ], [ -92.543085373439396, 47.159703904585697 ] ] } },
{ "type": "Feature", "properties": { "wmUplineSo": "COTTON", "wmType": "Underground" }, "geometry": { "type": "LineString", "coordinates": [ [ -92.543085373439396, 47.159703904585697 ], [ -92.543715599999899, 47.159667900008898 ] ] } },
{ "type": "Feature", "properties": { "wmUplineSo": "COTTON", "wmType": "Underground" }, "geometry": { "type": "LineString", "coordinates": [ [ -92.485899, 47.169147000008998 ], [ -92.4860228381052, 47.169096138263001 ] ] } },
{ "type": "Feature", "properties": { "wmUplineSo": "COTTON", "wmType": "Underground" }, "geometry": { "type": "LineString", "coordinates": [ [ -92.516061580238201, 47.168719307168601 ], [ -92.5158454900549, 47.169396954779899 ] ] } },
{ "type": "Feature", "properties": { "wmUplineSo": "COTTON", "wmType": "Underground" }, "geometry": { "type": "LineString", "coordinates": [ [ -92.506423999999896, 47.168942000008897 ], [ -92.506581098613196, 47.168893807541899 ] ] } },
{ "type": "Feature", "properties": { "wmUplineSo": "COTTON", "wmType": "Underground" }, "geometry": { "type": "LineString", "coordinates": [ [ -92.506581098613196, 47.168893807541899 ], [ -92.506475, 47.16955 ] ] } },
{ "type": "Feature", "properties": { "wmUplineSo": "COTTON", "wmType": "Underground" }, "geometry": { "type": "LineString", "coordinates": [ [ -92.506475, 47.16955 ], [ -92.506477, 47.169572000000102 ] ] } },
{ "type": "Feature", "properties": { "wmUplineSo": "COTTON", "wmType": "Underground" }, "geometry": { "type": "LineString", "coordinates": [ [ -92.671854999999894, 47.086870000008901 ], [ -92.671857079414806, 47.0867256939136 ] ] } },
{ "type": "Feature", "properties": { "wmUplineSo": "COTTON", "wmType": "Underground" }, "geometry": { "type": "LineString", "coordinates": [ [ -92.671857079414806, 47.0867256939136 ], [ -92.671815, 47.086244 ] ] } },
{ "type": "Feature", "properties": { "wmUplineSo": "COTTON", "wmType": "Underground" }, "geometry": { "type": "LineString", "coordinates": [ [ -92.671815, 47.086244 ], [ -92.672133, 47.086034 ] ] } },
{ "type": "Feature", "properties": { "wmUplineSo": "COTTON", "wmType": "Underground" }, "geometry": { "type": "LineString", "coordinates": [ [ -92.672133, 47.086034 ], [ -92.672116129594798, 47.085577323878702 ] ] } },
{ "type": "Feature", "properties": { "wmUplineSo": "COTTON", "wmType": "Underground" }, "geometry": { "type": "LineString", "coordinates": [ [ -92.672116129594798, 47.085577323878702 ], [ -92.672401, 47.085351 ] ] } },
{ "type": "Feature", "properties": { "wmUplineSo": "COTTON", "wmType": "Underground" }, "geometry": { "type": "LineString", "coordinates": [ [ -92.672401, 47.085351 ], [ -92.672490380662893, 47.085356612068303 ] ] } },
{ "type": "Feature", "properties": { "wmUplineSo": "COTTON", "wmType": "Underground" }, "geometry": { "type": "LineString", "coordinates": [ [ -92.672490380662893, 47.085356612068303 ], [ -92.672544766405096, 47.085355106055097 ] ] } },
{ "type": "Feature", "properties": { "wmUplineSo": "COTTON", "wmType": "Underground" }, "geometry": { "type": "LineString", "coordinates": [ [ -92.5922261412165, 47.149802310101101 ], [ -92.592141099999907, 47.149645600008903 ] ] } },
{ "type": "Feature", "properties": { "wmUplineSo": "COTTON", "wmType": "Underground" }, "geometry": { "type": "LineString", "coordinates": [ [ -92.476062351689706, 47.165894477045903 ], [ -92.475828799999903, 47.1657142000089 ] ] } },
{ "type": "Feature", "properties": { "wmUplineSo": "COTTON", "wmType": "Underground" }, "geometry": { "type": "LineString", "coordinates": [ [ -92.477431999999894, 47.168400000008901 ], [ -92.477420599999903, 47.168413900009 ] ] } },
{ "type": "Feature", "properties": { "wmUplineSo": "COTTON", "wmType": "Underground" }, "geometry": { "type": "LineString", "coordinates": [ [ -92.485771839104601, 47.166944138221503 ], [ -92.485815799999898, 47.166912000008899 ] ] } },
{ "type": "Feature", "properties": { "wmUplineSo": "COTTON", "wmType": "Underground" }, "geometry": { "type": "LineString", "coordinates": [ [ -92.511078127506494, 47.1675587607442 ], [ -92.510794499999903, 47.1679086000089 ] ] } },
{ "type": "Feature", "properties": { "wmUplineSo": "COTTON", "wmType": "Underground" }, "geometry": { "type": "LineString", "coordinates": [ [ -92.512909753773002, 47.170330124147704 ], [ -92.512966799999901, 47.170340800008901 ] ] } },
{ "type": "Feature", "properties": { "wmUplineSo": "COTTON", "wmType": "Underground" }, "geometry": { "type": "LineString", "coordinates": [ [ -92.516691867989493, 47.168188134756498 ], [ -92.516629599999902, 47.168275300009 ] ] } },
{ "type": "Feature", "properties": { "wmUplineSo": "COTTON", "wmType": "Underground" }, "geometry": { "type": "LineString", "coordinates": [ [ -92.516069, 47.168690000008901 ], [ -92.515960299999904, 47.168789100009 ] ] } },
{ "type": "Feature", "properties": { "wmUplineSo": "COTTON", "wmType": "Underground" }, "geometry": { "type": "LineString", "coordinates": [ [ -92.518454465513599, 47.169264211119298 ], [ -92.518502899999902, 47.169201300009 ] ] } },
{ "type": "Feature", "properties": { "wmUplineSo": "COTTON", "wmType": "Underground" }, "geometry": { "type": "LineString", "coordinates": [ [ -92.517723, 47.168751000008903 ], [ -92.517829499999905, 47.168598000008998 ] ] } },
{ "type": "Feature", "properties": { "wmUplineSo": "COTTON", "wmType": "Underground" }, "geometry": { "type": "LineString", "coordinates": [ [ -92.520214210862605, 47.169473438349797 ], [ -92.520224071347201, 47.169524644739298 ] ] } },
{ "type": "Feature", "properties": { "wmUplineSo": "COTTON", "wmType": "Underground" }, "geometry": { "type": "LineString", "coordinates": [ [ -92.519025303220204, 47.167410266389901 ], [ -92.518866799999898, 47.167386100008898 ] ] } },
{ "type": "Feature", "properties": { "wmUplineSo": "COTTON", "wmType": "Underground" }, "geometry": { "type": "LineString", "coordinates": [ [ -92.518787020923298, 47.168723571760097 ], [ -92.518789999999896, 47.168729000009002 ] ] } },
{ "type": "Feature", "properties": { "wmUplineSo": "COTTON", "wmType": "Underground" }, "geometry": { "type": "LineString", "coordinates": [ [ -92.532248863609297, 47.169157569353501 ], [ -92.531883899999897, 47.1691441000089 ] ] } },
{ "type": "Feature", "properties": { "wmUplineSo": "COTTON", "wmType": "Underground" }, "geometry": { "type": "LineString", "coordinates": [ [ -92.529604454938806, 47.164651821843997 ], [ -92.529557999999895, 47.164560000008997 ] ] } },
{ "type": "Feature", "properties": { "wmUplineSo": "COTTON", "wmType": "Underground" }, "geometry": { "type": "LineString", "coordinates": [ [ -92.564167489926803, 47.175444237723497 ], [ -92.564398200592805, 47.175332523829603 ] ] } },
{ "type": "Feature", "properties": { "wmUplineSo": "COTTON", "wmType": "Underground" }, "geometry": { "type": "LineString", "coordinates": [ [ -92.630710717682305, 47.176520625946402 ], [ -92.6305396, 47.176514300008897 ] ] } },
{ "type": "Feature", "properties": { "wmUplineSo": "COTTON", "wmType": "Underground" }, "geometry": { "type": "LineString", "coordinates": [ [ -92.648726, 47.138945000008903 ], [ -92.648718, 47.138934000008902 ] ] } },
{ "type": "Feature", "properties": { "wmUplineSo": "COTTON", "wmType": "Underground" }, "geometry": { "type": "LineString", "coordinates": [ [ -92.645461542843805, 47.140513017648097 ], [ -92.6452423, 47.140549600008903 ] ] } },
{ "type": "Feature", "properties": { "wmUplineSo": "COTTON", "wmType": "Underground" }, "geometry": { "type": "LineString", "coordinates": [ [ -92.518787020923298, 47.168723571760097 ], [ -92.518789899999902, 47.168732100009002 ] ] } },
{ "type": "Feature", "properties": { "wmUplineSo": "COTTON", "wmType": "Underground" }, "geometry": { "type": "LineString", "coordinates": [ [ -92.485823839018806, 47.167171138232298 ], [ -92.485771839104601, 47.166944138221503 ] ] } },
{ "type": "Feature", "properties": { "wmUplineSo": "COTTON", "wmType": "Underground" }, "geometry": { "type": "LineString", "coordinates": [ [ -92.578562, 47.141547000008899 ], [ -92.578147399999906, 47.141685000008898 ] ] } },
{ "type": "Feature", "properties": { "wmUplineSo": "COTTON", "wmType": "Underground" }, "geometry": { "type": "LineString", "coordinates": [ [ -92.586891284554397, 47.167888518056301 ], [ -92.587023599999895, 47.167894800009002 ] ] } },
{ "type": "Feature", "properties": { "wmUplineSo": "COTTON", "wmType": "Underground" }, "geometry": { "type": "LineString", "coordinates": [ [ -92.539091328003195, 47.163760794216103 ], [ -92.538985599999904, 47.162786400008898 ] ] } },
{ "type": "Feature", "properties": { "wmUplineSo": "COTTON", "wmType": "Underground" }, "geometry": { "type": "LineString", "coordinates": [ [ -92.532285421311798, 47.166956772165697 ], [ -92.532074099999903, 47.167231300008901 ] ] } },
{ "type": "Feature", "properties": { "wmUplineSo": "COTTON", "wmType": "Underground" }, "geometry": { "type": "LineString", "coordinates": [ [ -92.642457049878999, 47.1608284156355 ], [ -92.641938499999895, 47.160292300008898 ] ] } },
{ "type": "Feature", "properties": { "wmUplineSo": "COTTON", "wmType": "Underground" }, "geometry": { "type": "LineString", "coordinates": [ [ -92.538382356292502, 47.167833558533999 ], [ -92.538481299999901, 47.1677621000089 ] ] } },
{ "type": "Feature", "properties": { "wmUplineSo": "COTTON", "wmType": "Underground" }, "geometry": { "type": "LineString", "coordinates": [ [ -92.4862228383614, 47.168911138316503 ], [ -92.486092838958001, 47.167654138296498 ] ] } },
{ "type": "Feature", "properties": { "wmUplineSo": "COTTON", "wmType": "Underground" }, "geometry": { "type": "LineString", "coordinates": [ [ -92.637818, 47.168082000008901 ], [ -92.637894969005501, 47.168416233142203 ] ] } },
{ "type": "Feature", "properties": { "wmUplineSo": "COTTON", "wmType": "Underground" }, "geometry": { "type": "LineString", "coordinates": [ [ -92.5158454900549, 47.169396954779899 ], [ -92.515787553030094, 47.169396709914103 ] ] } },
{ "type": "Feature", "properties": { "wmUplineSo": "COTTON", "wmType": "Underground" }, "geometry": { "type": "LineString", "coordinates": [ [ -92.637894969005501, 47.168416233142203 ], [ -92.638072778877699, 47.1685189433354 ] ] } },
{ "type": "Feature", "properties": { "wmUplineSo": "COTTON", "wmType": "Underground" }, "geometry": { "type": "LineString", "coordinates": [ [ -92.511960797013998, 47.168822666308898 ], [ -92.511322438839997, 47.168230446804998 ], [ -92.511078127506494, 47.1675587607442 ] ] } },
{ "type": "Feature", "properties": { "wmUplineSo": "COTTON", "wmType": "Underground" }, "geometry": { "type": "LineString", "coordinates": [ [ -92.514114, 47.168770000008898 ], [ -92.512909753773002, 47.170330124147704 ] ] } },
{ "type": "Feature", "properties": { "wmUplineSo": "COTTON", "wmType": "Underground" }, "geometry": { "type": "LineString", "coordinates": [ [ -92.514121419394598, 47.168775304843102 ], [ -92.514114, 47.168770000008898 ] ] } },
{ "type": "Feature", "properties": { "wmUplineSo": "COTTON", "wmType": "Underground" }, "geometry": { "type": "LineString", "coordinates": [ [ -92.518789899999902, 47.168732100009002 ], [ -92.520214210862605, 47.169473438349797 ] ] } },
{ "type": "Feature", "properties": { "wmUplineSo": "COTTON", "wmType": "Underground" }, "geometry": { "type": "LineString", "coordinates": [ [ -92.518787020923298, 47.168723571760097 ], [ -92.518862200023904, 47.1685804915411 ], [ -92.519025303220204, 47.167410266389901 ] ] } },
{ "type": "Feature", "properties": { "wmUplineSo": "COTTON", "wmType": "Underground" }, "geometry": { "type": "LineString", "coordinates": [ [ -92.516069, 47.168690000008901 ], [ -92.516099918443004, 47.168667999745502 ] ] } },
{ "type": "Feature", "properties": { "wmUplineSo": "COTTON", "wmType": "Underground" }, "geometry": { "type": "LineString", "coordinates": [ [ -92.531315210946104, 47.1669958406723 ], [ -92.531310985102806, 47.165888721572898 ], [ -92.531233828911596, 47.164738448293903 ], [ -92.531092108843396, 47.164578350359001 ], [ -92.530855404351499, 47.164501193577102 ], [ -92.530583079450196, 47.1645048397613 ], [ -92.529604454938806, 47.164651821843997 ] ] } },
{ "type": "Feature", "properties": { "wmUplineSo": "COTTON", "wmType": "Underground" }, "geometry": { "type": "LineString", "coordinates": [ [ -92.531204, 47.1687860000089 ], [ -92.531451579200194, 47.168594183677499 ] ] } },
{ "type": "Feature", "properties": { "wmUplineSo": "COTTON", "wmType": "Underground" }, "geometry": { "type": "LineString", "coordinates": [ [ -92.531445706903, 47.1685668405947 ], [ -92.531204, 47.1687860000089 ], [ -92.5314880604639, 47.168632417861801 ], [ -92.532348999999897, 47.168778000008899 ], [ -92.532101939898396, 47.1687291556633 ], [ -92.532248863609297, 47.169157569353501 ] ] } },
{ "type": "Feature", "properties": { "wmUplineSo": "COTTON", "wmType": "Underground" }, "geometry": { "type": "LineString", "coordinates": [ [ -92.568389999999894, 47.175416000008902 ], [ -92.564167489926803, 47.175444237723603 ], [ -92.564167489926803, 47.175444237723497 ] ] } },
{ "type": "Feature", "properties": { "wmUplineSo": "COTTON", "wmType": "Underground" }, "geometry": { "type": "LineString", "coordinates": [ [ -92.631214, 47.176119000008903 ], [ -92.630710717682305, 47.176520625946402 ] ] } },
{ "type": "Feature", "properties": { "wmUplineSo": "COTTON", "wmType": "Underground" }, "geometry": { "type": "LineString", "coordinates": [ [ -92.648578466772705, 47.138946363990797 ], [ -92.644617199189994, 47.138950264120197 ], [ -92.645461542843805, 47.140513017648097 ] ] } },
{ "type": "Feature", "properties": { "wmUplineSo": "COTTON", "wmType": "Underground" }, "geometry": { "type": "LineString", "coordinates": [ [ -92.593419999999895, 47.149809000008901 ], [ -92.5922261412165, 47.149802310101101 ] ] } },
{ "type": "Feature", "properties": { "wmUplineSo": "COTTON", "wmType": "Underground" }, "geometry": { "type": "LineString", "coordinates": [ [ -92.537344865656294, 47.163746193403099 ], [ -92.539091328003195, 47.163760794216103 ] ] } },
{ "type": "Feature", "properties": { "wmUplineSo": "COTTON", "wmType": "Underground" }, "geometry": { "type": "LineString", "coordinates": [ [ -92.536781, 47.163701000008899 ], [ -92.537344865656294, 47.163746193403099 ] ] } },
{ "type": "Feature", "properties": { "wmUplineSo": "COTTON", "wmType": "Underground" }, "geometry": { "type": "LineString", "coordinates": [ [ -92.586410999999899, 47.168271000009 ], [ -92.586533907587096, 47.167910154653498 ], [ -92.586597593355407, 47.167811329108602 ], [ -92.586825187944299, 47.167834052533799 ], [ -92.586891284554397, 47.167888518056301 ] ] } },
{ "type": "Feature", "properties": { "wmUplineSo": "COTTON", "wmType": "Underground" }, "geometry": { "type": "LineString", "coordinates": [ [ -92.531451579200194, 47.168594183677499 ], [ -92.531445706903, 47.1685668405947 ] ] } },
{ "type": "Feature", "properties": { "wmUplineSo": "COTTON", "wmType": "Underground" }, "geometry": { "type": "LineString", "coordinates": [ [ -92.516069, 47.168690000008901 ], [ -92.516069, 47.168690000008901 ] ] } },
{ "type": "Feature", "properties": { "wmUplineSo": "COTTON", "wmType": "Underground" }, "geometry": { "type": "LineString", "coordinates": [ [ -92.516069, 47.168690000008901 ], [ -92.516061580238201, 47.168719307168601 ] ] } },
{ "type": "Feature", "properties": { "wmUplineSo": "COTTON", "wmType": "Underground" }, "geometry": { "type": "LineString", "coordinates": [ [ -92.511960797013998, 47.168822666308898 ], [ -92.511960797013998, 47.168822666308898 ] ] } },
{ "type": "Feature", "properties": { "wmUplineSo": "COTTON", "wmType": "Underground" }, "geometry": { "type": "LineString", "coordinates": [ [ -92.586534553894595, 47.168237854723003 ], [ -92.586410999999899, 47.168271000009 ] ] } },
{ "type": "Feature", "properties": { "wmUplineSo": "COTTON", "wmType": "Underground" }, "geometry": { "type": "LineString", "coordinates": [ [ -92.648726, 47.138945000008903 ], [ -92.648578466772705, 47.138946363990797 ] ] } },
{ "type": "Feature", "properties": { "wmUplineSo": "COTTON", "wmType": "Underground" }, "geometry": { "type": "LineString", "coordinates": [ [ -92.531445706903, 47.1685668405947 ], [ -92.531315210946104, 47.1669958406723 ] ] } },
{ "type": "Feature", "properties": { "wmUplineSo": "COTTON", "wmType": "Underground" }, "geometry": { "type": "LineString", "coordinates": [ [ -92.531315210946104, 47.1669958406723 ], [ -92.531650779605698, 47.166959907388502 ], [ -92.531849273648007, 47.167026021581698 ], [ -92.532010446014795, 47.167035290257097 ], [ -92.532158698886406, 47.167041887088899 ], [ -92.532285421311798, 47.166956772165697 ] ] } },
{ "type": "Feature", "properties": { "wmUplineSo": "COTTON", "wmType": "Underground" }, "geometry": { "type": "LineString", "coordinates": [ [ -92.641751999999897, 47.1608190000089 ], [ -92.642457049878999, 47.1608284156355 ] ] } },
{ "type": "Feature", "properties": { "wmUplineSo": "COTTON", "wmType": "Underground" }, "geometry": { "type": "LineString", "coordinates": [ [ -92.538781552058893, 47.168453575911599 ], [ -92.538453868111304, 47.168220230174903 ], [ -92.5384028362908, 47.167848142685301 ], [ -92.538382356292502, 47.167833558533999 ] ] } },
{ "type": "Feature", "properties": { "wmUplineSo": "COTTON", "wmType": "Underground" }, "geometry": { "type": "LineString", "coordinates": [ [ -92.539214999999899, 47.168664000009002 ], [ -92.538781552058893, 47.168453575911599 ] ] } },
{ "type": "Feature", "properties": { "wmUplineSo": "COTTON", "wmType": "Underground" }, "geometry": { "type": "LineString", "coordinates": [ [ -92.641637158731598, 47.160820861825997 ], [ -92.641751999999897, 47.1608190000089 ] ] } },
{ "type": "Feature", "properties": { "wmUplineSo": "COTTON", "wmType": "Underground" }, "geometry": { "type": "LineString", "coordinates": [ [ -92.4860228381052, 47.169096138263001 ], [ -92.486269838298398, 47.169090138326602 ] ] } },
{ "type": "Feature", "properties": { "wmUplineSo": "COTTON", "wmType": "Underground" }, "geometry": { "type": "LineString", "coordinates": [ [ -92.486092838958001, 47.167654138296498 ], [ -92.485823839018806, 47.167171138232298 ] ] } },
{ "type": "Feature", "properties": { "wmUplineSo": "COTTON", "wmType": "Underground" }, "geometry": { "type": "LineString", "coordinates": [ [ -92.603356827235899, 47.226191811874799 ], [ -92.603372299999904, 47.226126600009003 ] ] } },
{ "type": "Feature", "properties": { "wmUplineSo": "COTTON", "wmType": "Underground" }, "geometry": { "type": "LineString", "coordinates": [ [ -92.516099918443004, 47.168667999745502 ], [ -92.516691867989493, 47.168188134756498 ] ] } },
{ "type": "Feature", "properties": { "wmUplineSo": "COTTON", "wmType": "Underground" }, "geometry": { "type": "LineString", "coordinates": [ [ -92.638286969255006, 47.168513233241598 ], [ -92.638305299999899, 47.168484500009001 ] ] } },
{ "type": "Feature", "properties": { "wmUplineSo": "COTTON", "wmType": "Underground" }, "geometry": { "type": "LineString", "coordinates": [ [ -92.472242070722501, 47.160048124712802 ], [ -92.472278986866399, 47.1600947527998 ] ] } },
{ "type": "Feature", "properties": { "wmUplineSo": "COTTON", "wmType": "Underground" }, "geometry": { "type": "LineString", "coordinates": [ [ -92.518787020923298, 47.168723571760097 ], [ -92.518454465513599, 47.169264211119298 ] ] } },
{ "type": "Feature", "properties": { "wmUplineSo": "COTTON", "wmType": "Underground" }, "geometry": { "type": "LineString", "coordinates": [ [ -92.559255196250504, 47.1568004111693 ], [ -92.559499882404793, 47.156809668362001 ] ] } },
{ "type": "Feature", "properties": { "wmUplineSo": "COTTON", "wmType": "Underground" }, "geometry": { "type": "LineString", "coordinates": [ [ -92.486269838298398, 47.169090138326602 ], [ -92.4862228383614, 47.168911138316503 ] ] } },
{ "type": "Feature", "properties": { "wmUplineSo": "COTTON", "wmType": "Underground" }, "geometry": { "type": "LineString", "coordinates": [ [ -92.638072778877699, 47.1685189433354 ], [ -92.638286969255006, 47.168513233241598 ] ] } }
]
}
