{
"type": "FeatureCollection",
"crs": { "type": "name", "properties": { "name": "urn:ogc:def:crs:OGC:1.3:CRS84" } },
"features": [
{ "type": "Feature", "properties": { "wmUplineSo": "CROMWELL", "wmType": "Underground" }, "geometry": { "type": "LineString", "coordinates": [ [ -92.889451907709002, 46.650241455870898 ], [ -92.889446644167407, 46.650222611799101 ] ] } },
{ "type": "Feature", "properties": { "wmUplineSo": "CROMWELL", "wmType": "Underground" }, "geometry": { "type": "LineString", "coordinates": [ [ -92.889891682639004, 46.650307790044799 ], [ -92.889420152291805, 46.650299290590702 ] ] } },
{ "type": "Feature", "properties": { "wmUplineSo": "CROMWELL", "wmType": "Underground" }, "geometry": { "type": "LineString", "coordinates": [ [ -92.889420152291805, 46.650299290590702 ], [ -92.889441328378595, 46.6502595226289 ] ] } },
{ "type": "Feature", "properties": { "wmUplineSo": "CROMWELL", "wmType": "Underground" }, "geometry": { "type": "LineString", "coordinates": [ [ -92.889441328378595, 46.6502595226289 ], [ -92.889451907709002, 46.650241455870898 ] ] } },
{ "type": "Feature", "properties": { "wmUplineSo": "CROMWELL", "wmType": "Underground" }, "geometry": { "type": "LineString", "coordinates": [ [ -92.889441328378595, 46.6502595226289 ], [ -92.889319, 46.650143999999898 ] ] } },
{ "type": "Feature", "properties": { "wmUplineSo": "CROMWELL", "wmType": "Underground" }, "geometry": { "type": "LineString", "coordinates": [ [ -92.889319, 46.650143999999898 ], [ -92.889324, 46.650039999999898 ] ] } },
{ "type": "Feature", "properties": { "wmUplineSo": "CROMWELL", "wmType": "Underground" }, "geometry": { "type": "LineString", "coordinates": [ [ -92.889324, 46.650039999999898 ], [ -92.88933, 46.649912 ] ] } },
{ "type": "Feature", "properties": { "wmUplineSo": "CROMWELL", "wmType": "Underground" }, "geometry": { "type": "LineString", "coordinates": [ [ -92.88933, 46.649912 ], [ -92.889414, 46.649632 ] ] } },
{ "type": "Feature", "properties": { "wmUplineSo": "CROMWELL", "wmType": "Underground" }, "geometry": { "type": "LineString", "coordinates": [ [ -92.889414, 46.649632 ], [ -92.889389, 46.6494730000001 ] ] } },
{ "type": "Feature", "properties": { "wmUplineSo": "CROMWELL", "wmType": "Underground" }, "geometry": { "type": "LineString", "coordinates": [ [ -92.889389, 46.6494730000001 ], [ -92.889392, 46.649394 ] ] } },
{ "type": "Feature", "properties": { "wmUplineSo": "CROMWELL", "wmType": "Underground" }, "geometry": { "type": "LineString", "coordinates": [ [ -92.889392, 46.649394 ], [ -92.889337, 46.649193000000103 ] ] } },
{ "type": "Feature", "properties": { "wmUplineSo": "CROMWELL", "wmType": "Underground" }, "geometry": { "type": "LineString", "coordinates": [ [ -92.889337, 46.649193000000103 ], [ -92.889383, 46.649085 ] ] } },
{ "type": "Feature", "properties": { "wmUplineSo": "CROMWELL", "wmType": "Underground" }, "geometry": { "type": "LineString", "coordinates": [ [ -92.889383, 46.649085 ], [ -92.889342, 46.648952 ] ] } },
{ "type": "Feature", "properties": { "wmUplineSo": "CROMWELL", "wmType": "Underground" }, "geometry": { "type": "LineString", "coordinates": [ [ -92.897497443031895, 46.650340736423601 ], [ -92.897668917108007, 46.650477300701198 ] ] } },
{ "type": "Feature", "properties": { "wmUplineSo": "CROMWELL", "wmType": "Underground" }, "geometry": { "type": "LineString", "coordinates": [ [ -92.897668917108007, 46.650477300701198 ], [ -92.8976894958668, 46.650569519970801 ] ] } },
{ "type": "Feature", "properties": { "wmUplineSo": "CROMWELL", "wmType": "Underground" }, "geometry": { "type": "LineString", "coordinates": [ [ -92.8976894958668, 46.650569519970801 ], [ -92.897662489109706, 46.650595666046897 ] ] } },
{ "type": "Feature", "properties": { "wmUplineSo": "CROMWELL", "wmType": "Underground" }, "geometry": { "type": "LineString", "coordinates": [ [ -92.897662489109706, 46.650595666046897 ], [ -92.897650787247699, 46.650604446912702 ] ] } },
{ "type": "Feature", "properties": { "wmUplineSo": "CROMWELL", "wmType": "Underground" }, "geometry": { "type": "LineString", "coordinates": [ [ -92.931456, 46.640568111721699 ], [ -92.931375854584005, 46.6406747080758 ] ] } },
{ "type": "Feature", "properties": { "wmUplineSo": "CROMWELL", "wmType": "Underground" }, "geometry": { "type": "LineString", "coordinates": [ [ -92.932337737840697, 46.637358213795203 ], [ -92.932042672725501, 46.637436083995702 ] ] } },
{ "type": "Feature", "properties": { "wmUplineSo": "CROMWELL", "wmType": "Underground" }, "geometry": { "type": "LineString", "coordinates": [ [ -92.914788999994897, 46.636213003462203 ], [ -92.914805999994897, 46.636284003462102 ] ] } },
{ "type": "Feature", "properties": { "wmUplineSo": "CROMWELL", "wmType": "Underground" }, "geometry": { "type": "LineString", "coordinates": [ [ -92.914805999994897, 46.636284003462102 ], [ -92.914847999994905, 46.636330003462199 ] ] } },
{ "type": "Feature", "properties": { "wmUplineSo": "CROMWELL", "wmType": "Underground" }, "geometry": { "type": "LineString", "coordinates": [ [ -92.914847999994905, 46.636330003462199 ], [ -92.9148666, 46.636342600008398 ] ] } },
{ "type": "Feature", "properties": { "wmUplineSo": "CROMWELL", "wmType": "Underground" }, "geometry": { "type": "LineString", "coordinates": [ [ -92.909409214811404, 46.651600331214397 ], [ -92.909500484447605, 46.651641237189402 ] ] } },
{ "type": "Feature", "properties": { "wmUplineSo": "CROMWELL", "wmType": "Underground" }, "geometry": { "type": "LineString", "coordinates": [ [ -92.909500484447605, 46.651641237189402 ], [ -92.909551541956404, 46.651712628709497 ] ] } },
{ "type": "Feature", "properties": { "wmUplineSo": "CROMWELL", "wmType": "Underground" }, "geometry": { "type": "LineString", "coordinates": [ [ -92.909551541956404, 46.651712628709497 ], [ -92.909621151755999, 46.651796669729698 ] ] } },
{ "type": "Feature", "properties": { "wmUplineSo": "CROMWELL", "wmType": "Underground" }, "geometry": { "type": "LineString", "coordinates": [ [ -92.909621151755999, 46.651796669729698 ], [ -92.909676992189702, 46.651809575949798 ] ] } },
{ "type": "Feature", "properties": { "wmUplineSo": "CROMWELL", "wmType": "Underground" }, "geometry": { "type": "LineString", "coordinates": [ [ -92.909676992189702, 46.651809575949798 ], [ -92.9097141, 46.651868400008397 ] ] } },
{ "type": "Feature", "properties": { "wmUplineSo": "CROMWELL", "wmType": "Underground" }, "geometry": { "type": "LineString", "coordinates": [ [ -92.9083007391243, 46.652890390605499 ], [ -92.908998445720499, 46.652533858871202 ], [ -92.9090852793056, 46.652046101817398 ], [ -92.909190602709899, 46.651853480826503 ], [ -92.909409214811404, 46.651600331214397 ] ] } },
{ "type": "Feature", "properties": { "wmUplineSo": "CROMWELL", "wmType": "Underground" }, "geometry": { "type": "LineString", "coordinates": [ [ -92.931382, 46.640522547478497 ], [ -92.931456, 46.640568111721699 ] ] } },
{ "type": "Feature", "properties": { "wmUplineSo": "CROMWELL", "wmType": "Underground" }, "geometry": { "type": "LineString", "coordinates": [ [ -92.9071098, 46.652925000008402 ], [ -92.9073121, 46.652892700008401 ] ] } },
{ "type": "Feature", "properties": { "wmUplineSo": "CROMWELL", "wmType": "Underground" }, "geometry": { "type": "LineString", "coordinates": [ [ -92.931156999995807, 46.7027040034801 ], [ -92.9311522, 46.702700900008402 ] ] } },
{ "type": "Feature", "properties": { "wmUplineSo": "CROMWELL", "wmType": "Underground" }, "geometry": { "type": "LineString", "coordinates": [ [ -92.958615311885694, 46.6944555367145 ], [ -92.958502767974295, 46.694567799802897 ] ] } },
{ "type": "Feature", "properties": { "wmUplineSo": "CROMWELL", "wmType": "Underground" }, "geometry": { "type": "LineString", "coordinates": [ [ -92.893215459243095, 46.650194247665198 ], [ -92.892660942174004, 46.6501893524539 ] ] } },
{ "type": "Feature", "properties": { "wmUplineSo": "CROMWELL", "wmType": "Underground" }, "geometry": { "type": "LineString", "coordinates": [ [ -92.901357559886506, 46.6645865340423 ], [ -92.901126984725096, 46.664589851435302 ] ] } },
{ "type": "Feature", "properties": { "wmUplineSo": "CROMWELL", "wmType": "Underground" }, "geometry": { "type": "LineString", "coordinates": [ [ -92.923263746188795, 46.701081667176602 ], [ -92.924135566952501, 46.7010555928927 ] ] } },
{ "type": "Feature", "properties": { "wmUplineSo": "CROMWELL", "wmType": "Underground" }, "geometry": { "type": "LineString", "coordinates": [ [ -92.924135566952501, 46.7010555928927 ], [ -92.924204483087195, 46.701028001812404 ] ] } },
{ "type": "Feature", "properties": { "wmUplineSo": "CROMWELL", "wmType": "Underground" }, "geometry": { "type": "LineString", "coordinates": [ [ -92.924204483087195, 46.701028001812404 ], [ -92.924746999995406, 46.701041003479602 ] ] } },
{ "type": "Feature", "properties": { "wmUplineSo": "CROMWELL", "wmType": "Underground" }, "geometry": { "type": "LineString", "coordinates": [ [ -92.924746999995406, 46.701041003479602 ], [ -92.925503999995499, 46.701017003479699 ] ] } },
{ "type": "Feature", "properties": { "wmUplineSo": "CROMWELL", "wmType": "Underground" }, "geometry": { "type": "LineString", "coordinates": [ [ -92.925503999995499, 46.701017003479699 ], [ -92.926489999995596, 46.7009940034796 ] ] } },
{ "type": "Feature", "properties": { "wmUplineSo": "CROMWELL", "wmType": "Underground" }, "geometry": { "type": "LineString", "coordinates": [ [ -92.926489999995596, 46.7009940034796 ], [ -92.927168999995601, 46.700990003479497 ] ] } },
{ "type": "Feature", "properties": { "wmUplineSo": "CROMWELL", "wmType": "Underground" }, "geometry": { "type": "LineString", "coordinates": [ [ -92.927168999995601, 46.700990003479497 ], [ -92.928381999995693, 46.700946003479601 ] ] } },
{ "type": "Feature", "properties": { "wmUplineSo": "CROMWELL", "wmType": "Underground" }, "geometry": { "type": "LineString", "coordinates": [ [ -92.928381999995693, 46.700946003479601 ], [ -92.929109590217905, 46.7009448046893 ] ] } },
{ "type": "Feature", "properties": { "wmUplineSo": "CROMWELL", "wmType": "Underground" }, "geometry": { "type": "LineString", "coordinates": [ [ -92.929109590217905, 46.7009448046893 ], [ -92.929126015597603, 46.701155574013697 ] ] } },
{ "type": "Feature", "properties": { "wmUplineSo": "CROMWELL", "wmType": "Underground" }, "geometry": { "type": "LineString", "coordinates": [ [ -92.929126015597603, 46.701155574013697 ], [ -92.929764839830995, 46.701506812176902 ] ] } },
{ "type": "Feature", "properties": { "wmUplineSo": "CROMWELL", "wmType": "Underground" }, "geometry": { "type": "LineString", "coordinates": [ [ -92.929764839830995, 46.701506812176902 ], [ -92.930298131778102, 46.701883095725599 ] ] } },
{ "type": "Feature", "properties": { "wmUplineSo": "CROMWELL", "wmType": "Underground" }, "geometry": { "type": "LineString", "coordinates": [ [ -92.930298131778102, 46.701883095725599 ], [ -92.931368587940597, 46.702143503827202 ] ] } },
{ "type": "Feature", "properties": { "wmUplineSo": "CROMWELL", "wmType": "Underground" }, "geometry": { "type": "LineString", "coordinates": [ [ -92.931368587940597, 46.702143503827202 ], [ -92.931266340391403, 46.702364408547297 ] ] } },
{ "type": "Feature", "properties": { "wmUplineSo": "CROMWELL", "wmType": "Underground" }, "geometry": { "type": "LineString", "coordinates": [ [ -92.931266340391403, 46.702364408547297 ], [ -92.931082999995795, 46.702593003479898 ] ] } },
{ "type": "Feature", "properties": { "wmUplineSo": "CROMWELL", "wmType": "Underground" }, "geometry": { "type": "LineString", "coordinates": [ [ -92.931082999995795, 46.702593003479898 ], [ -92.931156999995807, 46.7027040034801 ] ] } },
{ "type": "Feature", "properties": { "wmUplineSo": "CROMWELL", "wmType": "Underground" }, "geometry": { "type": "LineString", "coordinates": [ [ -92.931156999995807, 46.7027040034801 ], [ -92.9311759, 46.702736400008398 ] ] } },
{ "type": "Feature", "properties": { "wmUplineSo": "CROMWELL", "wmType": "Underground" }, "geometry": { "type": "LineString", "coordinates": [ [ -92.929109590217905, 46.7009448046893 ], [ -92.926323002445301, 46.699064220671801 ], [ -92.926323002445301, 46.699064220671701 ] ] } },
{ "type": "Feature", "properties": { "wmUplineSo": "CROMWELL", "wmType": "Underground" }, "geometry": { "type": "LineString", "coordinates": [ [ -92.915598729334405, 46.640047706350501 ], [ -92.9157640293773, 46.6402073671712 ] ] } },
{ "type": "Feature", "properties": { "wmUplineSo": "CROMWELL", "wmType": "Underground" }, "geometry": { "type": "LineString", "coordinates": [ [ -92.9157640293773, 46.6402073671712 ], [ -92.9155465509116, 46.640324307781498 ] ] } },
{ "type": "Feature", "properties": { "wmUplineSo": "CROMWELL", "wmType": "Underground" }, "geometry": { "type": "LineString", "coordinates": [ [ -92.9155465509116, 46.640324307781498 ], [ -92.915613985926598, 46.640411948441603 ] ] } },
{ "type": "Feature", "properties": { "wmUplineSo": "CROMWELL", "wmType": "Underground" }, "geometry": { "type": "LineString", "coordinates": [ [ -92.915613985926598, 46.640411948441603 ], [ -92.915661, 46.6404050000084 ] ] } },
{ "type": "Feature", "properties": { "wmUplineSo": "CROMWELL", "wmType": "Underground" }, "geometry": { "type": "LineString", "coordinates": [ [ -92.917770747578501, 46.669169747408297 ], [ -92.917880543924994, 46.6691022801947 ] ] } },
{ "type": "Feature", "properties": { "wmUplineSo": "CROMWELL", "wmType": "Underground" }, "geometry": { "type": "LineString", "coordinates": [ [ -92.917880543924994, 46.6691022801947 ], [ -92.917937137984893, 46.6690899277922 ] ] } },
{ "type": "Feature", "properties": { "wmUplineSo": "CROMWELL", "wmType": "Underground" }, "geometry": { "type": "LineString", "coordinates": [ [ -92.917520843634904, 46.6693342210447 ], [ -92.917673034175394, 46.669306218090398 ] ] } },
{ "type": "Feature", "properties": { "wmUplineSo": "CROMWELL", "wmType": "Underground" }, "geometry": { "type": "LineString", "coordinates": [ [ -92.909409214811404, 46.651600331214397 ], [ -92.9100937021758, 46.650959328215997 ] ] } },
{ "type": "Feature", "properties": { "wmUplineSo": "CROMWELL", "wmType": "Underground" }, "geometry": { "type": "LineString", "coordinates": [ [ -92.912687046893893, 46.6415315981898 ], [ -92.912845750485502, 46.641523957844299 ], [ -92.913056546209205, 46.641580073544802 ], [ -92.913161851851001, 46.641665872312203 ], [ -92.913218757703902, 46.641751634281803 ] ] } },
{ "type": "Feature", "properties": { "wmUplineSo": "CROMWELL", "wmType": "Underground" }, "geometry": { "type": "LineString", "coordinates": [ [ -92.930281179532003, 46.640369770795999 ], [ -92.9300154, 46.640404900008299 ] ] } },
{ "type": "Feature", "properties": { "wmUplineSo": "CROMWELL", "wmType": "Underground" }, "geometry": { "type": "LineString", "coordinates": [ [ -92.892660942174004, 46.6501893524539 ], [ -92.892171879414306, 46.650207047741603 ] ] } },
{ "type": "Feature", "properties": { "wmUplineSo": "CROMWELL", "wmType": "Underground" }, "geometry": { "type": "LineString", "coordinates": [ [ -92.931156999995807, 46.7027040034801 ], [ -92.9311609, 46.702727300008398 ] ] } },
{ "type": "Feature", "properties": { "wmUplineSo": "CROMWELL", "wmType": "Underground" }, "geometry": { "type": "LineString", "coordinates": [ [ -92.919429504481499, 46.638868036637298 ], [ -92.919563955764104, 46.639118144504302 ] ] } },
{ "type": "Feature", "properties": { "wmUplineSo": "CROMWELL", "wmType": "Underground" }, "geometry": { "type": "LineString", "coordinates": [ [ -92.900966753798798, 46.663824433127701 ], [ -92.9009071, 46.663773000008398 ] ] } },
{ "type": "Feature", "properties": { "wmUplineSo": "CROMWELL", "wmType": "Underground" }, "geometry": { "type": "LineString", "coordinates": [ [ -92.960365826274099, 46.683555710419498 ], [ -92.9603249, 46.6835273000084 ] ] } },
{ "type": "Feature", "properties": { "wmUplineSo": "CROMWELL", "wmType": "Underground" }, "geometry": { "type": "LineString", "coordinates": [ [ -92.960475295766997, 46.686968624510698 ], [ -92.9606624, 46.6869833000084 ] ] } },
{ "type": "Feature", "properties": { "wmUplineSo": "CROMWELL", "wmType": "Underground" }, "geometry": { "type": "LineString", "coordinates": [ [ -92.958502767974295, 46.694567799802897 ], [ -92.9582618, 46.6944626000084 ] ] } },
{ "type": "Feature", "properties": { "wmUplineSo": "CROMWELL", "wmType": "Underground" }, "geometry": { "type": "LineString", "coordinates": [ [ -92.960575611720202, 46.671721595608197 ], [ -92.9605298, 46.671915500008403 ] ] } },
{ "type": "Feature", "properties": { "wmUplineSo": "CROMWELL", "wmType": "Underground" }, "geometry": { "type": "LineString", "coordinates": [ [ -92.956634479710701, 46.671794729236197 ], [ -92.956176540289704, 46.671766364433402 ] ] } },
{ "type": "Feature", "properties": { "wmUplineSo": "CROMWELL", "wmType": "Underground" }, "geometry": { "type": "LineString", "coordinates": [ [ -92.954475596751095, 46.680217619714703 ], [ -92.9544609, 46.680310400008402 ] ] } },
{ "type": "Feature", "properties": { "wmUplineSo": "CROMWELL", "wmType": "Underground" }, "geometry": { "type": "LineString", "coordinates": [ [ -92.950569049823798, 46.6801244402427 ], [ -92.9506391, 46.680223100008398 ] ] } },
{ "type": "Feature", "properties": { "wmUplineSo": "CROMWELL", "wmType": "Underground" }, "geometry": { "type": "LineString", "coordinates": [ [ -92.935957156617405, 46.680570317102102 ], [ -92.9362124, 46.680317800008403 ] ] } },
{ "type": "Feature", "properties": { "wmUplineSo": "CROMWELL", "wmType": "Underground" }, "geometry": { "type": "LineString", "coordinates": [ [ -92.935957156617405, 46.680570317102102 ], [ -92.9357059, 46.680464600008399 ] ] } },
{ "type": "Feature", "properties": { "wmUplineSo": "CROMWELL", "wmType": "Underground" }, "geometry": { "type": "LineString", "coordinates": [ [ -92.938725056411499, 46.6821594938869 ], [ -92.9385255, 46.682078200008398 ] ] } },
{ "type": "Feature", "properties": { "wmUplineSo": "CROMWELL", "wmType": "Underground" }, "geometry": { "type": "LineString", "coordinates": [ [ -92.933843965588693, 46.683332400774098 ], [ -92.9332126, 46.683518600008398 ] ] } },
{ "type": "Feature", "properties": { "wmUplineSo": "CROMWELL", "wmType": "Underground" }, "geometry": { "type": "LineString", "coordinates": [ [ -92.933410383504295, 46.640934127897197 ], [ -92.9332215, 46.641200800008399 ] ] } },
{ "type": "Feature", "properties": { "wmUplineSo": "CROMWELL", "wmType": "Underground" }, "geometry": { "type": "LineString", "coordinates": [ [ -92.914008261891397, 46.641546660666499 ], [ -92.9139534, 46.641415000008401 ] ] } },
{ "type": "Feature", "properties": { "wmUplineSo": "CROMWELL", "wmType": "Underground" }, "geometry": { "type": "LineString", "coordinates": [ [ -92.929923242417701, 46.645230142282799 ], [ -92.9297479, 46.645189100008402 ] ] } },
{ "type": "Feature", "properties": { "wmUplineSo": "CROMWELL", "wmType": "Underground" }, "geometry": { "type": "LineString", "coordinates": [ [ -92.929923242417701, 46.645230142282799 ], [ -92.9300605, 46.645206900008397 ] ] } },
{ "type": "Feature", "properties": { "wmUplineSo": "CROMWELL", "wmType": "Underground" }, "geometry": { "type": "LineString", "coordinates": [ [ -92.998456041578706, 46.678983694524199 ], [ -92.9983459, 46.679110100008401 ] ] } },
{ "type": "Feature", "properties": { "wmUplineSo": "CROMWELL", "wmType": "Underground" }, "geometry": { "type": "LineString", "coordinates": [ [ -92.998456041578706, 46.678983694524199 ], [ -92.998411063730202, 46.678792013172497 ] ] } },
{ "type": "Feature", "properties": { "wmUplineSo": "CROMWELL", "wmType": "Underground" }, "geometry": { "type": "LineString", "coordinates": [ [ -92.980940313862803, 46.693339659097703 ], [ -92.9809063, 46.693135100008398 ] ] } },
{ "type": "Feature", "properties": { "wmUplineSo": "CROMWELL", "wmType": "Underground" }, "geometry": { "type": "LineString", "coordinates": [ [ -92.926323002445301, 46.699064220671701 ], [ -92.9253611, 46.698549500008397 ] ] } },
{ "type": "Feature", "properties": { "wmUplineSo": "CROMWELL", "wmType": "Underground" }, "geometry": { "type": "LineString", "coordinates": [ [ -92.912474172659302, 46.683707708854698 ], [ -92.9123611, 46.683754500008398 ] ] } },
{ "type": "Feature", "properties": { "wmUplineSo": "CROMWELL", "wmType": "Underground" }, "geometry": { "type": "LineString", "coordinates": [ [ -92.896612758027899, 46.676199174214901 ], [ -92.8968224, 46.676151600008403 ] ] } },
{ "type": "Feature", "properties": { "wmUplineSo": "CROMWELL", "wmType": "Underground" }, "geometry": { "type": "LineString", "coordinates": [ [ -92.927169303492903, 46.685314744641303 ], [ -92.9271033, 46.685222000008402 ] ] } },
{ "type": "Feature", "properties": { "wmUplineSo": "CROMWELL", "wmType": "Underground" }, "geometry": { "type": "LineString", "coordinates": [ [ -92.927169303492903, 46.685314744641303 ], [ -92.927424605905998, 46.685064178262699 ] ] } },
{ "type": "Feature", "properties": { "wmUplineSo": "CROMWELL", "wmType": "Underground" }, "geometry": { "type": "LineString", "coordinates": [ [ -92.938157265011398, 46.685772783862603 ], [ -92.9381369, 46.685862300008402 ] ] } },
{ "type": "Feature", "properties": { "wmUplineSo": "CROMWELL", "wmType": "Underground" }, "geometry": { "type": "LineString", "coordinates": [ [ -92.919952258761796, 46.664694164389999 ], [ -92.9197698, 46.6648543000084 ] ] } },
{ "type": "Feature", "properties": { "wmUplineSo": "CROMWELL", "wmType": "Underground" }, "geometry": { "type": "LineString", "coordinates": [ [ -92.913218757703902, 46.641751634281803 ], [ -92.9132566, 46.641774800008399 ] ] } },
{ "type": "Feature", "properties": { "wmUplineSo": "CROMWELL", "wmType": "Underground" }, "geometry": { "type": "LineString", "coordinates": [ [ -92.887546976658498, 46.649658397531098 ], [ -92.887478, 46.649634500008403 ] ] } },
{ "type": "Feature", "properties": { "wmUplineSo": "CROMWELL", "wmType": "Underground" }, "geometry": { "type": "LineString", "coordinates": [ [ -92.921867070651402, 46.678721046088697 ], [ -92.9218061, 46.678758100008402 ] ] } },
{ "type": "Feature", "properties": { "wmUplineSo": "CROMWELL", "wmType": "Underground" }, "geometry": { "type": "LineString", "coordinates": [ [ -92.927242072442496, 46.6365453843149 ], [ -92.9274045, 46.636637300008303 ] ] } },
{ "type": "Feature", "properties": { "wmUplineSo": "CROMWELL", "wmType": "Underground" }, "geometry": { "type": "LineString", "coordinates": [ [ -92.923162231089407, 46.644577622301298 ], [ -92.9229175, 46.644672800008401 ] ] } },
{ "type": "Feature", "properties": { "wmUplineSo": "CROMWELL", "wmType": "Underground" }, "geometry": { "type": "LineString", "coordinates": [ [ -92.922250759482594, 46.675063250135203 ], [ -92.9219573, 46.675390000008399 ] ] } },
{ "type": "Feature", "properties": { "wmUplineSo": "CROMWELL", "wmType": "Underground" }, "geometry": { "type": "LineString", "coordinates": [ [ -92.928221475638694, 46.685390419919003 ], [ -92.9286821, 46.6852741000084 ] ] } },
{ "type": "Feature", "properties": { "wmUplineSo": "CROMWELL", "wmType": "Underground" }, "geometry": { "type": "LineString", "coordinates": [ [ -92.928221475638694, 46.685390419919003 ], [ -92.927767763341095, 46.685173628607799 ] ] } },
{ "type": "Feature", "properties": { "wmUplineSo": "CROMWELL", "wmType": "Underground" }, "geometry": { "type": "LineString", "coordinates": [ [ -92.932287066369796, 46.6847305651537 ], [ -92.9321618, 46.684528400008404 ] ] } },
{ "type": "Feature", "properties": { "wmUplineSo": "CROMWELL", "wmType": "Underground" }, "geometry": { "type": "LineString", "coordinates": [ [ -92.929716406648495, 46.685369502361297 ], [ -92.9302599, 46.685174100008403 ] ] } },
{ "type": "Feature", "properties": { "wmUplineSo": "CROMWELL", "wmType": "Underground" }, "geometry": { "type": "LineString", "coordinates": [ [ -92.929716406648495, 46.685369502361297 ], [ -92.929297710772104, 46.685237907608801 ] ] } },
{ "type": "Feature", "properties": { "wmUplineSo": "CROMWELL", "wmType": "Underground" }, "geometry": { "type": "LineString", "coordinates": [ [ -92.931049431595497, 46.6852726363039 ], [ -92.9309638, 46.684641300008401 ] ] } },
{ "type": "Feature", "properties": { "wmUplineSo": "CROMWELL", "wmType": "Underground" }, "geometry": { "type": "LineString", "coordinates": [ [ -92.915598729334405, 46.640047706350501 ], [ -92.9164518, 46.640006300008402 ] ] } },
{ "type": "Feature", "properties": { "wmUplineSo": "CROMWELL", "wmType": "Underground" }, "geometry": { "type": "LineString", "coordinates": [ [ -92.917418187416104, 46.688173035736902 ], [ -92.9172618, 46.688124900008397 ] ] } },
{ "type": "Feature", "properties": { "wmUplineSo": "CROMWELL", "wmType": "Underground" }, "geometry": { "type": "LineString", "coordinates": [ [ -92.914008261891397, 46.641546660666499 ], [ -92.9140108, 46.641568100008399 ] ] } },
{ "type": "Feature", "properties": { "wmUplineSo": "CROMWELL", "wmType": "Underground" }, "geometry": { "type": "LineString", "coordinates": [ [ -92.903064944817402, 46.652294104245897 ], [ -92.903073777847396, 46.652045070053099 ] ] } },
{ "type": "Feature", "properties": { "wmUplineSo": "CROMWELL", "wmType": "Underground" }, "geometry": { "type": "LineString", "coordinates": [ [ -92.921471669924102, 46.636122354715503 ], [ -92.9213269, 46.6368328000083 ] ] } },
{ "type": "Feature", "properties": { "wmUplineSo": "CROMWELL", "wmType": "Underground" }, "geometry": { "type": "LineString", "coordinates": [ [ -92.920472975252594, 46.636151222368397 ], [ -92.9203978, 46.636211100008403 ] ] } },
{ "type": "Feature", "properties": { "wmUplineSo": "CROMWELL", "wmType": "Underground" }, "geometry": { "type": "LineString", "coordinates": [ [ -92.915995895741702, 46.636226398412298 ], [ -92.9159108, 46.6362121000084 ] ] } },
{ "type": "Feature", "properties": { "wmUplineSo": "CROMWELL", "wmType": "Underground" }, "geometry": { "type": "LineString", "coordinates": [ [ -92.915995895741702, 46.636226398412298 ], [ -92.9160288, 46.6362048000084 ] ] } },
{ "type": "Feature", "properties": { "wmUplineSo": "CROMWELL", "wmType": "Underground" }, "geometry": { "type": "LineString", "coordinates": [ [ -92.913474819504401, 46.634735845572798 ], [ -92.9134138, 46.634685100008298 ] ] } },
{ "type": "Feature", "properties": { "wmUplineSo": "CROMWELL", "wmType": "Underground" }, "geometry": { "type": "LineString", "coordinates": [ [ -92.915598729334405, 46.640047706350501 ], [ -92.9163006, 46.640224900008398 ] ] } },
{ "type": "Feature", "properties": { "wmUplineSo": "CROMWELL", "wmType": "Underground" }, "geometry": { "type": "LineString", "coordinates": [ [ -92.915598729334405, 46.640047706350501 ], [ -92.9161664, 46.640128500008402 ] ] } },
{ "type": "Feature", "properties": { "wmUplineSo": "CROMWELL", "wmType": "Underground" }, "geometry": { "type": "LineString", "coordinates": [ [ -92.915543279780906, 46.676767381656802 ], [ -92.9154649163399, 46.676725034367699 ] ] } },
{ "type": "Feature", "properties": { "wmUplineSo": "CROMWELL", "wmType": "Underground" }, "geometry": { "type": "LineString", "coordinates": [ [ -92.915543279780906, 46.676767381656802 ], [ -92.915449103514007, 46.676789759407299 ] ] } },
{ "type": "Feature", "properties": { "wmUplineSo": "CROMWELL", "wmType": "Underground" }, "geometry": { "type": "LineString", "coordinates": [ [ -92.915003211907703, 46.647762568633397 ], [ -92.9147501, 46.647878900008401 ] ] } },
{ "type": "Feature", "properties": { "wmUplineSo": "CROMWELL", "wmType": "Underground" }, "geometry": { "type": "LineString", "coordinates": [ [ -92.922428004973597, 46.678909640669097 ], [ -92.9222206, 46.678971100008397 ] ] } },
{ "type": "Feature", "properties": { "wmUplineSo": "CROMWELL", "wmType": "Underground" }, "geometry": { "type": "LineString", "coordinates": [ [ -92.889342, 46.648952 ], [ -92.8893188985883, 46.648949757224202 ] ] } },
{ "type": "Feature", "properties": { "wmUplineSo": "CROMWELL", "wmType": "Underground" }, "geometry": { "type": "LineString", "coordinates": [ [ -92.945153205731501, 46.678043448201898 ], [ -92.9455756, 46.6778885000084 ], [ -92.9455756, 46.6778885000084 ] ] } },
{ "type": "Feature", "properties": { "wmUplineSo": "CROMWELL", "wmType": "Underground" }, "geometry": { "type": "LineString", "coordinates": [ [ -92.935953991391003, 46.680503246603998 ], [ -92.935957156617405, 46.680570317102102 ] ] } },
{ "type": "Feature", "properties": { "wmUplineSo": "CROMWELL", "wmType": "Underground" }, "geometry": { "type": "LineString", "coordinates": [ [ -92.9331799, 46.645694600008397 ], [ -92.933158790358505, 46.6456937856804 ] ] } },
{ "type": "Feature", "properties": { "wmUplineSo": "CROMWELL", "wmType": "Underground" }, "geometry": { "type": "LineString", "coordinates": [ [ -92.926113055115906, 46.637073046928201 ], [ -92.9264958, 46.637112400008398 ] ] } },
{ "type": "Feature", "properties": { "wmUplineSo": "CROMWELL", "wmType": "Underground" }, "geometry": { "type": "LineString", "coordinates": [ [ -92.909742543922107, 46.679100999909998 ], [ -92.909629046410402, 46.678993999711501 ] ] } },
{ "type": "Feature", "properties": { "wmUplineSo": "CROMWELL", "wmType": "Underground" }, "geometry": { "type": "LineString", "coordinates": [ [ -92.919345180492599, 46.638686596405499 ], [ -92.919317222023295, 46.6388215264775 ] ] } },
{ "type": "Feature", "properties": { "wmUplineSo": "CROMWELL", "wmType": "Underground" }, "geometry": { "type": "LineString", "coordinates": [ [ -92.919317222023295, 46.6388215264775 ], [ -92.919429504481499, 46.638868036637298 ] ] } },
{ "type": "Feature", "properties": { "wmUplineSo": "CROMWELL", "wmType": "Underground" }, "geometry": { "type": "LineString", "coordinates": [ [ -92.932042672725501, 46.637436083995702 ], [ -92.932052952709, 46.637446555531596 ] ] } },
{ "type": "Feature", "properties": { "wmUplineSo": "CROMWELL", "wmType": "Underground" }, "geometry": { "type": "LineString", "coordinates": [ [ -92.917673034175394, 46.669306218090398 ], [ -92.917770747578501, 46.669169747408297 ] ] } },
{ "type": "Feature", "properties": { "wmUplineSo": "CROMWELL", "wmType": "Underground" }, "geometry": { "type": "LineString", "coordinates": [ [ -92.920472975252594, 46.636151222368397 ], [ -92.919639349568996, 46.636182168404702 ] ] } },
{ "type": "Feature", "properties": { "wmUplineSo": "CROMWELL", "wmType": "Underground" }, "geometry": { "type": "LineString", "coordinates": [ [ -92.889342, 46.648952 ], [ -92.889359, 46.648941 ] ] } },
{ "type": "Feature", "properties": { "wmUplineSo": "CROMWELL", "wmType": "Underground" }, "geometry": { "type": "LineString", "coordinates": [ [ -92.909629046410402, 46.678993999711501 ], [ -92.909618111190596, 46.678981021490301 ] ] } },
{ "type": "Feature", "properties": { "wmUplineSo": "CROMWELL", "wmType": "Underground" }, "geometry": { "type": "LineString", "coordinates": [ [ -92.935178488644794, 46.6818875290923 ], [ -92.934925980591203, 46.682111376437497 ] ] } },
{ "type": "Feature", "properties": { "wmUplineSo": "CROMWELL", "wmType": "Underground" }, "geometry": { "type": "LineString", "coordinates": [ [ -92.929667114816397, 46.645592323796699 ], [ -92.929923242417701, 46.645230142282799 ] ] } },
{ "type": "Feature", "properties": { "wmUplineSo": "CROMWELL", "wmType": "Underground" }, "geometry": { "type": "LineString", "coordinates": [ [ -92.998226887689995, 46.679462484488802 ], [ -92.998456041578706, 46.678983694524199 ] ] } },
{ "type": "Feature", "properties": { "wmUplineSo": "CROMWELL", "wmType": "Underground" }, "geometry": { "type": "LineString", "coordinates": [ [ -92.980301658754996, 46.689243267188701 ], [ -92.980510181468603, 46.6932710168374 ], [ -92.980940313862803, 46.693339659097703 ] ] } },
{ "type": "Feature", "properties": { "wmUplineSo": "CROMWELL", "wmType": "Underground" }, "geometry": { "type": "LineString", "coordinates": [ [ -92.916716813333593, 46.683350792829202 ], [ -92.912474172659302, 46.683707708854698 ], [ -92.912474172659302, 46.683707708854698 ] ] } },
{ "type": "Feature", "properties": { "wmUplineSo": "CROMWELL", "wmType": "Underground" }, "geometry": { "type": "LineString", "coordinates": [ [ -92.8990639174325, 46.678346532598901 ], [ -92.899342126688794, 46.678094552723898 ], [ -92.899163859955493, 46.6772205457765 ], [ -92.898746378600904, 46.676627292437701 ], [ -92.897674655961893, 46.676264417460899 ], [ -92.896612758027899, 46.676199174214901 ] ] } },
{ "type": "Feature", "properties": { "wmUplineSo": "CROMWELL", "wmType": "Underground" }, "geometry": { "type": "LineString", "coordinates": [ [ -92.959406084538401, 46.691404628465598 ], [ -92.959299005093001, 46.693914699871598 ], [ -92.958615311885694, 46.6944555367145 ] ] } },
{ "type": "Feature", "properties": { "wmUplineSo": "CROMWELL", "wmType": "Underground" }, "geometry": { "type": "LineString", "coordinates": [ [ -92.959752818084894, 46.671028335476997 ], [ -92.956634479710701, 46.671794729236197 ], [ -92.956634479710701, 46.671794729236197 ] ] } },
{ "type": "Feature", "properties": { "wmUplineSo": "CROMWELL", "wmType": "Underground" }, "geometry": { "type": "LineString", "coordinates": [ [ -92.959752818084894, 46.671028335476997 ], [ -92.960575611720202, 46.671721595608197 ] ] } },
{ "type": "Feature", "properties": { "wmUplineSo": "CROMWELL", "wmType": "Underground" }, "geometry": { "type": "LineString", "coordinates": [ [ -92.954511623417403, 46.679190174097002 ], [ -92.954475596751095, 46.680217619714703 ] ] } },
{ "type": "Feature", "properties": { "wmUplineSo": "CROMWELL", "wmType": "Underground" }, "geometry": { "type": "LineString", "coordinates": [ [ -92.950064863341396, 46.679199068029902 ], [ -92.950569049823798, 46.6801244402427 ] ] } },
{ "type": "Feature", "properties": { "wmUplineSo": "CROMWELL", "wmType": "Underground" }, "geometry": { "type": "LineString", "coordinates": [ [ -92.935957156617405, 46.680570317102102 ], [ -92.935178488644794, 46.6818875290923 ] ] } },
{ "type": "Feature", "properties": { "wmUplineSo": "CROMWELL", "wmType": "Underground" }, "geometry": { "type": "LineString", "coordinates": [ [ -92.933976194386801, 46.682806985155999 ], [ -92.933843965588693, 46.683332400774098 ], [ -92.933843965588693, 46.683332400774098 ] ] } },
{ "type": "Feature", "properties": { "wmUplineSo": "CROMWELL", "wmType": "Underground" }, "geometry": { "type": "LineString", "coordinates": [ [ -92.917487194833299, 46.6758922443411 ], [ -92.918862964678297, 46.675762350129901 ], [ -92.921779657593504, 46.675689357749498 ], [ -92.922250759482594, 46.675063250135203 ] ] } },
{ "type": "Feature", "properties": { "wmUplineSo": "CROMWELL", "wmType": "Underground" }, "geometry": { "type": "LineString", "coordinates": [ [ -92.916577900664393, 46.6759721527064 ], [ -92.917487194833299, 46.6758922443411 ] ] } },
{ "type": "Feature", "properties": { "wmUplineSo": "CROMWELL", "wmType": "Underground" }, "geometry": { "type": "LineString", "coordinates": [ [ -92.9238759876974, 46.636149035201598 ], [ -92.923335058339703, 46.636121200185002 ], [ -92.922864301438395, 46.636136737276999 ] ] } },
{ "type": "Feature", "properties": { "wmUplineSo": "CROMWELL", "wmType": "Underground" }, "geometry": { "type": "LineString", "coordinates": [ [ -92.924446054389804, 46.636148312880998 ], [ -92.924446049370005, 46.636148528809699 ], [ -92.9238759876974, 46.636149035201598 ] ] } },
{ "type": "Feature", "properties": { "wmUplineSo": "CROMWELL", "wmType": "Underground" }, "geometry": { "type": "LineString", "coordinates": [ [ -92.9597078874435, 46.683661563176898 ], [ -92.960365826274099, 46.683555710419498 ] ] } },
{ "type": "Feature", "properties": { "wmUplineSo": "CROMWELL", "wmType": "Underground" }, "geometry": { "type": "LineString", "coordinates": [ [ -92.959571532190793, 46.686727128953002 ], [ -92.960475295766997, 46.686968624510698 ] ] } },
{ "type": "Feature", "properties": { "wmUplineSo": "CROMWELL", "wmType": "Underground" }, "geometry": { "type": "LineString", "coordinates": [ [ -92.892171879414306, 46.650207047741603 ], [ -92.889891682639004, 46.650307790044799 ] ] } },
{ "type": "Feature", "properties": { "wmUplineSo": "CROMWELL", "wmType": "Underground" }, "geometry": { "type": "LineString", "coordinates": [ [ -92.921980345886894, 46.679238624917097 ], [ -92.921867070651402, 46.678721046088697 ] ] } },
{ "type": "Feature", "properties": { "wmUplineSo": "CROMWELL", "wmType": "Underground" }, "geometry": { "type": "LineString", "coordinates": [ [ -92.928221475638694, 46.685390419919003 ], [ -92.927578473382098, 46.685308191676498 ], [ -92.927169303492903, 46.685314744641303 ] ] } },
{ "type": "Feature", "properties": { "wmUplineSo": "CROMWELL", "wmType": "Underground" }, "geometry": { "type": "LineString", "coordinates": [ [ -92.934157399904095, 46.685108417248898 ], [ -92.938157265011398, 46.685772783862603 ] ] } },
{ "type": "Feature", "properties": { "wmUplineSo": "CROMWELL", "wmType": "Underground" }, "geometry": { "type": "LineString", "coordinates": [ [ -92.933843965588693, 46.683332400774098 ], [ -92.934179554575195, 46.684217530712097 ], [ -92.934157399904095, 46.685108417248898 ] ] } },
{ "type": "Feature", "properties": { "wmUplineSo": "CROMWELL", "wmType": "Underground" }, "geometry": { "type": "LineString", "coordinates": [ [ -92.929716406648495, 46.685369502361297 ], [ -92.928221475638694, 46.685390419919003 ] ] } },
{ "type": "Feature", "properties": { "wmUplineSo": "CROMWELL", "wmType": "Underground" }, "geometry": { "type": "LineString", "coordinates": [ [ -92.934157399904095, 46.685108417248898 ], [ -92.932343177962494, 46.6851922184252 ] ] } },
{ "type": "Feature", "properties": { "wmUplineSo": "CROMWELL", "wmType": "Underground" }, "geometry": { "type": "LineString", "coordinates": [ [ -92.932343177962494, 46.6851922184252 ], [ -92.932287066369796, 46.6847305651537 ] ] } },
{ "type": "Feature", "properties": { "wmUplineSo": "CROMWELL", "wmType": "Underground" }, "geometry": { "type": "LineString", "coordinates": [ [ -92.931049431595497, 46.6852726363039 ], [ -92.929716406648495, 46.685369502361297 ] ] } },
{ "type": "Feature", "properties": { "wmUplineSo": "CROMWELL", "wmType": "Underground" }, "geometry": { "type": "LineString", "coordinates": [ [ -92.932343177962494, 46.6851922184252 ], [ -92.931049431595497, 46.6852726363039 ] ] } },
{ "type": "Feature", "properties": { "wmUplineSo": "CROMWELL", "wmType": "Underground" }, "geometry": { "type": "LineString", "coordinates": [ [ -92.9281791765641, 46.636315011654403 ], [ -92.927242072442496, 46.6365453843149 ] ] } },
{ "type": "Feature", "properties": { "wmUplineSo": "CROMWELL", "wmType": "Underground" }, "geometry": { "type": "LineString", "coordinates": [ [ -92.923408286896702, 46.644777423495597 ], [ -92.923162231089407, 46.644577622301298 ] ] } },
{ "type": "Feature", "properties": { "wmUplineSo": "CROMWELL", "wmType": "Underground" }, "geometry": { "type": "LineString", "coordinates": [ [ -92.916802264792295, 46.688032595955498 ], [ -92.917418187416104, 46.688173035736902 ] ] } },
{ "type": "Feature", "properties": { "wmUplineSo": "CROMWELL", "wmType": "Underground" }, "geometry": { "type": "LineString", "coordinates": [ [ -92.922864301438395, 46.636136737276999 ], [ -92.922043492952, 46.6361354435968 ] ] } },
{ "type": "Feature", "properties": { "wmUplineSo": "CROMWELL", "wmType": "Underground" }, "geometry": { "type": "LineString", "coordinates": [ [ -92.921471669924102, 46.636122354715503 ], [ -92.920472975252594, 46.636151222368397 ] ] } },
{ "type": "Feature", "properties": { "wmUplineSo": "CROMWELL", "wmType": "Underground" }, "geometry": { "type": "LineString", "coordinates": [ [ -92.922043492952, 46.6361354435968 ], [ -92.921515313122299, 46.636114174385597 ], [ -92.921471669924102, 46.636122354715503 ] ] } },
{ "type": "Feature", "properties": { "wmUplineSo": "CROMWELL", "wmType": "Underground" }, "geometry": { "type": "LineString", "coordinates": [ [ -92.919486386207296, 46.636184027234499 ], [ -92.915995895741702, 46.636226398412298 ] ] } },
{ "type": "Feature", "properties": { "wmUplineSo": "CROMWELL", "wmType": "Underground" }, "geometry": { "type": "LineString", "coordinates": [ [ -92.914788999994897, 46.636213003462203 ], [ -92.914679554261397, 46.6351424937262 ], [ -92.913474819504401, 46.634735845572798 ] ] } },
{ "type": "Feature", "properties": { "wmUplineSo": "CROMWELL", "wmType": "Underground" }, "geometry": { "type": "LineString", "coordinates": [ [ -92.915995895741702, 46.636226398412298 ], [ -92.914788999994897, 46.636213003462203 ] ] } },
{ "type": "Feature", "properties": { "wmUplineSo": "CROMWELL", "wmType": "Underground" }, "geometry": { "type": "LineString", "coordinates": [ [ -92.916606324269395, 46.676629457701203 ], [ -92.915681790333906, 46.676680575008803 ], [ -92.915543279780906, 46.676767381656802 ] ] } },
{ "type": "Feature", "properties": { "wmUplineSo": "CROMWELL", "wmType": "Underground" }, "geometry": { "type": "LineString", "coordinates": [ [ -92.920472975252594, 46.636151222368397 ], [ -92.920301560764997, 46.635995254658297 ] ] } },
{ "type": "Feature", "properties": { "wmUplineSo": "CROMWELL", "wmType": "Underground" }, "geometry": { "type": "LineString", "coordinates": [ [ -92.919639349568996, 46.636182168404702 ], [ -92.919486386207296, 46.636184027234499 ] ] } },
{ "type": "Feature", "properties": { "wmUplineSo": "CROMWELL", "wmType": "Underground" }, "geometry": { "type": "LineString", "coordinates": [ [ -92.935178488644794, 46.6818875290923 ], [ -92.936451390793806, 46.681904530392202 ], [ -92.938305523181796, 46.681940312140902 ] ] } },
{ "type": "Feature", "properties": { "wmUplineSo": "CROMWELL", "wmType": "Underground" }, "geometry": { "type": "LineString", "coordinates": [ [ -92.938305523181796, 46.681940312140902 ], [ -92.938706283073103, 46.682056953369099 ], [ -92.938725056411499, 46.6821594938869 ] ] } },
{ "type": "Feature", "properties": { "wmUplineSo": "CROMWELL", "wmType": "Underground" }, "geometry": { "type": "LineString", "coordinates": [ [ -92.934925980591203, 46.682111376437497 ], [ -92.933976194386801, 46.682806985155999 ] ] } },
{ "type": "Feature", "properties": { "wmUplineSo": "CROMWELL", "wmType": "Underground" }, "geometry": { "type": "LineString", "coordinates": [ [ -92.916291242550898, 46.664656686260997 ], [ -92.919952258761796, 46.664694164389999 ] ] } },
{ "type": "Feature", "properties": { "wmUplineSo": "CROMWELL", "wmType": "Underground" }, "geometry": { "type": "LineString", "coordinates": [ [ -92.935957156617405, 46.680570317102102 ], [ -92.9356843, 46.680394600008398 ] ] } },
{ "type": "Feature", "properties": { "wmUplineSo": "CROMWELL", "wmType": "Underground" }, "geometry": { "type": "LineString", "coordinates": [ [ -92.921867070651402, 46.678721046088697 ], [ -92.922428004973597, 46.678909640669097 ] ] } },
{ "type": "Feature", "properties": { "wmUplineSo": "CROMWELL", "wmType": "Underground" }, "geometry": { "type": "LineString", "coordinates": [ [ -92.915127803886506, 46.647864390084997 ], [ -92.915003211907703, 46.647762568633397 ] ] } },
{ "type": "Feature", "properties": { "wmUplineSo": "CROMWELL", "wmType": "Underground" }, "geometry": { "type": "LineString", "coordinates": [ [ -92.915003211907703, 46.647762568633397 ], [ -92.915127803886506, 46.647864390084997 ] ] } },
{ "type": "Feature", "properties": { "wmUplineSo": "CROMWELL", "wmType": "Underground" }, "geometry": { "type": "LineString", "coordinates": [ [ -92.901126984725096, 46.664589851435302 ], [ -92.901066707316403, 46.664230458372501 ] ] } },
{ "type": "Feature", "properties": { "wmUplineSo": "CROMWELL", "wmType": "Underground" }, "geometry": { "type": "LineString", "coordinates": [ [ -92.901066707316403, 46.664230458372501 ], [ -92.900966753798798, 46.663824433127701 ] ] } },
{ "type": "Feature", "properties": { "wmUplineSo": "CROMWELL", "wmType": "Underground" }, "geometry": { "type": "LineString", "coordinates": [ [ -92.889441328378595, 46.6502595226289 ], [ -92.889343716993196, 46.650295861684498 ] ] } },
{ "type": "Feature", "properties": { "wmUplineSo": "CROMWELL", "wmType": "Underground" }, "geometry": { "type": "LineString", "coordinates": [ [ -92.936454481978501, 46.679084051149601 ], [ -92.935953991391003, 46.680503246603998 ] ] } },
{ "type": "Feature", "properties": { "wmUplineSo": "CROMWELL", "wmType": "Underground" }, "geometry": { "type": "LineString", "coordinates": [ [ -92.889343716993196, 46.650295861684498 ], [ -92.888935634707096, 46.650270960529703 ], [ -92.887665347194002, 46.6498701921766 ], [ -92.887546976658498, 46.649658397531098 ] ] } },
{ "type": "Feature", "properties": { "wmUplineSo": "CROMWELL", "wmType": "Underground" }, "geometry": { "type": "LineString", "coordinates": [ [ -92.933166335959996, 46.645923628329399 ], [ -92.9331799, 46.645694600008397 ] ] } },
{ "type": "Feature", "properties": { "wmUplineSo": "CROMWELL", "wmType": "Underground" }, "geometry": { "type": "LineString", "coordinates": [ [ -92.916700068528797, 46.664200600724797 ], [ -92.916754918643505, 46.6642007789088 ] ] } },
{ "type": "Feature", "properties": { "wmUplineSo": "CROMWELL", "wmType": "Underground" }, "geometry": { "type": "LineString", "coordinates": [ [ -92.909806331842702, 46.679290917876102 ], [ -92.909742543922107, 46.679100999909998 ] ] } },
{ "type": "Feature", "properties": { "wmUplineSo": "CROMWELL", "wmType": "Underground" }, "geometry": { "type": "LineString", "coordinates": [ [ -92.934948850577499, 46.678527548558002 ], [ -92.945153205731501, 46.678043448201898 ] ] } }
]
}
