{
"type": "FeatureCollection",
"crs": { "type": "name", "properties": { "name": "urn:ogc:def:crs:OGC:1.3:CRS84" } },
"features": [
{ "type": "Feature", "properties": { "wmUplineSo": "CROMWELL", "wmType": "Underground" }, "geometry": { "type": "LineString", "coordinates": [ [ -92.881542043546304, 46.663750608975299 ], [ -92.881540013008902, 46.663736547288103 ] ] } },
{ "type": "Feature", "properties": { "wmUplineSo": "CROMWELL", "wmType": "Underground" }, "geometry": { "type": "LineString", "coordinates": [ [ -92.875361126142593, 46.687786043801303 ], [ -92.875364543473594, 46.687791394294003 ], [ -92.875342425228993, 46.687910117411597 ], [ -92.875348621237904, 46.687932321681203 ], [ -92.875363122234305, 46.687948073086403 ], [ -92.875399453515001, 46.6879702831245 ], [ -92.875429585286795, 46.687988917513998 ], [ -92.875564880457802, 46.688062677256902 ], [ -92.875579680496699, 46.688050581222299 ] ] } },
{ "type": "Feature", "properties": { "wmUplineSo": "CROMWELL", "wmType": "Underground" }, "geometry": { "type": "LineString", "coordinates": [ [ -92.883056189057498, 46.666955665809198 ], [ -92.882977471267296, 46.666889867875 ], [ -92.8827908315168, 46.6668282453074 ], [ -92.882651731161303, 46.666855246901299 ] ] } },
{ "type": "Feature", "properties": { "wmUplineSo": "CROMWELL", "wmType": "Underground" }, "geometry": { "type": "LineString", "coordinates": [ [ -92.893537882075606, 46.6348335485498 ], [ -92.893830178517902, 46.634812697169501 ] ] } },
{ "type": "Feature", "properties": { "wmUplineSo": "CROMWELL", "wmType": "Underground" }, "geometry": { "type": "LineString", "coordinates": [ [ -92.893328978505593, 46.634913649245298 ], [ -92.892919394690693, 46.635178091882601 ] ] } },
{ "type": "Feature", "properties": { "wmUplineSo": "CROMWELL", "wmType": "Underground" }, "geometry": { "type": "LineString", "coordinates": [ [ -92.893712133941904, 46.621568396828302 ], [ -92.894300115021906, 46.621547833672103 ] ] } },
{ "type": "Feature", "properties": { "wmUplineSo": "CROMWELL", "wmType": "Underground" }, "geometry": { "type": "LineString", "coordinates": [ [ -92.874867116818393, 46.686918429010603 ], [ -92.874889017835898, 46.686941649808197 ] ] } },
{ "type": "Feature", "properties": { "wmUplineSo": "CROMWELL", "wmType": "Underground" }, "geometry": { "type": "LineString", "coordinates": [ [ -92.874889017835898, 46.686941649808197 ], [ -92.874912865474499, 46.686962343889398 ] ] } },
{ "type": "Feature", "properties": { "wmUplineSo": "CROMWELL", "wmType": "Underground" }, "geometry": { "type": "LineString", "coordinates": [ [ -92.882466999992999, 46.672444003471703 ], [ -92.882418999993007, 46.672587003471797 ] ] } },
{ "type": "Feature", "properties": { "wmUplineSo": "CROMWELL", "wmType": "Underground" }, "geometry": { "type": "LineString", "coordinates": [ [ -92.882418999993007, 46.672587003471797 ], [ -92.882423, 46.672719 ] ] } },
{ "type": "Feature", "properties": { "wmUplineSo": "CROMWELL", "wmType": "Underground" }, "geometry": { "type": "LineString", "coordinates": [ [ -92.882423, 46.672719 ], [ -92.882732999992996, 46.672764003471897 ] ] } },
{ "type": "Feature", "properties": { "wmUplineSo": "CROMWELL", "wmType": "Underground" }, "geometry": { "type": "LineString", "coordinates": [ [ -92.881632698262294, 46.664041203744098 ], [ -92.881644456288697, 46.664068105537098 ] ] } },
{ "type": "Feature", "properties": { "wmUplineSo": "CROMWELL", "wmType": "Underground" }, "geometry": { "type": "LineString", "coordinates": [ [ -92.881644456288697, 46.664068105537098 ], [ -92.881542043546304, 46.663750608975299 ] ] } },
{ "type": "Feature", "properties": { "wmUplineSo": "CROMWELL", "wmType": "Underground" }, "geometry": { "type": "LineString", "coordinates": [ [ -92.881632698262294, 46.664041203744098 ], [ -92.881133639266196, 46.664048147069103 ] ] } },
{ "type": "Feature", "properties": { "wmUplineSo": "CROMWELL", "wmType": "Underground" }, "geometry": { "type": "LineString", "coordinates": [ [ -92.874804146820793, 46.686725778544101 ], [ -92.874836518843097, 46.686756555416203 ] ] } },
{ "type": "Feature", "properties": { "wmUplineSo": "CROMWELL", "wmType": "Underground" }, "geometry": { "type": "LineString", "coordinates": [ [ -92.881133639266196, 46.664048147069103 ], [ -92.881134622617495, 46.664059735956897 ] ] } },
{ "type": "Feature", "properties": { "wmUplineSo": "CROMWELL", "wmType": "Underground" }, "geometry": { "type": "LineString", "coordinates": [ [ -92.879813019006406, 46.683245572819999 ], [ -92.879813982313294, 46.683015146532099 ] ] } },
{ "type": "Feature", "properties": { "wmUplineSo": "CROMWELL", "wmType": "Underground" }, "geometry": { "type": "LineString", "coordinates": [ [ -92.881304, 46.678610999999897 ], [ -92.881234, 46.678504000000103 ] ] } },
{ "type": "Feature", "properties": { "wmUplineSo": "CROMWELL", "wmType": "Underground" }, "geometry": { "type": "LineString", "coordinates": [ [ -92.881134622617495, 46.664059735956897 ], [ -92.881164267732998, 46.664211791115903 ] ] } },
{ "type": "Feature", "properties": { "wmUplineSo": "CROMWELL", "wmType": "Underground" }, "geometry": { "type": "LineString", "coordinates": [ [ -92.888112157388406, 46.679739645189798 ], [ -92.888054999993301, 46.679740003473803 ] ] } },
{ "type": "Feature", "properties": { "wmUplineSo": "CROMWELL", "wmType": "Underground" }, "geometry": { "type": "LineString", "coordinates": [ [ -92.888054999993301, 46.679740003473803 ], [ -92.887988820828795, 46.679972738723301 ], [ -92.887975999993301, 46.680299003473998 ], [ -92.887975999993301, 46.680299003473998 ] ] } },
{ "type": "Feature", "properties": { "wmUplineSo": "CROMWELL", "wmType": "Underground" }, "geometry": { "type": "LineString", "coordinates": [ [ -92.887975999993301, 46.680299003473998 ], [ -92.8879621, 46.680304300008402 ] ] } },
{ "type": "Feature", "properties": { "wmUplineSo": "CROMWELL", "wmType": "Underground" }, "geometry": { "type": "LineString", "coordinates": [ [ -92.881164267732998, 46.664211791115903 ], [ -92.8811781724214, 46.664429359340197 ] ] } },
{ "type": "Feature", "properties": { "wmUplineSo": "CROMWELL", "wmType": "Underground" }, "geometry": { "type": "LineString", "coordinates": [ [ -92.8811781724214, 46.664429359340197 ], [ -92.881110947480593, 46.664571708603297 ] ] } },
{ "type": "Feature", "properties": { "wmUplineSo": "CROMWELL", "wmType": "Underground" }, "geometry": { "type": "LineString", "coordinates": [ [ -92.881110947480593, 46.664571708603297 ], [ -92.880829720132297, 46.664682905050498 ] ] } },
{ "type": "Feature", "properties": { "wmUplineSo": "CROMWELL", "wmType": "Underground" }, "geometry": { "type": "LineString", "coordinates": [ [ -92.880829720132297, 46.664682905050498 ], [ -92.880528650856704, 46.664767227855101 ] ] } },
{ "type": "Feature", "properties": { "wmUplineSo": "CROMWELL", "wmType": "Underground" }, "geometry": { "type": "LineString", "coordinates": [ [ -92.880528650856704, 46.664767227855101 ], [ -92.880546164511998, 46.664785809979499 ] ] } },
{ "type": "Feature", "properties": { "wmUplineSo": "CROMWELL", "wmType": "Underground" }, "geometry": { "type": "LineString", "coordinates": [ [ -92.830928387811696, 46.6173384131828 ], [ -92.8309379, 46.617353800008303 ] ] } },
{ "type": "Feature", "properties": { "wmUplineSo": "CROMWELL", "wmType": "Underground" }, "geometry": { "type": "LineString", "coordinates": [ [ -92.881133639266196, 46.664048147069103 ], [ -92.879556805128104, 46.664066181618701 ], [ -92.8795025768637, 46.664047012481298 ], [ -92.879472319260699, 46.663966976713603 ], [ -92.879453799569305, 46.663727961421202 ] ] } },
{ "type": "Feature", "properties": { "wmUplineSo": "CROMWELL", "wmType": "Underground" }, "geometry": { "type": "LineString", "coordinates": [ [ -92.879907779381, 46.675011233317903 ], [ -92.879733146486402, 46.675064989944303 ] ] } },
{ "type": "Feature", "properties": { "wmUplineSo": "CROMWELL", "wmType": "Underground" }, "geometry": { "type": "LineString", "coordinates": [ [ -92.879907779381, 46.675011233317903 ], [ -92.879902222622505, 46.675018642736802 ], [ -92.879839306837297, 46.675087139071302 ], [ -92.879767954879796, 46.675151600169698 ], [ -92.879688711102503, 46.675211535832503 ], [ -92.878976399094398, 46.675671069741 ] ] } },
{ "type": "Feature", "properties": { "wmUplineSo": "CROMWELL", "wmType": "Underground" }, "geometry": { "type": "LineString", "coordinates": [ [ -92.848539440076493, 46.660731114792597 ], [ -92.8485553, 46.660750900008402 ] ] } },
{ "type": "Feature", "properties": { "wmUplineSo": "CROMWELL", "wmType": "Underground" }, "geometry": { "type": "LineString", "coordinates": [ [ -92.879749007814297, 46.682235216747301 ], [ -92.8797083, 46.682230100008397 ] ] } },
{ "type": "Feature", "properties": { "wmUplineSo": "CROMWELL", "wmType": "Underground" }, "geometry": { "type": "LineString", "coordinates": [ [ -92.893452292893997, 46.634863943733698 ], [ -92.893328978505593, 46.634913649245298 ] ] } },
{ "type": "Feature", "properties": { "wmUplineSo": "CROMWELL", "wmType": "Underground" }, "geometry": { "type": "LineString", "coordinates": [ [ -92.892919394690693, 46.635178091882601 ], [ -92.891151163420304, 46.6347310819528 ] ] } },
{ "type": "Feature", "properties": { "wmUplineSo": "CROMWELL", "wmType": "Underground" }, "geometry": { "type": "LineString", "coordinates": [ [ -92.891151163420304, 46.6347310819528 ], [ -92.8909713, 46.634658900008297 ] ] } },
{ "type": "Feature", "properties": { "wmUplineSo": "CROMWELL", "wmType": "Underground" }, "geometry": { "type": "LineString", "coordinates": [ [ -92.918656866285502, 46.625045707115397 ], [ -92.920301822423994, 46.624531824515302 ] ] } },
{ "type": "Feature", "properties": { "wmUplineSo": "CROMWELL", "wmType": "Underground" }, "geometry": { "type": "LineString", "coordinates": [ [ -92.881446, 46.673223 ], [ -92.88116, 46.673395 ] ] } },
{ "type": "Feature", "properties": { "wmUplineSo": "CROMWELL", "wmType": "Underground" }, "geometry": { "type": "LineString", "coordinates": [ [ -92.839589082102606, 46.637507578143101 ], [ -92.839598095023504, 46.637607804933502 ] ] } },
{ "type": "Feature", "properties": { "wmUplineSo": "CROMWELL", "wmType": "Underground" }, "geometry": { "type": "LineString", "coordinates": [ [ -92.839598095023504, 46.637607804933502 ], [ -92.839611069443905, 46.6377223415857 ] ] } },
{ "type": "Feature", "properties": { "wmUplineSo": "CROMWELL", "wmType": "Underground" }, "geometry": { "type": "LineString", "coordinates": [ [ -92.878652241606801, 46.679845377303501 ], [ -92.878051388636905, 46.679840166909997 ] ] } },
{ "type": "Feature", "properties": { "wmUplineSo": "CROMWELL", "wmType": "Underground" }, "geometry": { "type": "LineString", "coordinates": [ [ -92.839611069443905, 46.6377223415857 ], [ -92.839605075607594, 46.637886543798302 ] ] } },
{ "type": "Feature", "properties": { "wmUplineSo": "CROMWELL", "wmType": "Underground" }, "geometry": { "type": "LineString", "coordinates": [ [ -92.839605075607594, 46.637886543798302 ], [ -92.839608210317095, 46.638030151640102 ] ] } },
{ "type": "Feature", "properties": { "wmUplineSo": "CROMWELL", "wmType": "Underground" }, "geometry": { "type": "LineString", "coordinates": [ [ -92.839608210317095, 46.638030151640102 ], [ -92.839533789043799, 46.638252705348698 ] ] } },
{ "type": "Feature", "properties": { "wmUplineSo": "CROMWELL", "wmType": "Underground" }, "geometry": { "type": "LineString", "coordinates": [ [ -92.839533789043799, 46.638252705348698 ], [ -92.839355025082, 46.638450662192398 ] ] } },
{ "type": "Feature", "properties": { "wmUplineSo": "CROMWELL", "wmType": "Underground" }, "geometry": { "type": "LineString", "coordinates": [ [ -92.839355025082, 46.638450662192398 ], [ -92.839231381863996, 46.638579556801297 ] ] } },
{ "type": "Feature", "properties": { "wmUplineSo": "CROMWELL", "wmType": "Underground" }, "geometry": { "type": "LineString", "coordinates": [ [ -92.839139049217295, 46.638700573132802 ], [ -92.8391271, 46.638748000008398 ] ] } },
{ "type": "Feature", "properties": { "wmUplineSo": "CROMWELL", "wmType": "Underground" }, "geometry": { "type": "LineString", "coordinates": [ [ -92.884785, 46.635226 ], [ -92.885578198476907, 46.635007292876303 ] ] } },
{ "type": "Feature", "properties": { "wmUplineSo": "CROMWELL", "wmType": "Underground" }, "geometry": { "type": "LineString", "coordinates": [ [ -92.885578198476907, 46.635007292876303 ], [ -92.885666673402199, 46.6349685374812 ] ] } },
{ "type": "Feature", "properties": { "wmUplineSo": "CROMWELL", "wmType": "Underground" }, "geometry": { "type": "LineString", "coordinates": [ [ -92.885666673402199, 46.6349685374812 ], [ -92.885656258870995, 46.634953974210703 ] ] } },
{ "type": "Feature", "properties": { "wmUplineSo": "CROMWELL", "wmType": "Underground" }, "geometry": { "type": "LineString", "coordinates": [ [ -92.882261, 46.683384 ], [ -92.882302, 46.683378 ] ] } },
{ "type": "Feature", "properties": { "wmUplineSo": "CROMWELL", "wmType": "Underground" }, "geometry": { "type": "LineString", "coordinates": [ [ -92.874836518843097, 46.686756555416203 ], [ -92.874867116818393, 46.686918429010603 ] ] } },
{ "type": "Feature", "properties": { "wmUplineSo": "CROMWELL", "wmType": "Underground" }, "geometry": { "type": "LineString", "coordinates": [ [ -92.885166550372006, 46.683542501025102 ], [ -92.885182207951601, 46.6836102235726 ] ] } },
{ "type": "Feature", "properties": { "wmUplineSo": "CROMWELL", "wmType": "Underground" }, "geometry": { "type": "LineString", "coordinates": [ [ -92.870443650131605, 46.638644284194299 ], [ -92.870422430356896, 46.638638168452999 ] ] } },
{ "type": "Feature", "properties": { "wmUplineSo": "CROMWELL", "wmType": "Underground" }, "geometry": { "type": "LineString", "coordinates": [ [ -92.881234, 46.678504000000103 ], [ -92.881271977871904, 46.678465689994603 ] ] } },
{ "type": "Feature", "properties": { "wmUplineSo": "CROMWELL", "wmType": "Underground" }, "geometry": { "type": "LineString", "coordinates": [ [ -92.881234, 46.678504000000103 ], [ -92.88123, 46.678467 ] ] } },
{ "type": "Feature", "properties": { "wmUplineSo": "CROMWELL", "wmType": "Underground" }, "geometry": { "type": "LineString", "coordinates": [ [ -92.882017609903599, 46.6790468307398 ], [ -92.881876, 46.678961999999899 ] ] } },
{ "type": "Feature", "properties": { "wmUplineSo": "CROMWELL", "wmType": "Underground" }, "geometry": { "type": "LineString", "coordinates": [ [ -92.881876, 46.678961999999899 ], [ -92.881475, 46.678728 ] ] } },
{ "type": "Feature", "properties": { "wmUplineSo": "CROMWELL", "wmType": "Underground" }, "geometry": { "type": "LineString", "coordinates": [ [ -92.881475, 46.678728 ], [ -92.881304, 46.678610999999897 ] ] } },
{ "type": "Feature", "properties": { "wmUplineSo": "CROMWELL", "wmType": "Underground" }, "geometry": { "type": "LineString", "coordinates": [ [ -92.880943, 46.673450000000102 ], [ -92.880943, 46.6734930000001 ] ] } },
{ "type": "Feature", "properties": { "wmUplineSo": "CROMWELL", "wmType": "Underground" }, "geometry": { "type": "LineString", "coordinates": [ [ -92.882732999992996, 46.672764003471897 ], [ -92.882867999992996, 46.6728080034718 ] ] } },
{ "type": "Feature", "properties": { "wmUplineSo": "CROMWELL", "wmType": "Underground" }, "geometry": { "type": "LineString", "coordinates": [ [ -92.882867999992996, 46.6728080034718 ], [ -92.882887999993002, 46.672819003471901 ] ] } },
{ "type": "Feature", "properties": { "wmUplineSo": "CROMWELL", "wmType": "Underground" }, "geometry": { "type": "LineString", "coordinates": [ [ -92.874410065090402, 46.685724380618502 ], [ -92.8742445940198, 46.685691326840903 ] ] } },
{ "type": "Feature", "properties": { "wmUplineSo": "CROMWELL", "wmType": "Underground" }, "geometry": { "type": "LineString", "coordinates": [ [ -92.882749781843899, 46.681745219652001 ], [ -92.881807696945103, 46.681625419441197 ] ] } },
{ "type": "Feature", "properties": { "wmUplineSo": "CROMWELL", "wmType": "Underground" }, "geometry": { "type": "LineString", "coordinates": [ [ -92.884103988301703, 46.682076378288301 ], [ -92.884074115804793, 46.682083310588197 ] ] } },
{ "type": "Feature", "properties": { "wmUplineSo": "CROMWELL", "wmType": "Underground" }, "geometry": { "type": "LineString", "coordinates": [ [ -92.879907779381, 46.675011233317903 ], [ -92.879757846639194, 46.675036789984397 ] ] } },
{ "type": "Feature", "properties": { "wmUplineSo": "CROMWELL", "wmType": "Underground" }, "geometry": { "type": "LineString", "coordinates": [ [ -92.879440785702897, 46.6737177225558 ], [ -92.878990048830204, 46.673851588790001 ] ] } },
{ "type": "Feature", "properties": { "wmUplineSo": "CROMWELL", "wmType": "Underground" }, "geometry": { "type": "LineString", "coordinates": [ [ -92.897211881644907, 46.608896366931802 ], [ -92.8971249, 46.608919300008303 ] ] } },
{ "type": "Feature", "properties": { "wmUplineSo": "CROMWELL", "wmType": "Underground" }, "geometry": { "type": "LineString", "coordinates": [ [ -92.886250336061494, 46.679457438623501 ], [ -92.886194297035402, 46.678989507523397 ] ] } },
{ "type": "Feature", "properties": { "wmUplineSo": "CROMWELL", "wmType": "Underground" }, "geometry": { "type": "LineString", "coordinates": [ [ -92.859395084659795, 46.6800075148075 ], [ -92.8593795, 46.680082300008401 ] ] } },
{ "type": "Feature", "properties": { "wmUplineSo": "CROMWELL", "wmType": "Underground" }, "geometry": { "type": "LineString", "coordinates": [ [ -92.882261, 46.683384 ], [ -92.882598509757102, 46.683343593454403 ] ] } },
{ "type": "Feature", "properties": { "wmUplineSo": "CROMWELL", "wmType": "Underground" }, "geometry": { "type": "LineString", "coordinates": [ [ -92.882253796584806, 46.683642459923099 ], [ -92.882261, 46.683384 ] ] } },
{ "type": "Feature", "properties": { "wmUplineSo": "CROMWELL", "wmType": "Underground" }, "geometry": { "type": "LineString", "coordinates": [ [ -92.881636655960307, 46.683635118630797 ], [ -92.881752230934694, 46.6833832704 ] ] } },
{ "type": "Feature", "properties": { "wmUplineSo": "CROMWELL", "wmType": "Underground" }, "geometry": { "type": "LineString", "coordinates": [ [ -92.868989811912598, 46.675987677487797 ], [ -92.8678278, 46.675579600008398 ] ] } },
{ "type": "Feature", "properties": { "wmUplineSo": "CROMWELL", "wmType": "Underground" }, "geometry": { "type": "LineString", "coordinates": [ [ -92.873607539989095, 46.659628810655498 ], [ -92.8736669, 46.659519300008398 ] ] } },
{ "type": "Feature", "properties": { "wmUplineSo": "CROMWELL", "wmType": "Underground" }, "geometry": { "type": "LineString", "coordinates": [ [ -92.872186993420996, 46.645110378003601 ], [ -92.8725866, 46.645624000008397 ] ] } },
{ "type": "Feature", "properties": { "wmUplineSo": "CROMWELL", "wmType": "Underground" }, "geometry": { "type": "LineString", "coordinates": [ [ -92.850007885425299, 46.642188440950001 ], [ -92.849716351805, 46.642490471478403 ] ] } },
{ "type": "Feature", "properties": { "wmUplineSo": "CROMWELL", "wmType": "Underground" }, "geometry": { "type": "LineString", "coordinates": [ [ -92.850007885425299, 46.642188440950001 ], [ -92.8490936, 46.642058100008398 ] ] } },
{ "type": "Feature", "properties": { "wmUplineSo": "CROMWELL", "wmType": "Underground" }, "geometry": { "type": "LineString", "coordinates": [ [ -92.845256512752201, 46.620697649368701 ], [ -92.8466516, 46.620916500008299 ] ] } },
{ "type": "Feature", "properties": { "wmUplineSo": "CROMWELL", "wmType": "Underground" }, "geometry": { "type": "LineString", "coordinates": [ [ -92.857709354380205, 46.622394738967301 ], [ -92.8577847, 46.622624800008303 ] ] } },
{ "type": "Feature", "properties": { "wmUplineSo": "CROMWELL", "wmType": "Underground" }, "geometry": { "type": "LineString", "coordinates": [ [ -92.857709354380205, 46.622394738967301 ], [ -92.8574633, 46.622183300008302 ] ] } },
{ "type": "Feature", "properties": { "wmUplineSo": "CROMWELL", "wmType": "Underground" }, "geometry": { "type": "LineString", "coordinates": [ [ -92.870167972728396, 46.620387886569297 ], [ -92.8700979, 46.620447100008299 ] ] } },
{ "type": "Feature", "properties": { "wmUplineSo": "CROMWELL", "wmType": "Underground" }, "geometry": { "type": "LineString", "coordinates": [ [ -92.896635632115405, 46.622103390157498 ], [ -92.8961043, 46.621784800008299 ] ] } },
{ "type": "Feature", "properties": { "wmUplineSo": "CROMWELL", "wmType": "Underground" }, "geometry": { "type": "LineString", "coordinates": [ [ -92.899071118510193, 46.622062321473898 ], [ -92.898789, 46.621530300008303 ] ] } },
{ "type": "Feature", "properties": { "wmUplineSo": "CROMWELL", "wmType": "Underground" }, "geometry": { "type": "LineString", "coordinates": [ [ -92.903570103610093, 46.620758305308897 ], [ -92.9032585, 46.6205877000084 ] ] } },
{ "type": "Feature", "properties": { "wmUplineSo": "CROMWELL", "wmType": "Underground" }, "geometry": { "type": "LineString", "coordinates": [ [ -92.920301822423994, 46.624531824515302 ], [ -92.920623, 46.624704900008297 ] ] } },
{ "type": "Feature", "properties": { "wmUplineSo": "CROMWELL", "wmType": "Underground" }, "geometry": { "type": "LineString", "coordinates": [ [ -92.897586846966803, 46.629019511097098 ], [ -92.89772881, 46.628892930008298 ] ] } },
{ "type": "Feature", "properties": { "wmUplineSo": "CROMWELL", "wmType": "Underground" }, "geometry": { "type": "LineString", "coordinates": [ [ -92.926985319453095, 46.6066274796881 ], [ -92.9271863, 46.606287400008299 ] ] } },
{ "type": "Feature", "properties": { "wmUplineSo": "CROMWELL", "wmType": "Underground" }, "geometry": { "type": "LineString", "coordinates": [ [ -92.870238666633796, 46.687663203928601 ], [ -92.870054, 46.6873341000084 ] ] } },
{ "type": "Feature", "properties": { "wmUplineSo": "CROMWELL", "wmType": "Underground" }, "geometry": { "type": "LineString", "coordinates": [ [ -92.875579680496699, 46.688050581222299 ], [ -92.8757084, 46.688002900008399 ] ] } },
{ "type": "Feature", "properties": { "wmUplineSo": "CROMWELL", "wmType": "Underground" }, "geometry": { "type": "LineString", "coordinates": [ [ -92.875211526848901, 46.688157162926501 ], [ -92.8752318, 46.688199800008398 ] ] } },
{ "type": "Feature", "properties": { "wmUplineSo": "CROMWELL", "wmType": "Underground" }, "geometry": { "type": "LineString", "coordinates": [ [ -92.874807686200398, 46.6888249770805 ], [ -92.8753395, 46.688752600008399 ] ] } },
{ "type": "Feature", "properties": { "wmUplineSo": "CROMWELL", "wmType": "Underground" }, "geometry": { "type": "LineString", "coordinates": [ [ -92.874807686200398, 46.6888249770805 ], [ -92.8750616, 46.688931300008399 ] ] } },
{ "type": "Feature", "properties": { "wmUplineSo": "CROMWELL", "wmType": "Underground" }, "geometry": { "type": "LineString", "coordinates": [ [ -92.874543639819294, 46.689288994199501 ], [ -92.8748958, 46.6893540000084 ] ] } },
{ "type": "Feature", "properties": { "wmUplineSo": "CROMWELL", "wmType": "Underground" }, "geometry": { "type": "LineString", "coordinates": [ [ -92.874543639819294, 46.689288994199501 ], [ -92.8750983, 46.689258100008402 ] ] } },
{ "type": "Feature", "properties": { "wmUplineSo": "CROMWELL", "wmType": "Underground" }, "geometry": { "type": "LineString", "coordinates": [ [ -92.861926334195999, 46.666509959517803 ], [ -92.8622383, 46.666193800008401 ] ] } },
{ "type": "Feature", "properties": { "wmUplineSo": "CROMWELL", "wmType": "Underground" }, "geometry": { "type": "LineString", "coordinates": [ [ -92.890553422868706, 46.678606558759398 ], [ -92.8903661, 46.6785518000084 ] ] } },
{ "type": "Feature", "properties": { "wmUplineSo": "CROMWELL", "wmType": "Underground" }, "geometry": { "type": "LineString", "coordinates": [ [ -92.885933408523101, 46.678868310713902 ], [ -92.8857864, 46.678924400008398 ] ] } },
{ "type": "Feature", "properties": { "wmUplineSo": "CROMWELL", "wmType": "Underground" }, "geometry": { "type": "LineString", "coordinates": [ [ -92.879190890128996, 46.680645617100303 ], [ -92.878515215358604, 46.680574766595598 ] ] } },
{ "type": "Feature", "properties": { "wmUplineSo": "CROMWELL", "wmType": "Underground" }, "geometry": { "type": "LineString", "coordinates": [ [ -92.879190890128996, 46.680645617100303 ], [ -92.8786451, 46.6810168000084 ] ] } },
{ "type": "Feature", "properties": { "wmUplineSo": "CROMWELL", "wmType": "Underground" }, "geometry": { "type": "LineString", "coordinates": [ [ -92.879796616003503, 46.683455344124503 ], [ -92.8798406, 46.683569000008397 ] ] } },
{ "type": "Feature", "properties": { "wmUplineSo": "CROMWELL", "wmType": "Underground" }, "geometry": { "type": "LineString", "coordinates": [ [ -92.879796616003503, 46.683455344124503 ], [ -92.8798071, 46.683581000008402 ] ] } },
{ "type": "Feature", "properties": { "wmUplineSo": "CROMWELL", "wmType": "Underground" }, "geometry": { "type": "LineString", "coordinates": [ [ -92.884912802157501, 46.685972606061 ], [ -92.884753, 46.685697100008397 ] ] } },
{ "type": "Feature", "properties": { "wmUplineSo": "CROMWELL", "wmType": "Underground" }, "geometry": { "type": "LineString", "coordinates": [ [ -92.884912802157501, 46.685972606061 ], [ -92.8849051, 46.6858797000084 ] ] } },
{ "type": "Feature", "properties": { "wmUplineSo": "CROMWELL", "wmType": "Underground" }, "geometry": { "type": "LineString", "coordinates": [ [ -92.884912802157501, 46.685972606061 ], [ -92.8847584, 46.685697700008397 ] ] } },
{ "type": "Feature", "properties": { "wmUplineSo": "CROMWELL", "wmType": "Underground" }, "geometry": { "type": "LineString", "coordinates": [ [ -92.884912802157501, 46.685972606061 ], [ -92.88476, 46.685699300008402 ] ] } },
{ "type": "Feature", "properties": { "wmUplineSo": "CROMWELL", "wmType": "Underground" }, "geometry": { "type": "LineString", "coordinates": [ [ -92.884912802157501, 46.685972606061 ], [ -92.8849209, 46.685906200008397 ] ] } },
{ "type": "Feature", "properties": { "wmUplineSo": "CROMWELL", "wmType": "Underground" }, "geometry": { "type": "LineString", "coordinates": [ [ -92.884912802157501, 46.685972606061 ], [ -92.8849912, 46.685807700008397 ] ] } },
{ "type": "Feature", "properties": { "wmUplineSo": "CROMWELL", "wmType": "Underground" }, "geometry": { "type": "LineString", "coordinates": [ [ -92.884912802157501, 46.685972606061 ], [ -92.8849418, 46.685909100008402 ] ] } },
{ "type": "Feature", "properties": { "wmUplineSo": "CROMWELL", "wmType": "Underground" }, "geometry": { "type": "LineString", "coordinates": [ [ -92.884912802157501, 46.685972606061 ], [ -92.8850055, 46.6858645000084 ] ] } },
{ "type": "Feature", "properties": { "wmUplineSo": "CROMWELL", "wmType": "Underground" }, "geometry": { "type": "LineString", "coordinates": [ [ -92.884912802157501, 46.685972606061 ], [ -92.885039530930996, 46.685819280880601 ] ] } },
{ "type": "Feature", "properties": { "wmUplineSo": "CROMWELL", "wmType": "Underground" }, "geometry": { "type": "LineString", "coordinates": [ [ -92.884912802157501, 46.685972606061 ], [ -92.8849188, 46.685868700008399 ] ] } },
{ "type": "Feature", "properties": { "wmUplineSo": "CROMWELL", "wmType": "Underground" }, "geometry": { "type": "LineString", "coordinates": [ [ -92.884912802157501, 46.685972606061 ], [ -92.884951, 46.685884400008398 ] ] } },
{ "type": "Feature", "properties": { "wmUplineSo": "CROMWELL", "wmType": "Underground" }, "geometry": { "type": "LineString", "coordinates": [ [ -92.884912802157501, 46.685972606061 ], [ -92.8849176, 46.685893300008402 ] ] } },
{ "type": "Feature", "properties": { "wmUplineSo": "CROMWELL", "wmType": "Underground" }, "geometry": { "type": "LineString", "coordinates": [ [ -92.884912802157501, 46.685972606061 ], [ -92.8848755, 46.685821700008397 ] ] } },
{ "type": "Feature", "properties": { "wmUplineSo": "CROMWELL", "wmType": "Underground" }, "geometry": { "type": "LineString", "coordinates": [ [ -92.884912802157501, 46.685972606061 ], [ -92.8848894, 46.685813100008403 ] ] } },
{ "type": "Feature", "properties": { "wmUplineSo": "CROMWELL", "wmType": "Underground" }, "geometry": { "type": "LineString", "coordinates": [ [ -92.884912802157501, 46.685972606061 ], [ -92.8849005, 46.685897600008403 ] ] } },
{ "type": "Feature", "properties": { "wmUplineSo": "CROMWELL", "wmType": "Underground" }, "geometry": { "type": "LineString", "coordinates": [ [ -92.884912802157501, 46.685972606061 ], [ -92.8847492, 46.685703000008402 ] ] } },
{ "type": "Feature", "properties": { "wmUplineSo": "CROMWELL", "wmType": "Underground" }, "geometry": { "type": "LineString", "coordinates": [ [ -92.884912802157501, 46.685972606061 ], [ -92.8849125, 46.685898200008403 ] ] } },
{ "type": "Feature", "properties": { "wmUplineSo": "CROMWELL", "wmType": "Underground" }, "geometry": { "type": "LineString", "coordinates": [ [ -92.8806674013546, 46.685667386605097 ], [ -92.8806076, 46.685654900008402 ] ] } },
{ "type": "Feature", "properties": { "wmUplineSo": "CROMWELL", "wmType": "Underground" }, "geometry": { "type": "LineString", "coordinates": [ [ -92.883660792066195, 46.678985466135501 ], [ -92.8836907, 46.679156400008402 ], [ -92.8836907, 46.679156400008402 ] ] } },
{ "type": "Feature", "properties": { "wmUplineSo": "CROMWELL", "wmType": "Underground" }, "geometry": { "type": "LineString", "coordinates": [ [ -92.878976399094398, 46.675671069741 ], [ -92.878218985232394, 46.6761779436167 ] ] } },
{ "type": "Feature", "properties": { "wmUplineSo": "CROMWELL", "wmType": "Underground" }, "geometry": { "type": "LineString", "coordinates": [ [ -92.881509264078105, 46.688148379258202 ], [ -92.8810704, 46.688379700008397 ] ] } },
{ "type": "Feature", "properties": { "wmUplineSo": "CROMWELL", "wmType": "Underground" }, "geometry": { "type": "LineString", "coordinates": [ [ -92.881509264078105, 46.688148379258202 ], [ -92.8810803, 46.687568300008401 ] ] } },
{ "type": "Feature", "properties": { "wmUplineSo": "CROMWELL", "wmType": "Underground" }, "geometry": { "type": "LineString", "coordinates": [ [ -92.880426055393599, 46.688872747172198 ], [ -92.8803313, 46.688896000008398 ] ] } },
{ "type": "Feature", "properties": { "wmUplineSo": "CROMWELL", "wmType": "Underground" }, "geometry": { "type": "LineString", "coordinates": [ [ -92.880426055393599, 46.688872747172198 ], [ -92.8802627, 46.6888974000084 ] ] } },
{ "type": "Feature", "properties": { "wmUplineSo": "CROMWELL", "wmType": "Underground" }, "geometry": { "type": "LineString", "coordinates": [ [ -92.879453799569305, 46.663727961421202 ], [ -92.8793324, 46.663637500008399 ] ] } },
{ "type": "Feature", "properties": { "wmUplineSo": "CROMWELL", "wmType": "Underground" }, "geometry": { "type": "LineString", "coordinates": [ [ -92.8821727736524, 46.668591475850697 ], [ -92.8826246, 46.6687298000084 ] ] } },
{ "type": "Feature", "properties": { "wmUplineSo": "CROMWELL", "wmType": "Underground" }, "geometry": { "type": "LineString", "coordinates": [ [ -92.881573798741101, 46.670287367125397 ], [ -92.881651880230905, 46.6702658278342 ] ] } },
{ "type": "Feature", "properties": { "wmUplineSo": "CROMWELL", "wmType": "Underground" }, "geometry": { "type": "LineString", "coordinates": [ [ -92.881811658589299, 46.669071840730403 ], [ -92.881626008639003, 46.668503566619201 ] ] } },
{ "type": "Feature", "properties": { "wmUplineSo": "CROMWELL", "wmType": "Underground" }, "geometry": { "type": "LineString", "coordinates": [ [ -92.892206131063304, 46.632529607283701 ], [ -92.892016, 46.632127100008397 ] ] } },
{ "type": "Feature", "properties": { "wmUplineSo": "CROMWELL", "wmType": "Underground" }, "geometry": { "type": "LineString", "coordinates": [ [ -92.8524079999912, 46.677340003473198 ], [ -92.852830999991298, 46.6772210034731 ] ] } },
{ "type": "Feature", "properties": { "wmUplineSo": "CROMWELL", "wmType": "Underground" }, "geometry": { "type": "LineString", "coordinates": [ [ -92.861536065641403, 46.625557227454998 ], [ -92.861327847132898, 46.625749827872603 ] ] } },
{ "type": "Feature", "properties": { "wmUplineSo": "CROMWELL", "wmType": "Underground" }, "geometry": { "type": "LineString", "coordinates": [ [ -92.882423, 46.672719 ], [ -92.882266, 46.672799 ] ] } },
{ "type": "Feature", "properties": { "wmUplineSo": "CROMWELL", "wmType": "Underground" }, "geometry": { "type": "LineString", "coordinates": [ [ -92.879813982313294, 46.683015146532099 ], [ -92.8798006, 46.682995500008403 ] ] } },
{ "type": "Feature", "properties": { "wmUplineSo": "CROMWELL", "wmType": "Underground" }, "geometry": { "type": "LineString", "coordinates": [ [ -92.866202047621101, 46.620922890149302 ], [ -92.8664428, 46.620851100008402 ] ] } },
{ "type": "Feature", "properties": { "wmUplineSo": "CROMWELL", "wmType": "Underground" }, "geometry": { "type": "LineString", "coordinates": [ [ -92.879788880610604, 46.6826018711999 ], [ -92.8797618, 46.682750800008399 ] ] } },
{ "type": "Feature", "properties": { "wmUplineSo": "CROMWELL", "wmType": "Underground" }, "geometry": { "type": "LineString", "coordinates": [ [ -92.852066869019495, 46.659735560857897 ], [ -92.8519129, 46.659968400008403 ] ] } },
{ "type": "Feature", "properties": { "wmUplineSo": "CROMWELL", "wmType": "Underground" }, "geometry": { "type": "LineString", "coordinates": [ [ -92.879749007814297, 46.682235216747301 ], [ -92.8797375, 46.682171000008402 ] ] } },
{ "type": "Feature", "properties": { "wmUplineSo": "CROMWELL", "wmType": "Underground" }, "geometry": { "type": "LineString", "coordinates": [ [ -92.8821727736524, 46.668591475850697 ], [ -92.882042201766396, 46.668278286164899 ] ] } },
{ "type": "Feature", "properties": { "wmUplineSo": "CROMWELL", "wmType": "Underground" }, "geometry": { "type": "LineString", "coordinates": [ [ -92.893830178517902, 46.634812697169501 ], [ -92.8938641, 46.634811300008401 ] ] } },
{ "type": "Feature", "properties": { "wmUplineSo": "CROMWELL", "wmType": "Underground" }, "geometry": { "type": "LineString", "coordinates": [ [ -92.830284188450904, 46.617351355787797 ], [ -92.830539999944307, 46.617353386676399 ] ] } },
{ "type": "Feature", "properties": { "wmUplineSo": "CROMWELL", "wmType": "Underground" }, "geometry": { "type": "LineString", "coordinates": [ [ -92.881869830355697, 46.681418056775101 ], [ -92.881873143839798, 46.681395150276998 ] ] } },
{ "type": "Feature", "properties": { "wmUplineSo": "CROMWELL", "wmType": "Underground" }, "geometry": { "type": "LineString", "coordinates": [ [ -92.839736000063098, 46.63613997193 ], [ -92.839624252839499, 46.636867010816097 ] ] } },
{ "type": "Feature", "properties": { "wmUplineSo": "CROMWELL", "wmType": "Underground" }, "geometry": { "type": "LineString", "coordinates": [ [ -92.839624252839499, 46.636867010816097 ], [ -92.839624271236303, 46.637023190866998 ] ] } },
{ "type": "Feature", "properties": { "wmUplineSo": "CROMWELL", "wmType": "Underground" }, "geometry": { "type": "LineString", "coordinates": [ [ -92.880943, 46.6734930000001 ], [ -92.880938, 46.673510999999898 ] ] } },
{ "type": "Feature", "properties": { "wmUplineSo": "CROMWELL", "wmType": "Underground" }, "geometry": { "type": "LineString", "coordinates": [ [ -92.881950647741107, 46.669095047889599 ], [ -92.8818927024098, 46.669023350659501 ] ] } },
{ "type": "Feature", "properties": { "wmUplineSo": "CROMWELL", "wmType": "Underground" }, "geometry": { "type": "LineString", "coordinates": [ [ -92.851851999991197, 46.677508003473299 ], [ -92.8524079999912, 46.677340003473198 ] ] } },
{ "type": "Feature", "properties": { "wmUplineSo": "CROMWELL", "wmType": "Underground" }, "geometry": { "type": "LineString", "coordinates": [ [ -92.8871313895648, 46.621421739439199 ], [ -92.8871379, 46.621394800008296 ] ] } },
{ "type": "Feature", "properties": { "wmUplineSo": "CROMWELL", "wmType": "Underground" }, "geometry": { "type": "LineString", "coordinates": [ [ -92.854941613396093, 46.602572345510502 ], [ -92.8545021, 46.6026661000083 ] ] } },
{ "type": "Feature", "properties": { "wmUplineSo": "CROMWELL", "wmType": "Underground" }, "geometry": { "type": "LineString", "coordinates": [ [ -92.874137370914497, 46.686014242899603 ], [ -92.874410065090402, 46.685724380618502 ] ] } },
{ "type": "Feature", "properties": { "wmUplineSo": "CROMWELL", "wmType": "Underground" }, "geometry": { "type": "LineString", "coordinates": [ [ -92.894300115021906, 46.621547833672103 ], [ -92.8947059, 46.621216600008303 ] ] } },
{ "type": "Feature", "properties": { "wmUplineSo": "CROMWELL", "wmType": "Underground" }, "geometry": { "type": "LineString", "coordinates": [ [ -92.881807696945103, 46.681625419441197 ], [ -92.881869830355697, 46.681418056775101 ] ] } },
{ "type": "Feature", "properties": { "wmUplineSo": "CROMWELL", "wmType": "Underground" }, "geometry": { "type": "LineString", "coordinates": [ [ -92.884074115804793, 46.682083310588197 ], [ -92.884052843365097, 46.682081838616 ] ] } },
{ "type": "Feature", "properties": { "wmUplineSo": "CROMWELL", "wmType": "Underground" }, "geometry": { "type": "LineString", "coordinates": [ [ -92.881807696945103, 46.681625419441197 ], [ -92.8803043580386, 46.681196040520497 ] ] } },
{ "type": "Feature", "properties": { "wmUplineSo": "CROMWELL", "wmType": "Underground" }, "geometry": { "type": "LineString", "coordinates": [ [ -92.881996851767596, 46.665549928752696 ], [ -92.8818023, 46.666118700008397 ] ] } },
{ "type": "Feature", "properties": { "wmUplineSo": "CROMWELL", "wmType": "Underground" }, "geometry": { "type": "LineString", "coordinates": [ [ -92.880743820779799, 46.6707734806605 ], [ -92.8800111, 46.670771300008397 ] ] } },
{ "type": "Feature", "properties": { "wmUplineSo": "CROMWELL", "wmType": "Underground" }, "geometry": { "type": "LineString", "coordinates": [ [ -92.880743820779799, 46.6707734806605 ], [ -92.879809072318807, 46.671285361554801 ] ] } },
{ "type": "Feature", "properties": { "wmUplineSo": "CROMWELL", "wmType": "Underground" }, "geometry": { "type": "LineString", "coordinates": [ [ -92.880743820779799, 46.6707734806605 ], [ -92.8799120798205, 46.671005456410498 ] ] } },
{ "type": "Feature", "properties": { "wmUplineSo": "CROMWELL", "wmType": "Underground" }, "geometry": { "type": "LineString", "coordinates": [ [ -92.8838136681386, 46.663869449674799 ], [ -92.8841689, 46.663846900008402 ] ] } },
{ "type": "Feature", "properties": { "wmUplineSo": "CROMWELL", "wmType": "Underground" }, "geometry": { "type": "LineString", "coordinates": [ [ -92.8838136681386, 46.663869449674799 ], [ -92.8836935, 46.663712600008402 ] ] } },
{ "type": "Feature", "properties": { "wmUplineSo": "CROMWELL", "wmType": "Underground" }, "geometry": { "type": "LineString", "coordinates": [ [ -92.8838136681386, 46.663869449674799 ], [ -92.8835843, 46.663881900008398 ] ] } },
{ "type": "Feature", "properties": { "wmUplineSo": "CROMWELL", "wmType": "Underground" }, "geometry": { "type": "LineString", "coordinates": [ [ -92.872980993671206, 46.679547642187401 ], [ -92.868276153760107, 46.679131298080499 ] ] } },
{ "type": "Feature", "properties": { "wmUplineSo": "CROMWELL", "wmType": "Underground" }, "geometry": { "type": "LineString", "coordinates": [ [ -92.8803043580386, 46.681196040520497 ], [ -92.879661238375604, 46.680720630353797 ] ] } },
{ "type": "Feature", "properties": { "wmUplineSo": "CROMWELL", "wmType": "Underground" }, "geometry": { "type": "LineString", "coordinates": [ [ -92.878051388636905, 46.679840166909997 ], [ -92.876383239383401, 46.679801029190898 ], [ -92.875086509929005, 46.679722064780101 ], [ -92.872972840545401, 46.679547595741298 ], [ -92.872980993671206, 46.679547642187401 ] ] } },
{ "type": "Feature", "properties": { "wmUplineSo": "CROMWELL", "wmType": "Underground" }, "geometry": { "type": "LineString", "coordinates": [ [ -92.881811658589299, 46.669071840730403 ], [ -92.881656937090995, 46.669121683205198 ] ] } },
{ "type": "Feature", "properties": { "wmUplineSo": "CROMWELL", "wmType": "Underground" }, "geometry": { "type": "LineString", "coordinates": [ [ -92.8538149999913, 46.676927003473097 ], [ -92.854201999991304, 46.676816003473 ] ] } },
{ "type": "Feature", "properties": { "wmUplineSo": "CROMWELL", "wmType": "Underground" }, "geometry": { "type": "LineString", "coordinates": [ [ -92.882266, 46.672799 ], [ -92.881821, 46.672924 ] ] } },
{ "type": "Feature", "properties": { "wmUplineSo": "CROMWELL", "wmType": "Underground" }, "geometry": { "type": "LineString", "coordinates": [ [ -92.881821, 46.672924 ], [ -92.88157, 46.673081000000103 ] ] } },
{ "type": "Feature", "properties": { "wmUplineSo": "CROMWELL", "wmType": "Underground" }, "geometry": { "type": "LineString", "coordinates": [ [ -92.852388342364193, 46.648579385113898 ], [ -92.8521149, 46.648353600008399 ] ] } },
{ "type": "Feature", "properties": { "wmUplineSo": "CROMWELL", "wmType": "Underground" }, "geometry": { "type": "LineString", "coordinates": [ [ -92.880080710481195, 46.674553754729999 ], [ -92.880075979489803, 46.674634727697303 ], [ -92.8800610135238, 46.674715108150203 ], [ -92.880035927233607, 46.674794285610297 ], [ -92.880000909580801, 46.6748716576801 ], [ -92.879956227714203, 46.674946631888901 ], [ -92.879907779381, 46.675011233317903 ] ] } },
{ "type": "Feature", "properties": { "wmUplineSo": "CROMWELL", "wmType": "Underground" }, "geometry": { "type": "LineString", "coordinates": [ [ -92.879353256677703, 46.6736412041476 ], [ -92.879440785702897, 46.6737177225558 ] ] } },
{ "type": "Feature", "properties": { "wmUplineSo": "CROMWELL", "wmType": "Underground" }, "geometry": { "type": "LineString", "coordinates": [ [ -92.879440785702897, 46.6737177225558 ], [ -92.879627040905902, 46.673862221555503 ], [ -92.879711597059398, 46.6739186107366 ], [ -92.879788693977702, 46.673979856983401 ], [ -92.879857740707493, 46.674045496187901 ], [ -92.879918215167706, 46.674115028172402 ], [ -92.879969656150394, 46.674187922891399 ], [ -92.880011669742998, 46.674263625007299 ], [ -92.880043936988997, 46.6743415611787 ], [ -92.880066215287002, 46.674421136477399 ], [ -92.880078332915502, 46.674501744221097 ], [ -92.880080710481195, 46.674553754729999 ] ] } },
{ "type": "Feature", "properties": { "wmUplineSo": "CROMWELL", "wmType": "Underground" }, "geometry": { "type": "LineString", "coordinates": [ [ -92.886194297035402, 46.678989507523397 ], [ -92.885933408523101, 46.678868310713902 ] ] } },
{ "type": "Feature", "properties": { "wmUplineSo": "CROMWELL", "wmType": "Underground" }, "geometry": { "type": "LineString", "coordinates": [ [ -92.8395900672827, 46.637342771669303 ], [ -92.839589082102606, 46.637507578143101 ] ] } },
{ "type": "Feature", "properties": { "wmUplineSo": "CROMWELL", "wmType": "Underground" }, "geometry": { "type": "LineString", "coordinates": [ [ -92.851121889393298, 46.6482332629176 ], [ -92.852388342364193, 46.648579385113898 ] ] } },
{ "type": "Feature", "properties": { "wmUplineSo": "CROMWELL", "wmType": "Underground" }, "geometry": { "type": "LineString", "coordinates": [ [ -92.881699925565599, 46.6827179750399 ], [ -92.881158315049404, 46.682631695629802 ] ] } },
{ "type": "Feature", "properties": { "wmUplineSo": "CROMWELL", "wmType": "Underground" }, "geometry": { "type": "LineString", "coordinates": [ [ -92.881158315049404, 46.682631695629802 ], [ -92.880429858293297, 46.682453142364203 ] ] } },
{ "type": "Feature", "properties": { "wmUplineSo": "CROMWELL", "wmType": "Underground" }, "geometry": { "type": "LineString", "coordinates": [ [ -92.881158315049404, 46.682631695629802 ], [ -92.881134177204203, 46.683225983264698 ], [ -92.881134177204203, 46.683225983264698 ] ] } },
{ "type": "Feature", "properties": { "wmUplineSo": "CROMWELL", "wmType": "Underground" }, "geometry": { "type": "LineString", "coordinates": [ [ -92.881134177204203, 46.683225983264698 ], [ -92.881118799951295, 46.683611699061501 ] ] } },
{ "type": "Feature", "properties": { "wmUplineSo": "CROMWELL", "wmType": "Underground" }, "geometry": { "type": "LineString", "coordinates": [ [ -92.881118799951295, 46.683611699061501 ], [ -92.881636655960307, 46.683635118630797 ] ] } },
{ "type": "Feature", "properties": { "wmUplineSo": "CROMWELL", "wmType": "Underground" }, "geometry": { "type": "LineString", "coordinates": [ [ -92.881636655960307, 46.683635118630797 ], [ -92.882253796584806, 46.683642459923099 ] ] } },
{ "type": "Feature", "properties": { "wmUplineSo": "CROMWELL", "wmType": "Underground" }, "geometry": { "type": "LineString", "coordinates": [ [ -92.868276153760107, 46.679131298080499 ], [ -92.868666021152706, 46.678895700499801 ] ] } },
{ "type": "Feature", "properties": { "wmUplineSo": "CROMWELL", "wmType": "Underground" }, "geometry": { "type": "LineString", "coordinates": [ [ -92.868666021152706, 46.678895700499801 ], [ -92.868766664860104, 46.678537202175796 ] ] } },
{ "type": "Feature", "properties": { "wmUplineSo": "CROMWELL", "wmType": "Underground" }, "geometry": { "type": "LineString", "coordinates": [ [ -92.868766664860104, 46.678537202175796 ], [ -92.868989811912598, 46.675987677487797 ] ] } },
{ "type": "Feature", "properties": { "wmUplineSo": "CROMWELL", "wmType": "Underground" }, "geometry": { "type": "LineString", "coordinates": [ [ -92.890618218094104, 46.679405300462399 ], [ -92.890553422868706, 46.678606558759398 ] ] } },
{ "type": "Feature", "properties": { "wmUplineSo": "CROMWELL", "wmType": "Underground" }, "geometry": { "type": "LineString", "coordinates": [ [ -92.8823533, 46.680058300008398 ], [ -92.881737380335295, 46.6802404045714 ], [ -92.881550731439404, 46.680221960649199 ], [ -92.879173091412, 46.680103072842599 ], [ -92.878652241606801, 46.679845377303501 ] ] } },
{ "type": "Feature", "properties": { "wmUplineSo": "CROMWELL", "wmType": "Underground" }, "geometry": { "type": "LineString", "coordinates": [ [ -92.884784133814193, 46.6866915435942 ], [ -92.884670084849503, 46.686327620665303 ], [ -92.884912802157501, 46.685972606061 ] ] } },
{ "type": "Feature", "properties": { "wmUplineSo": "CROMWELL", "wmType": "Underground" }, "geometry": { "type": "LineString", "coordinates": [ [ -92.857751033629896, 46.622043964436202 ], [ -92.857709354380205, 46.622394738967301 ] ] } },
{ "type": "Feature", "properties": { "wmUplineSo": "CROMWELL", "wmType": "Underground" }, "geometry": { "type": "LineString", "coordinates": [ [ -92.857758344065203, 46.621854863846004 ], [ -92.857751033629896, 46.622043964436202 ] ] } },
{ "type": "Feature", "properties": { "wmUplineSo": "CROMWELL", "wmType": "Underground" }, "geometry": { "type": "LineString", "coordinates": [ [ -92.871714093290606, 46.620451449329799 ], [ -92.870167972728396, 46.620387886569297 ] ] } },
{ "type": "Feature", "properties": { "wmUplineSo": "CROMWELL", "wmType": "Underground" }, "geometry": { "type": "LineString", "coordinates": [ [ -92.872151931326798, 46.620547799388099 ], [ -92.871714093290606, 46.620451449329799 ] ] } },
{ "type": "Feature", "properties": { "wmUplineSo": "CROMWELL", "wmType": "Underground" }, "geometry": { "type": "LineString", "coordinates": [ [ -92.893543999934593, 46.622178833210299 ], [ -92.893791160157207, 46.622158900920098 ] ] } },
{ "type": "Feature", "properties": { "wmUplineSo": "CROMWELL", "wmType": "Underground" }, "geometry": { "type": "LineString", "coordinates": [ [ -92.893791160157207, 46.622158900920098 ], [ -92.896635632115405, 46.622103390157498 ] ] } },
{ "type": "Feature", "properties": { "wmUplineSo": "CROMWELL", "wmType": "Underground" }, "geometry": { "type": "LineString", "coordinates": [ [ -92.896635632115405, 46.622103390157498 ], [ -92.899071118510193, 46.622062321473898 ] ] } },
{ "type": "Feature", "properties": { "wmUplineSo": "CROMWELL", "wmType": "Underground" }, "geometry": { "type": "LineString", "coordinates": [ [ -92.904160753687606, 46.621926085012703 ], [ -92.904043213487597, 46.6216295980689 ], [ -92.903937491166303, 46.621156532629101 ], [ -92.903570103610093, 46.620758305308897 ] ] } },
{ "type": "Feature", "properties": { "wmUplineSo": "CROMWELL", "wmType": "Underground" }, "geometry": { "type": "LineString", "coordinates": [ [ -92.918277846336906, 46.625164107817 ], [ -92.918656866285502, 46.625045707115397 ] ] } },
{ "type": "Feature", "properties": { "wmUplineSo": "CROMWELL", "wmType": "Underground" }, "geometry": { "type": "LineString", "coordinates": [ [ -92.893508502332097, 46.629353690863802 ], [ -92.895626855543497, 46.629146318369799 ], [ -92.897586846966803, 46.629019511097098 ], [ -92.897586846966803, 46.629019511097098 ] ] } },
{ "type": "Feature", "properties": { "wmUplineSo": "CROMWELL", "wmType": "Underground" }, "geometry": { "type": "LineString", "coordinates": [ [ -92.925453609893296, 46.606797773192 ], [ -92.926985319453095, 46.6066274796881 ] ] } },
{ "type": "Feature", "properties": { "wmUplineSo": "CROMWELL", "wmType": "Underground" }, "geometry": { "type": "LineString", "coordinates": [ [ -92.898229998397397, 46.607530630600102 ], [ -92.897211881644907, 46.608896366931802 ] ] } },
{ "type": "Feature", "properties": { "wmUplineSo": "CROMWELL", "wmType": "Underground" }, "geometry": { "type": "LineString", "coordinates": [ [ -92.882926704235899, 46.683042822688698 ], [ -92.881699925565599, 46.6827179750399 ] ] } },
{ "type": "Feature", "properties": { "wmUplineSo": "CROMWELL", "wmType": "Underground" }, "geometry": { "type": "LineString", "coordinates": [ [ -92.8839693555812, 46.682898928216602 ], [ -92.883772625644696, 46.683083630116798 ], [ -92.882926704235899, 46.683042822688698 ] ] } },
{ "type": "Feature", "properties": { "wmUplineSo": "CROMWELL", "wmType": "Underground" }, "geometry": { "type": "LineString", "coordinates": [ [ -92.879807213163801, 46.683894869937802 ], [ -92.879796616003503, 46.683455344124503 ] ] } },
{ "type": "Feature", "properties": { "wmUplineSo": "CROMWELL", "wmType": "Underground" }, "geometry": { "type": "LineString", "coordinates": [ [ -92.859593903961297, 46.6797266038717 ], [ -92.859395084659795, 46.6800075148075 ] ] } },
{ "type": "Feature", "properties": { "wmUplineSo": "CROMWELL", "wmType": "Underground" }, "geometry": { "type": "LineString", "coordinates": [ [ -92.870729337609205, 46.685483336472998 ], [ -92.870857773787804, 46.687341154725097 ], [ -92.870238666633796, 46.687663203928601 ] ] } },
{ "type": "Feature", "properties": { "wmUplineSo": "CROMWELL", "wmType": "Underground" }, "geometry": { "type": "LineString", "coordinates": [ [ -92.875211526848901, 46.688157162926501 ], [ -92.874807686200398, 46.6888249770805 ] ] } },
{ "type": "Feature", "properties": { "wmUplineSo": "CROMWELL", "wmType": "Underground" }, "geometry": { "type": "LineString", "coordinates": [ [ -92.874807686200398, 46.6888249770805 ], [ -92.874543639819294, 46.689288994199501 ] ] } },
{ "type": "Feature", "properties": { "wmUplineSo": "CROMWELL", "wmType": "Underground" }, "geometry": { "type": "LineString", "coordinates": [ [ -92.8621401956905, 46.665221210454703 ], [ -92.861926334195999, 46.666509959517803 ] ] } },
{ "type": "Feature", "properties": { "wmUplineSo": "CROMWELL", "wmType": "Underground" }, "geometry": { "type": "LineString", "coordinates": [ [ -92.872367393922801, 46.659708408988102 ], [ -92.872484003805098, 46.659421272219603 ] ] } },
{ "type": "Feature", "properties": { "wmUplineSo": "CROMWELL", "wmType": "Underground" }, "geometry": { "type": "LineString", "coordinates": [ [ -92.872484003805098, 46.659421272219603 ], [ -92.873607539989095, 46.659628810655498 ] ] } },
{ "type": "Feature", "properties": { "wmUplineSo": "CROMWELL", "wmType": "Underground" }, "geometry": { "type": "LineString", "coordinates": [ [ -92.872151222666801, 46.645498241520301 ], [ -92.872186993420996, 46.645110378003601 ] ] } },
{ "type": "Feature", "properties": { "wmUplineSo": "CROMWELL", "wmType": "Underground" }, "geometry": { "type": "LineString", "coordinates": [ [ -92.872170006342401, 46.645775628957502 ], [ -92.872151222666801, 46.645498241520301 ] ] } },
{ "type": "Feature", "properties": { "wmUplineSo": "CROMWELL", "wmType": "Underground" }, "geometry": { "type": "LineString", "coordinates": [ [ -92.850986641939798, 46.642646275954 ], [ -92.850485314196007, 46.6423281452008 ], [ -92.850007885425299, 46.642188440950001 ] ] } },
{ "type": "Feature", "properties": { "wmUplineSo": "CROMWELL", "wmType": "Underground" }, "geometry": { "type": "LineString", "coordinates": [ [ -92.844979779965399, 46.621203606874303 ], [ -92.844988843808594, 46.621047980262198 ] ] } },
{ "type": "Feature", "properties": { "wmUplineSo": "CROMWELL", "wmType": "Underground" }, "geometry": { "type": "LineString", "coordinates": [ [ -92.844988843808594, 46.621047980262198 ], [ -92.845180777069601, 46.620966241338003 ], [ -92.845175398579798, 46.620893804986501 ], [ -92.845271532584405, 46.6208176186542 ], [ -92.845291756275998, 46.620735513100897 ], [ -92.845256512752201, 46.620697649368701 ] ] } },
{ "type": "Feature", "properties": { "wmUplineSo": "CROMWELL", "wmType": "Underground" }, "geometry": { "type": "LineString", "coordinates": [ [ -92.880177647618694, 46.684416234370701 ], [ -92.8806674013546, 46.685667386605097 ] ] } },
{ "type": "Feature", "properties": { "wmUplineSo": "CROMWELL", "wmType": "Underground" }, "geometry": { "type": "LineString", "coordinates": [ [ -92.8806674013546, 46.685667386605097 ], [ -92.881833373513203, 46.688140653363902 ] ] } },
{ "type": "Feature", "properties": { "wmUplineSo": "CROMWELL", "wmType": "Underground" }, "geometry": { "type": "LineString", "coordinates": [ [ -92.881833373513203, 46.688140653363902 ], [ -92.8819935926509, 46.6884988632982 ], [ -92.880426055393599, 46.688872747172198 ] ] } },
{ "type": "Feature", "properties": { "wmUplineSo": "CROMWELL", "wmType": "Underground" }, "geometry": { "type": "LineString", "coordinates": [ [ -92.881054578608499, 46.669842866921002 ], [ -92.881573798741101, 46.670287367125397 ] ] } },
{ "type": "Feature", "properties": { "wmUplineSo": "CROMWELL", "wmType": "Underground" }, "geometry": { "type": "LineString", "coordinates": [ [ -92.8818927024098, 46.669023350659501 ], [ -92.8821727736524, 46.668591475850697 ] ] } },
{ "type": "Feature", "properties": { "wmUplineSo": "CROMWELL", "wmType": "Underground" }, "geometry": { "type": "LineString", "coordinates": [ [ -92.8818927024098, 46.669023350659501 ], [ -92.881811658589299, 46.669071840730403 ] ] } },
{ "type": "Feature", "properties": { "wmUplineSo": "CROMWELL", "wmType": "Underground" }, "geometry": { "type": "LineString", "coordinates": [ [ -92.883197368367405, 46.669281732161103 ], [ -92.881950647741107, 46.669095047889599 ], [ -92.881950647741107, 46.669095047889599 ] ] } },
{ "type": "Feature", "properties": { "wmUplineSo": "CROMWELL", "wmType": "Underground" }, "geometry": { "type": "LineString", "coordinates": [ [ -92.882375737981505, 46.664296744307002 ], [ -92.882068564086197, 46.664043069971697 ], [ -92.881632698262294, 46.664041203744098 ] ] } },
{ "type": "Feature", "properties": { "wmUplineSo": "CROMWELL", "wmType": "Underground" }, "geometry": { "type": "LineString", "coordinates": [ [ -92.892896883811204, 46.631907913840998 ], [ -92.892536227706699, 46.632539798284597 ], [ -92.892206131063304, 46.632529607283701 ] ] } },
{ "type": "Feature", "properties": { "wmUplineSo": "CROMWELL", "wmType": "Underground" }, "geometry": { "type": "LineString", "coordinates": [ [ -92.86146174836, 46.621911079072703 ], [ -92.861536065641403, 46.625557227454998 ] ] } },
{ "type": "Feature", "properties": { "wmUplineSo": "CROMWELL", "wmType": "Underground" }, "geometry": { "type": "LineString", "coordinates": [ [ -92.879813982313294, 46.683015146532099 ], [ -92.8797655, 46.683027100008402 ] ] } },
{ "type": "Feature", "properties": { "wmUplineSo": "CROMWELL", "wmType": "Underground" }, "geometry": { "type": "LineString", "coordinates": [ [ -92.879796616003503, 46.683455344124503 ], [ -92.879813019006406, 46.683245572819999 ] ] } },
{ "type": "Feature", "properties": { "wmUplineSo": "CROMWELL", "wmType": "Underground" }, "geometry": { "type": "LineString", "coordinates": [ [ -92.870193209843904, 46.668581870253803 ], [ -92.870662947489706, 46.669296391000103 ] ] } },
{ "type": "Feature", "properties": { "wmUplineSo": "CROMWELL", "wmType": "Underground" }, "geometry": { "type": "LineString", "coordinates": [ [ -92.866833816403997, 46.621747211604003 ], [ -92.866780100132601, 46.6215944641446 ], [ -92.866575291621501, 46.621344008746597 ], [ -92.866409219239401, 46.621269264421898 ], [ -92.866202047621101, 46.620922890149302 ] ] } },
{ "type": "Feature", "properties": { "wmUplineSo": "CROMWELL", "wmType": "Underground" }, "geometry": { "type": "LineString", "coordinates": [ [ -92.878594238570997, 46.6736526544193 ], [ -92.879353256677703, 46.6736412041476 ] ] } },
{ "type": "Feature", "properties": { "wmUplineSo": "CROMWELL", "wmType": "Underground" }, "geometry": { "type": "LineString", "coordinates": [ [ -92.879813982313294, 46.683015146532099 ], [ -92.879788880610604, 46.6826018711999 ] ] } },
{ "type": "Feature", "properties": { "wmUplineSo": "CROMWELL", "wmType": "Underground" }, "geometry": { "type": "LineString", "coordinates": [ [ -92.899071118510193, 46.622062321473898 ], [ -92.904103101446097, 46.621927629443299 ] ] } },
{ "type": "Feature", "properties": { "wmUplineSo": "CROMWELL", "wmType": "Underground" }, "geometry": { "type": "LineString", "coordinates": [ [ -92.904160753687606, 46.621926085012703 ], [ -92.909756024341903, 46.621776053329903 ] ] } },
{ "type": "Feature", "properties": { "wmUplineSo": "CROMWELL", "wmType": "Underground" }, "geometry": { "type": "LineString", "coordinates": [ [ -92.904103101446097, 46.621927629443299 ], [ -92.904160753687606, 46.621926085012703 ] ] } },
{ "type": "Feature", "properties": { "wmUplineSo": "CROMWELL", "wmType": "Underground" }, "geometry": { "type": "LineString", "coordinates": [ [ -92.851101936145298, 46.659991336930197 ], [ -92.851496418474895, 46.659902342372803 ], [ -92.851663829353996, 46.659853534294598 ], [ -92.852066869019495, 46.659735560857897 ] ] } },
{ "type": "Feature", "properties": { "wmUplineSo": "CROMWELL", "wmType": "Underground" }, "geometry": { "type": "LineString", "coordinates": [ [ -92.879788880610604, 46.6826018711999 ], [ -92.879749007814297, 46.682235216747301 ] ] } },
{ "type": "Feature", "properties": { "wmUplineSo": "CROMWELL", "wmType": "Underground" }, "geometry": { "type": "LineString", "coordinates": [ [ -92.882926704235899, 46.683042822688698 ], [ -92.882928344823, 46.683022151206202 ] ] } },
{ "type": "Feature", "properties": { "wmUplineSo": "CROMWELL", "wmType": "Underground" }, "geometry": { "type": "LineString", "coordinates": [ [ -92.853220999991294, 46.677111003473101 ], [ -92.8538149999913, 46.676927003473097 ] ] } },
{ "type": "Feature", "properties": { "wmUplineSo": "CROMWELL", "wmType": "Underground" }, "geometry": { "type": "LineString", "coordinates": [ [ -92.893452292893997, 46.634863943733698 ], [ -92.893537882075606, 46.6348335485498 ] ] } },
{ "type": "Feature", "properties": { "wmUplineSo": "CROMWELL", "wmType": "Underground" }, "geometry": { "type": "LineString", "coordinates": [ [ -92.8934355504922, 46.634844841717602 ], [ -92.8934355504922, 46.634844841717602 ] ] } },
{ "type": "Feature", "properties": { "wmUplineSo": "CROMWELL", "wmType": "Underground" }, "geometry": { "type": "LineString", "coordinates": [ [ -92.882196355231699, 46.680178613630702 ], [ -92.8823533, 46.680058300008398 ] ] } },
{ "type": "Feature", "properties": { "wmUplineSo": "CROMWELL", "wmType": "Underground" }, "geometry": { "type": "LineString", "coordinates": [ [ -92.868276153760107, 46.679131298080499 ], [ -92.867800867727198, 46.6796214058812 ] ] } },
{ "type": "Feature", "properties": { "wmUplineSo": "CROMWELL", "wmType": "Underground" }, "geometry": { "type": "LineString", "coordinates": [ [ -92.852841978057498, 46.679609135767599 ], [ -92.851755658672104, 46.6796455858385 ], [ -92.851678011247898, 46.679471944886899 ], [ -92.851660985211097, 46.679159726464199 ] ] } },
{ "type": "Feature", "properties": { "wmUplineSo": "CROMWELL", "wmType": "Underground" }, "geometry": { "type": "LineString", "coordinates": [ [ -92.870662947489706, 46.669296391000103 ], [ -92.8706915, 46.669294000008399 ] ] } },
{ "type": "Feature", "properties": { "wmUplineSo": "CROMWELL", "wmType": "Underground" }, "geometry": { "type": "LineString", "coordinates": [ [ -92.875243111215596, 46.687537669911499 ], [ -92.875361126142593, 46.687786043801303 ] ] } },
{ "type": "Feature", "properties": { "wmUplineSo": "CROMWELL", "wmType": "Underground" }, "geometry": { "type": "LineString", "coordinates": [ [ -92.881833373513203, 46.688140653363902 ], [ -92.881509264078105, 46.688148379258202 ] ] } },
{ "type": "Feature", "properties": { "wmUplineSo": "CROMWELL", "wmType": "Underground" }, "geometry": { "type": "LineString", "coordinates": [ [ -92.839624271236303, 46.637023190866998 ], [ -92.8395900672827, 46.637342771669303 ] ] } },
{ "type": "Feature", "properties": { "wmUplineSo": "CROMWELL", "wmType": "Underground" }, "geometry": { "type": "LineString", "coordinates": [ [ -92.88157, 46.673081000000103 ], [ -92.881446, 46.673223 ] ] } },
{ "type": "Feature", "properties": { "wmUplineSo": "CROMWELL", "wmType": "Underground" }, "geometry": { "type": "LineString", "coordinates": [ [ -92.88116, 46.673395 ], [ -92.880943, 46.673450000000102 ] ] } },
{ "type": "Feature", "properties": { "wmUplineSo": "CROMWELL", "wmType": "Underground" }, "geometry": { "type": "LineString", "coordinates": [ [ -92.839231381863996, 46.638579556801297 ], [ -92.839139049217295, 46.638700573132802 ] ] } },
{ "type": "Feature", "properties": { "wmUplineSo": "CROMWELL", "wmType": "Underground" }, "geometry": { "type": "LineString", "coordinates": [ [ -92.883912031814702, 46.6835034967742 ], [ -92.883957759004005, 46.6835110746119 ] ] } },
{ "type": "Feature", "properties": { "wmUplineSo": "CROMWELL", "wmType": "Underground" }, "geometry": { "type": "LineString", "coordinates": [ [ -92.851552316678095, 46.677601740893103 ], [ -92.851851999991197, 46.677508003473299 ] ] } },
{ "type": "Feature", "properties": { "wmUplineSo": "CROMWELL", "wmType": "Underground" }, "geometry": { "type": "LineString", "coordinates": [ [ -92.885741850088706, 46.6794800483027 ], [ -92.886250336061494, 46.679457438623501 ] ] } },
{ "type": "Feature", "properties": { "wmUplineSo": "CROMWELL", "wmType": "Underground" }, "geometry": { "type": "LineString", "coordinates": [ [ -92.852830999991298, 46.6772210034731 ], [ -92.853220999991294, 46.677111003473101 ] ] } },
{ "type": "Feature", "properties": { "wmUplineSo": "CROMWELL", "wmType": "Underground" }, "geometry": { "type": "LineString", "coordinates": [ [ -92.879661238375604, 46.680720630353797 ], [ -92.879190890128996, 46.680645617100303 ] ] } },
{ "type": "Feature", "properties": { "wmUplineSo": "CROMWELL", "wmType": "Underground" }, "geometry": { "type": "LineString", "coordinates": [ [ -92.871363926349403, 46.638685462132102 ], [ -92.870443650131605, 46.638644284194299 ] ] } },
{ "type": "Feature", "properties": { "wmUplineSo": "CROMWELL", "wmType": "Underground" }, "geometry": { "type": "LineString", "coordinates": [ [ -92.893561075480903, 46.621575239196197 ], [ -92.893712133941904, 46.621568396828302 ] ] } },
{ "type": "Feature", "properties": { "wmUplineSo": "CROMWELL", "wmType": "Underground" }, "geometry": { "type": "LineString", "coordinates": [ [ -92.886919354671406, 46.621985921907601 ], [ -92.8871313895648, 46.621421739439199 ] ] } },
{ "type": "Feature", "properties": { "wmUplineSo": "CROMWELL", "wmType": "Underground" }, "geometry": { "type": "LineString", "coordinates": [ [ -92.856570288989403, 46.602469121560098 ], [ -92.854941613396093, 46.602572345510502 ] ] } },
{ "type": "Feature", "properties": { "wmUplineSo": "CROMWELL", "wmType": "Underground" }, "geometry": { "type": "LineString", "coordinates": [ [ -92.854201999991304, 46.676816003473 ], [ -92.8542713, 46.676869100008403 ] ] } },
{ "type": "Feature", "properties": { "wmUplineSo": "CROMWELL", "wmType": "Underground" }, "geometry": { "type": "LineString", "coordinates": [ [ -92.880528650856704, 46.664767227855101 ], [ -92.880513254181395, 46.664747674188902 ] ] } },
{ "type": "Feature", "properties": { "wmUplineSo": "CROMWELL", "wmType": "Underground" }, "geometry": { "type": "LineString", "coordinates": [ [ -92.875361126142593, 46.687786043801303 ], [ -92.875211526848901, 46.688157162926501 ] ] } },
{ "type": "Feature", "properties": { "wmUplineSo": "CROMWELL", "wmType": "Underground" }, "geometry": { "type": "LineString", "coordinates": [ [ -92.884103988301703, 46.682076378288301 ], [ -92.882749781843899, 46.681745219652001 ] ] } },
{ "type": "Feature", "properties": { "wmUplineSo": "CROMWELL", "wmType": "Underground" }, "geometry": { "type": "LineString", "coordinates": [ [ -92.874889017835898, 46.686941649808197 ], [ -92.875243111215596, 46.687537669911499 ] ] } },
{ "type": "Feature", "properties": { "wmUplineSo": "CROMWELL", "wmType": "Underground" }, "geometry": { "type": "LineString", "coordinates": [ [ -92.883966237218601, 46.668388089702802 ], [ -92.883873120672007, 46.668260846280198 ], [ -92.883817268095399, 46.6681764998226 ], [ -92.883711577939806, 46.668106389097296 ], [ -92.883440166422503, 46.668069976282801 ] ] } },
{ "type": "Feature", "properties": { "wmUplineSo": "CROMWELL", "wmType": "Underground" }, "geometry": { "type": "LineString", "coordinates": [ [ -92.8839132440539, 46.666967967662103 ], [ -92.883805379855701, 46.6669449999332 ], [ -92.883608255397107, 46.666933370463397 ], [ -92.883436009475403, 46.666933195123498 ], [ -92.883056189057498, 46.666955665809198 ] ] } },
{ "type": "Feature", "properties": { "wmUplineSo": "CROMWELL", "wmType": "Underground" }, "geometry": { "type": "LineString", "coordinates": [ [ -92.883957759004005, 46.6835110746119 ], [ -92.885166550372006, 46.683542501025102 ] ] } },
{ "type": "Feature", "properties": { "wmUplineSo": "CROMWELL", "wmType": "Underground" }, "geometry": { "type": "LineString", "coordinates": [ [ -92.875361126142593, 46.687786043801303 ], [ -92.875383675737297, 46.687753583776001 ] ] } },
{ "type": "Feature", "properties": { "wmUplineSo": "CROMWELL", "wmType": "Underground" }, "geometry": { "type": "LineString", "coordinates": [ [ -92.881496560291694, 46.669936309894901 ], [ -92.881512771075506, 46.669969122498401 ] ] } },
{ "type": "Feature", "properties": { "wmUplineSo": "CROMWELL", "wmType": "Underground" }, "geometry": { "type": "LineString", "coordinates": [ [ -92.830539999944307, 46.617353386676399 ], [ -92.830928387811696, 46.6173384131828 ] ] } },
{ "type": "Feature", "properties": { "wmUplineSo": "CROMWELL", "wmType": "Underground" }, "geometry": { "type": "LineString", "coordinates": [ [ -92.881288918227995, 46.669697421162901 ], [ -92.881496560291694, 46.669936309894901 ] ] } }
]
}
