{
"type": "FeatureCollection",
"crs": { "type": "name", "properties": { "name": "urn:ogc:def:crs:OGC:1.3:CRS84" } },
"features": [
{ "type": "Feature", "properties": { "wmUplineSo": "FRAZER BAY", "wmType": "Underground" }, "geometry": { "type": "LineString", "coordinates": [ [ -92.465762999964099, 47.8652550038016 ], [ -92.465624, 47.865839 ] ] } },
{ "type": "Feature", "properties": { "wmUplineSo": "FRAZER BAY", "wmType": "Underground" }, "geometry": { "type": "LineString", "coordinates": [ [ -92.465624, 47.865839 ], [ -92.465851, 47.865782 ] ] } },
{ "type": "Feature", "properties": { "wmUplineSo": "FRAZER BAY", "wmType": "Underground" }, "geometry": { "type": "LineString", "coordinates": [ [ -92.465851, 47.865782 ], [ -92.466182, 47.865603 ] ] } },
{ "type": "Feature", "properties": { "wmUplineSo": "FRAZER BAY", "wmType": "Underground" }, "geometry": { "type": "LineString", "coordinates": [ [ -92.466182, 47.865603 ], [ -92.466184, 47.865617 ] ] } },
{ "type": "Feature", "properties": { "wmUplineSo": "FRAZER BAY", "wmType": "Underground" }, "geometry": { "type": "LineString", "coordinates": [ [ -92.481163281221299, 47.8671428116279 ], [ -92.481162553804197, 47.867325371794102 ] ] } },
{ "type": "Feature", "properties": { "wmUplineSo": "FRAZER BAY", "wmType": "Underground" }, "geometry": { "type": "LineString", "coordinates": [ [ -92.481162553804197, 47.867325371794102 ], [ -92.481222592136504, 47.867310400560399 ] ] } },
{ "type": "Feature", "properties": { "wmUplineSo": "FRAZER BAY", "wmType": "Underground" }, "geometry": { "type": "LineString", "coordinates": [ [ -92.481162553804197, 47.867325371794102 ], [ -92.481139884650503, 47.867369303651898 ] ] } },
{ "type": "Feature", "properties": { "wmUplineSo": "FRAZER BAY", "wmType": "Underground" }, "geometry": { "type": "LineString", "coordinates": [ [ -92.482177859831594, 47.858684927660697 ], [ -92.482184859837801, 47.858646927661198 ] ] } },
{ "type": "Feature", "properties": { "wmUplineSo": "FRAZER BAY", "wmType": "Underground" }, "geometry": { "type": "LineString", "coordinates": [ [ -92.482177859831594, 47.858684927660697 ], [ -92.482082859883207, 47.858494927652202 ] ] } },
{ "type": "Feature", "properties": { "wmUplineSo": "FRAZER BAY", "wmType": "Underground" }, "geometry": { "type": "LineString", "coordinates": [ [ -92.482082859883207, 47.858494927652202 ], [ -92.481860859917205, 47.858497927632797 ] ] } },
{ "type": "Feature", "properties": { "wmUplineSo": "FRAZER BAY", "wmType": "Underground" }, "geometry": { "type": "LineString", "coordinates": [ [ -92.481860859917205, 47.858497927632797 ], [ -92.481453859978799, 47.858507927596897 ] ] } },
{ "type": "Feature", "properties": { "wmUplineSo": "FRAZER BAY", "wmType": "Underground" }, "geometry": { "type": "LineString", "coordinates": [ [ -92.481453859978799, 47.858507927596897 ], [ -92.480808860037698, 47.858722927540803 ] ] } },
{ "type": "Feature", "properties": { "wmUplineSo": "FRAZER BAY", "wmType": "Underground" }, "geometry": { "type": "LineString", "coordinates": [ [ -92.480808860037698, 47.858722927540803 ], [ -92.480866859999097, 47.858875927546002 ] ] } },
{ "type": "Feature", "properties": { "wmUplineSo": "FRAZER BAY", "wmType": "Underground" }, "geometry": { "type": "LineString", "coordinates": [ [ -92.480866859999097, 47.858875927546002 ], [ -92.480771859993894, 47.858978927537699 ] ] } },
{ "type": "Feature", "properties": { "wmUplineSo": "FRAZER BAY", "wmType": "Underground" }, "geometry": { "type": "LineString", "coordinates": [ [ -92.480771859993894, 47.858978927537699 ], [ -92.480612860024493, 47.858948927523599 ] ] } },
{ "type": "Feature", "properties": { "wmUplineSo": "FRAZER BAY", "wmType": "Underground" }, "geometry": { "type": "LineString", "coordinates": [ [ -92.480612860024493, 47.858948927523599 ], [ -92.480551722940504, 47.858933109069 ] ] } },
{ "type": "Feature", "properties": { "wmUplineSo": "FRAZER BAY", "wmType": "Underground" }, "geometry": { "type": "LineString", "coordinates": [ [ -92.467165999964195, 47.866303003801697 ], [ -92.467523135928801, 47.866266230320399 ] ] } },
{ "type": "Feature", "properties": { "wmUplineSo": "FRAZER BAY", "wmType": "Underground" }, "geometry": { "type": "LineString", "coordinates": [ [ -92.484440113381794, 47.860719261080398 ], [ -92.484464580025602, 47.860518106123003 ] ] } },
{ "type": "Feature", "properties": { "wmUplineSo": "FRAZER BAY", "wmType": "Underground" }, "geometry": { "type": "LineString", "coordinates": [ [ -92.482237160383605, 47.8649477431482 ], [ -92.482342001654601, 47.866656438593303 ] ] } },
{ "type": "Feature", "properties": { "wmUplineSo": "FRAZER BAY", "wmType": "Underground" }, "geometry": { "type": "LineString", "coordinates": [ [ -92.482237160383605, 47.8649477431482 ], [ -92.481822529382697, 47.864784353584398 ], [ -92.481615689531594, 47.864817144736001 ], [ -92.481375516947395, 47.864777970897599 ], [ -92.480935080239107, 47.864954523825197 ] ] } },
{ "type": "Feature", "properties": { "wmUplineSo": "FRAZER BAY", "wmType": "Underground" }, "geometry": { "type": "LineString", "coordinates": [ [ -92.480935080239107, 47.864954523825197 ], [ -92.480852369742706, 47.864952003171801 ] ] } },
{ "type": "Feature", "properties": { "wmUplineSo": "FRAZER BAY", "wmType": "Underground" }, "geometry": { "type": "LineString", "coordinates": [ [ -92.478616513718194, 47.867891337511402 ], [ -92.4787065309106, 47.867887856856399 ] ] } },
{ "type": "Feature", "properties": { "wmUplineSo": "FRAZER BAY", "wmType": "Underground" }, "geometry": { "type": "LineString", "coordinates": [ [ -92.481823640411207, 47.868005482188103 ], [ -92.481723640418707, 47.8678614821644 ] ] } },
{ "type": "Feature", "properties": { "wmUplineSo": "FRAZER BAY", "wmType": "Underground" }, "geometry": { "type": "LineString", "coordinates": [ [ -92.481723640418707, 47.8678614821644 ], [ -92.481673046048599, 47.8678601633667 ] ] } },
{ "type": "Feature", "properties": { "wmUplineSo": "FRAZER BAY", "wmType": "Underground" }, "geometry": { "type": "LineString", "coordinates": [ [ -92.471422329691904, 47.865527593234901 ], [ -92.471354910102406, 47.865498616859199 ] ] } },
{ "type": "Feature", "properties": { "wmUplineSo": "FRAZER BAY", "wmType": "Underground" }, "geometry": { "type": "LineString", "coordinates": [ [ -92.471354910102406, 47.865498616859199 ], [ -92.472318745059496, 47.865833279348998 ] ] } },
{ "type": "Feature", "properties": { "wmUplineSo": "FRAZER BAY", "wmType": "Underground" }, "geometry": { "type": "LineString", "coordinates": [ [ -92.482309868173402, 47.8670578825432 ], [ -92.481161809904805, 47.867047679853798 ] ] } },
{ "type": "Feature", "properties": { "wmUplineSo": "FRAZER BAY", "wmType": "Underground" }, "geometry": { "type": "LineString", "coordinates": [ [ -92.481161809904805, 47.867047679853798 ], [ -92.481163281221299, 47.8671428116279 ] ] } },
{ "type": "Feature", "properties": { "wmUplineSo": "FRAZER BAY", "wmType": "Underground" }, "geometry": { "type": "LineString", "coordinates": [ [ -92.481161809904805, 47.867047679853798 ], [ -92.479487697985405, 47.867080103328099 ], [ -92.479460783131799, 47.867079698281998 ], [ -92.479460783131699, 47.867079698281998 ], [ -92.479460783131699, 47.867079698281998 ] ] } },
{ "type": "Feature", "properties": { "wmUplineSo": "FRAZER BAY", "wmType": "Underground" }, "geometry": { "type": "LineString", "coordinates": [ [ -92.484440113381794, 47.860719261080398 ], [ -92.484462980024702, 47.860518006121801 ] ] } },
{ "type": "Feature", "properties": { "wmUplineSo": "FRAZER BAY", "wmType": "Underground" }, "geometry": { "type": "LineString", "coordinates": [ [ -92.491601016860002, 47.871217647176799 ], [ -92.491602023817194, 47.871222716222597 ], [ -92.491633032236194, 47.871378812832099 ] ] } },
{ "type": "Feature", "properties": { "wmUplineSo": "FRAZER BAY", "wmType": "Underground" }, "geometry": { "type": "LineString", "coordinates": [ [ -92.493388034007097, 47.871745108819702 ], [ -92.493286103045705, 47.871761846376501 ], [ -92.4932962338126, 47.871705809029201 ] ] } },
{ "type": "Feature", "properties": { "wmUplineSo": "FRAZER BAY", "wmType": "Underground" }, "geometry": { "type": "LineString", "coordinates": [ [ -92.494179453170901, 47.872500510317302 ], [ -92.494183039004795, 47.8727403070177 ] ] } },
{ "type": "Feature", "properties": { "wmUplineSo": "FRAZER BAY", "wmType": "Underground" }, "geometry": { "type": "LineString", "coordinates": [ [ -92.496741094342497, 47.873833544078202 ], [ -92.496775224459597, 47.873842541101503 ] ] } },
{ "type": "Feature", "properties": { "wmUplineSo": "FRAZER BAY", "wmType": "Underground" }, "geometry": { "type": "LineString", "coordinates": [ [ -92.499446685319896, 47.874034931343402 ], [ -92.499273645376903, 47.874047195383199 ] ] } },
{ "type": "Feature", "properties": { "wmUplineSo": "FRAZER BAY", "wmType": "Underground" }, "geometry": { "type": "LineString", "coordinates": [ [ -92.457710518738594, 47.864300932611997 ], [ -92.457710005952293, 47.8643097606979 ], [ -92.457692299563007, 47.864614590428602 ] ] } },
{ "type": "Feature", "properties": { "wmUplineSo": "FRAZER BAY", "wmType": "Underground" }, "geometry": { "type": "LineString", "coordinates": [ [ -92.457041660002105, 47.864776472054601 ], [ -92.457056700039502, 47.864703291886002 ] ] } },
{ "type": "Feature", "properties": { "wmUplineSo": "FRAZER BAY", "wmType": "Underground" }, "geometry": { "type": "LineString", "coordinates": [ [ -92.458709212131595, 47.862392790345297 ], [ -92.458574088458903, 47.862426488365202 ] ] } },
{ "type": "Feature", "properties": { "wmUplineSo": "FRAZER BAY", "wmType": "Underground" }, "geometry": { "type": "LineString", "coordinates": [ [ -92.459429302769905, 47.864334373625603 ], [ -92.459927299297902, 47.864581685309702 ] ] } },
{ "type": "Feature", "properties": { "wmUplineSo": "FRAZER BAY", "wmType": "Underground" }, "geometry": { "type": "LineString", "coordinates": [ [ -92.4680474776967, 47.867110870293899 ], [ -92.468383712661506, 47.867298465998097 ] ] } },
{ "type": "Feature", "properties": { "wmUplineSo": "FRAZER BAY", "wmType": "Underground" }, "geometry": { "type": "LineString", "coordinates": [ [ -92.4680474776967, 47.867110870293899 ], [ -92.468124311653497, 47.867096866588199 ] ] } },
{ "type": "Feature", "properties": { "wmUplineSo": "FRAZER BAY", "wmType": "Underground" }, "geometry": { "type": "LineString", "coordinates": [ [ -92.481978773883696, 47.8694527612898 ], [ -92.481957351160204, 47.8702197556172 ] ] } },
{ "type": "Feature", "properties": { "wmUplineSo": "FRAZER BAY", "wmType": "Underground" }, "geometry": { "type": "LineString", "coordinates": [ [ -92.481506813144307, 47.869304678765303 ], [ -92.481057223829595, 47.869620137019297 ] ] } },
{ "type": "Feature", "properties": { "wmUplineSo": "FRAZER BAY", "wmType": "Underground" }, "geometry": { "type": "LineString", "coordinates": [ [ -92.481506813144307, 47.869304678765303 ], [ -92.4810366228497, 47.869426237062697 ] ] } },
{ "type": "Feature", "properties": { "wmUplineSo": "FRAZER BAY", "wmType": "Underground" }, "geometry": { "type": "LineString", "coordinates": [ [ -92.479210681294305, 47.868416545038002 ], [ -92.479265917911505, 47.868433941098701 ] ] } },
{ "type": "Feature", "properties": { "wmUplineSo": "FRAZER BAY", "wmType": "Underground" }, "geometry": { "type": "LineString", "coordinates": [ [ -92.478035496618304, 47.867967723302002 ], [ -92.478098815324998, 47.8679120437614 ] ] } },
{ "type": "Feature", "properties": { "wmUplineSo": "FRAZER BAY", "wmType": "Underground" }, "geometry": { "type": "LineString", "coordinates": [ [ -92.477293349958998, 47.867573159272403 ], [ -92.477276813891095, 47.867621145638203 ] ] } },
{ "type": "Feature", "properties": { "wmUplineSo": "FRAZER BAY", "wmType": "Underground" }, "geometry": { "type": "LineString", "coordinates": [ [ -92.4787065309106, 47.867887856856399 ], [ -92.478761015181405, 47.8678896422444 ] ] } },
{ "type": "Feature", "properties": { "wmUplineSo": "FRAZER BAY", "wmType": "Underground" }, "geometry": { "type": "LineString", "coordinates": [ [ -92.488476176131002, 47.870639453195402 ], [ -92.488418529727198, 47.870853220184102 ] ] } },
{ "type": "Feature", "properties": { "wmUplineSo": "FRAZER BAY", "wmType": "Underground" }, "geometry": { "type": "LineString", "coordinates": [ [ -92.487324079436206, 47.870546067063501 ], [ -92.487317170037002, 47.870551891594701 ], [ -92.487025429511704, 47.870797823373501 ] ] } },
{ "type": "Feature", "properties": { "wmUplineSo": "FRAZER BAY", "wmType": "Underground" }, "geometry": { "type": "LineString", "coordinates": [ [ -92.484440113381794, 47.860719261080398 ], [ -92.4844618800429, 47.860507306121001 ] ] } },
{ "type": "Feature", "properties": { "wmUplineSo": "FRAZER BAY", "wmType": "Underground" }, "geometry": { "type": "LineString", "coordinates": [ [ -92.484440113381794, 47.860719261080398 ], [ -92.484462480038204, 47.860510206121504 ] ] } },
{ "type": "Feature", "properties": { "wmUplineSo": "FRAZER BAY", "wmType": "Underground" }, "geometry": { "type": "LineString", "coordinates": [ [ -92.479460783131699, 47.867079698281998 ], [ -92.479559039353305, 47.867034577838602 ] ] } },
{ "type": "Feature", "properties": { "wmUplineSo": "FRAZER BAY", "wmType": "Underground" }, "geometry": { "type": "LineString", "coordinates": [ [ -92.458157587122898, 47.864308021794699 ], [ -92.458130850580403, 47.864382208778103 ] ] } },
{ "type": "Feature", "properties": { "wmUplineSo": "FRAZER BAY", "wmType": "Underground" }, "geometry": { "type": "LineString", "coordinates": [ [ -92.482403196190106, 47.868006443043697 ], [ -92.482241640686397, 47.868051482292003 ] ] } },
{ "type": "Feature", "properties": { "wmUplineSo": "FRAZER BAY", "wmType": "Underground" }, "geometry": { "type": "LineString", "coordinates": [ [ -92.482241640686397, 47.868051482292003 ], [ -92.482037640544704, 47.868042482241201 ] ] } },
{ "type": "Feature", "properties": { "wmUplineSo": "FRAZER BAY", "wmType": "Underground" }, "geometry": { "type": "LineString", "coordinates": [ [ -92.482037640544704, 47.868042482241201 ], [ -92.481823640411207, 47.868005482188103 ] ] } },
{ "type": "Feature", "properties": { "wmUplineSo": "FRAZER BAY", "wmType": "Underground" }, "geometry": { "type": "LineString", "coordinates": [ [ -92.465624, 47.865839 ], [ -92.465789999964102, 47.8660090038017 ] ] } },
{ "type": "Feature", "properties": { "wmUplineSo": "FRAZER BAY", "wmType": "Underground" }, "geometry": { "type": "LineString", "coordinates": [ [ -92.466571999964202, 47.8661640038017 ], [ -92.467165999964195, 47.866303003801697 ] ] } },
{ "type": "Feature", "properties": { "wmUplineSo": "FRAZER BAY", "wmType": "Underground" }, "geometry": { "type": "LineString", "coordinates": [ [ -92.465789999964102, 47.8660090038017 ], [ -92.466571999964202, 47.8661640038017 ] ] } },
{ "type": "Feature", "properties": { "wmUplineSo": "FRAZER BAY", "wmType": "Underground" }, "geometry": { "type": "LineString", "coordinates": [ [ -92.497602944392099, 47.873843602999898 ], [ -92.497629944876607, 47.873939602939998 ] ] } },
{ "type": "Feature", "properties": { "wmUplineSo": "FRAZER BAY", "wmType": "Underground" }, "geometry": { "type": "LineString", "coordinates": [ [ -92.482244277933901, 47.860834408130103 ], [ -92.482284707893399, 47.860828170500099 ], [ -92.4837068565989, 47.860534766668401 ], [ -92.484405279027598, 47.860700657972899 ], [ -92.484440113381794, 47.860719261080398 ] ] } },
{ "type": "Feature", "properties": { "wmUplineSo": "FRAZER BAY", "wmType": "Underground" }, "geometry": { "type": "LineString", "coordinates": [ [ -92.472318745059496, 47.865833279348998 ], [ -92.473253190719404, 47.8661974714772 ] ] } },
{ "type": "Feature", "properties": { "wmUplineSo": "FRAZER BAY", "wmType": "Underground" }, "geometry": { "type": "LineString", "coordinates": [ [ -92.479192837774903, 47.868065356101901 ], [ -92.479210681294305, 47.868416545038002 ] ] } },
{ "type": "Feature", "properties": { "wmUplineSo": "FRAZER BAY", "wmType": "Underground" }, "geometry": { "type": "LineString", "coordinates": [ [ -92.481997720958802, 47.868630485883301 ], [ -92.481506813144307, 47.869304678765303 ] ] } },
{ "type": "Feature", "properties": { "wmUplineSo": "FRAZER BAY", "wmType": "Underground" }, "geometry": { "type": "LineString", "coordinates": [ [ -92.473253190719404, 47.8661974714772 ], [ -92.473780866694796, 47.866380820948301 ] ] } },
{ "type": "Feature", "properties": { "wmUplineSo": "FRAZER BAY", "wmType": "Underground" }, "geometry": { "type": "LineString", "coordinates": [ [ -92.473780866694796, 47.866380820948301 ], [ -92.4748955513965, 47.866646026837003 ] ] } },
{ "type": "Feature", "properties": { "wmUplineSo": "FRAZER BAY", "wmType": "Underground" }, "geometry": { "type": "LineString", "coordinates": [ [ -92.497629944876607, 47.873939602939998 ], [ -92.497572044775893, 47.8739124992779 ] ] } },
{ "type": "Feature", "properties": { "wmUplineSo": "FRAZER BAY", "wmType": "Underground" }, "geometry": { "type": "LineString", "coordinates": [ [ -92.482244277933901, 47.860834408130103 ], [ -92.482237160383605, 47.8649477431482 ] ] } },
{ "type": "Feature", "properties": { "wmUplineSo": "FRAZER BAY", "wmType": "Underground" }, "geometry": { "type": "LineString", "coordinates": [ [ -92.486589641015698, 47.855884872499097 ], [ -92.486083925724898, 47.855822264146603 ], [ -92.485547437414894, 47.855944540396898 ], [ -92.485127589579903, 47.856051212809803 ], [ -92.484849821674501, 47.856097578426898 ], [ -92.484354724813798, 47.856087738050697 ], [ -92.483973131596898, 47.856046029854198 ], [ -92.482142289119693, 47.8562441026519 ] ] } },
{ "type": "Feature", "properties": { "wmUplineSo": "FRAZER BAY", "wmType": "Underground" }, "geometry": { "type": "LineString", "coordinates": [ [ -92.482142289119693, 47.8562441026519 ], [ -92.482185268892906, 47.857383765176799 ] ] } },
{ "type": "Feature", "properties": { "wmUplineSo": "FRAZER BAY", "wmType": "Underground" }, "geometry": { "type": "LineString", "coordinates": [ [ -92.482374421639193, 47.867090411260001 ], [ -92.482309868173402, 47.8670578825432 ], [ -92.482309868173402, 47.8670578825432 ] ] } },
{ "type": "Feature", "properties": { "wmUplineSo": "FRAZER BAY", "wmType": "Underground" }, "geometry": { "type": "LineString", "coordinates": [ [ -92.482185268892906, 47.857383765176799 ], [ -92.482177859831594, 47.858684927660697 ] ] } },
{ "type": "Feature", "properties": { "wmUplineSo": "FRAZER BAY", "wmType": "Underground" }, "geometry": { "type": "LineString", "coordinates": [ [ -92.482177859831594, 47.858684927660697 ], [ -92.482244277933901, 47.860834408130103 ] ] } },
{ "type": "Feature", "properties": { "wmUplineSo": "FRAZER BAY", "wmType": "Underground" }, "geometry": { "type": "LineString", "coordinates": [ [ -92.497896942673094, 47.873506602320198 ], [ -92.497808942955601, 47.873561602522798 ] ] } },
{ "type": "Feature", "properties": { "wmUplineSo": "FRAZER BAY", "wmType": "Underground" }, "geometry": { "type": "LineString", "coordinates": [ [ -92.497808942955601, 47.873561602522798 ], [ -92.497602944392099, 47.873843602999898 ] ] } },
{ "type": "Feature", "properties": { "wmUplineSo": "FRAZER BAY", "wmType": "Underground" }, "geometry": { "type": "LineString", "coordinates": [ [ -92.4748955513965, 47.866646026837003 ], [ -92.475378002387203, 47.866723335223497 ] ] } },
{ "type": "Feature", "properties": { "wmUplineSo": "FRAZER BAY", "wmType": "Underground" }, "geometry": { "type": "LineString", "coordinates": [ [ -92.482342001654601, 47.866656438593303 ], [ -92.482374421639193, 47.867090411260001 ] ] } },
{ "type": "Feature", "properties": { "wmUplineSo": "FRAZER BAY", "wmType": "Underground" }, "geometry": { "type": "LineString", "coordinates": [ [ -92.465624, 47.865839 ], [ -92.465536906010101, 47.865815107746599 ] ] } }
]
}
