{
"type": "FeatureCollection",
"crs": { "type": "name", "properties": { "name": "urn:ogc:def:crs:OGC:1.3:CRS84" } },
"features": [
{ "type": "Feature", "properties": { "wmUplineSo": "FRAZER BAY", "wmType": "Overhead" }, "geometry": { "type": "LineString", "coordinates": [ [ -92.472724797932599, 47.866501226687397 ], [ -92.471925343980999, 47.866303803939701 ] ] } },
{ "type": "Feature", "properties": { "wmUplineSo": "FRAZER BAY", "wmType": "Overhead" }, "geometry": { "type": "LineString", "coordinates": [ [ -92.483990445642505, 47.867202433620299 ], [ -92.484375095057501, 47.867289206412998 ] ] } },
{ "type": "Feature", "properties": { "wmUplineSo": "FRAZER BAY", "wmType": "Overhead" }, "geometry": { "type": "LineString", "coordinates": [ [ -92.475770138796094, 47.867190011059201 ], [ -92.475737527630002, 47.867254963470401 ] ] } },
{ "type": "Feature", "properties": { "wmUplineSo": "FRAZER BAY", "wmType": "Overhead" }, "geometry": { "type": "LineString", "coordinates": [ [ -92.492901764610494, 47.871485418451698 ], [ -92.492515534411297, 47.871816910819298 ] ] } },
{ "type": "Feature", "properties": { "wmUplineSo": "FRAZER BAY", "wmType": "Overhead" }, "geometry": { "type": "LineString", "coordinates": [ [ -92.461866900374503, 47.864818684664201 ], [ -92.461962418780104, 47.864836432735999 ], [ -92.4619866002555, 47.864789080598001 ] ] } },
{ "type": "Feature", "properties": { "wmUplineSo": "FRAZER BAY", "wmType": "Overhead" }, "geometry": { "type": "LineString", "coordinates": [ [ -92.4560876840101, 47.8642665015348 ], [ -92.456299898219299, 47.864336793611699 ] ] } },
{ "type": "Feature", "properties": { "wmUplineSo": "FRAZER BAY", "wmType": "Overhead" }, "geometry": { "type": "LineString", "coordinates": [ [ -92.4560876840101, 47.8642665015348 ], [ -92.456212698014795, 47.864295593810503 ] ] } },
{ "type": "Feature", "properties": { "wmUplineSo": "FRAZER BAY", "wmType": "Overhead" }, "geometry": { "type": "LineString", "coordinates": [ [ -92.460649200038205, 47.864734383659602 ], [ -92.460658100852498, 47.864895483642499 ] ] } },
{ "type": "Feature", "properties": { "wmUplineSo": "FRAZER BAY", "wmType": "Overhead" }, "geometry": { "type": "LineString", "coordinates": [ [ -92.460649200038205, 47.864734383659602 ], [ -92.460656000301398, 47.864786483645098 ] ] } },
{ "type": "Feature", "properties": { "wmUplineSo": "FRAZER BAY", "wmType": "Overhead" }, "geometry": { "type": "LineString", "coordinates": [ [ -92.465624, 47.865839 ], [ -92.465825905411506, 47.865842371826901 ] ] } },
{ "type": "Feature", "properties": { "wmUplineSo": "FRAZER BAY", "wmType": "Overhead" }, "geometry": { "type": "LineString", "coordinates": [ [ -92.472724797932599, 47.866501226687397 ], [ -92.472340808133097, 47.866803685857803 ] ] } },
{ "type": "Feature", "properties": { "wmUplineSo": "FRAZER BAY", "wmType": "Overhead" }, "geometry": { "type": "LineString", "coordinates": [ [ -92.474652774853794, 47.866935159385498 ], [ -92.474402811390803, 47.867100952209803 ] ] } },
{ "type": "Feature", "properties": { "wmUplineSo": "FRAZER BAY", "wmType": "Overhead" }, "geometry": { "type": "LineString", "coordinates": [ [ -92.477942477833693, 47.8677373009752 ], [ -92.478035496618304, 47.867967723302002 ] ] } },
{ "type": "Feature", "properties": { "wmUplineSo": "FRAZER BAY", "wmType": "Overhead" }, "geometry": { "type": "LineString", "coordinates": [ [ -92.480133205360204, 47.868252297861403 ], [ -92.480119318448502, 47.868547839146501 ] ] } },
{ "type": "Feature", "properties": { "wmUplineSo": "FRAZER BAY", "wmType": "Overhead" }, "geometry": { "type": "LineString", "coordinates": [ [ -92.483531243292703, 47.869710335810304 ], [ -92.483529189805495, 47.869716765993701 ], [ -92.483467099999899, 47.869911190009802 ] ] } },
{ "type": "Feature", "properties": { "wmUplineSo": "FRAZER BAY", "wmType": "Overhead" }, "geometry": { "type": "LineString", "coordinates": [ [ -92.483467099999899, 47.869911190009802 ], [ -92.483595353619805, 47.870482252435004 ] ] } },
{ "type": "Feature", "properties": { "wmUplineSo": "FRAZER BAY", "wmType": "Overhead" }, "geometry": { "type": "LineString", "coordinates": [ [ -92.483467099999899, 47.869911190009802 ], [ -92.483312353725793, 47.8705605529859 ] ] } },
{ "type": "Feature", "properties": { "wmUplineSo": "FRAZER BAY", "wmType": "Overhead" }, "geometry": { "type": "LineString", "coordinates": [ [ -92.483467099999899, 47.869911190009802 ], [ -92.4830509532908, 47.870508753493603 ] ] } },
{ "type": "Feature", "properties": { "wmUplineSo": "FRAZER BAY", "wmType": "Overhead" }, "geometry": { "type": "LineString", "coordinates": [ [ -92.484813971170396, 47.8699408247844 ], [ -92.484813012206601, 47.869944479447298 ], [ -92.484812447455099, 47.8699466317453 ], [ -92.484788528341497, 47.870037788593898 ] ] } },
{ "type": "Feature", "properties": { "wmUplineSo": "FRAZER BAY", "wmType": "Overhead" }, "geometry": { "type": "LineString", "coordinates": [ [ -92.484788528341497, 47.870037788593898 ], [ -92.484957247650996, 47.8704600359738 ] ] } },
{ "type": "Feature", "properties": { "wmUplineSo": "FRAZER BAY", "wmType": "Overhead" }, "geometry": { "type": "LineString", "coordinates": [ [ -92.484788528341497, 47.870037788593898 ], [ -92.484526254325303, 47.870470250625203 ] ] } },
{ "type": "Feature", "properties": { "wmUplineSo": "FRAZER BAY", "wmType": "Overhead" }, "geometry": { "type": "LineString", "coordinates": [ [ -92.499802190681706, 47.8781349314322 ], [ -92.499530766190006, 47.878162594871199 ] ] } },
{ "type": "Feature", "properties": { "wmUplineSo": "FRAZER BAY", "wmType": "Overhead" }, "geometry": { "type": "LineString", "coordinates": [ [ -92.496582931135904, 47.873153796271801 ], [ -92.497004270660099, 47.873512129749798 ], [ -92.496741094342497, 47.873833544078202 ] ] } },
{ "type": "Feature", "properties": { "wmUplineSo": "FRAZER BAY", "wmType": "Overhead" }, "geometry": { "type": "LineString", "coordinates": [ [ -92.496582931135904, 47.873153796271801 ], [ -92.496298341745103, 47.873301602183602 ] ] } },
{ "type": "Feature", "properties": { "wmUplineSo": "FRAZER BAY", "wmType": "Overhead" }, "geometry": { "type": "LineString", "coordinates": [ [ -92.495841843096798, 47.872989356463897 ], [ -92.495882341819396, 47.873312403136602 ] ] } },
{ "type": "Feature", "properties": { "wmUplineSo": "FRAZER BAY", "wmType": "Overhead" }, "geometry": { "type": "LineString", "coordinates": [ [ -92.495137451013306, 47.872747165605901 ], [ -92.495015940451594, 47.873034005115599 ] ] } },
{ "type": "Feature", "properties": { "wmUplineSo": "FRAZER BAY", "wmType": "Overhead" }, "geometry": { "type": "LineString", "coordinates": [ [ -92.493451018334994, 47.871665149962801 ], [ -92.493388034007097, 47.871745108819702 ] ] } },
{ "type": "Feature", "properties": { "wmUplineSo": "FRAZER BAY", "wmType": "Overhead" }, "geometry": { "type": "LineString", "coordinates": [ [ -92.492901764610494, 47.871485418451698 ], [ -92.493128034421005, 47.871824509416598 ] ] } },
{ "type": "Feature", "properties": { "wmUplineSo": "FRAZER BAY", "wmType": "Overhead" }, "geometry": { "type": "LineString", "coordinates": [ [ -92.4919227370698, 47.871230976498403 ], [ -92.492150133303795, 47.871594611651901 ] ] } },
{ "type": "Feature", "properties": { "wmUplineSo": "FRAZER BAY", "wmType": "Overhead" }, "geometry": { "type": "LineString", "coordinates": [ [ -92.4919227370698, 47.871230976498403 ], [ -92.491601016860002, 47.871217647176799 ] ] } },
{ "type": "Feature", "properties": { "wmUplineSo": "FRAZER BAY", "wmType": "Overhead" }, "geometry": { "type": "LineString", "coordinates": [ [ -92.490543734702001, 47.870935442815899 ], [ -92.490582231521401, 47.871227815235798 ] ] } },
{ "type": "Feature", "properties": { "wmUplineSo": "FRAZER BAY", "wmType": "Overhead" }, "geometry": { "type": "LineString", "coordinates": [ [ -92.494179453170901, 47.872500510317302 ], [ -92.494134939081405, 47.872755007128099 ] ] } },
{ "type": "Feature", "properties": { "wmUplineSo": "FRAZER BAY", "wmType": "Overhead" }, "geometry": { "type": "LineString", "coordinates": [ [ -92.454521179999901, 47.864700320009803 ], [ -92.454570777236, 47.864760206929802 ] ] } },
{ "type": "Feature", "properties": { "wmUplineSo": "FRAZER BAY", "wmType": "Overhead" }, "geometry": { "type": "LineString", "coordinates": [ [ -92.4560876840101, 47.8642665015348 ], [ -92.455854971347804, 47.864726597646801 ] ] } },
{ "type": "Feature", "properties": { "wmUplineSo": "FRAZER BAY", "wmType": "Overhead" }, "geometry": { "type": "LineString", "coordinates": [ [ -92.455854971347804, 47.864726597646801 ], [ -92.456084501779003, 47.865038794119101 ] ] } },
{ "type": "Feature", "properties": { "wmUplineSo": "FRAZER BAY", "wmType": "Overhead" }, "geometry": { "type": "LineString", "coordinates": [ [ -92.455854971347804, 47.864726597646801 ], [ -92.455934202244805, 47.865129594465103 ] ] } },
{ "type": "Feature", "properties": { "wmUplineSo": "FRAZER BAY", "wmType": "Overhead" }, "geometry": { "type": "LineString", "coordinates": [ [ -92.456885510516003, 47.864296444084196 ], [ -92.456531163256102, 47.864698690281301 ], [ -92.456658800654793, 47.864821492799599 ] ] } },
{ "type": "Feature", "properties": { "wmUplineSo": "FRAZER BAY", "wmType": "Overhead" }, "geometry": { "type": "LineString", "coordinates": [ [ -92.456885510516003, 47.864296444084196 ], [ -92.457041660002105, 47.864776472054601 ] ] } },
{ "type": "Feature", "properties": { "wmUplineSo": "FRAZER BAY", "wmType": "Overhead" }, "geometry": { "type": "LineString", "coordinates": [ [ -92.4585922569388, 47.864314912702 ], [ -92.458592833916498, 47.864314700673397 ], [ -92.458592833916498, 47.864314700673397 ], [ -92.458738997728602, 47.864260988024498 ] ] } },
{ "type": "Feature", "properties": { "wmUplineSo": "FRAZER BAY", "wmType": "Overhead" }, "geometry": { "type": "LineString", "coordinates": [ [ -92.4585922569388, 47.864314912702 ], [ -92.458918699611999, 47.864634987620498 ] ] } },
{ "type": "Feature", "properties": { "wmUplineSo": "FRAZER BAY", "wmType": "Overhead" }, "geometry": { "type": "LineString", "coordinates": [ [ -92.459429302769905, 47.864334373625603 ], [ -92.459459971205206, 47.864350398868901 ], [ -92.459574198445694, 47.864410086114901 ] ] } },
{ "type": "Feature", "properties": { "wmUplineSo": "FRAZER BAY", "wmType": "Overhead" }, "geometry": { "type": "LineString", "coordinates": [ [ -92.460745545034797, 47.864390333385202 ], [ -92.460494996953599, 47.864123084000497 ] ] } },
{ "type": "Feature", "properties": { "wmUplineSo": "FRAZER BAY", "wmType": "Overhead" }, "geometry": { "type": "LineString", "coordinates": [ [ -92.460745545034797, 47.864390333385202 ], [ -92.460649200038205, 47.864734383659602 ] ] } },
{ "type": "Feature", "properties": { "wmUplineSo": "FRAZER BAY", "wmType": "Overhead" }, "geometry": { "type": "LineString", "coordinates": [ [ -92.461560898380398, 47.864421685356902 ], [ -92.461085900728406, 47.864874682662403 ] ] } },
{ "type": "Feature", "properties": { "wmUplineSo": "FRAZER BAY", "wmType": "Overhead" }, "geometry": { "type": "LineString", "coordinates": [ [ -92.462196899930007, 47.864733683906799 ], [ -92.462108600669396, 47.864871980320302 ] ] } },
{ "type": "Feature", "properties": { "wmUplineSo": "FRAZER BAY", "wmType": "Overhead" }, "geometry": { "type": "LineString", "coordinates": [ [ -92.489421003570897, 47.870527742632497 ], [ -92.489242, 47.870747 ] ] } },
{ "type": "Feature", "properties": { "wmUplineSo": "FRAZER BAY", "wmType": "Overhead" }, "geometry": { "type": "LineString", "coordinates": [ [ -92.462845896808901, 47.8644144460863 ], [ -92.462680477682994, 47.864728381480703 ] ] } },
{ "type": "Feature", "properties": { "wmUplineSo": "FRAZER BAY", "wmType": "Overhead" }, "geometry": { "type": "LineString", "coordinates": [ [ -92.485932850747602, 47.870356007121401 ], [ -92.4860068284612, 47.870580825702199 ] ] } },
{ "type": "Feature", "properties": { "wmUplineSo": "FRAZER BAY", "wmType": "Overhead" }, "geometry": { "type": "LineString", "coordinates": [ [ -92.484438038873407, 47.868758559338097 ], [ -92.484429059909402, 47.868765731041997 ], [ -92.484327247193306, 47.868847050997999 ] ] } },
{ "type": "Feature", "properties": { "wmUplineSo": "FRAZER BAY", "wmType": "Overhead" }, "geometry": { "type": "LineString", "coordinates": [ [ -92.497896942673094, 47.873506602320198 ], [ -92.498845851473106, 47.873505608860803 ] ] } },
{ "type": "Feature", "properties": { "wmUplineSo": "FRAZER BAY", "wmType": "Overhead" }, "geometry": { "type": "LineString", "coordinates": [ [ -92.490543734702001, 47.870935442815899 ], [ -92.490176531936996, 47.871306216166403 ] ] } },
{ "type": "Feature", "properties": { "wmUplineSo": "FRAZER BAY", "wmType": "Overhead" }, "geometry": { "type": "LineString", "coordinates": [ [ -92.488648738714602, 47.870305520388897 ], [ -92.488588555041403, 47.870405325802601 ], [ -92.488476176131002, 47.870639453195402 ] ] } },
{ "type": "Feature", "properties": { "wmUplineSo": "FRAZER BAY", "wmType": "Overhead" }, "geometry": { "type": "LineString", "coordinates": [ [ -92.487637105885398, 47.870323631189898 ], [ -92.487716129960702, 47.870892921793498 ], [ -92.487716129960702, 47.870892921793498 ] ] } },
{ "type": "Feature", "properties": { "wmUplineSo": "FRAZER BAY", "wmType": "Overhead" }, "geometry": { "type": "LineString", "coordinates": [ [ -92.486688681424795, 47.870346057454803 ], [ -92.486672450490204, 47.870377653449097 ], [ -92.486476229343893, 47.870759624630601 ] ] } },
{ "type": "Feature", "properties": { "wmUplineSo": "FRAZER BAY", "wmType": "Overhead" }, "geometry": { "type": "LineString", "coordinates": [ [ -92.486688681424795, 47.870346057454803 ], [ -92.487173452060105, 47.870384583225601 ], [ -92.487324079436206, 47.870546067063501 ] ] } },
{ "type": "Feature", "properties": { "wmUplineSo": "FRAZER BAY", "wmType": "Overhead" }, "geometry": { "type": "LineString", "coordinates": [ [ -92.486688681424795, 47.870346057454803 ], [ -92.486816724694805, 47.869843723833199 ] ] } },
{ "type": "Feature", "properties": { "wmUplineSo": "FRAZER BAY", "wmType": "Overhead" }, "geometry": { "type": "LineString", "coordinates": [ [ -92.485932850747602, 47.870356007121401 ], [ -92.485628728688098, 47.870622226568898 ] ] } },
{ "type": "Feature", "properties": { "wmUplineSo": "FRAZER BAY", "wmType": "Overhead" }, "geometry": { "type": "LineString", "coordinates": [ [ -92.485478644508305, 47.870275181166498 ], [ -92.485408255421802, 47.870558548911198 ] ] } },
{ "type": "Feature", "properties": { "wmUplineSo": "FRAZER BAY", "wmType": "Overhead" }, "geometry": { "type": "LineString", "coordinates": [ [ -92.483467099999899, 47.869911190009802 ], [ -92.484081754060895, 47.870492851489502 ] ] } },
{ "type": "Feature", "properties": { "wmUplineSo": "FRAZER BAY", "wmType": "Overhead" }, "geometry": { "type": "LineString", "coordinates": [ [ -92.482727394312704, 47.869919339607598 ], [ -92.482569252536507, 47.870424354429403 ] ] } },
{ "type": "Feature", "properties": { "wmUplineSo": "FRAZER BAY", "wmType": "Overhead" }, "geometry": { "type": "LineString", "coordinates": [ [ -92.464119705264693, 47.864806072585303 ], [ -92.464316901879002, 47.865137679060197 ] ] } },
{ "type": "Feature", "properties": { "wmUplineSo": "FRAZER BAY", "wmType": "Overhead" }, "geometry": { "type": "LineString", "coordinates": [ [ -92.462680477682994, 47.864728381480703 ], [ -92.462938813334702, 47.864647652687502 ] ] } },
{ "type": "Feature", "properties": { "wmUplineSo": "FRAZER BAY", "wmType": "Overhead" }, "geometry": { "type": "LineString", "coordinates": [ [ -92.471925343980999, 47.866303803939701 ], [ -92.472178307423107, 47.8662965572884 ], [ -92.472178307423107, 47.866296557288301 ] ] } },
{ "type": "Feature", "properties": { "wmUplineSo": "FRAZER BAY", "wmType": "Overhead" }, "geometry": { "type": "LineString", "coordinates": [ [ -92.489242, 47.870747 ], [ -92.489083, 47.870949000000103 ] ] } },
{ "type": "Feature", "properties": { "wmUplineSo": "FRAZER BAY", "wmType": "Overhead" }, "geometry": { "type": "LineString", "coordinates": [ [ -92.464316901879002, 47.865137679060197 ], [ -92.464441702668395, 47.865287774985703 ] ] } },
{ "type": "Feature", "properties": { "wmUplineSo": "FRAZER BAY", "wmType": "Overhead" }, "geometry": { "type": "LineString", "coordinates": [ [ -92.465815788738297, 47.864381797256598 ], [ -92.466117598201805, 47.864419371130502 ] ] } },
{ "type": "Feature", "properties": { "wmUplineSo": "FRAZER BAY", "wmType": "Overhead" }, "geometry": { "type": "LineString", "coordinates": [ [ -92.482695219462698, 47.869476139975198 ], [ -92.482319928316997, 47.869474448504697 ] ] } },
{ "type": "Feature", "properties": { "wmUplineSo": "FRAZER BAY", "wmType": "Overhead" }, "geometry": { "type": "LineString", "coordinates": [ [ -92.465025250930907, 47.864388862409399 ], [ -92.464031228814093, 47.864384226514503 ] ] } },
{ "type": "Feature", "properties": { "wmUplineSo": "FRAZER BAY", "wmType": "Overhead" }, "geometry": { "type": "LineString", "coordinates": [ [ -92.464031228814093, 47.864384226514503 ], [ -92.464119705264693, 47.864806072585303 ] ] } },
{ "type": "Feature", "properties": { "wmUplineSo": "FRAZER BAY", "wmType": "Overhead" }, "geometry": { "type": "LineString", "coordinates": [ [ -92.458157587122898, 47.864308021794699 ], [ -92.458154670473405, 47.864307975550901 ], [ -92.457710518738594, 47.864300932611997 ] ] } },
{ "type": "Feature", "properties": { "wmUplineSo": "FRAZER BAY", "wmType": "Overhead" }, "geometry": { "type": "LineString", "coordinates": [ [ -92.480133205360204, 47.868252297861403 ], [ -92.479192837774903, 47.868065356101901 ] ] } },
{ "type": "Feature", "properties": { "wmUplineSo": "FRAZER BAY", "wmType": "Overhead" }, "geometry": { "type": "LineString", "coordinates": [ [ -92.481997720958802, 47.868630485883301 ], [ -92.481439278594706, 47.868517218276097 ], [ -92.480774429539807, 47.868382364257499 ], [ -92.480133205360204, 47.868252297861403 ] ] } },
{ "type": "Feature", "properties": { "wmUplineSo": "FRAZER BAY", "wmType": "Overhead" }, "geometry": { "type": "LineString", "coordinates": [ [ -92.482532145186994, 47.868811846606299 ], [ -92.481997720958802, 47.868630485883301 ] ] } },
{ "type": "Feature", "properties": { "wmUplineSo": "FRAZER BAY", "wmType": "Overhead" }, "geometry": { "type": "LineString", "coordinates": [ [ -92.482695219462698, 47.869476139975198 ], [ -92.483090962227394, 47.869587000643897 ], [ -92.483531243292703, 47.869710335810304 ] ] } },
{ "type": "Feature", "properties": { "wmUplineSo": "FRAZER BAY", "wmType": "Overhead" }, "geometry": { "type": "LineString", "coordinates": [ [ -92.484813971170396, 47.8699408247844 ], [ -92.485478644508305, 47.870275181166498 ] ] } },
{ "type": "Feature", "properties": { "wmUplineSo": "FRAZER BAY", "wmType": "Overhead" }, "geometry": { "type": "LineString", "coordinates": [ [ -92.485478644508305, 47.870275181166498 ], [ -92.485932850747602, 47.870356007121401 ] ] } },
{ "type": "Feature", "properties": { "wmUplineSo": "FRAZER BAY", "wmType": "Overhead" }, "geometry": { "type": "LineString", "coordinates": [ [ -92.490543734702001, 47.870935442815899 ], [ -92.491228230280498, 47.871134146837797 ] ] } },
{ "type": "Feature", "properties": { "wmUplineSo": "FRAZER BAY", "wmType": "Overhead" }, "geometry": { "type": "LineString", "coordinates": [ [ -92.492901764610494, 47.871485418451698 ], [ -92.493451018334994, 47.871665149962801 ] ] } },
{ "type": "Feature", "properties": { "wmUplineSo": "FRAZER BAY", "wmType": "Overhead" }, "geometry": { "type": "LineString", "coordinates": [ [ -92.493451018334994, 47.871665149962801 ], [ -92.494444787374704, 47.872120856870197 ] ] } },
{ "type": "Feature", "properties": { "wmUplineSo": "FRAZER BAY", "wmType": "Overhead" }, "geometry": { "type": "LineString", "coordinates": [ [ -92.494444787374704, 47.872120856870197 ], [ -92.494179453170901, 47.872500510317302 ] ] } },
{ "type": "Feature", "properties": { "wmUplineSo": "FRAZER BAY", "wmType": "Overhead" }, "geometry": { "type": "LineString", "coordinates": [ [ -92.494444787374704, 47.872120856870197 ], [ -92.495137451013306, 47.872747165605901 ] ] } },
{ "type": "Feature", "properties": { "wmUplineSo": "FRAZER BAY", "wmType": "Overhead" }, "geometry": { "type": "LineString", "coordinates": [ [ -92.4919227370698, 47.871230976498403 ], [ -92.492901764610494, 47.871485418451698 ] ] } },
{ "type": "Feature", "properties": { "wmUplineSo": "FRAZER BAY", "wmType": "Overhead" }, "geometry": { "type": "LineString", "coordinates": [ [ -92.454430148091205, 47.8643578115433 ], [ -92.454521179999901, 47.864700320009803 ] ] } },
{ "type": "Feature", "properties": { "wmUplineSo": "FRAZER BAY", "wmType": "Overhead" }, "geometry": { "type": "LineString", "coordinates": [ [ -92.455371702199699, 47.864324720286803 ], [ -92.454665480969396, 47.864367858827997 ], [ -92.454430148091205, 47.8643578115433 ] ] } },
{ "type": "Feature", "properties": { "wmUplineSo": "FRAZER BAY", "wmType": "Overhead" }, "geometry": { "type": "LineString", "coordinates": [ [ -92.456885510516003, 47.864296444084196 ], [ -92.4560876840101, 47.8642665015348 ], [ -92.4560876840101, 47.8642665015348 ] ] } },
{ "type": "Feature", "properties": { "wmUplineSo": "FRAZER BAY", "wmType": "Overhead" }, "geometry": { "type": "LineString", "coordinates": [ [ -92.457710518738594, 47.864300932611997 ], [ -92.456885510516003, 47.864296444084196 ] ] } },
{ "type": "Feature", "properties": { "wmUplineSo": "FRAZER BAY", "wmType": "Overhead" }, "geometry": { "type": "LineString", "coordinates": [ [ -92.4585922569388, 47.864314912702 ], [ -92.458157587122898, 47.864308021794699 ] ] } },
{ "type": "Feature", "properties": { "wmUplineSo": "FRAZER BAY", "wmType": "Overhead" }, "geometry": { "type": "LineString", "coordinates": [ [ -92.459429302769905, 47.864334373625603 ], [ -92.4585922569388, 47.864314912702 ] ] } },
{ "type": "Feature", "properties": { "wmUplineSo": "FRAZER BAY", "wmType": "Overhead" }, "geometry": { "type": "LineString", "coordinates": [ [ -92.4585922569388, 47.864314912702 ], [ -92.458548416692196, 47.864259702665898 ] ] } },
{ "type": "Feature", "properties": { "wmUplineSo": "FRAZER BAY", "wmType": "Overhead" }, "geometry": { "type": "LineString", "coordinates": [ [ -92.458548416692196, 47.864259702665898 ], [ -92.458390604042705, 47.8640325289484 ], [ -92.458139931404105, 47.863671677344101 ], [ -92.457861880205698, 47.863196153636402 ], [ -92.4579303531074, 47.862600380161801 ], [ -92.458709212131595, 47.862392790345297 ] ] } },
{ "type": "Feature", "properties": { "wmUplineSo": "FRAZER BAY", "wmType": "Overhead" }, "geometry": { "type": "LineString", "coordinates": [ [ -92.460745545034797, 47.864390333385202 ], [ -92.459429302769905, 47.864334373625603 ] ] } },
{ "type": "Feature", "properties": { "wmUplineSo": "FRAZER BAY", "wmType": "Overhead" }, "geometry": { "type": "LineString", "coordinates": [ [ -92.461560898380398, 47.864421685356902 ], [ -92.460745545034797, 47.864390333385202 ] ] } },
{ "type": "Feature", "properties": { "wmUplineSo": "FRAZER BAY", "wmType": "Overhead" }, "geometry": { "type": "LineString", "coordinates": [ [ -92.463408468097199, 47.864381317713899 ], [ -92.462845896808901, 47.8644144460863 ] ] } },
{ "type": "Feature", "properties": { "wmUplineSo": "FRAZER BAY", "wmType": "Overhead" }, "geometry": { "type": "LineString", "coordinates": [ [ -92.471925343980999, 47.866303803939701 ], [ -92.471416877517996, 47.866151976374702 ], [ -92.470922719619395, 47.8658676205931 ] ] } },
{ "type": "Feature", "properties": { "wmUplineSo": "FRAZER BAY", "wmType": "Overhead" }, "geometry": { "type": "LineString", "coordinates": [ [ -92.474652774853794, 47.866935159385498 ], [ -92.473729893294703, 47.866731818313603 ], [ -92.473613066639899, 47.866706076928601 ], [ -92.472724797932599, 47.866501226687397 ] ] } },
{ "type": "Feature", "properties": { "wmUplineSo": "FRAZER BAY", "wmType": "Overhead" }, "geometry": { "type": "LineString", "coordinates": [ [ -92.475214463103597, 47.867058619330798 ], [ -92.474652774853794, 47.866935159385498 ] ] } },
{ "type": "Feature", "properties": { "wmUplineSo": "FRAZER BAY", "wmType": "Overhead" }, "geometry": { "type": "LineString", "coordinates": [ [ -92.477293349958998, 47.867573159272403 ], [ -92.475770138796094, 47.867190011059201 ] ] } },
{ "type": "Feature", "properties": { "wmUplineSo": "FRAZER BAY", "wmType": "Overhead" }, "geometry": { "type": "LineString", "coordinates": [ [ -92.477942477833693, 47.8677373009752 ], [ -92.477293349958998, 47.867573159272403 ] ] } },
{ "type": "Feature", "properties": { "wmUplineSo": "FRAZER BAY", "wmType": "Overhead" }, "geometry": { "type": "LineString", "coordinates": [ [ -92.478616513718194, 47.867891337511402 ], [ -92.477942477833693, 47.8677373009752 ] ] } },
{ "type": "Feature", "properties": { "wmUplineSo": "FRAZER BAY", "wmType": "Overhead" }, "geometry": { "type": "LineString", "coordinates": [ [ -92.479192837774903, 47.868065356101901 ], [ -92.479160310350395, 47.8680555346928 ], [ -92.478616513718194, 47.867891337511402 ] ] } },
{ "type": "Feature", "properties": { "wmUplineSo": "FRAZER BAY", "wmType": "Overhead" }, "geometry": { "type": "LineString", "coordinates": [ [ -92.495137451013306, 47.872747165605901 ], [ -92.495841843096798, 47.872989356463897 ] ] } },
{ "type": "Feature", "properties": { "wmUplineSo": "FRAZER BAY", "wmType": "Overhead" }, "geometry": { "type": "LineString", "coordinates": [ [ -92.495841843096798, 47.872989356463897 ], [ -92.496582931135904, 47.873153796271801 ] ] } },
{ "type": "Feature", "properties": { "wmUplineSo": "FRAZER BAY", "wmType": "Overhead" }, "geometry": { "type": "LineString", "coordinates": [ [ -92.499133239167605, 47.873515790013798 ], [ -92.499446685319896, 47.874034931343402 ] ] } },
{ "type": "Feature", "properties": { "wmUplineSo": "FRAZER BAY", "wmType": "Overhead" }, "geometry": { "type": "LineString", "coordinates": [ [ -92.499133239167605, 47.873515790013798 ], [ -92.4998662219717, 47.873480629324 ], [ -92.501000003836296, 47.8743830569408 ], [ -92.501563437476705, 47.875096350051699 ], [ -92.501900493524602, 47.875758683866799 ], [ -92.502013383531704, 47.876479146887696 ], [ -92.502077587650206, 47.877279992604301 ], [ -92.502109087708504, 47.8781160893598 ], [ -92.501137871452002, 47.878149669450401 ], [ -92.499802190681706, 47.8781349314322 ] ] } },
{ "type": "Feature", "properties": { "wmUplineSo": "FRAZER BAY", "wmType": "Overhead" }, "geometry": { "type": "LineString", "coordinates": [ [ -92.462938813334702, 47.864647652687502 ], [ -92.463033420115295, 47.8647162644777 ] ] } },
{ "type": "Feature", "properties": { "wmUplineSo": "FRAZER BAY", "wmType": "Overhead" }, "geometry": { "type": "LineString", "coordinates": [ [ -92.496718571957501, 47.873144864808999 ], [ -92.497896942673094, 47.873506602320198 ] ] } },
{ "type": "Feature", "properties": { "wmUplineSo": "FRAZER BAY", "wmType": "Overhead" }, "geometry": { "type": "LineString", "coordinates": [ [ -92.484203720238597, 47.869827626324003 ], [ -92.484813971170396, 47.8699408247844 ] ] } },
{ "type": "Feature", "properties": { "wmUplineSo": "FRAZER BAY", "wmType": "Overhead" }, "geometry": { "type": "LineString", "coordinates": [ [ -92.483531243292703, 47.869710335810304 ], [ -92.484203720238597, 47.869827626324003 ] ] } },
{ "type": "Feature", "properties": { "wmUplineSo": "FRAZER BAY", "wmType": "Overhead" }, "geometry": { "type": "LineString", "coordinates": [ [ -92.484203720238597, 47.869827626324003 ], [ -92.484438038873407, 47.868758559338097 ] ] } },
{ "type": "Feature", "properties": { "wmUplineSo": "FRAZER BAY", "wmType": "Overhead" }, "geometry": { "type": "LineString", "coordinates": [ [ -92.462680477682994, 47.864728381480703 ], [ -92.462574146027904, 47.86478027007 ] ] } },
{ "type": "Feature", "properties": { "wmUplineSo": "FRAZER BAY", "wmType": "Overhead" }, "geometry": { "type": "LineString", "coordinates": [ [ -92.491228230280498, 47.871134146837797 ], [ -92.491920216060905, 47.8712304728707 ], [ -92.4919227370698, 47.871230976498403 ] ] } },
{ "type": "Feature", "properties": { "wmUplineSo": "FRAZER BAY", "wmType": "Overhead" }, "geometry": { "type": "LineString", "coordinates": [ [ -92.4919227370698, 47.871230976498403 ], [ -92.491796892128505, 47.8712918383535 ] ] } },
{ "type": "Feature", "properties": { "wmUplineSo": "FRAZER BAY", "wmType": "Overhead" }, "geometry": { "type": "LineString", "coordinates": [ [ -92.489421003570897, 47.870527742632497 ], [ -92.490012153782502, 47.870735019192502 ] ] } },
{ "type": "Feature", "properties": { "wmUplineSo": "FRAZER BAY", "wmType": "Overhead" }, "geometry": { "type": "LineString", "coordinates": [ [ -92.487637105885398, 47.870323631189898 ], [ -92.488648738714602, 47.870305520388897 ] ] } },
{ "type": "Feature", "properties": { "wmUplineSo": "FRAZER BAY", "wmType": "Overhead" }, "geometry": { "type": "LineString", "coordinates": [ [ -92.485932850747602, 47.870356007121401 ], [ -92.486688681424795, 47.870346057454803 ] ] } },
{ "type": "Feature", "properties": { "wmUplineSo": "FRAZER BAY", "wmType": "Overhead" }, "geometry": { "type": "LineString", "coordinates": [ [ -92.486688681424795, 47.870346057454803 ], [ -92.487637105885398, 47.870323631189898 ] ] } },
{ "type": "Feature", "properties": { "wmUplineSo": "FRAZER BAY", "wmType": "Overhead" }, "geometry": { "type": "LineString", "coordinates": [ [ -92.482695219462698, 47.869476139975198 ], [ -92.482727394312704, 47.869919339607598 ] ] } },
{ "type": "Feature", "properties": { "wmUplineSo": "FRAZER BAY", "wmType": "Overhead" }, "geometry": { "type": "LineString", "coordinates": [ [ -92.464031228814093, 47.864384226514503 ], [ -92.463408468097199, 47.864381317713899 ] ] } },
{ "type": "Feature", "properties": { "wmUplineSo": "FRAZER BAY", "wmType": "Overhead" }, "geometry": { "type": "LineString", "coordinates": [ [ -92.465815788738297, 47.864381797256598 ], [ -92.465025250930907, 47.864388862409399 ] ] } },
{ "type": "Feature", "properties": { "wmUplineSo": "FRAZER BAY", "wmType": "Overhead" }, "geometry": { "type": "LineString", "coordinates": [ [ -92.464316901879002, 47.865137679060197 ], [ -92.464755102714605, 47.865299674268201 ] ] } },
{ "type": "Feature", "properties": { "wmUplineSo": "FRAZER BAY", "wmType": "Overhead" }, "geometry": { "type": "LineString", "coordinates": [ [ -92.482532145186994, 47.868811846606299 ], [ -92.482651098717497, 47.868889027950601 ] ] } },
{ "type": "Feature", "properties": { "wmUplineSo": "FRAZER BAY", "wmType": "Overhead" }, "geometry": { "type": "LineString", "coordinates": [ [ -92.471558636637994, 47.865346074678698 ], [ -92.471582902767196, 47.865377662425402 ] ] } },
{ "type": "Feature", "properties": { "wmUplineSo": "FRAZER BAY", "wmType": "Overhead" }, "geometry": { "type": "LineString", "coordinates": [ [ -92.496582931135904, 47.873153796271801 ], [ -92.496718571957501, 47.873144864808999 ] ] } },
{ "type": "Feature", "properties": { "wmUplineSo": "FRAZER BAY", "wmType": "Overhead" }, "geometry": { "type": "LineString", "coordinates": [ [ -92.482374421639193, 47.867090411260001 ], [ -92.482629424107202, 47.8671613846913 ] ] } },
{ "type": "Feature", "properties": { "wmUplineSo": "FRAZER BAY", "wmType": "Overhead" }, "geometry": { "type": "LineString", "coordinates": [ [ -92.4560876840101, 47.8642665015348 ], [ -92.455371702199699, 47.864324720286803 ] ] } },
{ "type": "Feature", "properties": { "wmUplineSo": "FRAZER BAY", "wmType": "Overhead" }, "geometry": { "type": "LineString", "coordinates": [ [ -92.464031228814093, 47.864384226514503 ], [ -92.464121689463795, 47.864466752243402 ] ] } },
{ "type": "Feature", "properties": { "wmUplineSo": "FRAZER BAY", "wmType": "Overhead" }, "geometry": { "type": "LineString", "coordinates": [ [ -92.467165999964195, 47.866303003801697 ], [ -92.467754030104402, 47.866916084269299 ] ] } },
{ "type": "Feature", "properties": { "wmUplineSo": "FRAZER BAY", "wmType": "Overhead" }, "geometry": { "type": "LineString", "coordinates": [ [ -92.467754030104402, 47.866916084269299 ], [ -92.4680474776967, 47.867110870293899 ] ] } },
{ "type": "Feature", "properties": { "wmUplineSo": "FRAZER BAY", "wmType": "Overhead" }, "geometry": { "type": "LineString", "coordinates": [ [ -92.470922719619395, 47.8658676205931 ], [ -92.470297469310495, 47.865519525807301 ] ] } },
{ "type": "Feature", "properties": { "wmUplineSo": "FRAZER BAY", "wmType": "Overhead" }, "geometry": { "type": "LineString", "coordinates": [ [ -92.471422329691904, 47.865527593234901 ], [ -92.471558636637994, 47.865346074678698 ] ] } },
{ "type": "Feature", "properties": { "wmUplineSo": "FRAZER BAY", "wmType": "Overhead" }, "geometry": { "type": "LineString", "coordinates": [ [ -92.470297469310495, 47.865519525807301 ], [ -92.469402613813301, 47.864988844966803 ], [ -92.468515035215404, 47.864454324845497 ], [ -92.467352704061298, 47.864436975065601 ], [ -92.467352704061298, 47.864436975065601 ], [ -92.465815788738297, 47.864381797256598 ] ] } },
{ "type": "Feature", "properties": { "wmUplineSo": "FRAZER BAY", "wmType": "Overhead" }, "geometry": { "type": "LineString", "coordinates": [ [ -92.471582902767196, 47.865377662425402 ], [ -92.471658344002407, 47.865331583855301 ] ] } },
{ "type": "Feature", "properties": { "wmUplineSo": "FRAZER BAY", "wmType": "Overhead" }, "geometry": { "type": "LineString", "coordinates": [ [ -92.482400996257695, 47.867605759977501 ], [ -92.482403196190106, 47.868006443043697 ] ] } },
{ "type": "Feature", "properties": { "wmUplineSo": "FRAZER BAY", "wmType": "Overhead" }, "geometry": { "type": "LineString", "coordinates": [ [ -92.482400996257695, 47.867605759977501 ], [ -92.482499587743902, 47.867588459609401 ] ] } },
{ "type": "Feature", "properties": { "wmUplineSo": "FRAZER BAY", "wmType": "Overhead" }, "geometry": { "type": "LineString", "coordinates": [ [ -92.462845896808901, 47.8644144460863 ], [ -92.462314057995201, 47.864417444041003 ], [ -92.461560898380398, 47.864421685356902 ] ] } },
{ "type": "Feature", "properties": { "wmUplineSo": "FRAZER BAY", "wmType": "Overhead" }, "geometry": { "type": "LineString", "coordinates": [ [ -92.461560898380398, 47.864421685356902 ], [ -92.461866900374503, 47.864818684664201 ] ] } },
{ "type": "Feature", "properties": { "wmUplineSo": "FRAZER BAY", "wmType": "Overhead" }, "geometry": { "type": "LineString", "coordinates": [ [ -92.461866900374503, 47.864818684664201 ], [ -92.462196899930007, 47.864733683906799 ] ] } },
{ "type": "Feature", "properties": { "wmUplineSo": "FRAZER BAY", "wmType": "Overhead" }, "geometry": { "type": "LineString", "coordinates": [ [ -92.462196899930007, 47.864733683906799 ], [ -92.462415000403894, 47.864822179617597 ] ] } },
{ "type": "Feature", "properties": { "wmUplineSo": "FRAZER BAY", "wmType": "Overhead" }, "geometry": { "type": "LineString", "coordinates": [ [ -92.482555531406902, 47.868869039531198 ], [ -92.482695219462698, 47.869476139975198 ] ] } },
{ "type": "Feature", "properties": { "wmUplineSo": "FRAZER BAY", "wmType": "Overhead" }, "geometry": { "type": "LineString", "coordinates": [ [ -92.462680477682994, 47.864728381480703 ], [ -92.462759694737301, 47.8647891978583 ] ] } },
{ "type": "Feature", "properties": { "wmUplineSo": "FRAZER BAY", "wmType": "Overhead" }, "geometry": { "type": "LineString", "coordinates": [ [ -92.498845851473106, 47.873505608860803 ], [ -92.499133239167605, 47.873515790013798 ] ] } },
{ "type": "Feature", "properties": { "wmUplineSo": "FRAZER BAY", "wmType": "Overhead" }, "geometry": { "type": "LineString", "coordinates": [ [ -92.498845851473106, 47.873505608860803 ], [ -92.4986971443047, 47.873829896699498 ] ] } },
{ "type": "Feature", "properties": { "wmUplineSo": "FRAZER BAY", "wmType": "Overhead" }, "geometry": { "type": "LineString", "coordinates": [ [ -92.482532145186994, 47.868811846606299 ], [ -92.482555531406902, 47.868869039531198 ] ] } },
{ "type": "Feature", "properties": { "wmUplineSo": "FRAZER BAY", "wmType": "Overhead" }, "geometry": { "type": "LineString", "coordinates": [ [ -92.482374421639193, 47.867090411260001 ], [ -92.482400996257695, 47.867605759977501 ] ] } },
{ "type": "Feature", "properties": { "wmUplineSo": "FRAZER BAY", "wmType": "Overhead" }, "geometry": { "type": "LineString", "coordinates": [ [ -92.475770138796094, 47.867190011059201 ], [ -92.475214463103597, 47.867058619330798 ] ] } },
{ "type": "Feature", "properties": { "wmUplineSo": "FRAZER BAY", "wmType": "Overhead" }, "geometry": { "type": "LineString", "coordinates": [ [ -92.475214463103597, 47.867058619330798 ], [ -92.475236211017105, 47.867034550299898 ] ] } },
{ "type": "Feature", "properties": { "wmUplineSo": "FRAZER BAY", "wmType": "Overhead" }, "geometry": { "type": "LineString", "coordinates": [ [ -92.490012153782502, 47.870735019192502 ], [ -92.490543734702001, 47.870935442815899 ], [ -92.490543734702001, 47.870935442815899 ] ] } },
{ "type": "Feature", "properties": { "wmUplineSo": "FRAZER BAY", "wmType": "Overhead" }, "geometry": { "type": "LineString", "coordinates": [ [ -92.482403196190106, 47.868006443043697 ], [ -92.482423762696399, 47.868421985466703 ], [ -92.482532145186994, 47.868811846606299 ] ] } },
{ "type": "Feature", "properties": { "wmUplineSo": "FRAZER BAY", "wmType": "Overhead" }, "geometry": { "type": "LineString", "coordinates": [ [ -92.488648738714602, 47.870305520388897 ], [ -92.488658083468493, 47.870308209420799 ], [ -92.489421003570897, 47.870527742632497 ] ] } },
{ "type": "Feature", "properties": { "wmUplineSo": "FRAZER BAY", "wmType": "Overhead" }, "geometry": { "type": "LineString", "coordinates": [ [ -92.470922719619395, 47.8658676205931 ], [ -92.471422329691904, 47.865527593234901 ] ] } },
{ "type": "Feature", "properties": { "wmUplineSo": "FRAZER BAY", "wmType": "Overhead" }, "geometry": { "type": "LineString", "coordinates": [ [ -92.482319928316997, 47.869474448504697 ], [ -92.481978773883696, 47.8694527612898 ] ] } },
{ "type": "Feature", "properties": { "wmUplineSo": "FRAZER BAY", "wmType": "Overhead" }, "geometry": { "type": "LineString", "coordinates": [ [ -92.482629424107202, 47.8671613846913 ], [ -92.483990445642505, 47.867202433620299 ] ] } },
{ "type": "Feature", "properties": { "wmUplineSo": "FRAZER BAY", "wmType": "Overhead" }, "geometry": { "type": "LineString", "coordinates": [ [ -92.465815788738297, 47.864381797256598 ], [ -92.465810593797599, 47.8647018367217 ] ] } },
{ "type": "Feature", "properties": { "wmUplineSo": "FRAZER BAY", "wmType": "Overhead" }, "geometry": { "type": "LineString", "coordinates": [ [ -92.465810593797599, 47.8647018367217 ], [ -92.465762999964099, 47.8652550038016 ] ] } }
]
}
