{
"type": "FeatureCollection",
"crs": { "type": "name", "properties": { "name": "urn:ogc:def:crs:OGC:1.3:CRS84" } },
"features": [
{ "type": "Feature", "properties": { "wmUplineSo": "GOWAN", "wmType": "Underground" }, "geometry": { "type": "LineString", "coordinates": [ [ -92.901582003155397, 46.9045523681906 ], [ -92.901587956393101, 46.904541806401802 ] ] } },
{ "type": "Feature", "properties": { "wmUplineSo": "GOWAN", "wmType": "Underground" }, "geometry": { "type": "LineString", "coordinates": [ [ -92.864962999939806, 46.874276690199103 ], [ -92.865016131679099, 46.874437059619503 ] ] } },
{ "type": "Feature", "properties": { "wmUplineSo": "GOWAN", "wmType": "Underground" }, "geometry": { "type": "LineString", "coordinates": [ [ -92.826823553776904, 46.970625668968502 ], [ -92.8270824, 46.970619000008703 ] ] } },
{ "type": "Feature", "properties": { "wmUplineSo": "GOWAN", "wmType": "Underground" }, "geometry": { "type": "LineString", "coordinates": [ [ -92.753453039845297, 46.954406659957698 ], [ -92.753512512764004, 46.954605628835097 ] ] } },
{ "type": "Feature", "properties": { "wmUplineSo": "GOWAN", "wmType": "Underground" }, "geometry": { "type": "LineString", "coordinates": [ [ -92.785509519328002, 47.011951474649202 ], [ -92.785811904632894, 47.0120799172525 ] ] } },
{ "type": "Feature", "properties": { "wmUplineSo": "GOWAN", "wmType": "Underground" }, "geometry": { "type": "LineString", "coordinates": [ [ -92.848766675948198, 46.8783151057631 ], [ -92.850418588662293, 46.878150460280899 ] ] } },
{ "type": "Feature", "properties": { "wmUplineSo": "GOWAN", "wmType": "Underground" }, "geometry": { "type": "LineString", "coordinates": [ [ -92.848162834326203, 46.8783862372836 ], [ -92.848766675948198, 46.8783151057631 ] ] } },
{ "type": "Feature", "properties": { "wmUplineSo": "GOWAN", "wmType": "Underground" }, "geometry": { "type": "LineString", "coordinates": [ [ -92.875588697459804, 46.880277023751901 ], [ -92.875273281239302, 46.880273712885497 ], [ -92.8742028208531, 46.8800574518784 ], [ -92.873886908781799, 46.880079125359202 ], [ -92.873478917462293, 46.880074261664703 ] ] } },
{ "type": "Feature", "properties": { "wmUplineSo": "GOWAN", "wmType": "Underground" }, "geometry": { "type": "LineString", "coordinates": [ [ -92.882968643470093, 46.879313765993999 ], [ -92.882253044132696, 46.879256286642701 ] ] } },
{ "type": "Feature", "properties": { "wmUplineSo": "GOWAN", "wmType": "Underground" }, "geometry": { "type": "LineString", "coordinates": [ [ -92.882253044132696, 46.879256286642701 ], [ -92.881924785042798, 46.8800019848631 ], [ -92.881220699677101, 46.879961407558 ], [ -92.880209771032099, 46.880282469497203 ], [ -92.879559660995298, 46.880586319153203 ], [ -92.878950296609105, 46.881137751699598 ], [ -92.878460073017905, 46.881314569683099 ], [ -92.877880975505903, 46.881322280828002 ], [ -92.877454750113998, 46.8813044949258 ], [ -92.877161560135093, 46.881161097039801 ], [ -92.876887239418195, 46.881005202208797 ], [ -92.876641440994703, 46.880455347286002 ], [ -92.876507122871899, 46.880286660668702 ] ] } },
{ "type": "Feature", "properties": { "wmUplineSo": "GOWAN", "wmType": "Underground" }, "geometry": { "type": "LineString", "coordinates": [ [ -92.885187292332503, 46.879301892187001 ], [ -92.885396359608094, 46.879502009011503 ] ] } },
{ "type": "Feature", "properties": { "wmUplineSo": "GOWAN", "wmType": "Underground" }, "geometry": { "type": "LineString", "coordinates": [ [ -92.890687033875295, 46.899895931520803 ], [ -92.891630911323901, 46.899871117370203 ] ] } },
{ "type": "Feature", "properties": { "wmUplineSo": "GOWAN", "wmType": "Underground" }, "geometry": { "type": "LineString", "coordinates": [ [ -92.974839207596304, 46.860941108967197 ], [ -92.974278784860601, 46.860701805946498 ] ] } },
{ "type": "Feature", "properties": { "wmUplineSo": "GOWAN", "wmType": "Underground" }, "geometry": { "type": "LineString", "coordinates": [ [ -92.974861995983602, 46.860457773827903 ], [ -92.974708497479995, 46.859756478479902 ] ] } },
{ "type": "Feature", "properties": { "wmUplineSo": "GOWAN", "wmType": "Underground" }, "geometry": { "type": "LineString", "coordinates": [ [ -92.889872379931305, 46.9000642667432 ], [ -92.890687033875295, 46.899895931520803 ] ] } },
{ "type": "Feature", "properties": { "wmUplineSo": "GOWAN", "wmType": "Underground" }, "geometry": { "type": "LineString", "coordinates": [ [ -92.937493046644093, 46.896216332573999 ], [ -92.936875136456905, 46.8960174525347 ], [ -92.936816713207605, 46.895445138139401 ], [ -92.936776699627103, 46.895053155321101 ], [ -92.936031450082197, 46.894820999957403 ] ] } },
{ "type": "Feature", "properties": { "wmUplineSo": "GOWAN", "wmType": "Underground" }, "geometry": { "type": "LineString", "coordinates": [ [ -92.907836220606001, 46.917293414564298 ], [ -92.909947895004194, 46.916286234938099 ] ] } },
{ "type": "Feature", "properties": { "wmUplineSo": "GOWAN", "wmType": "Underground" }, "geometry": { "type": "LineString", "coordinates": [ [ -92.916652277057494, 46.917536201941097 ], [ -92.916968863212205, 46.917600647083503 ] ] } },
{ "type": "Feature", "properties": { "wmUplineSo": "GOWAN", "wmType": "Underground" }, "geometry": { "type": "LineString", "coordinates": [ [ -92.932191041295894, 46.911513078667298 ], [ -92.9328539044742, 46.9118697987426 ] ] } },
{ "type": "Feature", "properties": { "wmUplineSo": "GOWAN", "wmType": "Underground" }, "geometry": { "type": "LineString", "coordinates": [ [ -92.9316929379507, 46.912079228934999 ], [ -92.931482258115906, 46.912440249026503 ], [ -92.930917802204107, 46.912417330412801 ], [ -92.930632170455198, 46.912298741671798 ], [ -92.930337727649103, 46.912048250635699 ] ] } },
{ "type": "Feature", "properties": { "wmUplineSo": "GOWAN", "wmType": "Underground" }, "geometry": { "type": "LineString", "coordinates": [ [ -92.895257165125599, 46.939612758806099 ], [ -92.894956572327999, 46.9400772584127 ], [ -92.894958570425501, 46.9403004608575 ], [ -92.894963124529994, 46.9408092526945 ], [ -92.894826378928897, 46.941041107370602 ], [ -92.894806087777397, 46.941549507991297 ], [ -92.894800895877296, 46.941679609567402 ] ] } },
{ "type": "Feature", "properties": { "wmUplineSo": "GOWAN", "wmType": "Underground" }, "geometry": { "type": "LineString", "coordinates": [ [ -92.887717816170294, 46.949757333068703 ], [ -92.885143362233293, 46.950084922587799 ], [ -92.884658153285599, 46.950311902332203 ] ] } },
{ "type": "Feature", "properties": { "wmUplineSo": "GOWAN", "wmType": "Underground" }, "geometry": { "type": "LineString", "coordinates": [ [ -92.887717816170294, 46.949757333068703 ], [ -92.8874971719287, 46.949504656410603 ] ] } },
{ "type": "Feature", "properties": { "wmUplineSo": "GOWAN", "wmType": "Underground" }, "geometry": { "type": "LineString", "coordinates": [ [ -92.894596815771095, 46.949479638950102 ], [ -92.893207873506896, 46.949516131533699 ], [ -92.892199487265998, 46.949528097827198 ], [ -92.890285744959201, 46.949615535561499 ] ] } },
{ "type": "Feature", "properties": { "wmUplineSo": "GOWAN", "wmType": "Underground" }, "geometry": { "type": "LineString", "coordinates": [ [ -92.890285744959201, 46.949615535561499 ], [ -92.887717816170294, 46.949757333068703 ] ] } },
{ "type": "Feature", "properties": { "wmUplineSo": "GOWAN", "wmType": "Underground" }, "geometry": { "type": "LineString", "coordinates": [ [ -92.869648766291604, 46.9395394788624 ], [ -92.875246635827807, 46.939614803536301 ] ] } },
{ "type": "Feature", "properties": { "wmUplineSo": "GOWAN", "wmType": "Underground" }, "geometry": { "type": "LineString", "coordinates": [ [ -92.8694837162613, 46.932199521189901 ], [ -92.869450628900495, 46.932085875486401 ] ] } },
{ "type": "Feature", "properties": { "wmUplineSo": "GOWAN", "wmType": "Underground" }, "geometry": { "type": "LineString", "coordinates": [ [ -92.869450628900495, 46.932085875486401 ], [ -92.868744540962396, 46.932082315084202 ] ] } },
{ "type": "Feature", "properties": { "wmUplineSo": "GOWAN", "wmType": "Underground" }, "geometry": { "type": "LineString", "coordinates": [ [ -92.846215893381398, 46.959971618664802 ], [ -92.843540432665606, 46.960807862099401 ] ] } },
{ "type": "Feature", "properties": { "wmUplineSo": "GOWAN", "wmType": "Underground" }, "geometry": { "type": "LineString", "coordinates": [ [ -92.843540432665606, 46.960807862099401 ], [ -92.839934048556202, 46.961155180044599 ] ] } },
{ "type": "Feature", "properties": { "wmUplineSo": "GOWAN", "wmType": "Underground" }, "geometry": { "type": "LineString", "coordinates": [ [ -92.794158785606996, 46.968406484977599 ], [ -92.793838441742594, 46.968366774709501 ] ] } },
{ "type": "Feature", "properties": { "wmUplineSo": "GOWAN", "wmType": "Underground" }, "geometry": { "type": "LineString", "coordinates": [ [ -92.793838441742594, 46.968366774709501 ], [ -92.790233361886905, 46.968376800215403 ], [ -92.788804447833996, 46.967648233031298 ] ] } },
{ "type": "Feature", "properties": { "wmUplineSo": "GOWAN", "wmType": "Underground" }, "geometry": { "type": "LineString", "coordinates": [ [ -92.743520900817202, 46.946756692397301 ], [ -92.745177851454997, 46.946492593185901 ] ] } },
{ "type": "Feature", "properties": { "wmUplineSo": "GOWAN", "wmType": "Underground" }, "geometry": { "type": "LineString", "coordinates": [ [ -92.806531203996599, 46.932846719172197 ], [ -92.806941519097194, 46.932928258921201 ] ] } },
{ "type": "Feature", "properties": { "wmUplineSo": "GOWAN", "wmType": "Underground" }, "geometry": { "type": "LineString", "coordinates": [ [ -92.806941519097194, 46.932928258921201 ], [ -92.8072805750665, 46.9329001127807 ] ] } },
{ "type": "Feature", "properties": { "wmUplineSo": "GOWAN", "wmType": "Underground" }, "geometry": { "type": "LineString", "coordinates": [ [ -92.805537672981004, 46.964387981987102 ], [ -92.804824860525301, 46.964512880457001 ], [ -92.804705962178602, 46.964668500813403 ] ] } },
{ "type": "Feature", "properties": { "wmUplineSo": "GOWAN", "wmType": "Underground" }, "geometry": { "type": "LineString", "coordinates": [ [ -92.815390223180898, 46.980075027027901 ], [ -92.812889460040594, 46.979042590890003 ] ] } },
{ "type": "Feature", "properties": { "wmUplineSo": "GOWAN", "wmType": "Underground" }, "geometry": { "type": "LineString", "coordinates": [ [ -92.814234839934997, 46.988023895390597 ], [ -92.814424607968704, 46.987921457019297 ] ] } },
{ "type": "Feature", "properties": { "wmUplineSo": "GOWAN", "wmType": "Underground" }, "geometry": { "type": "LineString", "coordinates": [ [ -92.785113366171799, 47.0061095658562 ], [ -92.784843984677906, 47.006203360865797 ], [ -92.784618497230795, 47.006189906181802 ] ] } },
{ "type": "Feature", "properties": { "wmUplineSo": "GOWAN", "wmType": "Underground" }, "geometry": { "type": "LineString", "coordinates": [ [ -92.773096009344499, 46.998356723938599 ], [ -92.771498557220994, 46.998580342227498 ], [ -92.770308975771997, 46.998619131722201 ], [ -92.7697498568659, 46.998791645907502 ], [ -92.768384914162993, 46.998554594687498 ] ] } },
{ "type": "Feature", "properties": { "wmUplineSo": "GOWAN", "wmType": "Underground" }, "geometry": { "type": "LineString", "coordinates": [ [ -92.861648623849106, 46.875733157259198 ], [ -92.861815455220295, 46.875805109233397 ], [ -92.861710436036105, 46.877060709172298 ], [ -92.861124101476307, 46.8775892530509 ], [ -92.860882004587495, 46.877791866229998 ] ] } },
{ "type": "Feature", "properties": { "wmUplineSo": "GOWAN", "wmType": "Underground" }, "geometry": { "type": "LineString", "coordinates": [ [ -92.860882004587495, 46.877791866229998 ], [ -92.860630371418495, 46.877754702300997 ] ] } },
{ "type": "Feature", "properties": { "wmUplineSo": "GOWAN", "wmType": "Underground" }, "geometry": { "type": "LineString", "coordinates": [ [ -92.860882004587495, 46.877791866229998 ], [ -92.861663820181107, 46.879799307582701 ] ] } },
{ "type": "Feature", "properties": { "wmUplineSo": "GOWAN", "wmType": "Underground" }, "geometry": { "type": "LineString", "coordinates": [ [ -92.876507122871899, 46.880286660668702 ], [ -92.875588697459804, 46.880277023751901 ] ] } },
{ "type": "Feature", "properties": { "wmUplineSo": "GOWAN", "wmType": "Underground" }, "geometry": { "type": "LineString", "coordinates": [ [ -92.773954039989306, 46.997447232167701 ], [ -92.773807271656395, 46.997446722606703 ], [ -92.7732624525121, 46.996720712900803 ], [ -92.772545330583199, 46.996573458728903 ] ] } },
{ "type": "Feature", "properties": { "wmUplineSo": "GOWAN", "wmType": "Underground" }, "geometry": { "type": "LineString", "coordinates": [ [ -92.896994520678305, 46.903323264244797 ], [ -92.896679055102396, 46.902677215659203 ] ] } },
{ "type": "Feature", "properties": { "wmUplineSo": "GOWAN", "wmType": "Underground" }, "geometry": { "type": "LineString", "coordinates": [ [ -92.753680206545098, 46.955043613676402 ], [ -92.753742239667801, 46.955411713603297 ] ] } },
{ "type": "Feature", "properties": { "wmUplineSo": "GOWAN", "wmType": "Underground" }, "geometry": { "type": "LineString", "coordinates": [ [ -92.869457127626404, 46.945372341955697 ], [ -92.869570062497203, 46.945378266079501 ], [ -92.869688197393899, 46.945516547467797 ], [ -92.870057353493806, 46.945693529865899 ], [ -92.870498584185995, 46.945770206754197 ], [ -92.870607731747995, 46.945920280631 ], [ -92.870693998510305, 46.945945113941399 ] ] } },
{ "type": "Feature", "properties": { "wmUplineSo": "GOWAN", "wmType": "Underground" }, "geometry": { "type": "LineString", "coordinates": [ [ -92.869102161469996, 46.945367275631398 ], [ -92.869457127626404, 46.945372341955697 ] ] } },
{ "type": "Feature", "properties": { "wmUplineSo": "GOWAN", "wmType": "Underground" }, "geometry": { "type": "LineString", "coordinates": [ [ -93.038497383550904, 46.889170904094101 ], [ -93.038497557293496, 46.889133945209203 ] ] } },
{ "type": "Feature", "properties": { "wmUplineSo": "GOWAN", "wmType": "Underground" }, "geometry": { "type": "LineString", "coordinates": [ [ -92.953240703014501, 46.888177986734398 ], [ -92.953262330767402, 46.8872684632369 ] ] } },
{ "type": "Feature", "properties": { "wmUplineSo": "GOWAN", "wmType": "Underground" }, "geometry": { "type": "LineString", "coordinates": [ [ -92.753512512764004, 46.954605628835097 ], [ -92.753624935749102, 46.954904982825497 ] ] } },
{ "type": "Feature", "properties": { "wmUplineSo": "GOWAN", "wmType": "Underground" }, "geometry": { "type": "LineString", "coordinates": [ [ -92.974732314200395, 46.888621827934102 ], [ -92.974748312489396, 46.887745857369602 ] ] } },
{ "type": "Feature", "properties": { "wmUplineSo": "GOWAN", "wmType": "Underground" }, "geometry": { "type": "LineString", "coordinates": [ [ -92.753742239667801, 46.955411713603297 ], [ -92.753734414015597, 46.955439411310401 ] ] } },
{ "type": "Feature", "properties": { "wmUplineSo": "GOWAN", "wmType": "Underground" }, "geometry": { "type": "LineString", "coordinates": [ [ -92.869195529765605, 46.947155085417101 ], [ -92.868021188414701, 46.9466998841623 ] ] } },
{ "type": "Feature", "properties": { "wmUplineSo": "GOWAN", "wmType": "Underground" }, "geometry": { "type": "LineString", "coordinates": [ [ -92.753624935749102, 46.954904982825497 ], [ -92.753680206545098, 46.955043613676402 ] ] } },
{ "type": "Feature", "properties": { "wmUplineSo": "GOWAN", "wmType": "Underground" }, "geometry": { "type": "LineString", "coordinates": [ [ -93.038497557293496, 46.889133945209203 ], [ -93.038501491659403, 46.8882970059787 ] ] } },
{ "type": "Feature", "properties": { "wmUplineSo": "GOWAN", "wmType": "Underground" }, "geometry": { "type": "LineString", "coordinates": [ [ -92.806498246413199, 46.937853678528001 ], [ -92.806762654617799, 46.937805024914198 ] ] } },
{ "type": "Feature", "properties": { "wmUplineSo": "GOWAN", "wmType": "Underground" }, "geometry": { "type": "LineString", "coordinates": [ [ -92.806762654617799, 46.937805024914198 ], [ -92.806768654626396, 46.937793024915401 ] ] } },
{ "type": "Feature", "properties": { "wmUplineSo": "GOWAN", "wmType": "Underground" }, "geometry": { "type": "LineString", "coordinates": [ [ -92.848221548935697, 46.861046003451001 ], [ -92.848479442696004, 46.861042004322798 ] ] } },
{ "type": "Feature", "properties": { "wmUplineSo": "GOWAN", "wmType": "Underground" }, "geometry": { "type": "LineString", "coordinates": [ [ -92.848479442696004, 46.861042004322798 ], [ -92.848482497008007, 46.861066018984303 ] ] } },
{ "type": "Feature", "properties": { "wmUplineSo": "GOWAN", "wmType": "Underground" }, "geometry": { "type": "LineString", "coordinates": [ [ -92.868681058076604, 46.952482523756899 ], [ -92.867869747669602, 46.952575676367402 ] ] } },
{ "type": "Feature", "properties": { "wmUplineSo": "GOWAN", "wmType": "Underground" }, "geometry": { "type": "LineString", "coordinates": [ [ -92.745177851454997, 46.946492593185901 ], [ -92.745293249245705, 46.946357677943297 ] ] } },
{ "type": "Feature", "properties": { "wmUplineSo": "GOWAN", "wmType": "Underground" }, "geometry": { "type": "LineString", "coordinates": [ [ -92.745293249245705, 46.946357677943297 ], [ -92.745341812351398, 46.946345909793699 ] ] } },
{ "type": "Feature", "properties": { "wmUplineSo": "GOWAN", "wmType": "Underground" }, "geometry": { "type": "LineString", "coordinates": [ [ -92.745293249245705, 46.946357677943297 ], [ -92.745379212360504, 46.946382109800503 ] ] } },
{ "type": "Feature", "properties": { "wmUplineSo": "GOWAN", "wmType": "Underground" }, "geometry": { "type": "LineString", "coordinates": [ [ -92.827415534319599, 46.971308437008297 ], [ -92.827344684828503, 46.971131146488503 ], [ -92.827275655261104, 46.970964376542703 ], [ -92.827143970968095, 46.9708117976271 ], [ -92.827015556244007, 46.970695950472503 ], [ -92.826823553776904, 46.970625668968502 ] ] } },
{ "type": "Feature", "properties": { "wmUplineSo": "GOWAN", "wmType": "Underground" }, "geometry": { "type": "LineString", "coordinates": [ [ -92.9423871900688, 46.922797250316201 ], [ -92.943824988634603, 46.922562999897799 ] ] } },
{ "type": "Feature", "properties": { "wmUplineSo": "GOWAN", "wmType": "Underground" }, "geometry": { "type": "LineString", "coordinates": [ [ -92.943824988634603, 46.922562999897799 ], [ -92.943829150102303, 46.9225799998935 ] ] } },
{ "type": "Feature", "properties": { "wmUplineSo": "GOWAN", "wmType": "Underground" }, "geometry": { "type": "LineString", "coordinates": [ [ -92.869165846814397, 46.9524173319464 ], [ -92.869139719605499, 46.952422893868501 ] ] } },
{ "type": "Feature", "properties": { "wmUplineSo": "GOWAN", "wmType": "Underground" }, "geometry": { "type": "LineString", "coordinates": [ [ -92.848216062180995, 46.862193927594802 ], [ -92.848462826595707, 46.862118991800102 ] ] } },
{ "type": "Feature", "properties": { "wmUplineSo": "GOWAN", "wmType": "Underground" }, "geometry": { "type": "LineString", "coordinates": [ [ -92.848462826595707, 46.862118991800102 ], [ -92.848934, 46.862127 ] ] } },
{ "type": "Feature", "properties": { "wmUplineSo": "GOWAN", "wmType": "Underground" }, "geometry": { "type": "LineString", "coordinates": [ [ -92.848934, 46.862127 ], [ -92.849816, 46.862155000000101 ] ] } },
{ "type": "Feature", "properties": { "wmUplineSo": "GOWAN", "wmType": "Underground" }, "geometry": { "type": "LineString", "coordinates": [ [ -92.849816, 46.862155000000101 ], [ -92.850727, 46.862213 ] ] } },
{ "type": "Feature", "properties": { "wmUplineSo": "GOWAN", "wmType": "Underground" }, "geometry": { "type": "LineString", "coordinates": [ [ -92.850727, 46.862213 ], [ -92.850997, 46.862111999999897 ] ] } },
{ "type": "Feature", "properties": { "wmUplineSo": "GOWAN", "wmType": "Underground" }, "geometry": { "type": "LineString", "coordinates": [ [ -92.850997, 46.862111999999897 ], [ -92.851099, 46.862185 ] ] } },
{ "type": "Feature", "properties": { "wmUplineSo": "GOWAN", "wmType": "Underground" }, "geometry": { "type": "LineString", "coordinates": [ [ -92.743539160218404, 46.948988958613697 ], [ -92.743700140336699, 46.948986935200899 ] ] } },
{ "type": "Feature", "properties": { "wmUplineSo": "GOWAN", "wmType": "Underground" }, "geometry": { "type": "LineString", "coordinates": [ [ -92.743700140336699, 46.948986935200899 ], [ -92.743978573560597, 46.949019379396397 ] ] } },
{ "type": "Feature", "properties": { "wmUplineSo": "GOWAN", "wmType": "Underground" }, "geometry": { "type": "LineString", "coordinates": [ [ -92.869166537887494, 46.952611243575902 ], [ -92.869165846814397, 46.9524173319464 ] ] } },
{ "type": "Feature", "properties": { "wmUplineSo": "GOWAN", "wmType": "Underground" }, "geometry": { "type": "LineString", "coordinates": [ [ -92.869165846814397, 46.9524173319464 ], [ -92.868681058076604, 46.952482523756899 ] ] } },
{ "type": "Feature", "properties": { "wmUplineSo": "GOWAN", "wmType": "Underground" }, "geometry": { "type": "LineString", "coordinates": [ [ -92.873478917462293, 46.880074261664703 ], [ -92.8734459, 46.880144400008597 ] ] } },
{ "type": "Feature", "properties": { "wmUplineSo": "GOWAN", "wmType": "Underground" }, "geometry": { "type": "LineString", "coordinates": [ [ -92.873478917462293, 46.880074261664703 ], [ -92.8734967, 46.8801654000086 ] ] } },
{ "type": "Feature", "properties": { "wmUplineSo": "GOWAN", "wmType": "Underground" }, "geometry": { "type": "LineString", "coordinates": [ [ -92.743978573560597, 46.949019379396397 ], [ -92.744038648547999, 46.949031617969801 ] ] } },
{ "type": "Feature", "properties": { "wmUplineSo": "GOWAN", "wmType": "Underground" }, "geometry": { "type": "LineString", "coordinates": [ [ -92.768384914162993, 46.998554594687498 ], [ -92.7690485, 46.998703300008799 ] ] } },
{ "type": "Feature", "properties": { "wmUplineSo": "GOWAN", "wmType": "Underground" }, "geometry": { "type": "LineString", "coordinates": [ [ -92.812889460040594, 46.979042590890003 ], [ -92.8127606, 46.979026000008702 ] ] } },
{ "type": "Feature", "properties": { "wmUplineSo": "GOWAN", "wmType": "Underground" }, "geometry": { "type": "LineString", "coordinates": [ [ -92.876507122871899, 46.880286660668702 ], [ -92.8766042, 46.8803928000086 ] ] } },
{ "type": "Feature", "properties": { "wmUplineSo": "GOWAN", "wmType": "Underground" }, "geometry": { "type": "LineString", "coordinates": [ [ -92.885396359608094, 46.879502009011503 ], [ -92.886092, 46.879274300008603 ] ] } },
{ "type": "Feature", "properties": { "wmUplineSo": "GOWAN", "wmType": "Underground" }, "geometry": { "type": "LineString", "coordinates": [ [ -92.936031450082197, 46.894820999957403 ], [ -92.936488092838204, 46.8946649252279 ] ] } },
{ "type": "Feature", "properties": { "wmUplineSo": "GOWAN", "wmType": "Underground" }, "geometry": { "type": "LineString", "coordinates": [ [ -92.909947895004194, 46.916286234938099 ], [ -92.9099597, 46.9162474000087 ] ] } },
{ "type": "Feature", "properties": { "wmUplineSo": "GOWAN", "wmType": "Underground" }, "geometry": { "type": "LineString", "coordinates": [ [ -92.930337727649103, 46.912048250635699 ], [ -92.9303596, 46.9121383000086 ] ] } },
{ "type": "Feature", "properties": { "wmUplineSo": "GOWAN", "wmType": "Underground" }, "geometry": { "type": "LineString", "coordinates": [ [ -92.9328539044742, 46.9118697987426 ], [ -92.9328923, 46.912033900008701 ] ] } },
{ "type": "Feature", "properties": { "wmUplineSo": "GOWAN", "wmType": "Underground" }, "geometry": { "type": "LineString", "coordinates": [ [ -92.894800895877296, 46.941679609567402 ], [ -92.8950656, 46.941682500008703 ] ] } },
{ "type": "Feature", "properties": { "wmUplineSo": "GOWAN", "wmType": "Underground" }, "geometry": { "type": "LineString", "coordinates": [ [ -92.8874971719287, 46.949504656410603 ], [ -92.8878321, 46.949217800008697 ] ] } },
{ "type": "Feature", "properties": { "wmUplineSo": "GOWAN", "wmType": "Underground" }, "geometry": { "type": "LineString", "coordinates": [ [ -92.875246635827807, 46.939614803536301 ], [ -92.8756765, 46.939876900008699 ] ] } },
{ "type": "Feature", "properties": { "wmUplineSo": "GOWAN", "wmType": "Underground" }, "geometry": { "type": "LineString", "coordinates": [ [ -92.868744540962396, 46.932082315084202 ], [ -92.8686991, 46.931897400008701 ] ] } },
{ "type": "Feature", "properties": { "wmUplineSo": "GOWAN", "wmType": "Underground" }, "geometry": { "type": "LineString", "coordinates": [ [ -92.839934048556202, 46.961155180044599 ], [ -92.8399374, 46.960919200008703 ] ] } },
{ "type": "Feature", "properties": { "wmUplineSo": "GOWAN", "wmType": "Underground" }, "geometry": { "type": "LineString", "coordinates": [ [ -92.843540432665606, 46.960807862099401 ], [ -92.8434258, 46.9605766000087 ] ] } },
{ "type": "Feature", "properties": { "wmUplineSo": "GOWAN", "wmType": "Underground" }, "geometry": { "type": "LineString", "coordinates": [ [ -92.788804447833996, 46.967648233031298 ], [ -92.7891403, 46.968151100008697 ] ] } },
{ "type": "Feature", "properties": { "wmUplineSo": "GOWAN", "wmType": "Underground" }, "geometry": { "type": "LineString", "coordinates": [ [ -92.850418588662293, 46.878150460280899 ], [ -92.8506134, 46.878271100008597 ] ] } },
{ "type": "Feature", "properties": { "wmUplineSo": "GOWAN", "wmType": "Underground" }, "geometry": { "type": "LineString", "coordinates": [ [ -92.804705962178602, 46.964668500813403 ], [ -92.804736012601794, 46.964556711370797 ] ] } },
{ "type": "Feature", "properties": { "wmUplineSo": "GOWAN", "wmType": "Underground" }, "geometry": { "type": "LineString", "coordinates": [ [ -92.785811904632894, 47.0120799172525 ], [ -92.7859513, 47.012262400008801 ] ] } },
{ "type": "Feature", "properties": { "wmUplineSo": "GOWAN", "wmType": "Underground" }, "geometry": { "type": "LineString", "coordinates": [ [ -92.916968863212205, 46.917600647083503 ], [ -92.9169161, 46.917553100008597 ] ] } },
{ "type": "Feature", "properties": { "wmUplineSo": "GOWAN", "wmType": "Underground" }, "geometry": { "type": "LineString", "coordinates": [ [ -92.974839024162804, 46.8631007219211 ], [ -92.9720672, 46.862564400008601 ] ] } },
{ "type": "Feature", "properties": { "wmUplineSo": "GOWAN", "wmType": "Underground" }, "geometry": { "type": "LineString", "coordinates": [ [ -92.974708497479995, 46.859756478479902 ], [ -92.9744376, 46.859701500008597 ] ] } },
{ "type": "Feature", "properties": { "wmUplineSo": "GOWAN", "wmType": "Underground" }, "geometry": { "type": "LineString", "coordinates": [ [ -92.8072805750665, 46.9329001127807 ], [ -92.807358677632095, 46.933064896093903 ] ] } },
{ "type": "Feature", "properties": { "wmUplineSo": "GOWAN", "wmType": "Underground" }, "geometry": { "type": "LineString", "coordinates": [ [ -92.814424607968704, 46.987921457019297 ], [ -92.8144381, 46.987921900008701 ] ] } },
{ "type": "Feature", "properties": { "wmUplineSo": "GOWAN", "wmType": "Underground" }, "geometry": { "type": "LineString", "coordinates": [ [ -92.784618497230795, 47.006189906181802 ], [ -92.78437, 47.0061541000088 ] ] } },
{ "type": "Feature", "properties": { "wmUplineSo": "GOWAN", "wmType": "Underground" }, "geometry": { "type": "LineString", "coordinates": [ [ -92.861663820181107, 46.879799307582701 ], [ -92.8615916, 46.879923100008597 ] ] } },
{ "type": "Feature", "properties": { "wmUplineSo": "GOWAN", "wmType": "Underground" }, "geometry": { "type": "LineString", "coordinates": [ [ -92.860630371418495, 46.877754702300997 ], [ -92.8603841, 46.877745300008598 ] ] } },
{ "type": "Feature", "properties": { "wmUplineSo": "GOWAN", "wmType": "Underground" }, "geometry": { "type": "LineString", "coordinates": [ [ -92.860630371418495, 46.877754702300997 ], [ -92.8603718, 46.877753000008603 ] ] } },
{ "type": "Feature", "properties": { "wmUplineSo": "GOWAN", "wmType": "Underground" }, "geometry": { "type": "LineString", "coordinates": [ [ -92.795949999898198, 46.968361026932499 ], [ -92.796001129682907, 46.968693047698203 ], [ -92.796081687214098, 46.968801176954003 ], [ -92.7961552, 46.968760700008701 ] ] } },
{ "type": "Feature", "properties": { "wmUplineSo": "GOWAN", "wmType": "Underground" }, "geometry": { "type": "LineString", "coordinates": [ [ -92.9535420156284, 46.866050291288303 ], [ -92.9539869, 46.866166400008602 ] ] } },
{ "type": "Feature", "properties": { "wmUplineSo": "GOWAN", "wmType": "Underground" }, "geometry": { "type": "LineString", "coordinates": [ [ -92.772545330583199, 46.996573458728903 ], [ -92.7723955, 46.9967218000088 ] ] } },
{ "type": "Feature", "properties": { "wmUplineSo": "GOWAN", "wmType": "Underground" }, "geometry": { "type": "LineString", "coordinates": [ [ -92.896679055102396, 46.902677215659203 ], [ -92.8963488, 46.902649100008603 ] ] } },
{ "type": "Feature", "properties": { "wmUplineSo": "GOWAN", "wmType": "Underground" }, "geometry": { "type": "LineString", "coordinates": [ [ -92.875588697459804, 46.880277023751901 ], [ -92.875441449209205, 46.880592108819201 ] ] } },
{ "type": "Feature", "properties": { "wmUplineSo": "GOWAN", "wmType": "Underground" }, "geometry": { "type": "LineString", "coordinates": [ [ -92.870693998510305, 46.945945113941399 ], [ -92.8705124, 46.945971300008701 ] ] } },
{ "type": "Feature", "properties": { "wmUplineSo": "GOWAN", "wmType": "Underground" }, "geometry": { "type": "LineString", "coordinates": [ [ -92.744038648547999, 46.949031617969801 ], [ -92.7440579904966, 46.9490440600323 ] ] } },
{ "type": "Feature", "properties": { "wmUplineSo": "GOWAN", "wmType": "Underground" }, "geometry": { "type": "LineString", "coordinates": [ [ -92.890286730786499, 46.949362736566897 ], [ -92.890283727151498, 46.949346957109498 ] ] } },
{ "type": "Feature", "properties": { "wmUplineSo": "GOWAN", "wmType": "Underground" }, "geometry": { "type": "LineString", "coordinates": [ [ -92.890285744959201, 46.949615535561499 ], [ -92.890286730786499, 46.949362736566897 ] ] } }
]
}
