{
"type": "FeatureCollection",
"crs": { "type": "name", "properties": { "name": "urn:ogc:def:crs:OGC:1.3:CRS84" } },
"features": [
{ "type": "Feature", "properties": { "wmUplineSo": "GOWAN", "wmType": "Underground" }, "geometry": { "type": "LineString", "coordinates": [ [ -92.813875531302301, 46.851872894537301 ], [ -92.814113633794506, 46.851701863266499 ] ] } },
{ "type": "Feature", "properties": { "wmUplineSo": "GOWAN", "wmType": "Underground" }, "geometry": { "type": "LineString", "coordinates": [ [ -92.814113633794506, 46.851701863266499 ], [ -92.814178767436204, 46.851446109453398 ] ] } },
{ "type": "Feature", "properties": { "wmUplineSo": "GOWAN", "wmType": "Underground" }, "geometry": { "type": "LineString", "coordinates": [ [ -92.807556082024007, 46.853045747432603 ], [ -92.808514884662799, 46.853299932949803 ], [ -92.811793347634094, 46.8533289410531 ], [ -92.812016307349197, 46.853426938313198 ] ] } },
{ "type": "Feature", "properties": { "wmUplineSo": "GOWAN", "wmType": "Underground" }, "geometry": { "type": "LineString", "coordinates": [ [ -92.807537877433106, 46.852544653586001 ], [ -92.807556082024007, 46.853045747432603 ] ] } },
{ "type": "Feature", "properties": { "wmUplineSo": "GOWAN", "wmType": "Underground" }, "geometry": { "type": "LineString", "coordinates": [ [ -92.827309994603993, 46.852809924301802 ], [ -92.827361522446296, 46.857116434291598 ], [ -92.8244678715634, 46.856961700767201 ], [ -92.822661082616605, 46.8570464875501 ], [ -92.821132136290601, 46.857122783773001 ], [ -92.819530981491596, 46.857305286800504 ], [ -92.818170462034303, 46.857574069798801 ], [ -92.816947442866393, 46.857892153191003 ], [ -92.815078825426397, 46.858345025673202 ], [ -92.813749174633699, 46.8587569688016 ], [ -92.812467133507099, 46.859336122978299 ], [ -92.811238681282305, 46.8598564195837 ], [ -92.811257028788901, 46.859945635956798 ], [ -92.811257028788901, 46.859945635956798 ] ] } },
{ "type": "Feature", "properties": { "wmUplineSo": "GOWAN", "wmType": "Underground" }, "geometry": { "type": "LineString", "coordinates": [ [ -92.746216871378905, 46.868015204289698 ], [ -92.746221045537595, 46.867613987907198 ] ] } },
{ "type": "Feature", "properties": { "wmUplineSo": "GOWAN", "wmType": "Underground" }, "geometry": { "type": "LineString", "coordinates": [ [ -92.746216871378905, 46.868015204289698 ], [ -92.743290820758901, 46.868283747992798 ] ] } },
{ "type": "Feature", "properties": { "wmUplineSo": "GOWAN", "wmType": "Underground" }, "geometry": { "type": "LineString", "coordinates": [ [ -92.764480707538397, 46.864302431811403 ], [ -92.764203250761994, 46.864124719033597 ] ] } },
{ "type": "Feature", "properties": { "wmUplineSo": "GOWAN", "wmType": "Underground" }, "geometry": { "type": "LineString", "coordinates": [ [ -92.764514922323897, 46.864586374265897 ], [ -92.764480707538397, 46.864302431811403 ] ] } },
{ "type": "Feature", "properties": { "wmUplineSo": "GOWAN", "wmType": "Underground" }, "geometry": { "type": "LineString", "coordinates": [ [ -92.755389931640494, 46.8677901407248 ], [ -92.754803136482806, 46.867762031082101 ] ] } },
{ "type": "Feature", "properties": { "wmUplineSo": "GOWAN", "wmType": "Underground" }, "geometry": { "type": "LineString", "coordinates": [ [ -92.753115539416001, 46.867811845076403 ], [ -92.746216871378905, 46.868015204289698 ] ] } },
{ "type": "Feature", "properties": { "wmUplineSo": "GOWAN", "wmType": "Underground" }, "geometry": { "type": "LineString", "coordinates": [ [ -92.785044999501906, 46.867671704391299 ], [ -92.7834135572691, 46.868276408461497 ] ] } },
{ "type": "Feature", "properties": { "wmUplineSo": "GOWAN", "wmType": "Underground" }, "geometry": { "type": "LineString", "coordinates": [ [ -92.786194939086798, 46.8662143766431 ], [ -92.786896117655502, 46.866200528032003 ] ] } },
{ "type": "Feature", "properties": { "wmUplineSo": "GOWAN", "wmType": "Underground" }, "geometry": { "type": "LineString", "coordinates": [ [ -92.785870105881898, 46.864728925106 ], [ -92.785799215436796, 46.862555462629999 ], [ -92.786222530993797, 46.8622112751233 ] ] } },
{ "type": "Feature", "properties": { "wmUplineSo": "GOWAN", "wmType": "Underground" }, "geometry": { "type": "LineString", "coordinates": [ [ -92.785862044039405, 46.866232502043701 ], [ -92.786194939086798, 46.8662143766431 ] ] } },
{ "type": "Feature", "properties": { "wmUplineSo": "GOWAN", "wmType": "Underground" }, "geometry": { "type": "LineString", "coordinates": [ [ -92.772210829770501, 46.8484854807663 ], [ -92.774363306211697, 46.848639382387802 ], [ -92.774823252156594, 46.848450248172703 ], [ -92.774984038016996, 46.848286540339899 ], [ -92.776282438461607, 46.848278588362902 ] ] } },
{ "type": "Feature", "properties": { "wmUplineSo": "GOWAN", "wmType": "Underground" }, "geometry": { "type": "LineString", "coordinates": [ [ -92.771307563322395, 46.848512019522197 ], [ -92.772210829770501, 46.8484854807663 ] ] } },
{ "type": "Feature", "properties": { "wmUplineSo": "GOWAN", "wmType": "Underground" }, "geometry": { "type": "LineString", "coordinates": [ [ -92.786050907574804, 46.8534781310291 ], [ -92.785799582217194, 46.855064137176903 ], [ -92.786301906501606, 46.855201154330103 ] ] } },
{ "type": "Feature", "properties": { "wmUplineSo": "GOWAN", "wmType": "Underground" }, "geometry": { "type": "LineString", "coordinates": [ [ -92.766151290597094, 46.858290790090301 ], [ -92.766689869724004, 46.858407467511199 ] ] } },
{ "type": "Feature", "properties": { "wmUplineSo": "GOWAN", "wmType": "Underground" }, "geometry": { "type": "LineString", "coordinates": [ [ -92.765731326645493, 46.8583587798568 ], [ -92.766151290597094, 46.858290790090301 ] ] } },
{ "type": "Feature", "properties": { "wmUplineSo": "GOWAN", "wmType": "Underground" }, "geometry": { "type": "LineString", "coordinates": [ [ -92.842350647556103, 46.859643480031799 ], [ -92.843079110664604, 46.858928662508099 ] ] } },
{ "type": "Feature", "properties": { "wmUplineSo": "GOWAN", "wmType": "Underground" }, "geometry": { "type": "LineString", "coordinates": [ [ -92.840041609908099, 46.859397371597701 ], [ -92.840842110289699, 46.858884216991598 ] ] } },
{ "type": "Feature", "properties": { "wmUplineSo": "GOWAN", "wmType": "Underground" }, "geometry": { "type": "LineString", "coordinates": [ [ -92.842863466941694, 46.859828024400102 ], [ -92.842350647556103, 46.859643480031799 ] ] } },
{ "type": "Feature", "properties": { "wmUplineSo": "GOWAN", "wmType": "Underground" }, "geometry": { "type": "LineString", "coordinates": [ [ -92.786238496812103, 46.843673106820297 ], [ -92.786304248105594, 46.842399775723401 ] ] } },
{ "type": "Feature", "properties": { "wmUplineSo": "GOWAN", "wmType": "Underground" }, "geometry": { "type": "LineString", "coordinates": [ [ -92.786238496812103, 46.843673106820297 ], [ -92.787793429839496, 46.843101125415302 ] ] } },
{ "type": "Feature", "properties": { "wmUplineSo": "GOWAN", "wmType": "Underground" }, "geometry": { "type": "LineString", "coordinates": [ [ -92.807260319412507, 46.852101141590403 ], [ -92.807537877433106, 46.852544653586001 ] ] } },
{ "type": "Feature", "properties": { "wmUplineSo": "GOWAN", "wmType": "Underground" }, "geometry": { "type": "LineString", "coordinates": [ [ -92.807892130015205, 46.853408477918201 ], [ -92.808409496011805, 46.854655487098 ], [ -92.808397095235193, 46.856157613514 ] ] } },
{ "type": "Feature", "properties": { "wmUplineSo": "GOWAN", "wmType": "Underground" }, "geometry": { "type": "LineString", "coordinates": [ [ -92.807556082024007, 46.853045747432603 ], [ -92.807892130015205, 46.853408477918201 ] ] } },
{ "type": "Feature", "properties": { "wmUplineSo": "GOWAN", "wmType": "Underground" }, "geometry": { "type": "LineString", "coordinates": [ [ -92.827309994603993, 46.852809924301802 ], [ -92.827018056763393, 46.852829989179902 ] ] } },
{ "type": "Feature", "properties": { "wmUplineSo": "GOWAN", "wmType": "Underground" }, "geometry": { "type": "LineString", "coordinates": [ [ -92.830481921860098, 46.853597749600702 ], [ -92.830607455366803, 46.853752347557503 ], [ -92.827309994603993, 46.852809924301802 ] ] } },
{ "type": "Feature", "properties": { "wmUplineSo": "GOWAN", "wmType": "Underground" }, "geometry": { "type": "LineString", "coordinates": [ [ -92.831178710978506, 46.853369410984698 ], [ -92.830481921860098, 46.853597749600702 ] ] } },
{ "type": "Feature", "properties": { "wmUplineSo": "GOWAN", "wmType": "Underground" }, "geometry": { "type": "LineString", "coordinates": [ [ -92.840362216031906, 46.859459820968802 ], [ -92.840041609908099, 46.859397371597701 ] ] } },
{ "type": "Feature", "properties": { "wmUplineSo": "GOWAN", "wmType": "Underground" }, "geometry": { "type": "LineString", "coordinates": [ [ -92.786304248105594, 46.842399775723401 ], [ -92.786389711095893, 46.841159579962103 ], [ -92.786508519463297, 46.8401663582993 ], [ -92.789172617071301, 46.827993713508597 ] ] } },
{ "type": "Feature", "properties": { "wmUplineSo": "GOWAN", "wmType": "Underground" }, "geometry": { "type": "LineString", "coordinates": [ [ -92.789172617071301, 46.827993713508597 ], [ -92.789237237696199, 46.8278260018729 ], [ -92.789413162897205, 46.827210328385704 ] ] } },
{ "type": "Feature", "properties": { "wmUplineSo": "GOWAN", "wmType": "Underground" }, "geometry": { "type": "LineString", "coordinates": [ [ -92.754803136482806, 46.867762031082101 ], [ -92.753115539416001, 46.867811845076403 ] ] } },
{ "type": "Feature", "properties": { "wmUplineSo": "GOWAN", "wmType": "Underground" }, "geometry": { "type": "LineString", "coordinates": [ [ -92.753115539416001, 46.867811845076403 ], [ -92.753082306115104, 46.868286621758699 ], [ -92.753307295274595, 46.868624297025903 ] ] } },
{ "type": "Feature", "properties": { "wmUplineSo": "GOWAN", "wmType": "Underground" }, "geometry": { "type": "LineString", "coordinates": [ [ -92.746216871378905, 46.868015204289698 ], [ -92.746334902541804, 46.868491563212999 ], [ -92.746529688453407, 46.869216108174797 ], [ -92.746451794074005, 46.869701342792901 ], [ -92.746488631643302, 46.869922846040403 ] ] } },
{ "type": "Feature", "properties": { "wmUplineSo": "GOWAN", "wmType": "Underground" }, "geometry": { "type": "LineString", "coordinates": [ [ -92.814178767436204, 46.851446109453398 ], [ -92.814243644007306, 46.851416716844298 ] ] } },
{ "type": "Feature", "properties": { "wmUplineSo": "GOWAN", "wmType": "Underground" }, "geometry": { "type": "LineString", "coordinates": [ [ -92.814243644007306, 46.851416716844298 ], [ -92.814274599446193, 46.851405412062697 ] ] } },
{ "type": "Feature", "properties": { "wmUplineSo": "GOWAN", "wmType": "Underground" }, "geometry": { "type": "LineString", "coordinates": [ [ -92.767143985652794, 46.872869258442499 ], [ -92.767196131706001, 46.8732023419822 ] ] } },
{ "type": "Feature", "properties": { "wmUplineSo": "GOWAN", "wmType": "Underground" }, "geometry": { "type": "LineString", "coordinates": [ [ -92.809263678191996, 46.852001596319496 ], [ -92.809180685659399, 46.851767716338102 ] ] } },
{ "type": "Feature", "properties": { "wmUplineSo": "GOWAN", "wmType": "Underground" }, "geometry": { "type": "LineString", "coordinates": [ [ -92.809127487667595, 46.852109984591301 ], [ -92.809230618629798, 46.852063307430299 ] ] } },
{ "type": "Feature", "properties": { "wmUplineSo": "GOWAN", "wmType": "Underground" }, "geometry": { "type": "LineString", "coordinates": [ [ -92.809230618629798, 46.852063307430299 ], [ -92.809263678191996, 46.852001596319496 ] ] } },
{ "type": "Feature", "properties": { "wmUplineSo": "GOWAN", "wmType": "Underground" }, "geometry": { "type": "LineString", "coordinates": [ [ -92.813667735675594, 46.852084451973198 ], [ -92.813916843644407, 46.852086621764798 ] ] } },
{ "type": "Feature", "properties": { "wmUplineSo": "GOWAN", "wmType": "Underground" }, "geometry": { "type": "LineString", "coordinates": [ [ -92.836946619222104, 46.857085787531297 ], [ -92.8368371418956, 46.8572131118652 ] ] } },
{ "type": "Feature", "properties": { "wmUplineSo": "GOWAN", "wmType": "Underground" }, "geometry": { "type": "LineString", "coordinates": [ [ -92.8368371418956, 46.8572131118652 ], [ -92.836553309548194, 46.857468462651902 ] ] } },
{ "type": "Feature", "properties": { "wmUplineSo": "GOWAN", "wmType": "Underground" }, "geometry": { "type": "LineString", "coordinates": [ [ -92.836553309548194, 46.857468462651902 ], [ -92.836398978127207, 46.857621206229297 ] ] } },
{ "type": "Feature", "properties": { "wmUplineSo": "GOWAN", "wmType": "Underground" }, "geometry": { "type": "LineString", "coordinates": [ [ -92.836398978127207, 46.857621206229297 ], [ -92.836366743873199, 46.857633098179598 ] ] } },
{ "type": "Feature", "properties": { "wmUplineSo": "GOWAN", "wmType": "Underground" }, "geometry": { "type": "LineString", "coordinates": [ [ -92.813916843644407, 46.852086621764798 ], [ -92.813938849576502, 46.851995459659598 ] ] } },
{ "type": "Feature", "properties": { "wmUplineSo": "GOWAN", "wmType": "Underground" }, "geometry": { "type": "LineString", "coordinates": [ [ -92.766689869724004, 46.858407467511199 ], [ -92.7669851, 46.858542100008599 ] ] } },
{ "type": "Feature", "properties": { "wmUplineSo": "GOWAN", "wmType": "Underground" }, "geometry": { "type": "LineString", "coordinates": [ [ -92.746221045537595, 46.867613987907198 ], [ -92.7456874, 46.867659100008602 ] ] } },
{ "type": "Feature", "properties": { "wmUplineSo": "GOWAN", "wmType": "Underground" }, "geometry": { "type": "LineString", "coordinates": [ [ -92.743290820758901, 46.868283747992798 ], [ -92.7431375, 46.868261300008598 ] ] } },
{ "type": "Feature", "properties": { "wmUplineSo": "GOWAN", "wmType": "Underground" }, "geometry": { "type": "LineString", "coordinates": [ [ -92.786301906501606, 46.855201154330103 ], [ -92.7864326, 46.855222500008601 ] ] } },
{ "type": "Feature", "properties": { "wmUplineSo": "GOWAN", "wmType": "Underground" }, "geometry": { "type": "LineString", "coordinates": [ [ -92.787793429839496, 46.843101125415302 ], [ -92.7879849, 46.842855300008601 ] ] } },
{ "type": "Feature", "properties": { "wmUplineSo": "GOWAN", "wmType": "Underground" }, "geometry": { "type": "LineString", "coordinates": [ [ -92.812016307349197, 46.853426938313198 ], [ -92.8122021, 46.852951500008601 ] ] } },
{ "type": "Feature", "properties": { "wmUplineSo": "GOWAN", "wmType": "Underground" }, "geometry": { "type": "LineString", "coordinates": [ [ -92.811257028788901, 46.859945635956798 ], [ -92.8108084, 46.860269500008599 ] ] } },
{ "type": "Feature", "properties": { "wmUplineSo": "GOWAN", "wmType": "Underground" }, "geometry": { "type": "LineString", "coordinates": [ [ -92.786222530993797, 46.8622112751233 ], [ -92.7861146, 46.862315300008603 ] ] } },
{ "type": "Feature", "properties": { "wmUplineSo": "GOWAN", "wmType": "Underground" }, "geometry": { "type": "LineString", "coordinates": [ [ -92.7834135572691, 46.868276408461497 ], [ -92.7839037, 46.868014700008601 ] ] } },
{ "type": "Feature", "properties": { "wmUplineSo": "GOWAN", "wmType": "Underground" }, "geometry": { "type": "LineString", "coordinates": [ [ -92.843079110664604, 46.858928662508099 ], [ -92.8432736, 46.859128900008599 ] ] } },
{ "type": "Feature", "properties": { "wmUplineSo": "GOWAN", "wmType": "Underground" }, "geometry": { "type": "LineString", "coordinates": [ [ -92.840842110289699, 46.858884216991598 ], [ -92.8402966, 46.858874100008599 ] ] } },
{ "type": "Feature", "properties": { "wmUplineSo": "GOWAN", "wmType": "Underground" }, "geometry": { "type": "LineString", "coordinates": [ [ -92.764203250761994, 46.864124719033597 ], [ -92.7636661, 46.863911300008603 ] ] } },
{ "type": "Feature", "properties": { "wmUplineSo": "GOWAN", "wmType": "Underground" }, "geometry": { "type": "LineString", "coordinates": [ [ -92.786896117655502, 46.866200528032003 ], [ -92.786938, 46.8665335000086 ] ] } },
{ "type": "Feature", "properties": { "wmUplineSo": "GOWAN", "wmType": "Underground" }, "geometry": { "type": "LineString", "coordinates": [ [ -92.776282438461607, 46.848278588362902 ], [ -92.7765331, 46.848322900008597 ] ] } },
{ "type": "Feature", "properties": { "wmUplineSo": "GOWAN", "wmType": "Underground" }, "geometry": { "type": "LineString", "coordinates": [ [ -92.808397095235193, 46.856157613514 ], [ -92.808204742877706, 46.8563986712903 ] ] } },
{ "type": "Feature", "properties": { "wmUplineSo": "GOWAN", "wmType": "Underground" }, "geometry": { "type": "LineString", "coordinates": [ [ -92.827018056763393, 46.852829989179902 ], [ -92.8272488, 46.8531588000086 ] ] } },
{ "type": "Feature", "properties": { "wmUplineSo": "GOWAN", "wmType": "Underground" }, "geometry": { "type": "LineString", "coordinates": [ [ -92.789413162897205, 46.827210328385704 ], [ -92.7894236, 46.827175900008498 ] ] } },
{ "type": "Feature", "properties": { "wmUplineSo": "GOWAN", "wmType": "Underground" }, "geometry": { "type": "LineString", "coordinates": [ [ -92.789172617071301, 46.827993713508597 ], [ -92.7893085, 46.828015300008602 ] ] } },
{ "type": "Feature", "properties": { "wmUplineSo": "GOWAN", "wmType": "Underground" }, "geometry": { "type": "LineString", "coordinates": [ [ -92.753307295274595, 46.868624297025903 ], [ -92.7530153, 46.868567400008601 ] ] } },
{ "type": "Feature", "properties": { "wmUplineSo": "GOWAN", "wmType": "Underground" }, "geometry": { "type": "LineString", "coordinates": [ [ -92.746488631643302, 46.869922846040403 ], [ -92.7460063, 46.8698089000086 ] ] } },
{ "type": "Feature", "properties": { "wmUplineSo": "GOWAN", "wmType": "Underground" }, "geometry": { "type": "LineString", "coordinates": [ [ -92.813938849576502, 46.851995459659598 ], [ -92.813875531302301, 46.851872894537301 ] ] } }
]
}
