{
"type": "FeatureCollection",
"crs": { "type": "name", "properties": { "name": "urn:ogc:def:crs:OGC:1.3:CRS84" } },
"features": [
{ "type": "Feature", "properties": { "wmUplineSo": "GRAND LAKE", "wmType": "Underground" }, "geometry": { "type": "LineString", "coordinates": [ [ -92.451575317069299, 46.805189181503401 ], [ -92.451619943382099, 46.805011333731997 ] ] } },
{ "type": "Feature", "properties": { "wmUplineSo": "GRAND LAKE", "wmType": "Underground" }, "geometry": { "type": "LineString", "coordinates": [ [ -92.513751991948496, 46.858478911699599 ], [ -92.513454299999907, 46.858683000008597 ] ] } },
{ "type": "Feature", "properties": { "wmUplineSo": "GRAND LAKE", "wmType": "Underground" }, "geometry": { "type": "LineString", "coordinates": [ [ -92.535859138055699, 46.846529850818101 ], [ -92.5355475, 46.845128800008602 ] ] } },
{ "type": "Feature", "properties": { "wmUplineSo": "GRAND LAKE", "wmType": "Underground" }, "geometry": { "type": "LineString", "coordinates": [ [ -92.4407760055811, 46.807895976897498 ], [ -92.440857799999904, 46.807558100008499 ] ] } },
{ "type": "Feature", "properties": { "wmUplineSo": "GRAND LAKE", "wmType": "Underground" }, "geometry": { "type": "LineString", "coordinates": [ [ -92.438984846658798, 46.807736671621797 ], [ -92.439223099999893, 46.807482800008501 ] ] } },
{ "type": "Feature", "properties": { "wmUplineSo": "GRAND LAKE", "wmType": "Underground" }, "geometry": { "type": "LineString", "coordinates": [ [ -92.426130215377995, 46.807221248396701 ], [ -92.426203599999894, 46.806959600008497 ] ] } },
{ "type": "Feature", "properties": { "wmUplineSo": "GRAND LAKE", "wmType": "Underground" }, "geometry": { "type": "LineString", "coordinates": [ [ -92.442538450575498, 46.809509146991097 ], [ -92.442512599999901, 46.809534600008497 ] ] } },
{ "type": "Feature", "properties": { "wmUplineSo": "GRAND LAKE", "wmType": "Underground" }, "geometry": { "type": "LineString", "coordinates": [ [ -92.425063419232004, 46.808355301505102 ], [ -92.424991799999901, 46.808479000008496 ] ] } },
{ "type": "Feature", "properties": { "wmUplineSo": "GRAND LAKE", "wmType": "Underground" }, "geometry": { "type": "LineString", "coordinates": [ [ -92.550635018143694, 46.845949709746399 ], [ -92.550715299999894, 46.846244000008603 ] ] } },
{ "type": "Feature", "properties": { "wmUplineSo": "GRAND LAKE", "wmType": "Underground" }, "geometry": { "type": "LineString", "coordinates": [ [ -92.419591542567503, 46.809972825418903 ], [ -92.419512399999903, 46.810213600008503 ] ] } },
{ "type": "Feature", "properties": { "wmUplineSo": "GRAND LAKE", "wmType": "Underground" }, "geometry": { "type": "LineString", "coordinates": [ [ -92.452854803696098, 46.851974258339901 ], [ -92.452861999999897, 46.851958300008597 ] ] } },
{ "type": "Feature", "properties": { "wmUplineSo": "GRAND LAKE", "wmType": "Underground" }, "geometry": { "type": "LineString", "coordinates": [ [ -92.497951485765896, 46.846520825255503 ], [ -92.498064862462897, 46.846481629112397 ] ] } },
{ "type": "Feature", "properties": { "wmUplineSo": "GRAND LAKE", "wmType": "Underground" }, "geometry": { "type": "LineString", "coordinates": [ [ -92.4467369999673, 46.797031003505197 ], [ -92.446730799999898, 46.797015100008501 ] ] } },
{ "type": "Feature", "properties": { "wmUplineSo": "GRAND LAKE", "wmType": "Underground" }, "geometry": { "type": "LineString", "coordinates": [ [ -92.537352, 46.845663 ], [ -92.537389175621101, 46.845476442711501 ] ] } },
{ "type": "Feature", "properties": { "wmUplineSo": "GRAND LAKE", "wmType": "Underground" }, "geometry": { "type": "LineString", "coordinates": [ [ -92.512402406408498, 46.8525604341663 ], [ -92.512106999970896, 46.852581003520399 ] ] } },
{ "type": "Feature", "properties": { "wmUplineSo": "GRAND LAKE", "wmType": "Underground" }, "geometry": { "type": "LineString", "coordinates": [ [ -92.512106999970896, 46.852581003520399 ], [ -92.5118859999709, 46.852602003520303 ] ] } },
{ "type": "Feature", "properties": { "wmUplineSo": "GRAND LAKE", "wmType": "Underground" }, "geometry": { "type": "LineString", "coordinates": [ [ -92.447426999967306, 46.797484003505502 ], [ -92.4468159999672, 46.797099003505302 ] ] } },
{ "type": "Feature", "properties": { "wmUplineSo": "GRAND LAKE", "wmType": "Underground" }, "geometry": { "type": "LineString", "coordinates": [ [ -92.537389175621101, 46.845476442711501 ], [ -92.537352196670398, 46.845472533266403 ] ] } },
{ "type": "Feature", "properties": { "wmUplineSo": "GRAND LAKE", "wmType": "Underground" }, "geometry": { "type": "LineString", "coordinates": [ [ -92.447831268428104, 46.7980889031573 ], [ -92.4475979999673, 46.797785003505503 ] ] } },
{ "type": "Feature", "properties": { "wmUplineSo": "GRAND LAKE", "wmType": "Underground" }, "geometry": { "type": "LineString", "coordinates": [ [ -92.470523937563499, 46.860234999966302 ], [ -92.469930425739406, 46.8603188496743 ] ] } },
{ "type": "Feature", "properties": { "wmUplineSo": "GRAND LAKE", "wmType": "Underground" }, "geometry": { "type": "LineString", "coordinates": [ [ -92.512402406408498, 46.8525604341663 ], [ -92.512930124048694, 46.8525817675973 ], [ -92.513291285354398, 46.852668475800698 ] ] } },
{ "type": "Feature", "properties": { "wmUplineSo": "GRAND LAKE", "wmType": "Underground" }, "geometry": { "type": "LineString", "coordinates": [ [ -92.513291285354398, 46.852668475800698 ], [ -92.513199399999905, 46.852708000008597 ] ] } },
{ "type": "Feature", "properties": { "wmUplineSo": "GRAND LAKE", "wmType": "Underground" }, "geometry": { "type": "LineString", "coordinates": [ [ -92.548455755182601, 46.846527070279201 ], [ -92.548694299999894, 46.846266600008597 ] ] } },
{ "type": "Feature", "properties": { "wmUplineSo": "GRAND LAKE", "wmType": "Underground" }, "geometry": { "type": "LineString", "coordinates": [ [ -92.427739754158793, 46.812830054656501 ], [ -92.427904999966103, 46.813402003509701 ] ] } },
{ "type": "Feature", "properties": { "wmUplineSo": "GRAND LAKE", "wmType": "Underground" }, "geometry": { "type": "LineString", "coordinates": [ [ -92.498064862462897, 46.846481629112397 ], [ -92.497988866019, 46.846186716929303 ] ] } },
{ "type": "Feature", "properties": { "wmUplineSo": "GRAND LAKE", "wmType": "Underground" }, "geometry": { "type": "LineString", "coordinates": [ [ -92.447980364677704, 46.798181364650603 ], [ -92.447831268428104, 46.7980889031573 ] ] } },
{ "type": "Feature", "properties": { "wmUplineSo": "GRAND LAKE", "wmType": "Underground" }, "geometry": { "type": "LineString", "coordinates": [ [ -92.453216829558301, 46.851334181230797 ], [ -92.453164757328594, 46.851348473420003 ] ] } },
{ "type": "Feature", "properties": { "wmUplineSo": "GRAND LAKE", "wmType": "Underground" }, "geometry": { "type": "LineString", "coordinates": [ [ -92.469930425739406, 46.8603188496743 ], [ -92.469927400275495, 46.860340921701997 ] ] } },
{ "type": "Feature", "properties": { "wmUplineSo": "GRAND LAKE", "wmType": "Underground" }, "geometry": { "type": "LineString", "coordinates": [ [ -92.548299680713995, 46.846887784049002 ], [ -92.548455755182601, 46.846527070279201 ] ] } },
{ "type": "Feature", "properties": { "wmUplineSo": "GRAND LAKE", "wmType": "Underground" }, "geometry": { "type": "LineString", "coordinates": [ [ -92.5118859999709, 46.852602003520303 ], [ -92.511651999970894, 46.852640003520499 ] ] } },
{ "type": "Feature", "properties": { "wmUplineSo": "GRAND LAKE", "wmType": "Underground" }, "geometry": { "type": "LineString", "coordinates": [ [ -92.448142063351895, 46.793195498409503 ], [ -92.448179046066301, 46.793507470879902 ], [ -92.448033831882498, 46.793647423593001 ] ] } },
{ "type": "Feature", "properties": { "wmUplineSo": "GRAND LAKE", "wmType": "Underground" }, "geometry": { "type": "LineString", "coordinates": [ [ -92.452533200471294, 46.793344381101299 ], [ -92.453414598931005, 46.793510666936797 ], [ -92.453675430130602, 46.7936252018525 ] ] } },
{ "type": "Feature", "properties": { "wmUplineSo": "GRAND LAKE", "wmType": "Underground" }, "geometry": { "type": "LineString", "coordinates": [ [ -92.455250462061201, 46.808911313574498 ], [ -92.455592854030201, 46.808882639018002 ] ] } },
{ "type": "Feature", "properties": { "wmUplineSo": "GRAND LAKE", "wmType": "Underground" }, "geometry": { "type": "LineString", "coordinates": [ [ -92.454817498051, 46.808865344374702 ], [ -92.455250462061201, 46.808911313574498 ] ] } },
{ "type": "Feature", "properties": { "wmUplineSo": "GRAND LAKE", "wmType": "Underground" }, "geometry": { "type": "LineString", "coordinates": [ [ -92.454817498051, 46.808865344374702 ], [ -92.455025035136003, 46.808509013797199 ] ] } },
{ "type": "Feature", "properties": { "wmUplineSo": "GRAND LAKE", "wmType": "Underground" }, "geometry": { "type": "LineString", "coordinates": [ [ -92.455592854030201, 46.808882639018002 ], [ -92.455624015649093, 46.808885018971701 ] ] } },
{ "type": "Feature", "properties": { "wmUplineSo": "GRAND LAKE", "wmType": "Underground" }, "geometry": { "type": "LineString", "coordinates": [ [ -92.454848598565604, 46.808900689276399 ], [ -92.454817498051, 46.808865344374702 ] ] } },
{ "type": "Feature", "properties": { "wmUplineSo": "GRAND LAKE", "wmType": "Underground" }, "geometry": { "type": "LineString", "coordinates": [ [ -92.512334146240704, 46.851471252983899 ], [ -92.512343805319105, 46.851474422483598 ] ] } },
{ "type": "Feature", "properties": { "wmUplineSo": "GRAND LAKE", "wmType": "Underground" }, "geometry": { "type": "LineString", "coordinates": [ [ -92.512645980246702, 46.851573576614904 ], [ -92.512841084565594, 46.851503166464497 ] ] } },
{ "type": "Feature", "properties": { "wmUplineSo": "GRAND LAKE", "wmType": "Underground" }, "geometry": { "type": "LineString", "coordinates": [ [ -92.512841084565594, 46.851503166464497 ], [ -92.513274460261798, 46.851515687335002 ] ] } },
{ "type": "Feature", "properties": { "wmUplineSo": "GRAND LAKE", "wmType": "Underground" }, "geometry": { "type": "LineString", "coordinates": [ [ -92.513274460261798, 46.851515687335002 ], [ -92.513626304618697, 46.851625489728903 ] ] } },
{ "type": "Feature", "properties": { "wmUplineSo": "GRAND LAKE", "wmType": "Underground" }, "geometry": { "type": "LineString", "coordinates": [ [ -92.513626304618697, 46.851625489728903 ], [ -92.513664983013498, 46.851633582255403 ] ] } },
{ "type": "Feature", "properties": { "wmUplineSo": "GRAND LAKE", "wmType": "Underground" }, "geometry": { "type": "LineString", "coordinates": [ [ -92.459410703387206, 46.854965541817798 ], [ -92.458216203014203, 46.8547355130965 ] ] } },
{ "type": "Feature", "properties": { "wmUplineSo": "GRAND LAKE", "wmType": "Underground" }, "geometry": { "type": "LineString", "coordinates": [ [ -92.4601622298038, 46.855038449482201 ], [ -92.459410703387206, 46.854965541817798 ] ] } },
{ "type": "Feature", "properties": { "wmUplineSo": "GRAND LAKE", "wmType": "Underground" }, "geometry": { "type": "LineString", "coordinates": [ [ -92.470750490118604, 46.8519043330217 ], [ -92.4708544136424, 46.851850994703298 ] ] } },
{ "type": "Feature", "properties": { "wmUplineSo": "GRAND LAKE", "wmType": "Underground" }, "geometry": { "type": "LineString", "coordinates": [ [ -92.452414906888805, 46.851114195226998 ], [ -92.449684942972397, 46.851004808022502 ], [ -92.448892537090103, 46.852257236779998 ] ] } },
{ "type": "Feature", "properties": { "wmUplineSo": "GRAND LAKE", "wmType": "Underground" }, "geometry": { "type": "LineString", "coordinates": [ [ -92.452754261727904, 46.849360081552597 ], [ -92.452414906888805, 46.851114195226998 ] ] } },
{ "type": "Feature", "properties": { "wmUplineSo": "GRAND LAKE", "wmType": "Underground" }, "geometry": { "type": "LineString", "coordinates": [ [ -92.452414906888805, 46.851114195226998 ], [ -92.453187124230695, 46.8511625771444 ] ] } },
{ "type": "Feature", "properties": { "wmUplineSo": "GRAND LAKE", "wmType": "Underground" }, "geometry": { "type": "LineString", "coordinates": [ [ -92.459076119187799, 46.841371636639998 ], [ -92.455447129821394, 46.841516394843602 ] ] } },
{ "type": "Feature", "properties": { "wmUplineSo": "GRAND LAKE", "wmType": "Underground" }, "geometry": { "type": "LineString", "coordinates": [ [ -92.559618293467693, 46.848801871343298 ], [ -92.559728945944002, 46.851729581097402 ] ] } },
{ "type": "Feature", "properties": { "wmUplineSo": "GRAND LAKE", "wmType": "Underground" }, "geometry": { "type": "LineString", "coordinates": [ [ -92.550454706982904, 46.848660704488502 ], [ -92.550533827316997, 46.849398668713398 ] ] } },
{ "type": "Feature", "properties": { "wmUplineSo": "GRAND LAKE", "wmType": "Underground" }, "geometry": { "type": "LineString", "coordinates": [ [ -92.549433641504393, 46.847502716644499 ], [ -92.5488422092928, 46.848493314120603 ] ] } },
{ "type": "Feature", "properties": { "wmUplineSo": "GRAND LAKE", "wmType": "Underground" }, "geometry": { "type": "LineString", "coordinates": [ [ -92.538895008014606, 46.846891775557197 ], [ -92.538890624158896, 46.8486845030952 ], [ -92.538890366944003, 46.848789678741497 ] ] } },
{ "type": "Feature", "properties": { "wmUplineSo": "GRAND LAKE", "wmType": "Underground" }, "geometry": { "type": "LineString", "coordinates": [ [ -92.538890366944003, 46.848789678741497 ], [ -92.538910411850296, 46.849851581154098 ] ] } },
{ "type": "Feature", "properties": { "wmUplineSo": "GRAND LAKE", "wmType": "Underground" }, "geometry": { "type": "LineString", "coordinates": [ [ -92.541388060390801, 46.854847272123898 ], [ -92.5412042292092, 46.854927058160499 ], [ -92.540981555979798, 46.8550815720305 ], [ -92.540657779605098, 46.855306239738702 ], [ -92.540511938094596, 46.855539656428903 ], [ -92.540389538508194, 46.8556184277924 ], [ -92.540292304900404, 46.8557529744199 ], [ -92.5398195830237, 46.8559205679881 ], [ -92.539620308017106, 46.856109002872401 ], [ -92.539512600476698, 46.856265218395698 ], [ -92.539273443199406, 46.856476566053203 ], [ -92.539004792963198, 46.856536378373598 ], [ -92.538978178557798, 46.856682044188602 ], [ -92.538884192753699, 46.8568686814194 ], [ -92.538783275976897, 46.856964558563099 ], [ -92.538691506065703, 46.857051746360803 ], [ -92.538513390555195, 46.857167702781503 ], [ -92.538300413498504, 46.857466052301 ], [ -92.538237120593294, 46.857712668659602 ], [ -92.538119206321298, 46.857783915578104 ], [ -92.537945296200107, 46.857870201560402 ], [ -92.537750287862494, 46.858038692041397 ], [ -92.537567932569402, 46.858040053329802 ] ] } },
{ "type": "Feature", "properties": { "wmUplineSo": "GRAND LAKE", "wmType": "Underground" }, "geometry": { "type": "LineString", "coordinates": [ [ -92.532400349282597, 46.847337578335498 ], [ -92.532417675309702, 46.847834197700202 ], [ -92.533107980671801, 46.848000804178703 ], [ -92.533238482471205, 46.849085851326002 ] ] } },
{ "type": "Feature", "properties": { "wmUplineSo": "GRAND LAKE", "wmType": "Underground" }, "geometry": { "type": "LineString", "coordinates": [ [ -92.528215394786997, 46.847393627197 ], [ -92.528261976059895, 46.848893528776799 ] ] } },
{ "type": "Feature", "properties": { "wmUplineSo": "GRAND LAKE", "wmType": "Underground" }, "geometry": { "type": "LineString", "coordinates": [ [ -92.528261976059895, 46.848893528776799 ], [ -92.528424901262298, 46.848994245468603 ] ] } },
{ "type": "Feature", "properties": { "wmUplineSo": "GRAND LAKE", "wmType": "Underground" }, "geometry": { "type": "LineString", "coordinates": [ [ -92.516318814696206, 46.846659553767999 ], [ -92.516698568271494, 46.846981959697203 ], [ -92.516814849111299, 46.8472864707498 ] ] } },
{ "type": "Feature", "properties": { "wmUplineSo": "GRAND LAKE", "wmType": "Underground" }, "geometry": { "type": "LineString", "coordinates": [ [ -92.512335228155706, 46.851033999934202 ], [ -92.509596764585893, 46.850910243794402 ] ] } },
{ "type": "Feature", "properties": { "wmUplineSo": "GRAND LAKE", "wmType": "Underground" }, "geometry": { "type": "LineString", "coordinates": [ [ -92.497747272725803, 46.846891374533897 ], [ -92.497951485765896, 46.846520825255503 ] ] } },
{ "type": "Feature", "properties": { "wmUplineSo": "GRAND LAKE", "wmType": "Underground" }, "geometry": { "type": "LineString", "coordinates": [ [ -92.473035478872703, 46.8237532599207 ], [ -92.472426524042703, 46.8242960648113 ] ] } },
{ "type": "Feature", "properties": { "wmUplineSo": "GRAND LAKE", "wmType": "Underground" }, "geometry": { "type": "LineString", "coordinates": [ [ -92.4504240742409, 46.808026207972198 ], [ -92.451026837682093, 46.807981388071603 ] ] } },
{ "type": "Feature", "properties": { "wmUplineSo": "GRAND LAKE", "wmType": "Underground" }, "geometry": { "type": "LineString", "coordinates": [ [ -92.538837336205503, 46.851182258257303 ], [ -92.5355625643286, 46.851087472539199 ] ] } },
{ "type": "Feature", "properties": { "wmUplineSo": "GRAND LAKE", "wmType": "Underground" }, "geometry": { "type": "LineString", "coordinates": [ [ -92.538910411850296, 46.849851581154098 ], [ -92.538837336205503, 46.851182258257303 ] ] } },
{ "type": "Feature", "properties": { "wmUplineSo": "GRAND LAKE", "wmType": "Underground" }, "geometry": { "type": "LineString", "coordinates": [ [ -92.554656557754498, 46.848096734404301 ], [ -92.553725159589007, 46.849852557955899 ], [ -92.553582020052204, 46.8504360903746 ] ] } },
{ "type": "Feature", "properties": { "wmUplineSo": "GRAND LAKE", "wmType": "Underground" }, "geometry": { "type": "LineString", "coordinates": [ [ -92.413567074246501, 46.8077906959602 ], [ -92.414581365836597, 46.8090017124848 ] ] } },
{ "type": "Feature", "properties": { "wmUplineSo": "GRAND LAKE", "wmType": "Underground" }, "geometry": { "type": "LineString", "coordinates": [ [ -92.412454763789697, 46.807786963770702 ], [ -92.412632820019496, 46.8094875732099 ] ] } },
{ "type": "Feature", "properties": { "wmUplineSo": "GRAND LAKE", "wmType": "Underground" }, "geometry": { "type": "LineString", "coordinates": [ [ -92.416095420587496, 46.808008780003298 ], [ -92.416631886236502, 46.808895442899299 ] ] } },
{ "type": "Feature", "properties": { "wmUplineSo": "GRAND LAKE", "wmType": "Underground" }, "geometry": { "type": "LineString", "coordinates": [ [ -92.420421060451801, 46.807976372482102 ], [ -92.420835620622, 46.808640146316897 ], [ -92.420583896119595, 46.809022067527202 ], [ -92.4195457817018, 46.809806361991598 ], [ -92.419591542567503, 46.809972825418903 ] ] } },
{ "type": "Feature", "properties": { "wmUplineSo": "GRAND LAKE", "wmType": "Underground" }, "geometry": { "type": "LineString", "coordinates": [ [ -92.427679704385397, 46.807714615925001 ], [ -92.426700965316002, 46.809053315071502 ], [ -92.426721260838406, 46.8118946735378 ], [ -92.427739754158793, 46.812830054656501 ] ] } },
{ "type": "Feature", "properties": { "wmUplineSo": "GRAND LAKE", "wmType": "Underground" }, "geometry": { "type": "LineString", "coordinates": [ [ -92.539015837754505, 46.852355440095799 ], [ -92.538787986578498, 46.852354709266002 ], [ -92.538822617890801, 46.853415458256499 ], [ -92.540125135660304, 46.853889956736303 ], [ -92.540645436784303, 46.853897667533303 ], [ -92.540840249791103, 46.854165529142598 ], [ -92.541214414117405, 46.854631173955099 ], [ -92.541388060390801, 46.854847272123898 ] ] } },
{ "type": "Feature", "properties": { "wmUplineSo": "GRAND LAKE", "wmType": "Underground" }, "geometry": { "type": "LineString", "coordinates": [ [ -92.538837336205503, 46.851182258257303 ], [ -92.538819233047306, 46.852129921354802 ], [ -92.539015837754505, 46.852355440095799 ] ] } },
{ "type": "Feature", "properties": { "wmUplineSo": "GRAND LAKE", "wmType": "Underground" }, "geometry": { "type": "LineString", "coordinates": [ [ -92.473323777366303, 46.865517920284503 ], [ -92.4707257077457, 46.865466697223802 ], [ -92.470762540286501, 46.864461567658303 ], [ -92.470416132950405, 46.864446457261899 ] ] } },
{ "type": "Feature", "properties": { "wmUplineSo": "GRAND LAKE", "wmType": "Underground" }, "geometry": { "type": "LineString", "coordinates": [ [ -92.512898090171802, 46.858385381289501 ], [ -92.513751991948496, 46.858478911699599 ] ] } },
{ "type": "Feature", "properties": { "wmUplineSo": "GRAND LAKE", "wmType": "Underground" }, "geometry": { "type": "LineString", "coordinates": [ [ -92.4601622298038, 46.855038449482201 ], [ -92.460478101185998, 46.854717938472497 ] ] } },
{ "type": "Feature", "properties": { "wmUplineSo": "GRAND LAKE", "wmType": "Underground" }, "geometry": { "type": "LineString", "coordinates": [ [ -92.438874803865104, 46.8082766093003 ], [ -92.438984846658798, 46.807736671621797 ] ] } },
{ "type": "Feature", "properties": { "wmUplineSo": "GRAND LAKE", "wmType": "Underground" }, "geometry": { "type": "LineString", "coordinates": [ [ -92.426349542936606, 46.807967963732601 ], [ -92.426130215377995, 46.807221248396701 ] ] } },
{ "type": "Feature", "properties": { "wmUplineSo": "GRAND LAKE", "wmType": "Underground" }, "geometry": { "type": "LineString", "coordinates": [ [ -92.4431302321956, 46.808690220485403 ], [ -92.443048898381207, 46.808792248046103 ], [ -92.442957558860599, 46.808906092240001 ], [ -92.442762286499701, 46.809009906340897 ], [ -92.442628792505303, 46.809175927344803 ], [ -92.442557716542296, 46.809342252205603 ], [ -92.442538450575498, 46.809509146991097 ] ] } },
{ "type": "Feature", "properties": { "wmUplineSo": "GRAND LAKE", "wmType": "Underground" }, "geometry": { "type": "LineString", "coordinates": [ [ -92.549806445476804, 46.847053814218299 ], [ -92.549832117253601, 46.846824701790098 ], [ -92.549971197530297, 46.846753719226399 ], [ -92.550435632237594, 46.846004154791302 ], [ -92.550635018143694, 46.845949709746399 ] ] } },
{ "type": "Feature", "properties": { "wmUplineSo": "GRAND LAKE", "wmType": "Underground" }, "geometry": { "type": "LineString", "coordinates": [ [ -92.470518182424499, 46.851984441862498 ], [ -92.470750490118604, 46.8519043330217 ] ] } },
{ "type": "Feature", "properties": { "wmUplineSo": "GRAND LAKE", "wmType": "Underground" }, "geometry": { "type": "LineString", "coordinates": [ [ -92.440386064618096, 46.808344962372402 ], [ -92.4407760055811, 46.807895976897498 ] ] } },
{ "type": "Feature", "properties": { "wmUplineSo": "GRAND LAKE", "wmType": "Underground" }, "geometry": { "type": "LineString", "coordinates": [ [ -92.453216829558301, 46.851334181230797 ], [ -92.453676615309206, 46.851468063393497 ] ] } },
{ "type": "Feature", "properties": { "wmUplineSo": "GRAND LAKE", "wmType": "Underground" }, "geometry": { "type": "LineString", "coordinates": [ [ -92.453216829558301, 46.851334181230797 ], [ -92.453129889433896, 46.8516309595325 ], [ -92.453019543292697, 46.851819697278501 ], [ -92.452854803696098, 46.851974258339901 ] ] } },
{ "type": "Feature", "properties": { "wmUplineSo": "GRAND LAKE", "wmType": "Underground" }, "geometry": { "type": "LineString", "coordinates": [ [ -92.419591542567503, 46.809972825418903 ], [ -92.419681030881506, 46.810566271969101 ] ] } },
{ "type": "Feature", "properties": { "wmUplineSo": "GRAND LAKE", "wmType": "Underground" }, "geometry": { "type": "LineString", "coordinates": [ [ -92.425092209306499, 46.8080245138488 ], [ -92.425063419232004, 46.808355301505102 ] ] } },
{ "type": "Feature", "properties": { "wmUplineSo": "GRAND LAKE", "wmType": "Underground" }, "geometry": { "type": "LineString", "coordinates": [ [ -92.425063674948206, 46.807968654758 ], [ -92.425092209306499, 46.8080245138488 ] ] } },
{ "type": "Feature", "properties": { "wmUplineSo": "GRAND LAKE", "wmType": "Underground" }, "geometry": { "type": "LineString", "coordinates": [ [ -92.427808999966103, 46.81391100351 ], [ -92.427714999966099, 46.814011003509897 ] ] } },
{ "type": "Feature", "properties": { "wmUplineSo": "GRAND LAKE", "wmType": "Underground" }, "geometry": { "type": "LineString", "coordinates": [ [ -92.427714999966099, 46.814011003509897 ], [ -92.4276760999999, 46.814048100008499 ] ] } },
{ "type": "Feature", "properties": { "wmUplineSo": "GRAND LAKE", "wmType": "Underground" }, "geometry": { "type": "LineString", "coordinates": [ [ -92.451584111028296, 46.803802099473103 ], [ -92.451565982834893, 46.803785139515902 ] ] } },
{ "type": "Feature", "properties": { "wmUplineSo": "GRAND LAKE", "wmType": "Underground" }, "geometry": { "type": "LineString", "coordinates": [ [ -92.427868999966094, 46.813583003509699 ], [ -92.427839999966096, 46.813711003509802 ] ] } },
{ "type": "Feature", "properties": { "wmUplineSo": "GRAND LAKE", "wmType": "Underground" }, "geometry": { "type": "LineString", "coordinates": [ [ -92.511651999970894, 46.852640003520499 ], [ -92.511649999970899, 46.852663003520597 ] ] } },
{ "type": "Feature", "properties": { "wmUplineSo": "GRAND LAKE", "wmType": "Underground" }, "geometry": { "type": "LineString", "coordinates": [ [ -92.4475979999673, 46.797785003505503 ], [ -92.447426999967306, 46.797484003505502 ] ] } },
{ "type": "Feature", "properties": { "wmUplineSo": "GRAND LAKE", "wmType": "Underground" }, "geometry": { "type": "LineString", "coordinates": [ [ -92.533238482471205, 46.849085851326002 ], [ -92.532584469556795, 46.849290201816601 ] ] } },
{ "type": "Feature", "properties": { "wmUplineSo": "GRAND LAKE", "wmType": "Underground" }, "geometry": { "type": "LineString", "coordinates": [ [ -92.461183287595802, 46.858078892847999 ], [ -92.4601622298038, 46.855038449482201 ] ] } },
{ "type": "Feature", "properties": { "wmUplineSo": "GRAND LAKE", "wmType": "Underground" }, "geometry": { "type": "LineString", "coordinates": [ [ -92.427904999966103, 46.813402003509701 ], [ -92.429632239950607, 46.814019869848401 ], [ -92.430865352956303, 46.813785387667302 ], [ -92.431412505309396, 46.8132996242201 ] ] } },
{ "type": "Feature", "properties": { "wmUplineSo": "GRAND LAKE", "wmType": "Underground" }, "geometry": { "type": "LineString", "coordinates": [ [ -92.427839999966096, 46.813711003509802 ], [ -92.427808999966103, 46.81391100351 ] ] } },
{ "type": "Feature", "properties": { "wmUplineSo": "GRAND LAKE", "wmType": "Underground" }, "geometry": { "type": "LineString", "coordinates": [ [ -92.477513400182303, 46.845970562701403 ], [ -92.477533536465998, 46.846105524313998 ] ] } },
{ "type": "Feature", "properties": { "wmUplineSo": "GRAND LAKE", "wmType": "Underground" }, "geometry": { "type": "LineString", "coordinates": [ [ -92.477533536465998, 46.846105524313998 ], [ -92.4774806034996, 46.846352998188699 ] ] } },
{ "type": "Feature", "properties": { "wmUplineSo": "GRAND LAKE", "wmType": "Underground" }, "geometry": { "type": "LineString", "coordinates": [ [ -92.4774806034996, 46.846352998188699 ], [ -92.477493291695495, 46.846758761959997 ] ] } },
{ "type": "Feature", "properties": { "wmUplineSo": "GRAND LAKE", "wmType": "Underground" }, "geometry": { "type": "LineString", "coordinates": [ [ -92.477493291695495, 46.846758761959997 ], [ -92.477534163401899, 46.847268499305898 ] ] } },
{ "type": "Feature", "properties": { "wmUplineSo": "GRAND LAKE", "wmType": "Underground" }, "geometry": { "type": "LineString", "coordinates": [ [ -92.477534163401899, 46.847268499305898 ], [ -92.477566089942897, 46.8477724098152 ] ] } },
{ "type": "Feature", "properties": { "wmUplineSo": "GRAND LAKE", "wmType": "Underground" }, "geometry": { "type": "LineString", "coordinates": [ [ -92.477566089942897, 46.8477724098152 ], [ -92.4775670651551, 46.848295982824098 ] ] } },
{ "type": "Feature", "properties": { "wmUplineSo": "GRAND LAKE", "wmType": "Underground" }, "geometry": { "type": "LineString", "coordinates": [ [ -92.4775670651551, 46.848295982824098 ], [ -92.477559069804798, 46.8487320328354 ] ] } },
{ "type": "Feature", "properties": { "wmUplineSo": "GRAND LAKE", "wmType": "Underground" }, "geometry": { "type": "LineString", "coordinates": [ [ -92.477559069804798, 46.8487320328354 ], [ -92.477649011929003, 46.849102546922097 ] ] } },
{ "type": "Feature", "properties": { "wmUplineSo": "GRAND LAKE", "wmType": "Underground" }, "geometry": { "type": "LineString", "coordinates": [ [ -92.477649011929003, 46.849102546922097 ], [ -92.477812062500306, 46.849126427290997 ] ] } },
{ "type": "Feature", "properties": { "wmUplineSo": "GRAND LAKE", "wmType": "Underground" }, "geometry": { "type": "LineString", "coordinates": [ [ -92.477812062500306, 46.849126427290997 ], [ -92.478135070309094, 46.849129710194802 ] ] } },
{ "type": "Feature", "properties": { "wmUplineSo": "GRAND LAKE", "wmType": "Underground" }, "geometry": { "type": "LineString", "coordinates": [ [ -92.478135070309094, 46.849129710194802 ], [ -92.478268866135295, 46.849272842307997 ] ] } },
{ "type": "Feature", "properties": { "wmUplineSo": "GRAND LAKE", "wmType": "Underground" }, "geometry": { "type": "LineString", "coordinates": [ [ -92.478268866135295, 46.849272842307997 ], [ -92.478392646100701, 46.849331135405698 ] ] } },
{ "type": "Feature", "properties": { "wmUplineSo": "GRAND LAKE", "wmType": "Underground" }, "geometry": { "type": "LineString", "coordinates": [ [ -92.478392646100701, 46.849331135405698 ], [ -92.478647191427896, 46.849366229249902 ] ] } },
{ "type": "Feature", "properties": { "wmUplineSo": "GRAND LAKE", "wmType": "Underground" }, "geometry": { "type": "LineString", "coordinates": [ [ -92.478647191427896, 46.849366229249902 ], [ -92.478671430693595, 46.849354348891197 ] ] } },
{ "type": "Feature", "properties": { "wmUplineSo": "GRAND LAKE", "wmType": "Underground" }, "geometry": { "type": "LineString", "coordinates": [ [ -92.547176368815997, 46.846835871823103 ], [ -92.546479642375004, 46.847515935873901 ] ] } },
{ "type": "Feature", "properties": { "wmUplineSo": "GRAND LAKE", "wmType": "Underground" }, "geometry": { "type": "LineString", "coordinates": [ [ -92.546479642375004, 46.847515935873901 ], [ -92.546514392278795, 46.847659699144899 ] ] } },
{ "type": "Feature", "properties": { "wmUplineSo": "GRAND LAKE", "wmType": "Underground" }, "geometry": { "type": "LineString", "coordinates": [ [ -92.546514392278795, 46.847659699144899 ], [ -92.546387878564701, 46.8477828543855 ] ] } },
{ "type": "Feature", "properties": { "wmUplineSo": "GRAND LAKE", "wmType": "Underground" }, "geometry": { "type": "LineString", "coordinates": [ [ -92.546387878564701, 46.8477828543855 ], [ -92.546209402240095, 46.847908070484102 ] ] } },
{ "type": "Feature", "properties": { "wmUplineSo": "GRAND LAKE", "wmType": "Underground" }, "geometry": { "type": "LineString", "coordinates": [ [ -92.546209402240095, 46.847908070484102 ], [ -92.546012894684196, 46.8481338345212 ] ] } },
{ "type": "Feature", "properties": { "wmUplineSo": "GRAND LAKE", "wmType": "Underground" }, "geometry": { "type": "LineString", "coordinates": [ [ -92.546012894684196, 46.8481338345212 ], [ -92.546004819788493, 46.848304354157897 ] ] } },
{ "type": "Feature", "properties": { "wmUplineSo": "GRAND LAKE", "wmType": "Underground" }, "geometry": { "type": "LineString", "coordinates": [ [ -92.546004819788493, 46.848304354157897 ], [ -92.546028772663703, 46.848453240107801 ] ] } },
{ "type": "Feature", "properties": { "wmUplineSo": "GRAND LAKE", "wmType": "Underground" }, "geometry": { "type": "LineString", "coordinates": [ [ -92.546028772663703, 46.848453240107801 ], [ -92.546029941671307, 46.848716630699798 ] ] } },
{ "type": "Feature", "properties": { "wmUplineSo": "GRAND LAKE", "wmType": "Underground" }, "geometry": { "type": "LineString", "coordinates": [ [ -92.546029941671307, 46.848716630699798 ], [ -92.546101303605397, 46.848785078098601 ] ] } },
{ "type": "Feature", "properties": { "wmUplineSo": "GRAND LAKE", "wmType": "Underground" }, "geometry": { "type": "LineString", "coordinates": [ [ -92.546101303605397, 46.848785078098601 ], [ -92.545971256831606, 46.848959641289497 ] ] } },
{ "type": "Feature", "properties": { "wmUplineSo": "GRAND LAKE", "wmType": "Underground" }, "geometry": { "type": "LineString", "coordinates": [ [ -92.545971256831606, 46.848959641289497 ], [ -92.545917075749202, 46.848952528531697 ] ] } },
{ "type": "Feature", "properties": { "wmUplineSo": "GRAND LAKE", "wmType": "Underground" }, "geometry": { "type": "LineString", "coordinates": [ [ -92.545917075749202, 46.848952528531697 ], [ -92.545899941428004, 46.848940061731902 ] ] } },
{ "type": "Feature", "properties": { "wmUplineSo": "GRAND LAKE", "wmType": "Underground" }, "geometry": { "type": "LineString", "coordinates": [ [ -92.452214912179301, 46.804279617445303 ], [ -92.451819003270302, 46.804074637432699 ] ] } },
{ "type": "Feature", "properties": { "wmUplineSo": "GRAND LAKE", "wmType": "Underground" }, "geometry": { "type": "LineString", "coordinates": [ [ -92.451819003270302, 46.804074637432699 ], [ -92.451721230880906, 46.803980709683799 ] ] } },
{ "type": "Feature", "properties": { "wmUplineSo": "GRAND LAKE", "wmType": "Underground" }, "geometry": { "type": "LineString", "coordinates": [ [ -92.451721230880906, 46.803980709683799 ], [ -92.451584111028296, 46.803802099473103 ] ] } },
{ "type": "Feature", "properties": { "wmUplineSo": "GRAND LAKE", "wmType": "Underground" }, "geometry": { "type": "LineString", "coordinates": [ [ -92.532584469556795, 46.849290201816601 ], [ -92.532515852859504, 46.849271058441303 ] ] } },
{ "type": "Feature", "properties": { "wmUplineSo": "GRAND LAKE", "wmType": "Underground" }, "geometry": { "type": "LineString", "coordinates": [ [ -92.452148214540699, 46.816761076535002 ], [ -92.452248999967495, 46.816778003510599 ] ] } },
{ "type": "Feature", "properties": { "wmUplineSo": "GRAND LAKE", "wmType": "Underground" }, "geometry": { "type": "LineString", "coordinates": [ [ -92.452248999967495, 46.816778003510599 ], [ -92.452435999967506, 46.816788003510702 ] ] } },
{ "type": "Feature", "properties": { "wmUplineSo": "GRAND LAKE", "wmType": "Underground" }, "geometry": { "type": "LineString", "coordinates": [ [ -92.452435999967506, 46.816788003510702 ], [ -92.452829999967506, 46.8168840035108 ] ] } },
{ "type": "Feature", "properties": { "wmUplineSo": "GRAND LAKE", "wmType": "Underground" }, "geometry": { "type": "LineString", "coordinates": [ [ -92.452829999967506, 46.8168840035108 ], [ -92.453198999967597, 46.8170110035108 ] ] } },
{ "type": "Feature", "properties": { "wmUplineSo": "GRAND LAKE", "wmType": "Underground" }, "geometry": { "type": "LineString", "coordinates": [ [ -92.453198999967597, 46.8170110035108 ], [ -92.453431999967606, 46.817137003510901 ] ] } },
{ "type": "Feature", "properties": { "wmUplineSo": "GRAND LAKE", "wmType": "Underground" }, "geometry": { "type": "LineString", "coordinates": [ [ -92.453431999967606, 46.817137003510901 ], [ -92.453650999967607, 46.817193003510901 ] ] } },
{ "type": "Feature", "properties": { "wmUplineSo": "GRAND LAKE", "wmType": "Underground" }, "geometry": { "type": "LineString", "coordinates": [ [ -92.453650999967607, 46.817193003510901 ], [ -92.454059999967598, 46.817380003510699 ] ] } },
{ "type": "Feature", "properties": { "wmUplineSo": "GRAND LAKE", "wmType": "Underground" }, "geometry": { "type": "LineString", "coordinates": [ [ -92.454059999967598, 46.817380003510699 ], [ -92.454087999967598, 46.817385003510701 ] ] } },
{ "type": "Feature", "properties": { "wmUplineSo": "GRAND LAKE", "wmType": "Underground" }, "geometry": { "type": "LineString", "coordinates": [ [ -92.449964021548894, 46.805093310825498 ], [ -92.450214975281099, 46.805137450509797 ], [ -92.451086924057904, 46.8049866514448 ] ] } },
{ "type": "Feature", "properties": { "wmUplineSo": "GRAND LAKE", "wmType": "Underground" }, "geometry": { "type": "LineString", "coordinates": [ [ -92.451086924057904, 46.8049866514448 ], [ -92.451343065616797, 46.804602762195202 ] ] } },
{ "type": "Feature", "properties": { "wmUplineSo": "GRAND LAKE", "wmType": "Underground" }, "geometry": { "type": "LineString", "coordinates": [ [ -92.452214912179301, 46.804279617445303 ], [ -92.452229563348297, 46.804111615494797 ] ] } },
{ "type": "Feature", "properties": { "wmUplineSo": "GRAND LAKE", "wmType": "Underground" }, "geometry": { "type": "LineString", "coordinates": [ [ -92.452229563348297, 46.804111615494797 ], [ -92.452512527514301, 46.803934055550698 ] ] } },
{ "type": "Feature", "properties": { "wmUplineSo": "GRAND LAKE", "wmType": "Underground" }, "geometry": { "type": "LineString", "coordinates": [ [ -92.461026468140602, 46.844414245321502 ], [ -92.461160000008405, 46.8442017156978 ] ] } },
{ "type": "Feature", "properties": { "wmUplineSo": "GRAND LAKE", "wmType": "Underground" }, "geometry": { "type": "LineString", "coordinates": [ [ -92.461160000008405, 46.8442017156978 ], [ -92.461125112526702, 46.844202722091502 ] ] } },
{ "type": "Feature", "properties": { "wmUplineSo": "GRAND LAKE", "wmType": "Underground" }, "geometry": { "type": "LineString", "coordinates": [ [ -92.452512527514301, 46.803934055550698 ], [ -92.452673158917193, 46.803856001868802 ] ] } },
{ "type": "Feature", "properties": { "wmUplineSo": "GRAND LAKE", "wmType": "Underground" }, "geometry": { "type": "LineString", "coordinates": [ [ -92.453383546964105, 46.804727897519399 ], [ -92.453390399999904, 46.804756800008498 ] ] } },
{ "type": "Feature", "properties": { "wmUplineSo": "GRAND LAKE", "wmType": "Underground" }, "geometry": { "type": "LineString", "coordinates": [ [ -92.451343065616797, 46.804602762195202 ], [ -92.452214912179301, 46.804279617445303 ] ] } },
{ "type": "Feature", "properties": { "wmUplineSo": "GRAND LAKE", "wmType": "Underground" }, "geometry": { "type": "LineString", "coordinates": [ [ -92.452214912179301, 46.804279617445303 ], [ -92.452728409232094, 46.804512650646302 ] ] } },
{ "type": "Feature", "properties": { "wmUplineSo": "GRAND LAKE", "wmType": "Underground" }, "geometry": { "type": "LineString", "coordinates": [ [ -92.452728409232094, 46.804512650646302 ], [ -92.452987400807103, 46.804613870849899 ] ] } },
{ "type": "Feature", "properties": { "wmUplineSo": "GRAND LAKE", "wmType": "Underground" }, "geometry": { "type": "LineString", "coordinates": [ [ -92.452987400807103, 46.804613870849899 ], [ -92.453392651580302, 46.804570515166503 ] ] } },
{ "type": "Feature", "properties": { "wmUplineSo": "GRAND LAKE", "wmType": "Underground" }, "geometry": { "type": "LineString", "coordinates": [ [ -92.453392651580302, 46.804570515166503 ], [ -92.453383546964105, 46.804727897519399 ] ] } },
{ "type": "Feature", "properties": { "wmUplineSo": "GRAND LAKE", "wmType": "Underground" }, "geometry": { "type": "LineString", "coordinates": [ [ -92.450512595494004, 46.805862729934297 ], [ -92.450702759207402, 46.805628097143803 ], [ -92.451198386134095, 46.805311418604497 ], [ -92.451575317069299, 46.805189181503401 ] ] } },
{ "type": "Feature", "properties": { "wmUplineSo": "GRAND LAKE", "wmType": "Underground" }, "geometry": { "type": "LineString", "coordinates": [ [ -92.453383546964105, 46.804727897519399 ], [ -92.453402799999907, 46.804744300008501 ] ] } },
{ "type": "Feature", "properties": { "wmUplineSo": "GRAND LAKE", "wmType": "Underground" }, "geometry": { "type": "LineString", "coordinates": [ [ -92.453164757328594, 46.851348473420003 ], [ -92.453172799999905, 46.8513560000086 ] ] } },
{ "type": "Feature", "properties": { "wmUplineSo": "GRAND LAKE", "wmType": "Underground" }, "geometry": { "type": "LineString", "coordinates": [ [ -92.453187124230695, 46.8511625771444 ], [ -92.453216829558301, 46.851334181230797 ] ] } },
{ "type": "Feature", "properties": { "wmUplineSo": "GRAND LAKE", "wmType": "Underground" }, "geometry": { "type": "LineString", "coordinates": [ [ -92.456534545659395, 46.852328107114197 ], [ -92.457086499999903, 46.852520800008598 ] ] } },
{ "type": "Feature", "properties": { "wmUplineSo": "GRAND LAKE", "wmType": "Underground" }, "geometry": { "type": "LineString", "coordinates": [ [ -92.462286393559197, 46.852233525177098 ], [ -92.4621237320804, 46.8522144862673 ] ] } },
{ "type": "Feature", "properties": { "wmUplineSo": "GRAND LAKE", "wmType": "Underground" }, "geometry": { "type": "LineString", "coordinates": [ [ -92.462453937609595, 46.8518916651119 ], [ -92.462286393559197, 46.852233525177098 ] ] } },
{ "type": "Feature", "properties": { "wmUplineSo": "GRAND LAKE", "wmType": "Underground" }, "geometry": { "type": "LineString", "coordinates": [ [ -92.458216203014203, 46.8547355130965 ], [ -92.458124481130099, 46.854351987860298 ], [ -92.4580046203927, 46.853850794797999 ], [ -92.457798398078396, 46.853649814538201 ], [ -92.457560799615194, 46.853401345604702 ], [ -92.457424449035301, 46.853044460212303 ], [ -92.4573535823084, 46.852844120625399 ], [ -92.4570592641941, 46.852603434897603 ], [ -92.456534545659395, 46.852328107114197 ] ] } },
{ "type": "Feature", "properties": { "wmUplineSo": "GRAND LAKE", "wmType": "Underground" }, "geometry": { "type": "LineString", "coordinates": [ [ -92.477927960138899, 46.845476687103996 ], [ -92.478289217029101, 46.845502781796803 ] ] } },
{ "type": "Feature", "properties": { "wmUplineSo": "GRAND LAKE", "wmType": "Underground" }, "geometry": { "type": "LineString", "coordinates": [ [ -92.478289217029101, 46.845502781796803 ], [ -92.479097153174905, 46.845589094002598 ] ] } },
{ "type": "Feature", "properties": { "wmUplineSo": "GRAND LAKE", "wmType": "Underground" }, "geometry": { "type": "LineString", "coordinates": [ [ -92.461183287595802, 46.858078892847999 ], [ -92.461039, 46.858373900008601 ] ] } },
{ "type": "Feature", "properties": { "wmUplineSo": "GRAND LAKE", "wmType": "Underground" }, "geometry": { "type": "LineString", "coordinates": [ [ -92.450032682372097, 46.826340495647301 ], [ -92.450594099999904, 46.826529100008599 ] ] } },
{ "type": "Feature", "properties": { "wmUplineSo": "GRAND LAKE", "wmType": "Underground" }, "geometry": { "type": "LineString", "coordinates": [ [ -92.475639316635196, 46.845244955307301 ], [ -92.475391899999906, 46.8453578000086 ] ] } },
{ "type": "Feature", "properties": { "wmUplineSo": "GRAND LAKE", "wmType": "Underground" }, "geometry": { "type": "LineString", "coordinates": [ [ -92.442538450575498, 46.809509146991097 ], [ -92.441126207091202, 46.809606706884402 ] ] } },
{ "type": "Feature", "properties": { "wmUplineSo": "GRAND LAKE", "wmType": "Underground" }, "geometry": { "type": "LineString", "coordinates": [ [ -92.441126207091202, 46.809606706884402 ], [ -92.441344, 46.809908300008601 ] ] } },
{ "type": "Feature", "properties": { "wmUplineSo": "GRAND LAKE", "wmType": "Underground" }, "geometry": { "type": "LineString", "coordinates": [ [ -92.449994816737103, 46.809491449320802 ], [ -92.450397938529093, 46.809273159778201 ], [ -92.450760180455106, 46.809117751710502 ], [ -92.451052097466999, 46.809057245795401 ], [ -92.451381959986605, 46.809016445342202 ], [ -92.451587767043193, 46.809034574951802 ], [ -92.452146519500701, 46.8090609657445 ], [ -92.453111623726201, 46.809095582026302 ], [ -92.453779431373903, 46.809105914020002 ], [ -92.454695642084801, 46.809037423785398 ], [ -92.454848598565604, 46.808900689276399 ] ] } },
{ "type": "Feature", "properties": { "wmUplineSo": "GRAND LAKE", "wmType": "Underground" }, "geometry": { "type": "LineString", "coordinates": [ [ -92.455025035136003, 46.808509013797199 ], [ -92.455052799999905, 46.8084666000086 ] ] } },
{ "type": "Feature", "properties": { "wmUplineSo": "GRAND LAKE", "wmType": "Underground" }, "geometry": { "type": "LineString", "coordinates": [ [ -92.4468159999672, 46.797099003505302 ], [ -92.4467369999673, 46.797031003505197 ] ] } },
{ "type": "Feature", "properties": { "wmUplineSo": "GRAND LAKE", "wmType": "Underground" }, "geometry": { "type": "LineString", "coordinates": [ [ -92.453422349863004, 46.845081286137301 ], [ -92.453546952888104, 46.845002732464501 ] ] } },
{ "type": "Feature", "properties": { "wmUplineSo": "GRAND LAKE", "wmType": "Underground" }, "geometry": { "type": "LineString", "coordinates": [ [ -92.453546952888104, 46.845002732464501 ], [ -92.4542795610013, 46.844985441095403 ] ] } },
{ "type": "Feature", "properties": { "wmUplineSo": "GRAND LAKE", "wmType": "Underground" }, "geometry": { "type": "LineString", "coordinates": [ [ -92.4542795610013, 46.844985441095403 ], [ -92.455109683185498, 46.845000025512398 ] ] } },
{ "type": "Feature", "properties": { "wmUplineSo": "GRAND LAKE", "wmType": "Underground" }, "geometry": { "type": "LineString", "coordinates": [ [ -92.455109683185498, 46.845000025512398 ], [ -92.455648543338796, 46.845015872158399 ] ] } },
{ "type": "Feature", "properties": { "wmUplineSo": "GRAND LAKE", "wmType": "Underground" }, "geometry": { "type": "LineString", "coordinates": [ [ -92.455648543338796, 46.845015872158399 ], [ -92.456417164632796, 46.845048706700098 ] ] } },
{ "type": "Feature", "properties": { "wmUplineSo": "GRAND LAKE", "wmType": "Underground" }, "geometry": { "type": "LineString", "coordinates": [ [ -92.456417164632796, 46.845048706700098 ], [ -92.456980930444203, 46.845082095167498 ] ] } },
{ "type": "Feature", "properties": { "wmUplineSo": "GRAND LAKE", "wmType": "Underground" }, "geometry": { "type": "LineString", "coordinates": [ [ -92.457718794479405, 46.845050855386297 ], [ -92.457752599999907, 46.8450556000086 ] ] } },
{ "type": "Feature", "properties": { "wmUplineSo": "GRAND LAKE", "wmType": "Underground" }, "geometry": { "type": "LineString", "coordinates": [ [ -92.456980930444203, 46.845082095167498 ], [ -92.457718794479405, 46.845050855386297 ] ] } },
{ "type": "Feature", "properties": { "wmUplineSo": "GRAND LAKE", "wmType": "Underground" }, "geometry": { "type": "LineString", "coordinates": [ [ -92.451837763813302, 46.836672915441802 ], [ -92.451914481415301, 46.836639673016599 ] ] } },
{ "type": "Feature", "properties": { "wmUplineSo": "GRAND LAKE", "wmType": "Underground" }, "geometry": { "type": "LineString", "coordinates": [ [ -92.451914481415301, 46.836639673016599 ], [ -92.451964753739404, 46.836519192514302 ] ] } },
{ "type": "Feature", "properties": { "wmUplineSo": "GRAND LAKE", "wmType": "Underground" }, "geometry": { "type": "LineString", "coordinates": [ [ -92.451964753739404, 46.836519192514302 ], [ -92.4520376478348, 46.836456478260402 ] ] } },
{ "type": "Feature", "properties": { "wmUplineSo": "GRAND LAKE", "wmType": "Underground" }, "geometry": { "type": "LineString", "coordinates": [ [ -92.4520376478348, 46.836456478260402 ], [ -92.452166301854703, 46.836376771072601 ] ] } },
{ "type": "Feature", "properties": { "wmUplineSo": "GRAND LAKE", "wmType": "Underground" }, "geometry": { "type": "LineString", "coordinates": [ [ -92.452166301854703, 46.836376771072601 ], [ -92.452303110854501, 46.836292391226301 ] ] } },
{ "type": "Feature", "properties": { "wmUplineSo": "GRAND LAKE", "wmType": "Underground" }, "geometry": { "type": "LineString", "coordinates": [ [ -92.452303110854501, 46.836292391226301 ], [ -92.452348412382605, 46.836282294740897 ] ] } },
{ "type": "Feature", "properties": { "wmUplineSo": "GRAND LAKE", "wmType": "Underground" }, "geometry": { "type": "LineString", "coordinates": [ [ -92.512343805319105, 46.851474422483598 ], [ -92.512645980246702, 46.851573576614904 ] ] } },
{ "type": "Feature", "properties": { "wmUplineSo": "GRAND LAKE", "wmType": "Underground" }, "geometry": { "type": "LineString", "coordinates": [ [ -92.427904999966103, 46.813402003509701 ], [ -92.427899999966101, 46.813458003509801 ] ] } },
{ "type": "Feature", "properties": { "wmUplineSo": "GRAND LAKE", "wmType": "Underground" }, "geometry": { "type": "LineString", "coordinates": [ [ -92.537031999837595, 46.846509623205897 ], [ -92.537068, 46.846306 ] ] } },
{ "type": "Feature", "properties": { "wmUplineSo": "GRAND LAKE", "wmType": "Underground" }, "geometry": { "type": "LineString", "coordinates": [ [ -92.537068, 46.846306 ], [ -92.537168, 46.846157 ] ] } },
{ "type": "Feature", "properties": { "wmUplineSo": "GRAND LAKE", "wmType": "Underground" }, "geometry": { "type": "LineString", "coordinates": [ [ -92.537168, 46.846157 ], [ -92.537405, 46.845748 ] ] } },
{ "type": "Feature", "properties": { "wmUplineSo": "GRAND LAKE", "wmType": "Underground" }, "geometry": { "type": "LineString", "coordinates": [ [ -92.537405, 46.845748 ], [ -92.537352, 46.845663 ] ] } },
{ "type": "Feature", "properties": { "wmUplineSo": "GRAND LAKE", "wmType": "Underground" }, "geometry": { "type": "LineString", "coordinates": [ [ -92.427899999966101, 46.813458003509801 ], [ -92.427868999966094, 46.813583003509699 ] ] } },
{ "type": "Feature", "properties": { "wmUplineSo": "GRAND LAKE", "wmType": "Underground" }, "geometry": { "type": "LineString", "coordinates": [ [ -92.509596764585893, 46.850910243794402 ], [ -92.509716299999894, 46.850823100008597 ] ] } },
{ "type": "Feature", "properties": { "wmUplineSo": "GRAND LAKE", "wmType": "Underground" }, "geometry": { "type": "LineString", "coordinates": [ [ -92.448033831882498, 46.793647423593001 ], [ -92.447990299999901, 46.793709100008499 ] ] } },
{ "type": "Feature", "properties": { "wmUplineSo": "GRAND LAKE", "wmType": "Underground" }, "geometry": { "type": "LineString", "coordinates": [ [ -92.447865799999903, 46.788018500008498 ], [ -92.447737957317003, 46.788153464748298 ] ] } },
{ "type": "Feature", "properties": { "wmUplineSo": "GRAND LAKE", "wmType": "Underground" }, "geometry": { "type": "LineString", "coordinates": [ [ -92.453675430130602, 46.7936252018525 ], [ -92.453053219999902, 46.793845360008497 ] ] } },
{ "type": "Feature", "properties": { "wmUplineSo": "GRAND LAKE", "wmType": "Underground" }, "geometry": { "type": "LineString", "coordinates": [ [ -92.460478101185998, 46.854717938472497 ], [ -92.461130099999906, 46.854553500008599 ] ] } },
{ "type": "Feature", "properties": { "wmUplineSo": "GRAND LAKE", "wmType": "Underground" }, "geometry": { "type": "LineString", "coordinates": [ [ -92.458216203014203, 46.8547355130965 ], [ -92.4581550999999, 46.854748500008597 ] ] } },
{ "type": "Feature", "properties": { "wmUplineSo": "GRAND LAKE", "wmType": "Underground" }, "geometry": { "type": "LineString", "coordinates": [ [ -92.4708544136424, 46.851850994703298 ], [ -92.471215099999895, 46.851779000008598 ] ] } },
{ "type": "Feature", "properties": { "wmUplineSo": "GRAND LAKE", "wmType": "Underground" }, "geometry": { "type": "LineString", "coordinates": [ [ -92.448892537090103, 46.852257236779998 ], [ -92.449053399999897, 46.852444300008599 ] ] } },
{ "type": "Feature", "properties": { "wmUplineSo": "GRAND LAKE", "wmType": "Underground" }, "geometry": { "type": "LineString", "coordinates": [ [ -92.453676615309206, 46.851468063393497 ], [ -92.453850799999898, 46.851725600008599 ] ] } },
{ "type": "Feature", "properties": { "wmUplineSo": "GRAND LAKE", "wmType": "Underground" }, "geometry": { "type": "LineString", "coordinates": [ [ -92.559728945944002, 46.851729581097402 ], [ -92.5598458999999, 46.851732400008601 ] ] } },
{ "type": "Feature", "properties": { "wmUplineSo": "GRAND LAKE", "wmType": "Underground" }, "geometry": { "type": "LineString", "coordinates": [ [ -92.550533827316997, 46.849398668713398 ], [ -92.550056299999895, 46.8494334000086 ] ] } },
{ "type": "Feature", "properties": { "wmUplineSo": "GRAND LAKE", "wmType": "Underground" }, "geometry": { "type": "LineString", "coordinates": [ [ -92.5488422092928, 46.848493314120603 ], [ -92.548897799999907, 46.848698100008598 ] ] } },
{ "type": "Feature", "properties": { "wmUplineSo": "GRAND LAKE", "wmType": "Underground" }, "geometry": { "type": "LineString", "coordinates": [ [ -92.538890366944003, 46.848789678741497 ], [ -92.538243799999904, 46.848790300008602 ] ] } },
{ "type": "Feature", "properties": { "wmUplineSo": "GRAND LAKE", "wmType": "Underground" }, "geometry": { "type": "LineString", "coordinates": [ [ -92.538910411850296, 46.849851581154098 ], [ -92.539502599999906, 46.849858100008603 ] ] } },
{ "type": "Feature", "properties": { "wmUplineSo": "GRAND LAKE", "wmType": "Underground" }, "geometry": { "type": "LineString", "coordinates": [ [ -92.537567932569402, 46.858040053329802 ], [ -92.537435599999895, 46.858000900008598 ] ] } },
{ "type": "Feature", "properties": { "wmUplineSo": "GRAND LAKE", "wmType": "Underground" }, "geometry": { "type": "LineString", "coordinates": [ [ -92.541388060390801, 46.854847272123898 ], [ -92.541510799999898, 46.854691800008602 ] ] } },
{ "type": "Feature", "properties": { "wmUplineSo": "GRAND LAKE", "wmType": "Underground" }, "geometry": { "type": "LineString", "coordinates": [ [ -92.532584469556795, 46.849290201816601 ], [ -92.532571499999904, 46.849242600008601 ] ] } },
{ "type": "Feature", "properties": { "wmUplineSo": "GRAND LAKE", "wmType": "Underground" }, "geometry": { "type": "LineString", "coordinates": [ [ -92.528261976059895, 46.848893528776799 ], [ -92.528234399999903, 46.8490388000086 ] ] } },
{ "type": "Feature", "properties": { "wmUplineSo": "GRAND LAKE", "wmType": "Underground" }, "geometry": { "type": "LineString", "coordinates": [ [ -92.528424901262298, 46.848994245468603 ], [ -92.528556499999894, 46.849275500008602 ] ] } },
{ "type": "Feature", "properties": { "wmUplineSo": "GRAND LAKE", "wmType": "Underground" }, "geometry": { "type": "LineString", "coordinates": [ [ -92.5280488951461, 46.847138261023403 ], [ -92.528001099999898, 46.847420400008602 ] ] } },
{ "type": "Feature", "properties": { "wmUplineSo": "GRAND LAKE", "wmType": "Underground" }, "geometry": { "type": "LineString", "coordinates": [ [ -92.516814849111299, 46.8472864707498 ], [ -92.517101099999906, 46.847409500008602 ] ] } },
{ "type": "Feature", "properties": { "wmUplineSo": "GRAND LAKE", "wmType": "Underground" }, "geometry": { "type": "LineString", "coordinates": [ [ -92.516814849111299, 46.8472864707498 ], [ -92.516643499999901, 46.8477443000086 ] ] } },
{ "type": "Feature", "properties": { "wmUplineSo": "GRAND LAKE", "wmType": "Underground" }, "geometry": { "type": "LineString", "coordinates": [ [ -92.497988866019, 46.846186716929303 ], [ -92.498009799999906, 46.8461641000086 ] ] } },
{ "type": "Feature", "properties": { "wmUplineSo": "GRAND LAKE", "wmType": "Underground" }, "geometry": { "type": "LineString", "coordinates": [ [ -92.472426524042703, 46.8242960648113 ], [ -92.471521799999906, 46.823670300008601 ] ] } },
{ "type": "Feature", "properties": { "wmUplineSo": "GRAND LAKE", "wmType": "Underground" }, "geometry": { "type": "LineString", "coordinates": [ [ -92.451026837682093, 46.807981388071603 ], [ -92.450986399999906, 46.808105900008499 ] ] } },
{ "type": "Feature", "properties": { "wmUplineSo": "GRAND LAKE", "wmType": "Underground" }, "geometry": { "type": "LineString", "coordinates": [ [ -92.451026837682093, 46.807981388071603 ], [ -92.451221771467502, 46.807924759512503 ] ] } },
{ "type": "Feature", "properties": { "wmUplineSo": "GRAND LAKE", "wmType": "Underground" }, "geometry": { "type": "LineString", "coordinates": [ [ -92.451026837682093, 46.807981388071603 ], [ -92.451045360278201, 46.8078054724973 ] ] } },
{ "type": "Feature", "properties": { "wmUplineSo": "GRAND LAKE", "wmType": "Underground" }, "geometry": { "type": "LineString", "coordinates": [ [ -92.5355625643286, 46.851087472539199 ], [ -92.535325799999896, 46.851010100008601 ] ] } },
{ "type": "Feature", "properties": { "wmUplineSo": "GRAND LAKE", "wmType": "Underground" }, "geometry": { "type": "LineString", "coordinates": [ [ -92.5355625643286, 46.851087472539199 ], [ -92.535329299999901, 46.851032100008602 ] ] } },
{ "type": "Feature", "properties": { "wmUplineSo": "GRAND LAKE", "wmType": "Underground" }, "geometry": { "type": "LineString", "coordinates": [ [ -92.532584469556795, 46.849290201816601 ], [ -92.532564299999905, 46.849241100008598 ] ] } },
{ "type": "Feature", "properties": { "wmUplineSo": "GRAND LAKE", "wmType": "Underground" }, "geometry": { "type": "LineString", "coordinates": [ [ -92.553582020052204, 46.8504360903746 ], [ -92.553818799999902, 46.850587800008597 ] ] } },
{ "type": "Feature", "properties": { "wmUplineSo": "GRAND LAKE", "wmType": "Underground" }, "geometry": { "type": "LineString", "coordinates": [ [ -92.431412505309396, 46.8132996242201 ], [ -92.431520399999897, 46.813215400008502 ] ] } },
{ "type": "Feature", "properties": { "wmUplineSo": "GRAND LAKE", "wmType": "Underground" }, "geometry": { "type": "LineString", "coordinates": [ [ -92.419681030881506, 46.810566271969101 ], [ -92.419647819577705, 46.810623723729101 ] ] } },
{ "type": "Feature", "properties": { "wmUplineSo": "GRAND LAKE", "wmType": "Underground" }, "geometry": { "type": "LineString", "coordinates": [ [ -92.416631886236502, 46.808895442899299 ], [ -92.417055799999901, 46.809178900008497 ] ] } },
{ "type": "Feature", "properties": { "wmUplineSo": "GRAND LAKE", "wmType": "Underground" }, "geometry": { "type": "LineString", "coordinates": [ [ -92.414581365836597, 46.8090017124848 ], [ -92.414647, 46.809094000008599 ] ] } },
{ "type": "Feature", "properties": { "wmUplineSo": "GRAND LAKE", "wmType": "Underground" }, "geometry": { "type": "LineString", "coordinates": [ [ -92.412632820019496, 46.8094875732099 ], [ -92.412136299999901, 46.809808600008601 ] ] } },
{ "type": "Feature", "properties": { "wmUplineSo": "GRAND LAKE", "wmType": "Underground" }, "geometry": { "type": "LineString", "coordinates": [ [ -92.449456309353096, 46.837263203724397 ], [ -92.448771399999899, 46.837406800008601 ] ] } },
{ "type": "Feature", "properties": { "wmUplineSo": "GRAND LAKE", "wmType": "Underground" }, "geometry": { "type": "LineString", "coordinates": [ [ -92.539015837754505, 46.852355440095799 ], [ -92.539205499999895, 46.852259100008602 ] ] } },
{ "type": "Feature", "properties": { "wmUplineSo": "GRAND LAKE", "wmType": "Underground" }, "geometry": { "type": "LineString", "coordinates": [ [ -92.451575317069299, 46.805189181503401 ], [ -92.451481319771105, 46.8050526701522 ] ] } }
]
}
