{
"type": "FeatureCollection",
"crs": { "type": "name", "properties": { "name": "urn:ogc:def:crs:OGC:1.3:CRS84" } },
"features": [
{ "type": "Feature", "properties": { "wmUplineSo": "GRAND LAKE", "wmType": "Underground" }, "geometry": { "type": "LineString", "coordinates": [ [ -92.481899004845005, 46.865226184425303 ], [ -92.481583099999895, 46.865291600008597 ] ] } },
{ "type": "Feature", "properties": { "wmUplineSo": "GRAND LAKE", "wmType": "Underground" }, "geometry": { "type": "LineString", "coordinates": [ [ -92.534051361620897, 46.905408455145299 ], [ -92.534293399999896, 46.905492800008702 ] ] } },
{ "type": "Feature", "properties": { "wmUplineSo": "GRAND LAKE", "wmType": "Underground" }, "geometry": { "type": "LineString", "coordinates": [ [ -92.639854999978397, 46.900859003533697 ], [ -92.6398676, 46.9008966000087 ] ] } },
{ "type": "Feature", "properties": { "wmUplineSo": "GRAND LAKE", "wmType": "Underground" }, "geometry": { "type": "LineString", "coordinates": [ [ -92.556634440412296, 46.9317129998322 ], [ -92.556465099999897, 46.9318870000087 ] ] } },
{ "type": "Feature", "properties": { "wmUplineSo": "GRAND LAKE", "wmType": "Underground" }, "geometry": { "type": "LineString", "coordinates": [ [ -92.630236857612203, 46.8994736048341 ], [ -92.629960399999902, 46.899385300008603 ] ] } },
{ "type": "Feature", "properties": { "wmUplineSo": "GRAND LAKE", "wmType": "Underground" }, "geometry": { "type": "LineString", "coordinates": [ [ -92.515976689609701, 46.897111830821103 ], [ -92.516655299999897, 46.8968514000086 ] ] } },
{ "type": "Feature", "properties": { "wmUplineSo": "GRAND LAKE", "wmType": "Underground" }, "geometry": { "type": "LineString", "coordinates": [ [ -92.480335217230305, 46.921862758084401 ], [ -92.480300809597395, 46.921859073706599 ] ] } },
{ "type": "Feature", "properties": { "wmUplineSo": "GRAND LAKE", "wmType": "Underground" }, "geometry": { "type": "LineString", "coordinates": [ [ -92.544514373322997, 46.896158054128797 ], [ -92.545716841629101, 46.8961476205547 ] ] } },
{ "type": "Feature", "properties": { "wmUplineSo": "GRAND LAKE", "wmType": "Underground" }, "geometry": { "type": "LineString", "coordinates": [ [ -92.485073999969003, 46.922231003539302 ], [ -92.484468966160904, 46.9222088490312 ] ] } },
{ "type": "Feature", "properties": { "wmUplineSo": "GRAND LAKE", "wmType": "Underground" }, "geometry": { "type": "LineString", "coordinates": [ [ -92.484468966160904, 46.9222088490312 ], [ -92.484470973195997, 46.921792390331198 ] ] } },
{ "type": "Feature", "properties": { "wmUplineSo": "GRAND LAKE", "wmType": "Underground" }, "geometry": { "type": "LineString", "coordinates": [ [ -92.542853999972493, 46.9371870035434 ], [ -92.542860299999901, 46.937158300008697 ] ] } },
{ "type": "Feature", "properties": { "wmUplineSo": "GRAND LAKE", "wmType": "Underground" }, "geometry": { "type": "LineString", "coordinates": [ [ -92.489048467431701, 46.92372968387 ], [ -92.488708546006904, 46.923413019515898 ], [ -92.488728317316799, 46.922803881575497 ] ] } },
{ "type": "Feature", "properties": { "wmUplineSo": "GRAND LAKE", "wmType": "Underground" }, "geometry": { "type": "LineString", "coordinates": [ [ -92.640799730724893, 46.908459799507298 ], [ -92.641056320595098, 46.908424439225101 ] ] } },
{ "type": "Feature", "properties": { "wmUplineSo": "GRAND LAKE", "wmType": "Underground" }, "geometry": { "type": "LineString", "coordinates": [ [ -92.481229416771797, 46.917203892396799 ], [ -92.481043, 46.917206 ] ] } },
{ "type": "Feature", "properties": { "wmUplineSo": "GRAND LAKE", "wmType": "Underground" }, "geometry": { "type": "LineString", "coordinates": [ [ -92.492066688654802, 46.858405018163197 ], [ -92.492107593139295, 46.857923256664797 ] ] } },
{ "type": "Feature", "properties": { "wmUplineSo": "GRAND LAKE", "wmType": "Underground" }, "geometry": { "type": "LineString", "coordinates": [ [ -92.491611147082196, 46.861755184642803 ], [ -92.491577194358001, 46.861199407709897 ] ] } },
{ "type": "Feature", "properties": { "wmUplineSo": "GRAND LAKE", "wmType": "Underground" }, "geometry": { "type": "LineString", "coordinates": [ [ -92.491577194358001, 46.861199407709897 ], [ -92.491597239033496, 46.860607003502402 ] ] } },
{ "type": "Feature", "properties": { "wmUplineSo": "GRAND LAKE", "wmType": "Underground" }, "geometry": { "type": "LineString", "coordinates": [ [ -92.484470973195997, 46.921792390331198 ], [ -92.484421949049207, 46.921260999937203 ] ] } },
{ "type": "Feature", "properties": { "wmUplineSo": "GRAND LAKE", "wmType": "Underground" }, "geometry": { "type": "LineString", "coordinates": [ [ -92.481112502744693, 46.9216690074662 ], [ -92.480833893771404, 46.921832448630298 ] ] } },
{ "type": "Feature", "properties": { "wmUplineSo": "GRAND LAKE", "wmType": "Underground" }, "geometry": { "type": "LineString", "coordinates": [ [ -92.480833893771404, 46.921832448630298 ], [ -92.480335217230305, 46.921862758084401 ] ] } },
{ "type": "Feature", "properties": { "wmUplineSo": "GRAND LAKE", "wmType": "Underground" }, "geometry": { "type": "LineString", "coordinates": [ [ -92.491597239033496, 46.860607003502402 ], [ -92.491601247164894, 46.859874840987899 ] ] } },
{ "type": "Feature", "properties": { "wmUplineSo": "GRAND LAKE", "wmType": "Underground" }, "geometry": { "type": "LineString", "coordinates": [ [ -92.489126434458598, 46.9244917603204 ], [ -92.489070036902206, 46.924053321493098 ], [ -92.489048467431701, 46.92372968387 ] ] } },
{ "type": "Feature", "properties": { "wmUplineSo": "GRAND LAKE", "wmType": "Underground" }, "geometry": { "type": "LineString", "coordinates": [ [ -92.497436130650101, 46.924328829257398 ], [ -92.497811597906704, 46.924361946094898 ] ] } },
{ "type": "Feature", "properties": { "wmUplineSo": "GRAND LAKE", "wmType": "Underground" }, "geometry": { "type": "LineString", "coordinates": [ [ -92.505657834148707, 46.9241539981127 ], [ -92.505213747968597, 46.924638706656502 ] ] } },
{ "type": "Feature", "properties": { "wmUplineSo": "GRAND LAKE", "wmType": "Underground" }, "geometry": { "type": "LineString", "coordinates": [ [ -92.554685630305002, 46.946334405584899 ], [ -92.555859149945107, 46.947803161405098 ] ] } },
{ "type": "Feature", "properties": { "wmUplineSo": "GRAND LAKE", "wmType": "Underground" }, "geometry": { "type": "LineString", "coordinates": [ [ -92.554234857314597, 46.941058421732301 ], [ -92.553068281160193, 46.9412618794682 ] ] } },
{ "type": "Feature", "properties": { "wmUplineSo": "GRAND LAKE", "wmType": "Underground" }, "geometry": { "type": "LineString", "coordinates": [ [ -92.554407990011796, 46.941079031655903 ], [ -92.554234857314597, 46.941058421732301 ] ] } },
{ "type": "Feature", "properties": { "wmUplineSo": "GRAND LAKE", "wmType": "Underground" }, "geometry": { "type": "LineString", "coordinates": [ [ -92.554789271520903, 46.929920141387697 ], [ -92.555411324408794, 46.929315380932799 ] ] } },
{ "type": "Feature", "properties": { "wmUplineSo": "GRAND LAKE", "wmType": "Underground" }, "geometry": { "type": "LineString", "coordinates": [ [ -92.608382409350796, 46.897722508405003 ], [ -92.608398995695396, 46.898582050534998 ] ] } },
{ "type": "Feature", "properties": { "wmUplineSo": "GRAND LAKE", "wmType": "Underground" }, "geometry": { "type": "LineString", "coordinates": [ [ -92.535461706883794, 46.905417468675999 ], [ -92.535392105891702, 46.905857987601699 ], [ -92.535576847809807, 46.906351758511697 ], [ -92.536874264773303, 46.906703148576099 ], [ -92.537801826049801, 46.907056903534098 ], [ -92.538340700783706, 46.907681960651402 ] ] } },
{ "type": "Feature", "properties": { "wmUplineSo": "GRAND LAKE", "wmType": "Underground" }, "geometry": { "type": "LineString", "coordinates": [ [ -92.537529261753605, 46.904560582053598 ], [ -92.537750718302206, 46.905303661838602 ] ] } },
{ "type": "Feature", "properties": { "wmUplineSo": "GRAND LAKE", "wmType": "Underground" }, "geometry": { "type": "LineString", "coordinates": [ [ -92.491913701283295, 46.8678345638507 ], [ -92.493695559048604, 46.867756945815998 ] ] } },
{ "type": "Feature", "properties": { "wmUplineSo": "GRAND LAKE", "wmType": "Underground" }, "geometry": { "type": "LineString", "coordinates": [ [ -92.492128215331803, 46.869990197451898 ], [ -92.493233943759805, 46.870346472900302 ] ] } },
{ "type": "Feature", "properties": { "wmUplineSo": "GRAND LAKE", "wmType": "Underground" }, "geometry": { "type": "LineString", "coordinates": [ [ -92.491685257695096, 46.867793448032202 ], [ -92.491913701283295, 46.8678345638507 ] ] } },
{ "type": "Feature", "properties": { "wmUplineSo": "GRAND LAKE", "wmType": "Underground" }, "geometry": { "type": "LineString", "coordinates": [ [ -92.491662094918595, 46.870026236159902 ], [ -92.492128215331803, 46.869990197451898 ] ] } },
{ "type": "Feature", "properties": { "wmUplineSo": "GRAND LAKE", "wmType": "Underground" }, "geometry": { "type": "LineString", "coordinates": [ [ -92.482645460941697, 46.866127924350899 ], [ -92.482663237801205, 46.867525974692001 ], [ -92.482923183423495, 46.867767220594601 ] ] } },
{ "type": "Feature", "properties": { "wmUplineSo": "GRAND LAKE", "wmType": "Underground" }, "geometry": { "type": "LineString", "coordinates": [ [ -92.479134651092494, 46.866008857478803 ], [ -92.478841594025099, 46.866740640752603 ] ] } },
{ "type": "Feature", "properties": { "wmUplineSo": "GRAND LAKE", "wmType": "Underground" }, "geometry": { "type": "LineString", "coordinates": [ [ -92.485817062277405, 46.916763237543996 ], [ -92.486032349810301, 46.916780886963998 ] ] } },
{ "type": "Feature", "properties": { "wmUplineSo": "GRAND LAKE", "wmType": "Underground" }, "geometry": { "type": "LineString", "coordinates": [ [ -92.486032349810301, 46.916780886963998 ], [ -92.4864618961969, 46.916872118019498 ] ] } },
{ "type": "Feature", "properties": { "wmUplineSo": "GRAND LAKE", "wmType": "Underground" }, "geometry": { "type": "LineString", "coordinates": [ [ -92.4864618961969, 46.916872118019498 ], [ -92.486650408742605, 46.916945901203803 ] ] } },
{ "type": "Feature", "properties": { "wmUplineSo": "GRAND LAKE", "wmType": "Underground" }, "geometry": { "type": "LineString", "coordinates": [ [ -92.486650408742605, 46.916945901203803 ], [ -92.486680217871694, 46.916962617539902 ] ] } },
{ "type": "Feature", "properties": { "wmUplineSo": "GRAND LAKE", "wmType": "Underground" }, "geometry": { "type": "LineString", "coordinates": [ [ -92.484421949049207, 46.921260999937203 ], [ -92.484445968466005, 46.920897716305902 ] ] } },
{ "type": "Feature", "properties": { "wmUplineSo": "GRAND LAKE", "wmType": "Underground" }, "geometry": { "type": "LineString", "coordinates": [ [ -92.484445968466005, 46.920897716305902 ], [ -92.484446993639807, 46.9204630926167 ] ] } },
{ "type": "Feature", "properties": { "wmUplineSo": "GRAND LAKE", "wmType": "Underground" }, "geometry": { "type": "LineString", "coordinates": [ [ -92.484446993639807, 46.9204630926167 ], [ -92.484486246026094, 46.920086050966702 ] ] } },
{ "type": "Feature", "properties": { "wmUplineSo": "GRAND LAKE", "wmType": "Underground" }, "geometry": { "type": "LineString", "coordinates": [ [ -92.484486246026094, 46.920086050966702 ], [ -92.484716585196907, 46.919852046503301 ] ] } },
{ "type": "Feature", "properties": { "wmUplineSo": "GRAND LAKE", "wmType": "Underground" }, "geometry": { "type": "LineString", "coordinates": [ [ -92.484716585196907, 46.919852046503301 ], [ -92.485579701335297, 46.9195843557549 ] ] } },
{ "type": "Feature", "properties": { "wmUplineSo": "GRAND LAKE", "wmType": "Underground" }, "geometry": { "type": "LineString", "coordinates": [ [ -92.485579701335297, 46.9195843557549 ], [ -92.485836296439999, 46.919294875588001 ] ] } },
{ "type": "Feature", "properties": { "wmUplineSo": "GRAND LAKE", "wmType": "Underground" }, "geometry": { "type": "LineString", "coordinates": [ [ -92.485836296439999, 46.919294875588001 ], [ -92.485826984952098, 46.918842047973698 ] ] } },
{ "type": "Feature", "properties": { "wmUplineSo": "GRAND LAKE", "wmType": "Underground" }, "geometry": { "type": "LineString", "coordinates": [ [ -92.485826984952098, 46.918842047973698 ], [ -92.4860039982931, 46.918844967850802 ] ] } },
{ "type": "Feature", "properties": { "wmUplineSo": "GRAND LAKE", "wmType": "Underground" }, "geometry": { "type": "LineString", "coordinates": [ [ -92.4860039982931, 46.918844967850802 ], [ -92.486007009179104, 46.918237968426403 ] ] } },
{ "type": "Feature", "properties": { "wmUplineSo": "GRAND LAKE", "wmType": "Underground" }, "geometry": { "type": "LineString", "coordinates": [ [ -92.486007009179104, 46.918237968426403 ], [ -92.486023983400699, 46.917576689772098 ] ] } },
{ "type": "Feature", "properties": { "wmUplineSo": "GRAND LAKE", "wmType": "Underground" }, "geometry": { "type": "LineString", "coordinates": [ [ -92.486023983400699, 46.917576689772098 ], [ -92.486001047818604, 46.917102192743798 ] ] } },
{ "type": "Feature", "properties": { "wmUplineSo": "GRAND LAKE", "wmType": "Underground" }, "geometry": { "type": "LineString", "coordinates": [ [ -92.486001047818604, 46.917102192743798 ], [ -92.485794704460702, 46.916875448853197 ] ] } },
{ "type": "Feature", "properties": { "wmUplineSo": "GRAND LAKE", "wmType": "Underground" }, "geometry": { "type": "LineString", "coordinates": [ [ -92.485794704460702, 46.916875448853197 ], [ -92.485817062277405, 46.916763237543996 ] ] } },
{ "type": "Feature", "properties": { "wmUplineSo": "GRAND LAKE", "wmType": "Underground" }, "geometry": { "type": "LineString", "coordinates": [ [ -92.485817062277405, 46.916763237543996 ], [ -92.485791284158907, 46.916647543618097 ] ] } },
{ "type": "Feature", "properties": { "wmUplineSo": "GRAND LAKE", "wmType": "Underground" }, "geometry": { "type": "LineString", "coordinates": [ [ -92.485791284158907, 46.916647543618097 ], [ -92.485406134160201, 46.916661548069797 ] ] } },
{ "type": "Feature", "properties": { "wmUplineSo": "GRAND LAKE", "wmType": "Underground" }, "geometry": { "type": "LineString", "coordinates": [ [ -92.485406134160201, 46.916661548069797 ], [ -92.484843989528301, 46.9167640166132 ] ] } },
{ "type": "Feature", "properties": { "wmUplineSo": "GRAND LAKE", "wmType": "Underground" }, "geometry": { "type": "LineString", "coordinates": [ [ -92.484843989528301, 46.9167640166132 ], [ -92.483132650568294, 46.916919564630497 ] ] } },
{ "type": "Feature", "properties": { "wmUplineSo": "GRAND LAKE", "wmType": "Underground" }, "geometry": { "type": "LineString", "coordinates": [ [ -92.483132650568294, 46.916919564630497 ], [ -92.482222915461804, 46.917031921324401 ] ] } },
{ "type": "Feature", "properties": { "wmUplineSo": "GRAND LAKE", "wmType": "Underground" }, "geometry": { "type": "LineString", "coordinates": [ [ -92.482222915461804, 46.917031921324401 ], [ -92.481229416771797, 46.917203892396799 ] ] } },
{ "type": "Feature", "properties": { "wmUplineSo": "GRAND LAKE", "wmType": "Underground" }, "geometry": { "type": "LineString", "coordinates": [ [ -92.522509995566296, 46.921520585065799 ], [ -92.522515557585805, 46.921551735625002 ] ] } },
{ "type": "Feature", "properties": { "wmUplineSo": "GRAND LAKE", "wmType": "Underground" }, "geometry": { "type": "LineString", "coordinates": [ [ -92.522515557585805, 46.921551735625002 ], [ -92.522991061796901, 46.921630523009199 ] ] } },
{ "type": "Feature", "properties": { "wmUplineSo": "GRAND LAKE", "wmType": "Underground" }, "geometry": { "type": "LineString", "coordinates": [ [ -92.522991061796901, 46.921630523009199 ], [ -92.523348535305701, 46.921746696377802 ] ] } },
{ "type": "Feature", "properties": { "wmUplineSo": "GRAND LAKE", "wmType": "Underground" }, "geometry": { "type": "LineString", "coordinates": [ [ -92.523348535305701, 46.921746696377802 ], [ -92.523584410610894, 46.921877928044097 ] ] } },
{ "type": "Feature", "properties": { "wmUplineSo": "GRAND LAKE", "wmType": "Underground" }, "geometry": { "type": "LineString", "coordinates": [ [ -92.523584410610894, 46.921877928044097 ], [ -92.523605632632695, 46.921891064548802 ] ] } },
{ "type": "Feature", "properties": { "wmUplineSo": "GRAND LAKE", "wmType": "Underground" }, "geometry": { "type": "LineString", "coordinates": [ [ -92.492334515629906, 46.863707124667201 ], [ -92.493061351668601, 46.863634689807697 ] ] } },
{ "type": "Feature", "properties": { "wmUplineSo": "GRAND LAKE", "wmType": "Underground" }, "geometry": { "type": "LineString", "coordinates": [ [ -92.522252971285099, 46.909012999906899 ], [ -92.520632245530194, 46.909134440321402 ], [ -92.520441806461406, 46.909253095330499 ], [ -92.519507433341403, 46.9092680008945 ], [ -92.519034834002397, 46.909161822422298 ] ] } },
{ "type": "Feature", "properties": { "wmUplineSo": "GRAND LAKE", "wmType": "Underground" }, "geometry": { "type": "LineString", "coordinates": [ [ -92.522729413998803, 46.9167264912668 ], [ -92.523096850025595, 46.916575504210499 ] ] } },
{ "type": "Feature", "properties": { "wmUplineSo": "GRAND LAKE", "wmType": "Underground" }, "geometry": { "type": "LineString", "coordinates": [ [ -92.523096850025595, 46.916575504210499 ], [ -92.524639519996697, 46.916334542890297 ] ] } },
{ "type": "Feature", "properties": { "wmUplineSo": "GRAND LAKE", "wmType": "Underground" }, "geometry": { "type": "LineString", "coordinates": [ [ -92.522509995566296, 46.921520585065799 ], [ -92.521777699517401, 46.921331114325803 ] ] } },
{ "type": "Feature", "properties": { "wmUplineSo": "GRAND LAKE", "wmType": "Underground" }, "geometry": { "type": "LineString", "coordinates": [ [ -92.520241245954907, 46.923974577876898 ], [ -92.520459322889593, 46.9229433924502 ] ] } },
{ "type": "Feature", "properties": { "wmUplineSo": "GRAND LAKE", "wmType": "Underground" }, "geometry": { "type": "LineString", "coordinates": [ [ -92.489290215156998, 46.9248518383123 ], [ -92.489126434458598, 46.9244917603204 ] ] } },
{ "type": "Feature", "properties": { "wmUplineSo": "GRAND LAKE", "wmType": "Underground" }, "geometry": { "type": "LineString", "coordinates": [ [ -92.580791196791694, 46.9404015274256 ], [ -92.581217492510106, 46.940582853750698 ] ] } },
{ "type": "Feature", "properties": { "wmUplineSo": "GRAND LAKE", "wmType": "Underground" }, "geometry": { "type": "LineString", "coordinates": [ [ -92.517860027326407, 46.924007588465102 ], [ -92.518571157291703, 46.923319208126898 ] ] } },
{ "type": "Feature", "properties": { "wmUplineSo": "GRAND LAKE", "wmType": "Underground" }, "geometry": { "type": "LineString", "coordinates": [ [ -92.535461706883794, 46.905417468675999 ], [ -92.534051361620897, 46.905408455145299 ] ] } },
{ "type": "Feature", "properties": { "wmUplineSo": "GRAND LAKE", "wmType": "Underground" }, "geometry": { "type": "LineString", "coordinates": [ [ -92.536028466207, 46.902730518590197 ], [ -92.535516196359296, 46.905062061728401 ], [ -92.535461706883794, 46.905417468675999 ] ] } },
{ "type": "Feature", "properties": { "wmUplineSo": "GRAND LAKE", "wmType": "Underground" }, "geometry": { "type": "LineString", "coordinates": [ [ -92.640513658913704, 46.898923161300999 ], [ -92.640474584259195, 46.899051786777299 ] ] } },
{ "type": "Feature", "properties": { "wmUplineSo": "GRAND LAKE", "wmType": "Underground" }, "geometry": { "type": "LineString", "coordinates": [ [ -92.640474584259195, 46.899051786777299 ], [ -92.639854999978397, 46.900859003533697 ] ] } },
{ "type": "Feature", "properties": { "wmUplineSo": "GRAND LAKE", "wmType": "Underground" }, "geometry": { "type": "LineString", "coordinates": [ [ -92.481675656322096, 46.865868375327203 ], [ -92.481849253571596, 46.865699555804603 ] ] } },
{ "type": "Feature", "properties": { "wmUplineSo": "GRAND LAKE", "wmType": "Underground" }, "geometry": { "type": "LineString", "coordinates": [ [ -92.481849253571596, 46.865699555804603 ], [ -92.481899004845005, 46.865226184425303 ] ] } },
{ "type": "Feature", "properties": { "wmUplineSo": "GRAND LAKE", "wmType": "Underground" }, "geometry": { "type": "LineString", "coordinates": [ [ -92.555228493773399, 46.931942344789597 ], [ -92.555456141652002, 46.931838147617803 ], [ -92.555734032645105, 46.9318902450024 ], [ -92.556029107288197, 46.931900522624801 ], [ -92.5563439656502, 46.931833721606701 ], [ -92.556634440412296, 46.9317129998322 ] ] } },
{ "type": "Feature", "properties": { "wmUplineSo": "GRAND LAKE", "wmType": "Underground" }, "geometry": { "type": "LineString", "coordinates": [ [ -92.632016838798293, 46.8981997303245 ], [ -92.631394617443604, 46.8982911725547 ], [ -92.631253472611306, 46.898598665310402 ], [ -92.630987217230199, 46.898675870309603 ], [ -92.630799608873801, 46.898678000814201 ], [ -92.630236857612203, 46.8994736048341 ] ] } },
{ "type": "Feature", "properties": { "wmUplineSo": "GRAND LAKE", "wmType": "Underground" }, "geometry": { "type": "LineString", "coordinates": [ [ -92.484421949049207, 46.921260999937203 ], [ -92.484354258127595, 46.921196466957703 ] ] } },
{ "type": "Feature", "properties": { "wmUplineSo": "GRAND LAKE", "wmType": "Underground" }, "geometry": { "type": "LineString", "coordinates": [ [ -92.484354258127595, 46.921196466957703 ], [ -92.484014440846295, 46.9211689587368 ] ] } },
{ "type": "Feature", "properties": { "wmUplineSo": "GRAND LAKE", "wmType": "Underground" }, "geometry": { "type": "LineString", "coordinates": [ [ -92.484014440846295, 46.9211689587368 ], [ -92.483946, 46.921401000000102 ] ] } },
{ "type": "Feature", "properties": { "wmUplineSo": "GRAND LAKE", "wmType": "Underground" }, "geometry": { "type": "LineString", "coordinates": [ [ -92.483946, 46.921401000000102 ], [ -92.483596, 46.921570000000102 ] ] } },
{ "type": "Feature", "properties": { "wmUplineSo": "GRAND LAKE", "wmType": "Underground" }, "geometry": { "type": "LineString", "coordinates": [ [ -92.641056320595098, 46.908424439225101 ], [ -92.641087702174005, 46.90841937415 ] ] } },
{ "type": "Feature", "properties": { "wmUplineSo": "GRAND LAKE", "wmType": "Underground" }, "geometry": { "type": "LineString", "coordinates": [ [ -92.482803, 46.921684 ], [ -92.4824584827861, 46.9216366734628 ] ] } },
{ "type": "Feature", "properties": { "wmUplineSo": "GRAND LAKE", "wmType": "Underground" }, "geometry": { "type": "LineString", "coordinates": [ [ -92.4824584827861, 46.9216366734628 ], [ -92.482500594151006, 46.921576922742297 ] ] } },
{ "type": "Feature", "properties": { "wmUplineSo": "GRAND LAKE", "wmType": "Underground" }, "geometry": { "type": "LineString", "coordinates": [ [ -92.482500594151006, 46.921576922742297 ], [ -92.4826518010196, 46.921369692457297 ] ] } },
{ "type": "Feature", "properties": { "wmUplineSo": "GRAND LAKE", "wmType": "Underground" }, "geometry": { "type": "LineString", "coordinates": [ [ -92.4826518010196, 46.921369692457297 ], [ -92.482647844987298, 46.921347954107901 ] ] } },
{ "type": "Feature", "properties": { "wmUplineSo": "GRAND LAKE", "wmType": "Underground" }, "geometry": { "type": "LineString", "coordinates": [ [ -92.480872, 46.916282 ], [ -92.480891, 46.915943999999897 ] ] } },
{ "type": "Feature", "properties": { "wmUplineSo": "GRAND LAKE", "wmType": "Underground" }, "geometry": { "type": "LineString", "coordinates": [ [ -92.480891, 46.915943999999897 ], [ -92.481084799653402, 46.915828349206997 ] ] } },
{ "type": "Feature", "properties": { "wmUplineSo": "GRAND LAKE", "wmType": "Underground" }, "geometry": { "type": "LineString", "coordinates": [ [ -92.481084799653402, 46.915828349206997 ], [ -92.481144923080706, 46.9157916286321 ] ] } },
{ "type": "Feature", "properties": { "wmUplineSo": "GRAND LAKE", "wmType": "Underground" }, "geometry": { "type": "LineString", "coordinates": [ [ -92.523023384394605, 46.898363236764098 ], [ -92.524147195992299, 46.898406667627597 ] ] } },
{ "type": "Feature", "properties": { "wmUplineSo": "GRAND LAKE", "wmType": "Underground" }, "geometry": { "type": "LineString", "coordinates": [ [ -92.524147195992299, 46.898406667627597 ], [ -92.524176067228694, 46.898404959563102 ] ] } },
{ "type": "Feature", "properties": { "wmUplineSo": "GRAND LAKE", "wmType": "Underground" }, "geometry": { "type": "LineString", "coordinates": [ [ -92.491601247164894, 46.859874840987899 ], [ -92.491577223333607, 46.859241003504302 ] ] } },
{ "type": "Feature", "properties": { "wmUplineSo": "GRAND LAKE", "wmType": "Underground" }, "geometry": { "type": "LineString", "coordinates": [ [ -92.512144481244704, 46.903689189666103 ], [ -92.512314, 46.903778000000102 ] ] } },
{ "type": "Feature", "properties": { "wmUplineSo": "GRAND LAKE", "wmType": "Underground" }, "geometry": { "type": "LineString", "coordinates": [ [ -92.512314, 46.903778000000102 ], [ -92.512503, 46.903800000000103 ] ] } },
{ "type": "Feature", "properties": { "wmUplineSo": "GRAND LAKE", "wmType": "Underground" }, "geometry": { "type": "LineString", "coordinates": [ [ -92.481043, 46.917206 ], [ -92.480890070705598, 46.916678068425597 ] ] } },
{ "type": "Feature", "properties": { "wmUplineSo": "GRAND LAKE", "wmType": "Underground" }, "geometry": { "type": "LineString", "coordinates": [ [ -92.484014440846295, 46.9211689587368 ], [ -92.483994620941104, 46.921156310498603 ] ] } },
{ "type": "Feature", "properties": { "wmUplineSo": "GRAND LAKE", "wmType": "Underground" }, "geometry": { "type": "LineString", "coordinates": [ [ -92.512503, 46.903800000000103 ], [ -92.512583, 46.903785 ] ] } },
{ "type": "Feature", "properties": { "wmUplineSo": "GRAND LAKE", "wmType": "Underground" }, "geometry": { "type": "LineString", "coordinates": [ [ -92.512583, 46.903785 ], [ -92.512683, 46.903807999999898 ] ] } },
{ "type": "Feature", "properties": { "wmUplineSo": "GRAND LAKE", "wmType": "Underground" }, "geometry": { "type": "LineString", "coordinates": [ [ -92.492205438271299, 46.857751199243303 ], [ -92.492297662739801, 46.857538851897097 ] ] } },
{ "type": "Feature", "properties": { "wmUplineSo": "GRAND LAKE", "wmType": "Underground" }, "geometry": { "type": "LineString", "coordinates": [ [ -92.492297662739801, 46.857538851897097 ], [ -92.4921768977987, 46.857343903383097 ] ] } },
{ "type": "Feature", "properties": { "wmUplineSo": "GRAND LAKE", "wmType": "Underground" }, "geometry": { "type": "LineString", "coordinates": [ [ -92.4921768977987, 46.857343903383097 ], [ -92.492196734012296, 46.857110888334198 ] ] } },
{ "type": "Feature", "properties": { "wmUplineSo": "GRAND LAKE", "wmType": "Underground" }, "geometry": { "type": "LineString", "coordinates": [ [ -92.492196734012296, 46.857110888334198 ], [ -92.492186796459904, 46.856991701130603 ] ] } },
{ "type": "Feature", "properties": { "wmUplineSo": "GRAND LAKE", "wmType": "Underground" }, "geometry": { "type": "LineString", "coordinates": [ [ -92.491577223333607, 46.859241003504302 ], [ -92.491619098528005, 46.859029669663101 ] ] } },
{ "type": "Feature", "properties": { "wmUplineSo": "GRAND LAKE", "wmType": "Underground" }, "geometry": { "type": "LineString", "coordinates": [ [ -92.492186796459904, 46.856991701130603 ], [ -92.492228943403504, 46.856755161134998 ] ] } },
{ "type": "Feature", "properties": { "wmUplineSo": "GRAND LAKE", "wmType": "Underground" }, "geometry": { "type": "LineString", "coordinates": [ [ -92.492228943403504, 46.856755161134998 ], [ -92.492421721727993, 46.856686182476103 ] ] } },
{ "type": "Feature", "properties": { "wmUplineSo": "GRAND LAKE", "wmType": "Underground" }, "geometry": { "type": "LineString", "coordinates": [ [ -92.491619098528005, 46.859029669663101 ], [ -92.491875324226498, 46.858919598751001 ] ] } },
{ "type": "Feature", "properties": { "wmUplineSo": "GRAND LAKE", "wmType": "Underground" }, "geometry": { "type": "LineString", "coordinates": [ [ -92.492421721727993, 46.856686182476103 ], [ -92.492790024170603, 46.856541971978999 ] ] } },
{ "type": "Feature", "properties": { "wmUplineSo": "GRAND LAKE", "wmType": "Underground" }, "geometry": { "type": "LineString", "coordinates": [ [ -92.492790024170603, 46.856541971978999 ], [ -92.492978029113502, 46.856707628148499 ] ] } },
{ "type": "Feature", "properties": { "wmUplineSo": "GRAND LAKE", "wmType": "Underground" }, "geometry": { "type": "LineString", "coordinates": [ [ -92.492978029113502, 46.856707628148499 ], [ -92.493197951731801, 46.856778353570498 ] ] } },
{ "type": "Feature", "properties": { "wmUplineSo": "GRAND LAKE", "wmType": "Underground" }, "geometry": { "type": "LineString", "coordinates": [ [ -92.493197951731801, 46.856778353570498 ], [ -92.493445404774107, 46.856884251437499 ] ] } },
{ "type": "Feature", "properties": { "wmUplineSo": "GRAND LAKE", "wmType": "Underground" }, "geometry": { "type": "LineString", "coordinates": [ [ -92.493445404774107, 46.856884251437499 ], [ -92.493433579999902, 46.856901660008603 ] ] } },
{ "type": "Feature", "properties": { "wmUplineSo": "GRAND LAKE", "wmType": "Underground" }, "geometry": { "type": "LineString", "coordinates": [ [ -92.512683, 46.903807999999898 ], [ -92.5130759869012, 46.903855999926201 ] ] } },
{ "type": "Feature", "properties": { "wmUplineSo": "GRAND LAKE", "wmType": "Underground" }, "geometry": { "type": "LineString", "coordinates": [ [ -92.491875324226498, 46.858919598751001 ], [ -92.491985637251503, 46.858818481516003 ] ] } },
{ "type": "Feature", "properties": { "wmUplineSo": "GRAND LAKE", "wmType": "Underground" }, "geometry": { "type": "LineString", "coordinates": [ [ -92.5130759869012, 46.903855999926201 ], [ -92.513254082838699, 46.9037921103141 ] ] } },
{ "type": "Feature", "properties": { "wmUplineSo": "GRAND LAKE", "wmType": "Underground" }, "geometry": { "type": "LineString", "coordinates": [ [ -92.513254082838699, 46.9037921103141 ], [ -92.513239972231702, 46.903806924563597 ] ] } },
{ "type": "Feature", "properties": { "wmUplineSo": "GRAND LAKE", "wmType": "Underground" }, "geometry": { "type": "LineString", "coordinates": [ [ -92.491661999956705, 46.864166164170904 ], [ -92.492334515629906, 46.863707124667201 ] ] } },
{ "type": "Feature", "properties": { "wmUplineSo": "GRAND LAKE", "wmType": "Underground" }, "geometry": { "type": "LineString", "coordinates": [ [ -92.486781201896704, 46.924633793289701 ], [ -92.486800452601798, 46.924787872073402 ] ] } },
{ "type": "Feature", "properties": { "wmUplineSo": "GRAND LAKE", "wmType": "Underground" }, "geometry": { "type": "LineString", "coordinates": [ [ -92.492107593139295, 46.857923256664797 ], [ -92.4920629031473, 46.857861393263804 ] ] } },
{ "type": "Feature", "properties": { "wmUplineSo": "GRAND LAKE", "wmType": "Underground" }, "geometry": { "type": "LineString", "coordinates": [ [ -92.4920629031473, 46.857861393263804 ], [ -92.491932992843999, 46.857760717140899 ] ] } },
{ "type": "Feature", "properties": { "wmUplineSo": "GRAND LAKE", "wmType": "Underground" }, "geometry": { "type": "LineString", "coordinates": [ [ -92.491932992843999, 46.857760717140899 ], [ -92.491833698513901, 46.857684698283101 ] ] } },
{ "type": "Feature", "properties": { "wmUplineSo": "GRAND LAKE", "wmType": "Underground" }, "geometry": { "type": "LineString", "coordinates": [ [ -92.491833698513901, 46.857684698283101 ], [ -92.491806288404504, 46.857680574346503 ] ] } },
{ "type": "Feature", "properties": { "wmUplineSo": "GRAND LAKE", "wmType": "Underground" }, "geometry": { "type": "LineString", "coordinates": [ [ -92.491833698513901, 46.857684698283101 ], [ -92.491806288404504, 46.857680574346503 ] ] } },
{ "type": "Feature", "properties": { "wmUplineSo": "GRAND LAKE", "wmType": "Underground" }, "geometry": { "type": "LineString", "coordinates": [ [ -92.492107593139295, 46.857923256664797 ], [ -92.492131242387401, 46.8578854116925 ] ] } },
{ "type": "Feature", "properties": { "wmUplineSo": "GRAND LAKE", "wmType": "Underground" }, "geometry": { "type": "LineString", "coordinates": [ [ -92.492131242387401, 46.8578854116925 ], [ -92.492205438271299, 46.857751199243303 ] ] } },
{ "type": "Feature", "properties": { "wmUplineSo": "GRAND LAKE", "wmType": "Underground" }, "geometry": { "type": "LineString", "coordinates": [ [ -92.588303999802406, 46.897298625063399 ], [ -92.588504453614107, 46.898066932838503 ] ] } },
{ "type": "Feature", "properties": { "wmUplineSo": "GRAND LAKE", "wmType": "Underground" }, "geometry": { "type": "LineString", "coordinates": [ [ -92.588504453614107, 46.898066932838503 ], [ -92.588506548476602, 46.898089295782903 ] ] } },
{ "type": "Feature", "properties": { "wmUplineSo": "GRAND LAKE", "wmType": "Underground" }, "geometry": { "type": "LineString", "coordinates": [ [ -92.544293013250396, 46.934657353898203 ], [ -92.543670894025396, 46.934415177725398 ] ] } },
{ "type": "Feature", "properties": { "wmUplineSo": "GRAND LAKE", "wmType": "Underground" }, "geometry": { "type": "LineString", "coordinates": [ [ -92.544293013250396, 46.934657353898203 ], [ -92.5443151092596, 46.934647239817501 ] ] } },
{ "type": "Feature", "properties": { "wmUplineSo": "GRAND LAKE", "wmType": "Underground" }, "geometry": { "type": "LineString", "coordinates": [ [ -92.544408494594805, 46.934604494143798 ], [ -92.544918602135397, 46.934366208079801 ] ] } },
{ "type": "Feature", "properties": { "wmUplineSo": "GRAND LAKE", "wmType": "Underground" }, "geometry": { "type": "LineString", "coordinates": [ [ -92.544918602135397, 46.934366208079801 ], [ -92.54517, 46.934106 ] ] } },
{ "type": "Feature", "properties": { "wmUplineSo": "GRAND LAKE", "wmType": "Underground" }, "geometry": { "type": "LineString", "coordinates": [ [ -92.54517, 46.934106 ], [ -92.545738, 46.934011 ] ] } },
{ "type": "Feature", "properties": { "wmUplineSo": "GRAND LAKE", "wmType": "Underground" }, "geometry": { "type": "LineString", "coordinates": [ [ -92.545738, 46.934011 ], [ -92.545907, 46.933878 ] ] } },
{ "type": "Feature", "properties": { "wmUplineSo": "GRAND LAKE", "wmType": "Underground" }, "geometry": { "type": "LineString", "coordinates": [ [ -92.545907, 46.933878 ], [ -92.546087, 46.933754 ] ] } },
{ "type": "Feature", "properties": { "wmUplineSo": "GRAND LAKE", "wmType": "Underground" }, "geometry": { "type": "LineString", "coordinates": [ [ -92.546087, 46.933754 ], [ -92.546103, 46.9336020000001 ] ] } },
{ "type": "Feature", "properties": { "wmUplineSo": "GRAND LAKE", "wmType": "Underground" }, "geometry": { "type": "LineString", "coordinates": [ [ -92.546103, 46.9336020000001 ], [ -92.54613, 46.933596999999899 ] ] } },
{ "type": "Feature", "properties": { "wmUplineSo": "GRAND LAKE", "wmType": "Underground" }, "geometry": { "type": "LineString", "coordinates": [ [ -92.5443151092596, 46.934647239817501 ], [ -92.544408494594805, 46.934604494143798 ] ] } },
{ "type": "Feature", "properties": { "wmUplineSo": "GRAND LAKE", "wmType": "Underground" }, "geometry": { "type": "LineString", "coordinates": [ [ -92.493061351668601, 46.863634689807697 ], [ -92.493096686983705, 46.863622233228298 ] ] } },
{ "type": "Feature", "properties": { "wmUplineSo": "GRAND LAKE", "wmType": "Underground" }, "geometry": { "type": "LineString", "coordinates": [ [ -92.554747176728597, 46.9357648490816 ], [ -92.554971737769705, 46.935817264486303 ] ] } },
{ "type": "Feature", "properties": { "wmUplineSo": "GRAND LAKE", "wmType": "Underground" }, "geometry": { "type": "LineString", "coordinates": [ [ -92.554971737769705, 46.935817264486303 ], [ -92.555214345017802, 46.935923762320698 ] ] } },
{ "type": "Feature", "properties": { "wmUplineSo": "GRAND LAKE", "wmType": "Underground" }, "geometry": { "type": "LineString", "coordinates": [ [ -92.555214345017802, 46.935923762320698 ], [ -92.555485329118994, 46.936152933511799 ] ] } },
{ "type": "Feature", "properties": { "wmUplineSo": "GRAND LAKE", "wmType": "Underground" }, "geometry": { "type": "LineString", "coordinates": [ [ -92.555485329118994, 46.936152933511799 ], [ -92.555738560601, 46.936255739731102 ] ] } },
{ "type": "Feature", "properties": { "wmUplineSo": "GRAND LAKE", "wmType": "Underground" }, "geometry": { "type": "LineString", "coordinates": [ [ -92.555738560601, 46.936255739731102 ], [ -92.555764748331697, 46.936259997603699 ] ] } },
{ "type": "Feature", "properties": { "wmUplineSo": "GRAND LAKE", "wmType": "Underground" }, "geometry": { "type": "LineString", "coordinates": [ [ -92.491675370425597, 46.865984984851799 ], [ -92.491705440453501, 46.865941751727497 ] ] } },
{ "type": "Feature", "properties": { "wmUplineSo": "GRAND LAKE", "wmType": "Underground" }, "geometry": { "type": "LineString", "coordinates": [ [ -92.491705440453501, 46.865941751727497 ], [ -92.491640481004893, 46.865474217652597 ] ] } },
{ "type": "Feature", "properties": { "wmUplineSo": "GRAND LAKE", "wmType": "Underground" }, "geometry": { "type": "LineString", "coordinates": [ [ -92.491640481004893, 46.865474217652597 ], [ -92.491630949148501, 46.865066741014701 ] ] } },
{ "type": "Feature", "properties": { "wmUplineSo": "GRAND LAKE", "wmType": "Underground" }, "geometry": { "type": "LineString", "coordinates": [ [ -92.491630949148501, 46.865066741014701 ], [ -92.491628448521396, 46.864516586707801 ] ] } },
{ "type": "Feature", "properties": { "wmUplineSo": "GRAND LAKE", "wmType": "Underground" }, "geometry": { "type": "LineString", "coordinates": [ [ -92.491628448521396, 46.864516586707801 ], [ -92.491661999956705, 46.864166164170904 ] ] } },
{ "type": "Feature", "properties": { "wmUplineSo": "GRAND LAKE", "wmType": "Underground" }, "geometry": { "type": "LineString", "coordinates": [ [ -92.491661999956705, 46.864166164170904 ], [ -92.491671480517894, 46.863513800997801 ] ] } },
{ "type": "Feature", "properties": { "wmUplineSo": "GRAND LAKE", "wmType": "Underground" }, "geometry": { "type": "LineString", "coordinates": [ [ -92.491671480517894, 46.863513800997801 ], [ -92.491652334642495, 46.862949480577903 ] ] } },
{ "type": "Feature", "properties": { "wmUplineSo": "GRAND LAKE", "wmType": "Underground" }, "geometry": { "type": "LineString", "coordinates": [ [ -92.491652334642495, 46.862949480577903 ], [ -92.491697125622693, 46.862525498161297 ] ] } },
{ "type": "Feature", "properties": { "wmUplineSo": "GRAND LAKE", "wmType": "Underground" }, "geometry": { "type": "LineString", "coordinates": [ [ -92.491697125622693, 46.862525498161297 ], [ -92.491599184404905, 46.862272003511301 ] ] } },
{ "type": "Feature", "properties": { "wmUplineSo": "GRAND LAKE", "wmType": "Underground" }, "geometry": { "type": "LineString", "coordinates": [ [ -92.504017722864802, 46.923981212669503 ], [ -92.503929999970197, 46.924247003539897 ] ] } },
{ "type": "Feature", "properties": { "wmUplineSo": "GRAND LAKE", "wmType": "Underground" }, "geometry": { "type": "LineString", "coordinates": [ [ -92.503929999970197, 46.924247003539897 ], [ -92.503975999970194, 46.924335003540001 ] ] } },
{ "type": "Feature", "properties": { "wmUplineSo": "GRAND LAKE", "wmType": "Underground" }, "geometry": { "type": "LineString", "coordinates": [ [ -92.503975999970194, 46.924335003540001 ], [ -92.503985956064795, 46.9245525064715 ] ] } },
{ "type": "Feature", "properties": { "wmUplineSo": "GRAND LAKE", "wmType": "Underground" }, "geometry": { "type": "LineString", "coordinates": [ [ -92.503985956064795, 46.9245525064715 ], [ -92.504005257081204, 46.924572991617801 ] ] } },
{ "type": "Feature", "properties": { "wmUplineSo": "GRAND LAKE", "wmType": "Underground" }, "geometry": { "type": "LineString", "coordinates": [ [ -92.487376488084195, 46.923770000705197 ], [ -92.4873497550184, 46.923741979063699 ] ] } },
{ "type": "Feature", "properties": { "wmUplineSo": "GRAND LAKE", "wmType": "Underground" }, "geometry": { "type": "LineString", "coordinates": [ [ -92.4873497550184, 46.923741979063699 ], [ -92.487290645927104, 46.9237458739753 ] ] } },
{ "type": "Feature", "properties": { "wmUplineSo": "GRAND LAKE", "wmType": "Underground" }, "geometry": { "type": "LineString", "coordinates": [ [ -92.487290645927104, 46.9237458739753 ], [ -92.487199999923703, 46.923773226127601 ] ] } },
{ "type": "Feature", "properties": { "wmUplineSo": "GRAND LAKE", "wmType": "Underground" }, "geometry": { "type": "LineString", "coordinates": [ [ -92.487199999923703, 46.923773226127601 ], [ -92.486714999910504, 46.923755613242797 ] ] } },
{ "type": "Feature", "properties": { "wmUplineSo": "GRAND LAKE", "wmType": "Underground" }, "geometry": { "type": "LineString", "coordinates": [ [ -92.486714999910504, 46.923755613242797 ], [ -92.486464206207799, 46.923763396352101 ] ] } },
{ "type": "Feature", "properties": { "wmUplineSo": "GRAND LAKE", "wmType": "Underground" }, "geometry": { "type": "LineString", "coordinates": [ [ -92.486464206207799, 46.923763396352101 ], [ -92.486295320967699, 46.923762230458699 ] ] } },
{ "type": "Feature", "properties": { "wmUplineSo": "GRAND LAKE", "wmType": "Underground" }, "geometry": { "type": "LineString", "coordinates": [ [ -92.486295320967699, 46.923762230458699 ], [ -92.486142999905795, 46.923760102692803 ] ] } },
{ "type": "Feature", "properties": { "wmUplineSo": "GRAND LAKE", "wmType": "Underground" }, "geometry": { "type": "LineString", "coordinates": [ [ -92.486142999905795, 46.923760102692803 ], [ -92.486020139424397, 46.923756942877702 ] ] } },
{ "type": "Feature", "properties": { "wmUplineSo": "GRAND LAKE", "wmType": "Underground" }, "geometry": { "type": "LineString", "coordinates": [ [ -92.486020139424397, 46.923756942877702 ], [ -92.485934229798701, 46.923516970712797 ] ] } },
{ "type": "Feature", "properties": { "wmUplineSo": "GRAND LAKE", "wmType": "Underground" }, "geometry": { "type": "LineString", "coordinates": [ [ -92.485934229798701, 46.923516970712797 ], [ -92.485915380563796, 46.923164373545497 ] ] } },
{ "type": "Feature", "properties": { "wmUplineSo": "GRAND LAKE", "wmType": "Underground" }, "geometry": { "type": "LineString", "coordinates": [ [ -92.485915380563796, 46.923164373545497 ], [ -92.485855800964302, 46.9229600957133 ] ] } },
{ "type": "Feature", "properties": { "wmUplineSo": "GRAND LAKE", "wmType": "Underground" }, "geometry": { "type": "LineString", "coordinates": [ [ -92.485855800964302, 46.9229600957133 ], [ -92.485854636740598, 46.922782003458202 ] ] } },
{ "type": "Feature", "properties": { "wmUplineSo": "GRAND LAKE", "wmType": "Underground" }, "geometry": { "type": "LineString", "coordinates": [ [ -92.485854636740598, 46.922782003458202 ], [ -92.485802415325594, 46.922702033519101 ] ] } },
{ "type": "Feature", "properties": { "wmUplineSo": "GRAND LAKE", "wmType": "Underground" }, "geometry": { "type": "LineString", "coordinates": [ [ -92.485802415325594, 46.922702033519101 ], [ -92.485606803373301, 46.922703252906999 ] ] } },
{ "type": "Feature", "properties": { "wmUplineSo": "GRAND LAKE", "wmType": "Underground" }, "geometry": { "type": "LineString", "coordinates": [ [ -92.485606803373301, 46.922703252906999 ], [ -92.485159999969, 46.922596003539503 ] ] } },
{ "type": "Feature", "properties": { "wmUplineSo": "GRAND LAKE", "wmType": "Underground" }, "geometry": { "type": "LineString", "coordinates": [ [ -92.485159999969, 46.922596003539503 ], [ -92.485082999968995, 46.922541003539401 ] ] } },
{ "type": "Feature", "properties": { "wmUplineSo": "GRAND LAKE", "wmType": "Underground" }, "geometry": { "type": "LineString", "coordinates": [ [ -92.485082999968995, 46.922541003539401 ], [ -92.485099999969094, 46.922408003539303 ] ] } },
{ "type": "Feature", "properties": { "wmUplineSo": "GRAND LAKE", "wmType": "Underground" }, "geometry": { "type": "LineString", "coordinates": [ [ -92.485099999969094, 46.922408003539303 ], [ -92.485042999969096, 46.922314003539398 ] ] } },
{ "type": "Feature", "properties": { "wmUplineSo": "GRAND LAKE", "wmType": "Underground" }, "geometry": { "type": "LineString", "coordinates": [ [ -92.485042999969096, 46.922314003539398 ], [ -92.485073999969003, 46.922231003539302 ] ] } },
{ "type": "Feature", "properties": { "wmUplineSo": "GRAND LAKE", "wmType": "Underground" }, "geometry": { "type": "LineString", "coordinates": [ [ -92.485073999969003, 46.922231003539302 ], [ -92.4850648062896, 46.9222462463811 ] ] } },
{ "type": "Feature", "properties": { "wmUplineSo": "GRAND LAKE", "wmType": "Underground" }, "geometry": { "type": "LineString", "coordinates": [ [ -92.639854999978397, 46.900859003533697 ], [ -92.6398283213356, 46.900903672248603 ] ] } },
{ "type": "Feature", "properties": { "wmUplineSo": "GRAND LAKE", "wmType": "Underground" }, "geometry": { "type": "LineString", "coordinates": [ [ -92.6398283213356, 46.900903672248603 ], [ -92.639579227109493, 46.9009294605953 ] ] } },
{ "type": "Feature", "properties": { "wmUplineSo": "GRAND LAKE", "wmType": "Underground" }, "geometry": { "type": "LineString", "coordinates": [ [ -92.639579227109493, 46.9009294605953 ], [ -92.639363297509206, 46.900976140739402 ] ] } },
{ "type": "Feature", "properties": { "wmUplineSo": "GRAND LAKE", "wmType": "Underground" }, "geometry": { "type": "LineString", "coordinates": [ [ -92.639363297509206, 46.900976140739402 ], [ -92.639354255593702, 46.901254228462399 ] ] } },
{ "type": "Feature", "properties": { "wmUplineSo": "GRAND LAKE", "wmType": "Underground" }, "geometry": { "type": "LineString", "coordinates": [ [ -92.639354255593702, 46.901254228462399 ], [ -92.639361430656294, 46.901492185229003 ] ] } },
{ "type": "Feature", "properties": { "wmUplineSo": "GRAND LAKE", "wmType": "Underground" }, "geometry": { "type": "LineString", "coordinates": [ [ -92.639361430656294, 46.901492185229003 ], [ -92.639438117326193, 46.901632060133402 ] ] } },
{ "type": "Feature", "properties": { "wmUplineSo": "GRAND LAKE", "wmType": "Underground" }, "geometry": { "type": "LineString", "coordinates": [ [ -92.639366266417397, 46.9043783499596 ], [ -92.639550923430605, 46.904444751961897 ] ] } },
{ "type": "Feature", "properties": { "wmUplineSo": "GRAND LAKE", "wmType": "Underground" }, "geometry": { "type": "LineString", "coordinates": [ [ -92.639550923430605, 46.904444751961897 ], [ -92.639503921677701, 46.904553392621899 ] ] } },
{ "type": "Feature", "properties": { "wmUplineSo": "GRAND LAKE", "wmType": "Underground" }, "geometry": { "type": "LineString", "coordinates": [ [ -92.639503921677701, 46.904553392621899 ], [ -92.639345276529198, 46.904699582626499 ] ] } },
{ "type": "Feature", "properties": { "wmUplineSo": "GRAND LAKE", "wmType": "Underground" }, "geometry": { "type": "LineString", "coordinates": [ [ -92.639345276529198, 46.904699582626499 ], [ -92.639318117235703, 46.904986891809699 ] ] } },
{ "type": "Feature", "properties": { "wmUplineSo": "GRAND LAKE", "wmType": "Underground" }, "geometry": { "type": "LineString", "coordinates": [ [ -92.639318117235703, 46.904986891809699 ], [ -92.639316216842204, 46.905446810782799 ] ] } },
{ "type": "Feature", "properties": { "wmUplineSo": "GRAND LAKE", "wmType": "Underground" }, "geometry": { "type": "LineString", "coordinates": [ [ -92.639316216842204, 46.905446810782799 ], [ -92.639345300970902, 46.905840950421599 ] ] } },
{ "type": "Feature", "properties": { "wmUplineSo": "GRAND LAKE", "wmType": "Underground" }, "geometry": { "type": "LineString", "coordinates": [ [ -92.639345300970902, 46.905840950421599 ], [ -92.639388490429397, 46.906118370090098 ] ] } },
{ "type": "Feature", "properties": { "wmUplineSo": "GRAND LAKE", "wmType": "Underground" }, "geometry": { "type": "LineString", "coordinates": [ [ -92.639388490429397, 46.906118370090098 ], [ -92.639335197088997, 46.906295999395297 ] ] } },
{ "type": "Feature", "properties": { "wmUplineSo": "GRAND LAKE", "wmType": "Underground" }, "geometry": { "type": "LineString", "coordinates": [ [ -92.639335197088997, 46.906295999395297 ], [ -92.639373708645394, 46.906531682921297 ] ] } },
{ "type": "Feature", "properties": { "wmUplineSo": "GRAND LAKE", "wmType": "Underground" }, "geometry": { "type": "LineString", "coordinates": [ [ -92.639373708645394, 46.906531682921297 ], [ -92.639532093329393, 46.906713220457 ] ] } },
{ "type": "Feature", "properties": { "wmUplineSo": "GRAND LAKE", "wmType": "Underground" }, "geometry": { "type": "LineString", "coordinates": [ [ -92.639532093329393, 46.906713220457 ], [ -92.639583093700296, 46.907079359926399 ] ] } },
{ "type": "Feature", "properties": { "wmUplineSo": "GRAND LAKE", "wmType": "Underground" }, "geometry": { "type": "LineString", "coordinates": [ [ -92.639583093700296, 46.907079359926399 ], [ -92.639614626882107, 46.907421588649797 ] ] } },
{ "type": "Feature", "properties": { "wmUplineSo": "GRAND LAKE", "wmType": "Underground" }, "geometry": { "type": "LineString", "coordinates": [ [ -92.639614626882107, 46.907421588649797 ], [ -92.639583417341598, 46.907847265275798 ] ] } },
{ "type": "Feature", "properties": { "wmUplineSo": "GRAND LAKE", "wmType": "Underground" }, "geometry": { "type": "LineString", "coordinates": [ [ -92.639583417341598, 46.907847265275798 ], [ -92.639783910520904, 46.907996597890303 ] ] } },
{ "type": "Feature", "properties": { "wmUplineSo": "GRAND LAKE", "wmType": "Underground" }, "geometry": { "type": "LineString", "coordinates": [ [ -92.639783910520904, 46.907996597890303 ], [ -92.640100966952801, 46.908336436570302 ] ] } },
{ "type": "Feature", "properties": { "wmUplineSo": "GRAND LAKE", "wmType": "Underground" }, "geometry": { "type": "LineString", "coordinates": [ [ -92.640100966952801, 46.908336436570302 ], [ -92.640290881626498, 46.9084849552493 ] ] } },
{ "type": "Feature", "properties": { "wmUplineSo": "GRAND LAKE", "wmType": "Underground" }, "geometry": { "type": "LineString", "coordinates": [ [ -92.640290881626498, 46.9084849552493 ], [ -92.640634540275101, 46.908501840168299 ] ] } },
{ "type": "Feature", "properties": { "wmUplineSo": "GRAND LAKE", "wmType": "Underground" }, "geometry": { "type": "LineString", "coordinates": [ [ -92.640634540275101, 46.908501840168299 ], [ -92.640799730724893, 46.908459799507298 ] ] } },
{ "type": "Feature", "properties": { "wmUplineSo": "GRAND LAKE", "wmType": "Underground" }, "geometry": { "type": "LineString", "coordinates": [ [ -92.480890070705598, 46.916678068425597 ], [ -92.480872, 46.916282 ] ] } },
{ "type": "Feature", "properties": { "wmUplineSo": "GRAND LAKE", "wmType": "Underground" }, "geometry": { "type": "LineString", "coordinates": [ [ -92.491985637251503, 46.858818481516003 ], [ -92.492044672050099, 46.858591074954198 ] ] } },
{ "type": "Feature", "properties": { "wmUplineSo": "GRAND LAKE", "wmType": "Underground" }, "geometry": { "type": "LineString", "coordinates": [ [ -92.555411324408794, 46.929315380932799 ], [ -92.555440374152894, 46.929287138323097 ], [ -92.556081955503799, 46.929180084386203 ] ] } },
{ "type": "Feature", "properties": { "wmUplineSo": "GRAND LAKE", "wmType": "Underground" }, "geometry": { "type": "LineString", "coordinates": [ [ -92.554789271520903, 46.929920141387697 ], [ -92.556427469754595, 46.929589117428002 ] ] } },
{ "type": "Feature", "properties": { "wmUplineSo": "GRAND LAKE", "wmType": "Underground" }, "geometry": { "type": "LineString", "coordinates": [ [ -92.491599184404905, 46.862272003511301 ], [ -92.491611147082196, 46.861755184642803 ] ] } },
{ "type": "Feature", "properties": { "wmUplineSo": "GRAND LAKE", "wmType": "Underground" }, "geometry": { "type": "LineString", "coordinates": [ [ -92.489048467431701, 46.92372968387 ], [ -92.488758531140206, 46.923753463429698 ] ] } },
{ "type": "Feature", "properties": { "wmUplineSo": "GRAND LAKE", "wmType": "Underground" }, "geometry": { "type": "LineString", "coordinates": [ [ -92.488758531140206, 46.923753463429698 ], [ -92.488251617975607, 46.923763369776303 ] ] } },
{ "type": "Feature", "properties": { "wmUplineSo": "GRAND LAKE", "wmType": "Underground" }, "geometry": { "type": "LineString", "coordinates": [ [ -92.488251617975607, 46.923763369776303 ], [ -92.488080438768193, 46.923788600135303 ] ] } },
{ "type": "Feature", "properties": { "wmUplineSo": "GRAND LAKE", "wmType": "Underground" }, "geometry": { "type": "LineString", "coordinates": [ [ -92.488080438768193, 46.923788600135303 ], [ -92.487376488084195, 46.923770000705197 ] ] } },
{ "type": "Feature", "properties": { "wmUplineSo": "GRAND LAKE", "wmType": "Underground" }, "geometry": { "type": "LineString", "coordinates": [ [ -92.487376488084195, 46.923770000705197 ], [ -92.487327282196702, 46.923965943834297 ] ] } },
{ "type": "Feature", "properties": { "wmUplineSo": "GRAND LAKE", "wmType": "Underground" }, "geometry": { "type": "LineString", "coordinates": [ [ -92.487327282196702, 46.923965943834297 ], [ -92.487321115360402, 46.924088657667703 ] ] } },
{ "type": "Feature", "properties": { "wmUplineSo": "GRAND LAKE", "wmType": "Underground" }, "geometry": { "type": "LineString", "coordinates": [ [ -92.487321115360402, 46.924088657667703 ], [ -92.487087876356398, 46.9244466739611 ] ] } },
{ "type": "Feature", "properties": { "wmUplineSo": "GRAND LAKE", "wmType": "Underground" }, "geometry": { "type": "LineString", "coordinates": [ [ -92.487087876356398, 46.9244466739611 ], [ -92.486991820789498, 46.924537178974397 ] ] } },
{ "type": "Feature", "properties": { "wmUplineSo": "GRAND LAKE", "wmType": "Underground" }, "geometry": { "type": "LineString", "coordinates": [ [ -92.486991820789498, 46.924537178974397 ], [ -92.486781201896704, 46.924633793289701 ] ] } },
{ "type": "Feature", "properties": { "wmUplineSo": "GRAND LAKE", "wmType": "Underground" }, "geometry": { "type": "LineString", "coordinates": [ [ -92.505631106523396, 46.923856977847699 ], [ -92.506015411584698, 46.923280034270803 ] ] } },
{ "type": "Feature", "properties": { "wmUplineSo": "GRAND LAKE", "wmType": "Underground" }, "geometry": { "type": "LineString", "coordinates": [ [ -92.506015411584698, 46.923280034270803 ], [ -92.505996799999906, 46.923248100008699 ] ] } },
{ "type": "Feature", "properties": { "wmUplineSo": "GRAND LAKE", "wmType": "Underground" }, "geometry": { "type": "LineString", "coordinates": [ [ -92.543239504118105, 46.9374389745253 ], [ -92.542853999972493, 46.9371870035434 ] ] } },
{ "type": "Feature", "properties": { "wmUplineSo": "GRAND LAKE", "wmType": "Underground" }, "geometry": { "type": "LineString", "coordinates": [ [ -92.492044672050099, 46.858591074954198 ], [ -92.492066688654802, 46.858405018163197 ] ] } },
{ "type": "Feature", "properties": { "wmUplineSo": "GRAND LAKE", "wmType": "Underground" }, "geometry": { "type": "LineString", "coordinates": [ [ -92.526587057490104, 46.9098317448126 ], [ -92.526988983729495, 46.909821970373599 ], [ -92.527042376382497, 46.910140788511796 ], [ -92.527044071045097, 46.910420554574799 ], [ -92.5271330601622, 46.910679525528899 ] ] } },
{ "type": "Feature", "properties": { "wmUplineSo": "GRAND LAKE", "wmType": "Underground" }, "geometry": { "type": "LineString", "coordinates": [ [ -92.5271330601622, 46.910679525528899 ], [ -92.527113399999905, 46.910739400008602 ] ] } },
{ "type": "Feature", "properties": { "wmUplineSo": "GRAND LAKE", "wmType": "Underground" }, "geometry": { "type": "LineString", "coordinates": [ [ -92.530514248400706, 46.901022151203897 ], [ -92.530563099999895, 46.901065800008602 ] ] } },
{ "type": "Feature", "properties": { "wmUplineSo": "GRAND LAKE", "wmType": "Underground" }, "geometry": { "type": "LineString", "coordinates": [ [ -92.530638512566398, 46.9005312257732 ], [ -92.530514248400706, 46.901022151203897 ] ] } },
{ "type": "Feature", "properties": { "wmUplineSo": "GRAND LAKE", "wmType": "Underground" }, "geometry": { "type": "LineString", "coordinates": [ [ -92.481144923080706, 46.9157916286321 ], [ -92.481169974730307, 46.915773670100101 ] ] } },
{ "type": "Feature", "properties": { "wmUplineSo": "GRAND LAKE", "wmType": "Underground" }, "geometry": { "type": "LineString", "coordinates": [ [ -92.486800452601798, 46.924787872073402 ], [ -92.486796899999902, 46.9248126000087 ] ] } },
{ "type": "Feature", "properties": { "wmUplineSo": "GRAND LAKE", "wmType": "Underground" }, "geometry": { "type": "LineString", "coordinates": [ [ -92.483596, 46.921570000000102 ], [ -92.483252, 46.921495 ] ] } },
{ "type": "Feature", "properties": { "wmUplineSo": "GRAND LAKE", "wmType": "Underground" }, "geometry": { "type": "LineString", "coordinates": [ [ -92.483252, 46.921495 ], [ -92.483028, 46.921531 ] ] } },
{ "type": "Feature", "properties": { "wmUplineSo": "GRAND LAKE", "wmType": "Underground" }, "geometry": { "type": "LineString", "coordinates": [ [ -92.483028, 46.921531 ], [ -92.482803, 46.921684 ] ] } },
{ "type": "Feature", "properties": { "wmUplineSo": "GRAND LAKE", "wmType": "Underground" }, "geometry": { "type": "LineString", "coordinates": [ [ -92.4824584827861, 46.9216366734628 ], [ -92.482112, 46.921553 ] ] } },
{ "type": "Feature", "properties": { "wmUplineSo": "GRAND LAKE", "wmType": "Underground" }, "geometry": { "type": "LineString", "coordinates": [ [ -92.482112, 46.921553 ], [ -92.481787, 46.921534999999899 ] ] } },
{ "type": "Feature", "properties": { "wmUplineSo": "GRAND LAKE", "wmType": "Underground" }, "geometry": { "type": "LineString", "coordinates": [ [ -92.481787, 46.921534999999899 ], [ -92.481112502744693, 46.9216690074662 ] ] } },
{ "type": "Feature", "properties": { "wmUplineSo": "GRAND LAKE", "wmType": "Underground" }, "geometry": { "type": "LineString", "coordinates": [ [ -92.524639519996697, 46.916334542890297 ], [ -92.524479399999905, 46.916444600008703 ] ] } },
{ "type": "Feature", "properties": { "wmUplineSo": "GRAND LAKE", "wmType": "Underground" }, "geometry": { "type": "LineString", "coordinates": [ [ -92.478841594025099, 46.866740640752603 ], [ -92.478771039999899, 46.866901020008598 ] ] } },
{ "type": "Feature", "properties": { "wmUplineSo": "GRAND LAKE", "wmType": "Underground" }, "geometry": { "type": "LineString", "coordinates": [ [ -92.482923183423495, 46.867767220594601 ], [ -92.482961, 46.867763600008601 ] ] } },
{ "type": "Feature", "properties": { "wmUplineSo": "GRAND LAKE", "wmType": "Underground" }, "geometry": { "type": "LineString", "coordinates": [ [ -92.493233943759805, 46.870346472900302 ], [ -92.492714, 46.870004300008603 ] ] } },
{ "type": "Feature", "properties": { "wmUplineSo": "GRAND LAKE", "wmType": "Underground" }, "geometry": { "type": "LineString", "coordinates": [ [ -92.519034834002397, 46.909161822422298 ], [ -92.519003399999903, 46.909046500008699 ] ] } },
{ "type": "Feature", "properties": { "wmUplineSo": "GRAND LAKE", "wmType": "Underground" }, "geometry": { "type": "LineString", "coordinates": [ [ -92.497811597906704, 46.924361946094898 ], [ -92.497814899999895, 46.924459600008703 ] ] } },
{ "type": "Feature", "properties": { "wmUplineSo": "GRAND LAKE", "wmType": "Underground" }, "geometry": { "type": "LineString", "coordinates": [ [ -92.505213747968597, 46.924638706656502 ], [ -92.505223299999898, 46.924677500008698 ] ] } },
{ "type": "Feature", "properties": { "wmUplineSo": "GRAND LAKE", "wmType": "Underground" }, "geometry": { "type": "LineString", "coordinates": [ [ -92.555859149945107, 46.947803161405098 ], [ -92.555936499999902, 46.948028900008701 ] ] } },
{ "type": "Feature", "properties": { "wmUplineSo": "GRAND LAKE", "wmType": "Underground" }, "geometry": { "type": "LineString", "coordinates": [ [ -92.553068281160193, 46.9412618794682 ], [ -92.552745599999895, 46.941784000008703 ] ] } },
{ "type": "Feature", "properties": { "wmUplineSo": "GRAND LAKE", "wmType": "Underground" }, "geometry": { "type": "LineString", "coordinates": [ [ -92.556427469754595, 46.929589117428002 ], [ -92.556661615809304, 46.929658637230297 ] ] } },
{ "type": "Feature", "properties": { "wmUplineSo": "GRAND LAKE", "wmType": "Underground" }, "geometry": { "type": "LineString", "coordinates": [ [ -92.556081955503799, 46.929180084386203 ], [ -92.5560721798185, 46.929021494547101 ] ] } },
{ "type": "Feature", "properties": { "wmUplineSo": "GRAND LAKE", "wmType": "Underground" }, "geometry": { "type": "LineString", "coordinates": [ [ -92.608398995695396, 46.898582050534998 ], [ -92.6086438, 46.898999900008597 ] ] } },
{ "type": "Feature", "properties": { "wmUplineSo": "GRAND LAKE", "wmType": "Underground" }, "geometry": { "type": "LineString", "coordinates": [ [ -92.538340700783706, 46.907681960651402 ], [ -92.538387599999893, 46.907788800008703 ] ] } },
{ "type": "Feature", "properties": { "wmUplineSo": "GRAND LAKE", "wmType": "Underground" }, "geometry": { "type": "LineString", "coordinates": [ [ -92.537750718302206, 46.905303661838602 ], [ -92.537938599999904, 46.905671800008598 ] ] } },
{ "type": "Feature", "properties": { "wmUplineSo": "GRAND LAKE", "wmType": "Underground" }, "geometry": { "type": "LineString", "coordinates": [ [ -92.522622871865906, 46.906327315290298 ], [ -92.522821605372499, 46.9062624607201 ] ] } },
{ "type": "Feature", "properties": { "wmUplineSo": "GRAND LAKE", "wmType": "Underground" }, "geometry": { "type": "LineString", "coordinates": [ [ -92.522314587451703, 46.9062537946917 ], [ -92.521556599999897, 46.906533800008603 ] ] } },
{ "type": "Feature", "properties": { "wmUplineSo": "GRAND LAKE", "wmType": "Underground" }, "geometry": { "type": "LineString", "coordinates": [ [ -92.518571157291703, 46.923319208126898 ], [ -92.518733599999905, 46.923119100008698 ] ] } },
{ "type": "Feature", "properties": { "wmUplineSo": "GRAND LAKE", "wmType": "Underground" }, "geometry": { "type": "LineString", "coordinates": [ [ -92.581217492510106, 46.940582853750698 ], [ -92.581095399999896, 46.940498300008699 ] ] } },
{ "type": "Feature", "properties": { "wmUplineSo": "GRAND LAKE", "wmType": "Underground" }, "geometry": { "type": "LineString", "coordinates": [ [ -92.521777699517401, 46.921331114325803 ], [ -92.521287399999906, 46.921328100008701 ] ] } }
]
}
