{
"type": "FeatureCollection",
"crs": { "type": "name", "properties": { "name": "urn:ogc:def:crs:OGC:1.3:CRS84" } },
"features": [
{ "type": "Feature", "properties": { "wmUplineSo": "GRAND LAKE", "wmType": "Underground" }, "geometry": { "type": "LineString", "coordinates": [ [ -92.384174515434395, 46.863095184229003 ], [ -92.384373499999896, 46.863100800008603 ] ] } },
{ "type": "Feature", "properties": { "wmUplineSo": "GRAND LAKE", "wmType": "Underground" }, "geometry": { "type": "LineString", "coordinates": [ [ -92.391033099999902, 46.873152300008599 ], [ -92.391372299999901, 46.872948000008599 ] ] } },
{ "type": "Feature", "properties": { "wmUplineSo": "GRAND LAKE", "wmType": "Underground" }, "geometry": { "type": "LineString", "coordinates": [ [ -92.436764007130805, 46.850739389483302 ], [ -92.437562599999893, 46.850903800008602 ] ] } },
{ "type": "Feature", "properties": { "wmUplineSo": "GRAND LAKE", "wmType": "Underground" }, "geometry": { "type": "LineString", "coordinates": [ [ -92.385031454106795, 46.817612115555796 ], [ -92.385542799999897, 46.817189100008498 ] ] } },
{ "type": "Feature", "properties": { "wmUplineSo": "GRAND LAKE", "wmType": "Underground" }, "geometry": { "type": "LineString", "coordinates": [ [ -92.382541307502194, 46.822587960404199 ], [ -92.382593099999895, 46.823268000008603 ] ] } },
{ "type": "Feature", "properties": { "wmUplineSo": "GRAND LAKE", "wmType": "Underground" }, "geometry": { "type": "LineString", "coordinates": [ [ -92.408493859014499, 46.855321356878498 ], [ -92.408492999999893, 46.855416600008603 ] ] } },
{ "type": "Feature", "properties": { "wmUplineSo": "GRAND LAKE", "wmType": "Underground" }, "geometry": { "type": "LineString", "coordinates": [ [ -92.364154169204895, 46.871137830278599 ], [ -92.363798499999902, 46.870921500008599 ] ] } },
{ "type": "Feature", "properties": { "wmUplineSo": "GRAND LAKE", "wmType": "Underground" }, "geometry": { "type": "LineString", "coordinates": [ [ -92.407029465174602, 46.842178447537698 ], [ -92.407069753375396, 46.842177907472802 ] ] } },
{ "type": "Feature", "properties": { "wmUplineSo": "GRAND LAKE", "wmType": "Underground" }, "geometry": { "type": "LineString", "coordinates": [ [ -92.368862999962403, 46.861823047535502 ], [ -92.368893999962395, 46.861828675176497 ] ] } },
{ "type": "Feature", "properties": { "wmUplineSo": "GRAND LAKE", "wmType": "Underground" }, "geometry": { "type": "LineString", "coordinates": [ [ -92.366827377809201, 46.861507891901297 ], [ -92.367218428971597, 46.8615558942695 ] ] } },
{ "type": "Feature", "properties": { "wmUplineSo": "GRAND LAKE", "wmType": "Underground" }, "geometry": { "type": "LineString", "coordinates": [ [ -92.36593650028, 46.867866293521402 ], [ -92.365762679220495, 46.867881808106397 ] ] } },
{ "type": "Feature", "properties": { "wmUplineSo": "GRAND LAKE", "wmType": "Underground" }, "geometry": { "type": "LineString", "coordinates": [ [ -92.364296213684199, 46.881450659493098 ], [ -92.364119094322106, 46.881479786240597 ] ] } },
{ "type": "Feature", "properties": { "wmUplineSo": "GRAND LAKE", "wmType": "Underground" }, "geometry": { "type": "LineString", "coordinates": [ [ -92.3680436584049, 46.861646921668999 ], [ -92.368280999962295, 46.861751824822797 ] ] } },
{ "type": "Feature", "properties": { "wmUplineSo": "GRAND LAKE", "wmType": "Underground" }, "geometry": { "type": "LineString", "coordinates": [ [ -92.391699999963805, 46.851037003519799 ], [ -92.391573111153306, 46.850543677577598 ] ] } },
{ "type": "Feature", "properties": { "wmUplineSo": "GRAND LAKE", "wmType": "Underground" }, "geometry": { "type": "LineString", "coordinates": [ [ -92.389160981023906, 46.874548330307903 ], [ -92.389187361159898, 46.874518096348098 ] ] } },
{ "type": "Feature", "properties": { "wmUplineSo": "GRAND LAKE", "wmType": "Underground" }, "geometry": { "type": "LineString", "coordinates": [ [ -92.391586154325495, 46.850489465573297 ], [ -92.391622999963801, 46.8501140035197 ] ] } },
{ "type": "Feature", "properties": { "wmUplineSo": "GRAND LAKE", "wmType": "Underground" }, "geometry": { "type": "LineString", "coordinates": [ [ -92.459760999967699, 46.865638003523898 ], [ -92.459650999967707, 46.865896003524099 ] ] } },
{ "type": "Feature", "properties": { "wmUplineSo": "GRAND LAKE", "wmType": "Underground" }, "geometry": { "type": "LineString", "coordinates": [ [ -92.459650999967707, 46.865896003524099 ], [ -92.459486999967694, 46.866371003524101 ] ] } },
{ "type": "Feature", "properties": { "wmUplineSo": "GRAND LAKE", "wmType": "Underground" }, "geometry": { "type": "LineString", "coordinates": [ [ -92.398884406789605, 46.8620205806901 ], [ -92.399013230483007, 46.862141497293997 ] ] } },
{ "type": "Feature", "properties": { "wmUplineSo": "GRAND LAKE", "wmType": "Underground" }, "geometry": { "type": "LineString", "coordinates": [ [ -92.392680322150397, 46.866450227239497 ], [ -92.392814099999896, 46.866808800008599 ] ] } },
{ "type": "Feature", "properties": { "wmUplineSo": "GRAND LAKE", "wmType": "Underground" }, "geometry": { "type": "LineString", "coordinates": [ [ -92.391835735611295, 46.868726372764797 ], [ -92.393658446507303, 46.868954362605102 ] ] } },
{ "type": "Feature", "properties": { "wmUplineSo": "GRAND LAKE", "wmType": "Underground" }, "geometry": { "type": "LineString", "coordinates": [ [ -92.391622999963801, 46.8501140035197 ], [ -92.391491999963705, 46.849348003519502 ] ] } },
{ "type": "Feature", "properties": { "wmUplineSo": "GRAND LAKE", "wmType": "Underground" }, "geometry": { "type": "LineString", "coordinates": [ [ -92.407446052286701, 46.859334999977499 ], [ -92.407468944387702, 46.859341805703899 ] ] } },
{ "type": "Feature", "properties": { "wmUplineSo": "GRAND LAKE", "wmType": "Underground" }, "geometry": { "type": "LineString", "coordinates": [ [ -92.446082, 46.84526 ], [ -92.446077, 46.845287999999897 ] ] } },
{ "type": "Feature", "properties": { "wmUplineSo": "GRAND LAKE", "wmType": "Underground" }, "geometry": { "type": "LineString", "coordinates": [ [ -92.367218428971597, 46.8615558942695 ], [ -92.367751179164699, 46.861617739581 ] ] } },
{ "type": "Feature", "properties": { "wmUplineSo": "GRAND LAKE", "wmType": "Underground" }, "geometry": { "type": "LineString", "coordinates": [ [ -92.401887, 46.8388 ], [ -92.401971, 46.838855000000102 ] ] } },
{ "type": "Feature", "properties": { "wmUplineSo": "GRAND LAKE", "wmType": "Underground" }, "geometry": { "type": "LineString", "coordinates": [ [ -92.368594999962397, 46.861864878520102 ], [ -92.368811999962404, 46.861898161249101 ] ] } },
{ "type": "Feature", "properties": { "wmUplineSo": "GRAND LAKE", "wmType": "Underground" }, "geometry": { "type": "LineString", "coordinates": [ [ -92.367751179164699, 46.861617739581 ], [ -92.3680436584049, 46.861646921668999 ] ] } },
{ "type": "Feature", "properties": { "wmUplineSo": "GRAND LAKE", "wmType": "Underground" }, "geometry": { "type": "LineString", "coordinates": [ [ -92.401971, 46.838855000000102 ], [ -92.402016, 46.839241 ] ] } },
{ "type": "Feature", "properties": { "wmUplineSo": "GRAND LAKE", "wmType": "Underground" }, "geometry": { "type": "LineString", "coordinates": [ [ -92.416144999965198, 46.8531600035206 ], [ -92.416110884062206, 46.853185749830502 ] ] } },
{ "type": "Feature", "properties": { "wmUplineSo": "GRAND LAKE", "wmType": "Underground" }, "geometry": { "type": "LineString", "coordinates": [ [ -92.459486999967694, 46.866371003524101 ], [ -92.459368999967694, 46.866899003524203 ] ] } },
{ "type": "Feature", "properties": { "wmUplineSo": "GRAND LAKE", "wmType": "Underground" }, "geometry": { "type": "LineString", "coordinates": [ [ -92.416110884062206, 46.853185749830502 ], [ -92.415769999965207, 46.853443003520603 ] ] } },
{ "type": "Feature", "properties": { "wmUplineSo": "GRAND LAKE", "wmType": "Underground" }, "geometry": { "type": "LineString", "coordinates": [ [ -92.368811999962404, 46.861898161249101 ], [ -92.368862999962403, 46.861823047535502 ] ] } },
{ "type": "Feature", "properties": { "wmUplineSo": "GRAND LAKE", "wmType": "Underground" }, "geometry": { "type": "LineString", "coordinates": [ [ -92.391491999963705, 46.849348003519502 ], [ -92.391822999963793, 46.848986003519201 ] ] } },
{ "type": "Feature", "properties": { "wmUplineSo": "GRAND LAKE", "wmType": "Underground" }, "geometry": { "type": "LineString", "coordinates": [ [ -92.402016, 46.839241 ], [ -92.402178, 46.839317 ] ] } },
{ "type": "Feature", "properties": { "wmUplineSo": "GRAND LAKE", "wmType": "Underground" }, "geometry": { "type": "LineString", "coordinates": [ [ -92.402178, 46.839317 ], [ -92.40258, 46.839381 ] ] } },
{ "type": "Feature", "properties": { "wmUplineSo": "GRAND LAKE", "wmType": "Underground" }, "geometry": { "type": "LineString", "coordinates": [ [ -92.40258, 46.839381 ], [ -92.402791, 46.839704 ] ] } },
{ "type": "Feature", "properties": { "wmUplineSo": "GRAND LAKE", "wmType": "Underground" }, "geometry": { "type": "LineString", "coordinates": [ [ -92.402791, 46.839704 ], [ -92.402605, 46.839909 ] ] } },
{ "type": "Feature", "properties": { "wmUplineSo": "GRAND LAKE", "wmType": "Underground" }, "geometry": { "type": "LineString", "coordinates": [ [ -92.402605, 46.839909 ], [ -92.402508, 46.840347 ] ] } },
{ "type": "Feature", "properties": { "wmUplineSo": "GRAND LAKE", "wmType": "Underground" }, "geometry": { "type": "LineString", "coordinates": [ [ -92.402508, 46.840347 ], [ -92.402508884294804, 46.840658291761798 ] ] } },
{ "type": "Feature", "properties": { "wmUplineSo": "GRAND LAKE", "wmType": "Underground" }, "geometry": { "type": "LineString", "coordinates": [ [ -92.402508884294804, 46.840658291761798 ], [ -92.402495980231706, 46.840981999986298 ] ] } },
{ "type": "Feature", "properties": { "wmUplineSo": "GRAND LAKE", "wmType": "Underground" }, "geometry": { "type": "LineString", "coordinates": [ [ -92.444738, 46.844966 ], [ -92.445279, 46.844998000000103 ] ] } },
{ "type": "Feature", "properties": { "wmUplineSo": "GRAND LAKE", "wmType": "Underground" }, "geometry": { "type": "LineString", "coordinates": [ [ -92.402495980231706, 46.840981999986298 ], [ -92.402695514097502, 46.841464309150702 ] ] } },
{ "type": "Feature", "properties": { "wmUplineSo": "GRAND LAKE", "wmType": "Underground" }, "geometry": { "type": "LineString", "coordinates": [ [ -92.402695514097502, 46.841464309150702 ], [ -92.403074589305703, 46.841724211190297 ] ] } },
{ "type": "Feature", "properties": { "wmUplineSo": "GRAND LAKE", "wmType": "Underground" }, "geometry": { "type": "LineString", "coordinates": [ [ -92.445279, 46.844998000000103 ], [ -92.445977, 46.845039999999898 ] ] } },
{ "type": "Feature", "properties": { "wmUplineSo": "GRAND LAKE", "wmType": "Underground" }, "geometry": { "type": "LineString", "coordinates": [ [ -92.445977, 46.845039999999898 ], [ -92.446112, 46.845078999999899 ] ] } },
{ "type": "Feature", "properties": { "wmUplineSo": "GRAND LAKE", "wmType": "Underground" }, "geometry": { "type": "LineString", "coordinates": [ [ -92.417528, 46.846185 ], [ -92.417355, 46.846075 ] ] } },
{ "type": "Feature", "properties": { "wmUplineSo": "GRAND LAKE", "wmType": "Underground" }, "geometry": { "type": "LineString", "coordinates": [ [ -92.417355, 46.846075 ], [ -92.416916, 46.845699 ] ] } },
{ "type": "Feature", "properties": { "wmUplineSo": "GRAND LAKE", "wmType": "Underground" }, "geometry": { "type": "LineString", "coordinates": [ [ -92.416916, 46.845699 ], [ -92.416614, 46.8454130000001 ] ] } },
{ "type": "Feature", "properties": { "wmUplineSo": "GRAND LAKE", "wmType": "Underground" }, "geometry": { "type": "LineString", "coordinates": [ [ -92.416614, 46.8454130000001 ], [ -92.416364925966803, 46.84525671155 ] ] } },
{ "type": "Feature", "properties": { "wmUplineSo": "GRAND LAKE", "wmType": "Underground" }, "geometry": { "type": "LineString", "coordinates": [ [ -92.417752079039701, 46.846214813358003 ], [ -92.417708375288797, 46.846234452655899 ] ] } },
{ "type": "Feature", "properties": { "wmUplineSo": "GRAND LAKE", "wmType": "Underground" }, "geometry": { "type": "LineString", "coordinates": [ [ -92.403074589305703, 46.841724211190297 ], [ -92.403510884494693, 46.841876757760097 ] ] } },
{ "type": "Feature", "properties": { "wmUplineSo": "GRAND LAKE", "wmType": "Underground" }, "geometry": { "type": "LineString", "coordinates": [ [ -92.470725262337396, 46.865559594013298 ], [ -92.470793826333505, 46.867697088689397 ] ] } },
{ "type": "Feature", "properties": { "wmUplineSo": "GRAND LAKE", "wmType": "Underground" }, "geometry": { "type": "LineString", "coordinates": [ [ -92.411765863816001, 46.850438491342999 ], [ -92.410752066111698, 46.850790979689698 ], [ -92.410480516433395, 46.850980331960997 ] ] } },
{ "type": "Feature", "properties": { "wmUplineSo": "GRAND LAKE", "wmType": "Underground" }, "geometry": { "type": "LineString", "coordinates": [ [ -92.417195803816895, 46.8526910662411 ], [ -92.417462761029896, 46.852917645912299 ] ] } },
{ "type": "Feature", "properties": { "wmUplineSo": "GRAND LAKE", "wmType": "Underground" }, "geometry": { "type": "LineString", "coordinates": [ [ -92.416147746644199, 46.8533984966598 ], [ -92.415778376747298, 46.853586657205298 ] ] } },
{ "type": "Feature", "properties": { "wmUplineSo": "GRAND LAKE", "wmType": "Underground" }, "geometry": { "type": "LineString", "coordinates": [ [ -92.417262218133899, 46.850722319469 ], [ -92.416642795252599, 46.850760241853202 ] ] } },
{ "type": "Feature", "properties": { "wmUplineSo": "GRAND LAKE", "wmType": "Underground" }, "geometry": { "type": "LineString", "coordinates": [ [ -92.429014537618798, 46.851340851711299 ], [ -92.429020365911995, 46.8517482577425 ] ] } },
{ "type": "Feature", "properties": { "wmUplineSo": "GRAND LAKE", "wmType": "Underground" }, "geometry": { "type": "LineString", "coordinates": [ [ -92.347258598983998, 46.869016008590698 ], [ -92.347483172350493, 46.867942511617599 ] ] } },
{ "type": "Feature", "properties": { "wmUplineSo": "GRAND LAKE", "wmType": "Underground" }, "geometry": { "type": "LineString", "coordinates": [ [ -92.353004668133195, 46.866113959278103 ], [ -92.353461656921297, 46.866463175441503 ] ] } },
{ "type": "Feature", "properties": { "wmUplineSo": "GRAND LAKE", "wmType": "Underground" }, "geometry": { "type": "LineString", "coordinates": [ [ -92.353004668133195, 46.866113959278103 ], [ -92.351222664965803, 46.867781054718499 ] ] } },
{ "type": "Feature", "properties": { "wmUplineSo": "GRAND LAKE", "wmType": "Underground" }, "geometry": { "type": "LineString", "coordinates": [ [ -92.356152987111599, 46.866052948112397 ], [ -92.356550928226596, 46.866413894177001 ] ] } },
{ "type": "Feature", "properties": { "wmUplineSo": "GRAND LAKE", "wmType": "Underground" }, "geometry": { "type": "LineString", "coordinates": [ [ -92.396522734475496, 46.862184334800702 ], [ -92.398111029550194, 46.862677011298203 ] ] } },
{ "type": "Feature", "properties": { "wmUplineSo": "GRAND LAKE", "wmType": "Underground" }, "geometry": { "type": "LineString", "coordinates": [ [ -92.378577748880602, 46.886018434507299 ], [ -92.376112487673694, 46.8872030602423 ], [ -92.374666922697998, 46.887697654493401 ], [ -92.373099545517604, 46.887523148297703 ], [ -92.372482370687294, 46.887176478685603 ], [ -92.371566464826699, 46.887189106371601 ], [ -92.371644613327007, 46.888276344501001 ] ] } },
{ "type": "Feature", "properties": { "wmUplineSo": "GRAND LAKE", "wmType": "Underground" }, "geometry": { "type": "LineString", "coordinates": [ [ -92.372385459195598, 46.887739785525802 ], [ -92.373059956779201, 46.887890592489399 ], [ -92.373517169250107, 46.888173810427098 ] ] } },
{ "type": "Feature", "properties": { "wmUplineSo": "GRAND LAKE", "wmType": "Underground" }, "geometry": { "type": "LineString", "coordinates": [ [ -92.371644613327007, 46.888276344501001 ], [ -92.371821667703898, 46.887936519828898 ], [ -92.372385459195598, 46.887739785525802 ] ] } },
{ "type": "Feature", "properties": { "wmUplineSo": "GRAND LAKE", "wmType": "Underground" }, "geometry": { "type": "LineString", "coordinates": [ [ -92.431649746987503, 46.8446302878965 ], [ -92.431244945829306, 46.844162603785101 ], [ -92.431202884133398, 46.843864349314003 ], [ -92.431114287928807, 46.843236106570501 ] ] } },
{ "type": "Feature", "properties": { "wmUplineSo": "GRAND LAKE", "wmType": "Underground" }, "geometry": { "type": "LineString", "coordinates": [ [ -92.422468973016805, 46.856346632051697 ], [ -92.422500653577998, 46.8559442854135 ] ] } },
{ "type": "Feature", "properties": { "wmUplineSo": "GRAND LAKE", "wmType": "Underground" }, "geometry": { "type": "LineString", "coordinates": [ [ -92.420232303695101, 46.859697233551202 ], [ -92.419703718053498, 46.859525225065802 ] ] } },
{ "type": "Feature", "properties": { "wmUplineSo": "GRAND LAKE", "wmType": "Underground" }, "geometry": { "type": "LineString", "coordinates": [ [ -92.415845528473398, 46.849183841730103 ], [ -92.4158069927187, 46.849023260122102 ], [ -92.415744141907993, 46.848905064935003 ], [ -92.415492111071401, 46.848890866912903 ], [ -92.415405273710107, 46.848823245056103 ], [ -92.415492472155407, 46.848770534692498 ], [ -92.415511464387393, 46.848758205276802 ] ] } },
{ "type": "Feature", "properties": { "wmUplineSo": "GRAND LAKE", "wmType": "Underground" }, "geometry": { "type": "LineString", "coordinates": [ [ -92.417573514917805, 46.847189960450699 ], [ -92.416372517769801, 46.847320202996301 ] ] } },
{ "type": "Feature", "properties": { "wmUplineSo": "GRAND LAKE", "wmType": "Underground" }, "geometry": { "type": "LineString", "coordinates": [ [ -92.416364925966803, 46.84525671155 ], [ -92.418080147056102, 46.845928549637897 ] ] } },
{ "type": "Feature", "properties": { "wmUplineSo": "GRAND LAKE", "wmType": "Underground" }, "geometry": { "type": "LineString", "coordinates": [ [ -92.414962770313394, 46.849514640036901 ], [ -92.414940393650994, 46.8501164136905 ], [ -92.414892208340802, 46.8502009773539 ] ] } },
{ "type": "Feature", "properties": { "wmUplineSo": "GRAND LAKE", "wmType": "Underground" }, "geometry": { "type": "LineString", "coordinates": [ [ -92.412107739243297, 46.852579630453299 ], [ -92.412534714752297, 46.8524703689178 ], [ -92.413370423835005, 46.852716247862801 ] ] } },
{ "type": "Feature", "properties": { "wmUplineSo": "GRAND LAKE", "wmType": "Underground" }, "geometry": { "type": "LineString", "coordinates": [ [ -92.412141525508105, 46.854948580304203 ], [ -92.412912370918804, 46.8549894972247 ] ] } },
{ "type": "Feature", "properties": { "wmUplineSo": "GRAND LAKE", "wmType": "Underground" }, "geometry": { "type": "LineString", "coordinates": [ [ -92.391886172720902, 46.8669014324202 ], [ -92.390340656404604, 46.8673897287836 ] ] } },
{ "type": "Feature", "properties": { "wmUplineSo": "GRAND LAKE", "wmType": "Underground" }, "geometry": { "type": "LineString", "coordinates": [ [ -92.378707479292601, 46.865538350311098 ], [ -92.378812650408705, 46.865068104827898 ] ] } },
{ "type": "Feature", "properties": { "wmUplineSo": "GRAND LAKE", "wmType": "Underground" }, "geometry": { "type": "LineString", "coordinates": [ [ -92.369958634182694, 46.8656031778482 ], [ -92.370659677666197, 46.8647256774534 ] ] } },
{ "type": "Feature", "properties": { "wmUplineSo": "GRAND LAKE", "wmType": "Underground" }, "geometry": { "type": "LineString", "coordinates": [ [ -92.378785914749002, 46.8802996701843 ], [ -92.378687695891998, 46.880888819020399 ] ] } },
{ "type": "Feature", "properties": { "wmUplineSo": "GRAND LAKE", "wmType": "Underground" }, "geometry": { "type": "LineString", "coordinates": [ [ -92.378785914749002, 46.8802996701843 ], [ -92.380456118579602, 46.880351105511203 ] ] } },
{ "type": "Feature", "properties": { "wmUplineSo": "GRAND LAKE", "wmType": "Underground" }, "geometry": { "type": "LineString", "coordinates": [ [ -92.473327875158603, 46.865544776672898 ], [ -92.470725262337396, 46.865559594013298 ] ] } },
{ "type": "Feature", "properties": { "wmUplineSo": "GRAND LAKE", "wmType": "Underground" }, "geometry": { "type": "LineString", "coordinates": [ [ -92.363968754549703, 46.868335392306001 ], [ -92.3642658528764, 46.867313684240401 ] ] } },
{ "type": "Feature", "properties": { "wmUplineSo": "GRAND LAKE", "wmType": "Underground" }, "geometry": { "type": "LineString", "coordinates": [ [ -92.368690040732005, 46.865595412045401 ], [ -92.368712905190307, 46.865676626354897 ] ] } },
{ "type": "Feature", "properties": { "wmUplineSo": "GRAND LAKE", "wmType": "Underground" }, "geometry": { "type": "LineString", "coordinates": [ [ -92.365942735968602, 46.868666399866399 ], [ -92.367465731229203, 46.869282181908197 ] ] } },
{ "type": "Feature", "properties": { "wmUplineSo": "GRAND LAKE", "wmType": "Underground" }, "geometry": { "type": "LineString", "coordinates": [ [ -92.3648514252788, 46.882993680777901 ], [ -92.364740316839303, 46.883857459482201 ], [ -92.3633888701671, 46.883971664291202 ] ] } },
{ "type": "Feature", "properties": { "wmUplineSo": "GRAND LAKE", "wmType": "Underground" }, "geometry": { "type": "LineString", "coordinates": [ [ -92.363475278665604, 46.879887181249401 ], [ -92.361137104222394, 46.879830202289398 ], [ -92.360505378039903, 46.879841153003603 ] ] } },
{ "type": "Feature", "properties": { "wmUplineSo": "GRAND LAKE", "wmType": "Underground" }, "geometry": { "type": "LineString", "coordinates": [ [ -92.363618608975699, 46.879942326129701 ], [ -92.363475278665604, 46.879887181249401 ] ] } },
{ "type": "Feature", "properties": { "wmUplineSo": "GRAND LAKE", "wmType": "Underground" }, "geometry": { "type": "LineString", "coordinates": [ [ -92.363533089300205, 46.875208278873998 ], [ -92.363537974175003, 46.875061144574197 ], [ -92.363320548005404, 46.874893757643399 ], [ -92.363336487908796, 46.874773157575198 ], [ -92.363032121831793, 46.873276509902098 ], [ -92.362737457831997, 46.873064565272202 ], [ -92.362110599602005, 46.873004793420698 ] ] } },
{ "type": "Feature", "properties": { "wmUplineSo": "GRAND LAKE", "wmType": "Underground" }, "geometry": { "type": "LineString", "coordinates": [ [ -92.366042088441503, 46.873843277435 ], [ -92.366501251418498, 46.8736012650389 ] ] } },
{ "type": "Feature", "properties": { "wmUplineSo": "GRAND LAKE", "wmType": "Underground" }, "geometry": { "type": "LineString", "coordinates": [ [ -92.388021239266195, 46.873728381612302 ], [ -92.388285227523198, 46.8738598667234 ] ] } },
{ "type": "Feature", "properties": { "wmUplineSo": "GRAND LAKE", "wmType": "Underground" }, "geometry": { "type": "LineString", "coordinates": [ [ -92.388285227523198, 46.8738598667234 ], [ -92.388592380338196, 46.874108640175997 ] ] } },
{ "type": "Feature", "properties": { "wmUplineSo": "GRAND LAKE", "wmType": "Underground" }, "geometry": { "type": "LineString", "coordinates": [ [ -92.388592380338196, 46.874108640175997 ], [ -92.388929789410398, 46.874394607112102 ] ] } },
{ "type": "Feature", "properties": { "wmUplineSo": "GRAND LAKE", "wmType": "Underground" }, "geometry": { "type": "LineString", "coordinates": [ [ -92.388929789410398, 46.874394607112102 ], [ -92.389160981023906, 46.874548330307903 ] ] } },
{ "type": "Feature", "properties": { "wmUplineSo": "GRAND LAKE", "wmType": "Underground" }, "geometry": { "type": "LineString", "coordinates": [ [ -92.370968041531199, 46.880004372332301 ], [ -92.371131502732794, 46.879833397452998 ] ] } },
{ "type": "Feature", "properties": { "wmUplineSo": "GRAND LAKE", "wmType": "Underground" }, "geometry": { "type": "LineString", "coordinates": [ [ -92.371131502732794, 46.879833397452998 ], [ -92.371038757285106, 46.878878813831903 ] ] } },
{ "type": "Feature", "properties": { "wmUplineSo": "GRAND LAKE", "wmType": "Underground" }, "geometry": { "type": "LineString", "coordinates": [ [ -92.372371884448697, 46.880064401684798 ], [ -92.372563909549697, 46.879402952148901 ] ] } },
{ "type": "Feature", "properties": { "wmUplineSo": "GRAND LAKE", "wmType": "Underground" }, "geometry": { "type": "LineString", "coordinates": [ [ -92.376224294104802, 46.8801199488355 ], [ -92.375934403304001, 46.880988479780697 ] ] } },
{ "type": "Feature", "properties": { "wmUplineSo": "GRAND LAKE", "wmType": "Underground" }, "geometry": { "type": "LineString", "coordinates": [ [ -92.381633001069105, 46.815159145519999 ], [ -92.3814107629956, 46.815554582581399 ], [ -92.380744215258702, 46.815559028143603 ], [ -92.380358583126906, 46.815468900531698 ], [ -92.379959493328897, 46.815447177419401 ], [ -92.379676214405507, 46.8156103306506 ], [ -92.379544144631097, 46.815897935495897 ], [ -92.378717542906699, 46.816357268736397 ], [ -92.378829679636993, 46.816648837242703 ], [ -92.378584315435106, 46.817323475029703 ] ] } },
{ "type": "Feature", "properties": { "wmUplineSo": "GRAND LAKE", "wmType": "Underground" }, "geometry": { "type": "LineString", "coordinates": [ [ -92.392547605076203, 46.840751776219697 ], [ -92.392262645566106, 46.840209993414597 ], [ -92.392232202384704, 46.839079318554496 ], [ -92.392685549594006, 46.838620320734101 ], [ -92.394104533045393, 46.838000085635898 ] ] } },
{ "type": "Feature", "properties": { "wmUplineSo": "GRAND LAKE", "wmType": "Underground" }, "geometry": { "type": "LineString", "coordinates": [ [ -92.460136300896806, 46.865336022179399 ], [ -92.459970999967794, 46.865412003523801 ] ] } },
{ "type": "Feature", "properties": { "wmUplineSo": "GRAND LAKE", "wmType": "Underground" }, "geometry": { "type": "LineString", "coordinates": [ [ -92.459970999967794, 46.865412003523801 ], [ -92.459797999967805, 46.8654910035239 ] ] } },
{ "type": "Feature", "properties": { "wmUplineSo": "GRAND LAKE", "wmType": "Underground" }, "geometry": { "type": "LineString", "coordinates": [ [ -92.390284346107507, 46.864955237017703 ], [ -92.391301368648698, 46.864903444295102 ] ] } },
{ "type": "Feature", "properties": { "wmUplineSo": "GRAND LAKE", "wmType": "Underground" }, "geometry": { "type": "LineString", "coordinates": [ [ -92.390571783758801, 46.865610420608398 ], [ -92.390284346107507, 46.864955237017703 ] ] } },
{ "type": "Feature", "properties": { "wmUplineSo": "GRAND LAKE", "wmType": "Underground" }, "geometry": { "type": "LineString", "coordinates": [ [ -92.365134372339597, 46.869523215028799 ], [ -92.365145840971493, 46.870440708972303 ], [ -92.365683758300406, 46.870966095176698 ] ] } },
{ "type": "Feature", "properties": { "wmUplineSo": "GRAND LAKE", "wmType": "Underground" }, "geometry": { "type": "LineString", "coordinates": [ [ -92.364975417457302, 46.8694460031899 ], [ -92.365134372339597, 46.869523215028799 ] ] } },
{ "type": "Feature", "properties": { "wmUplineSo": "GRAND LAKE", "wmType": "Underground" }, "geometry": { "type": "LineString", "coordinates": [ [ -92.470793826333505, 46.867697088689397 ], [ -92.470168388333207, 46.867507689081002 ], [ -92.470166960273502, 46.867478630031201 ], [ -92.470166960273502, 46.867478630031201 ] ] } },
{ "type": "Feature", "properties": { "wmUplineSo": "GRAND LAKE", "wmType": "Underground" }, "geometry": { "type": "LineString", "coordinates": [ [ -92.384395300844105, 46.865118385438997 ], [ -92.384174515434395, 46.863095184229003 ] ] } },
{ "type": "Feature", "properties": { "wmUplineSo": "GRAND LAKE", "wmType": "Underground" }, "geometry": { "type": "LineString", "coordinates": [ [ -92.436960350978396, 46.851202885632397 ], [ -92.436764007130805, 46.850739389483302 ] ] } },
{ "type": "Feature", "properties": { "wmUplineSo": "GRAND LAKE", "wmType": "Underground" }, "geometry": { "type": "LineString", "coordinates": [ [ -92.403510884494693, 46.841876757760097 ], [ -92.404111906831304, 46.842008486034501 ] ] } },
{ "type": "Feature", "properties": { "wmUplineSo": "GRAND LAKE", "wmType": "Underground" }, "geometry": { "type": "LineString", "coordinates": [ [ -92.364346210650893, 46.869471002489 ], [ -92.364459556396994, 46.8704320894999 ], [ -92.364365751018298, 46.870623184693699 ], [ -92.364368053290207, 46.8708357773912 ], [ -92.364332788193906, 46.871014545135097 ], [ -92.364154169204895, 46.871137830278599 ] ] } },
{ "type": "Feature", "properties": { "wmUplineSo": "GRAND LAKE", "wmType": "Underground" }, "geometry": { "type": "LineString", "coordinates": [ [ -92.408863399823602, 46.855102203181801 ], [ -92.408936489917195, 46.855148978630901 ] ] } },
{ "type": "Feature", "properties": { "wmUplineSo": "GRAND LAKE", "wmType": "Underground" }, "geometry": { "type": "LineString", "coordinates": [ [ -92.408936489917195, 46.855148978630901 ], [ -92.408493859014499, 46.855321356878498 ] ] } },
{ "type": "Feature", "properties": { "wmUplineSo": "GRAND LAKE", "wmType": "Underground" }, "geometry": { "type": "LineString", "coordinates": [ [ -92.4277085686942, 46.856221701937002 ], [ -92.427199791491404, 46.855856232349701 ] ] } },
{ "type": "Feature", "properties": { "wmUplineSo": "GRAND LAKE", "wmType": "Underground" }, "geometry": { "type": "LineString", "coordinates": [ [ -92.428441364603401, 46.856989600048301 ], [ -92.428511453266907, 46.8569820093308 ] ] } },
{ "type": "Feature", "properties": { "wmUplineSo": "GRAND LAKE", "wmType": "Underground" }, "geometry": { "type": "LineString", "coordinates": [ [ -92.428511453266907, 46.8569820093308 ], [ -92.429420567138393, 46.856883546411801 ] ] } },
{ "type": "Feature", "properties": { "wmUplineSo": "GRAND LAKE", "wmType": "Underground" }, "geometry": { "type": "LineString", "coordinates": [ [ -92.404111906831304, 46.842008486034501 ], [ -92.404724906525601, 46.842144346536102 ] ] } },
{ "type": "Feature", "properties": { "wmUplineSo": "GRAND LAKE", "wmType": "Underground" }, "geometry": { "type": "LineString", "coordinates": [ [ -92.404724906525601, 46.842144346536102 ], [ -92.405061814148397, 46.842218447500102 ] ] } },
{ "type": "Feature", "properties": { "wmUplineSo": "GRAND LAKE", "wmType": "Underground" }, "geometry": { "type": "LineString", "coordinates": [ [ -92.438349778152599, 46.8447869981336 ], [ -92.437961899999905, 46.845224800008602 ] ] } },
{ "type": "Feature", "properties": { "wmUplineSo": "GRAND LAKE", "wmType": "Underground" }, "geometry": { "type": "LineString", "coordinates": [ [ -92.396204363613506, 46.864605984409202 ], [ -92.396213710048798, 46.864585574797502 ] ] } },
{ "type": "Feature", "properties": { "wmUplineSo": "GRAND LAKE", "wmType": "Underground" }, "geometry": { "type": "LineString", "coordinates": [ [ -92.365942735968602, 46.868666399866399 ], [ -92.365993805188594, 46.868687000260302 ] ] } },
{ "type": "Feature", "properties": { "wmUplineSo": "GRAND LAKE", "wmType": "Underground" }, "geometry": { "type": "LineString", "coordinates": [ [ -92.417642519611505, 46.841540479112801 ], [ -92.417874949013594, 46.841765323394398 ] ] } },
{ "type": "Feature", "properties": { "wmUplineSo": "GRAND LAKE", "wmType": "Underground" }, "geometry": { "type": "LineString", "coordinates": [ [ -92.415769999965207, 46.853443003520603 ], [ -92.415465399999903, 46.8533454000086 ] ] } },
{ "type": "Feature", "properties": { "wmUplineSo": "GRAND LAKE", "wmType": "Underground" }, "geometry": { "type": "LineString", "coordinates": [ [ -92.415769999965207, 46.853443003520603 ], [ -92.415742899999898, 46.8534585000086 ] ] } },
{ "type": "Feature", "properties": { "wmUplineSo": "GRAND LAKE", "wmType": "Underground" }, "geometry": { "type": "LineString", "coordinates": [ [ -92.415216645592807, 46.852847360556197 ], [ -92.415097, 46.852699 ] ] } },
{ "type": "Feature", "properties": { "wmUplineSo": "GRAND LAKE", "wmType": "Underground" }, "geometry": { "type": "LineString", "coordinates": [ [ -92.405061814148397, 46.842218447500102 ], [ -92.405307, 46.84224 ] ] } },
{ "type": "Feature", "properties": { "wmUplineSo": "GRAND LAKE", "wmType": "Underground" }, "geometry": { "type": "LineString", "coordinates": [ [ -92.417787, 46.846199999999897 ], [ -92.417752079039701, 46.846214813358003 ] ] } },
{ "type": "Feature", "properties": { "wmUplineSo": "GRAND LAKE", "wmType": "Underground" }, "geometry": { "type": "LineString", "coordinates": [ [ -92.392107274351005, 46.850810672722602 ], [ -92.392150154380602, 46.850810805497701 ] ] } },
{ "type": "Feature", "properties": { "wmUplineSo": "GRAND LAKE", "wmType": "Underground" }, "geometry": { "type": "LineString", "coordinates": [ [ -92.446112, 46.845078999999899 ], [ -92.446082, 46.84526 ] ] } },
{ "type": "Feature", "properties": { "wmUplineSo": "GRAND LAKE", "wmType": "Underground" }, "geometry": { "type": "LineString", "coordinates": [ [ -92.391822999963793, 46.848986003519201 ], [ -92.392263999963802, 46.848538003519202 ] ] } },
{ "type": "Feature", "properties": { "wmUplineSo": "GRAND LAKE", "wmType": "Underground" }, "geometry": { "type": "LineString", "coordinates": [ [ -92.392263999963802, 46.848538003519202 ], [ -92.392695999963905, 46.848104003518998 ] ] } },
{ "type": "Feature", "properties": { "wmUplineSo": "GRAND LAKE", "wmType": "Underground" }, "geometry": { "type": "LineString", "coordinates": [ [ -92.392695999963905, 46.848104003518998 ], [ -92.393119999963901, 46.847783003519197 ] ] } },
{ "type": "Feature", "properties": { "wmUplineSo": "GRAND LAKE", "wmType": "Underground" }, "geometry": { "type": "LineString", "coordinates": [ [ -92.393119999963901, 46.847783003519197 ], [ -92.393397999963895, 46.847561003518898 ] ] } },
{ "type": "Feature", "properties": { "wmUplineSo": "GRAND LAKE", "wmType": "Underground" }, "geometry": { "type": "LineString", "coordinates": [ [ -92.393397999963895, 46.847561003518898 ], [ -92.393362999963898, 46.847464003518901 ] ] } },
{ "type": "Feature", "properties": { "wmUplineSo": "GRAND LAKE", "wmType": "Underground" }, "geometry": { "type": "LineString", "coordinates": [ [ -92.364119094322106, 46.881479786240597 ], [ -92.364112050569204, 46.881494817008203 ] ] } },
{ "type": "Feature", "properties": { "wmUplineSo": "GRAND LAKE", "wmType": "Underground" }, "geometry": { "type": "LineString", "coordinates": [ [ -92.418127091336004, 46.8474411218181 ], [ -92.417573514917805, 46.847189960450699 ] ] } },
{ "type": "Feature", "properties": { "wmUplineSo": "GRAND LAKE", "wmType": "Underground" }, "geometry": { "type": "LineString", "coordinates": [ [ -92.418127091336004, 46.8474411218181 ], [ -92.418411467876993, 46.847331323594801 ] ] } },
{ "type": "Feature", "properties": { "wmUplineSo": "GRAND LAKE", "wmType": "Underground" }, "geometry": { "type": "LineString", "coordinates": [ [ -92.418411467876993, 46.847331323594801 ], [ -92.418228, 46.846713 ] ] } },
{ "type": "Feature", "properties": { "wmUplineSo": "GRAND LAKE", "wmType": "Underground" }, "geometry": { "type": "LineString", "coordinates": [ [ -92.418228, 46.846713 ], [ -92.417787, 46.846199999999897 ] ] } },
{ "type": "Feature", "properties": { "wmUplineSo": "GRAND LAKE", "wmType": "Underground" }, "geometry": { "type": "LineString", "coordinates": [ [ -92.459368999967694, 46.866899003524203 ], [ -92.4592539999677, 46.867385003524397 ] ] } },
{ "type": "Feature", "properties": { "wmUplineSo": "GRAND LAKE", "wmType": "Underground" }, "geometry": { "type": "LineString", "coordinates": [ [ -92.405307, 46.84224 ], [ -92.405908, 46.842221 ] ] } },
{ "type": "Feature", "properties": { "wmUplineSo": "GRAND LAKE", "wmType": "Underground" }, "geometry": { "type": "LineString", "coordinates": [ [ -92.407468944387702, 46.859341805703899 ], [ -92.407774526365401, 46.859432653351803 ] ] } },
{ "type": "Feature", "properties": { "wmUplineSo": "GRAND LAKE", "wmType": "Underground" }, "geometry": { "type": "LineString", "coordinates": [ [ -92.417281320606904, 46.860366076721 ], [ -92.417276680591698, 46.860251857942302 ] ] } },
{ "type": "Feature", "properties": { "wmUplineSo": "GRAND LAKE", "wmType": "Underground" }, "geometry": { "type": "LineString", "coordinates": [ [ -92.437984999966503, 46.859122003522202 ], [ -92.438156999966495, 46.859503003522399 ] ] } },
{ "type": "Feature", "properties": { "wmUplineSo": "GRAND LAKE", "wmType": "Underground" }, "geometry": { "type": "LineString", "coordinates": [ [ -92.438123999966507, 46.859757003522397 ], [ -92.438140999966507, 46.859958003522301 ] ] } },
{ "type": "Feature", "properties": { "wmUplineSo": "GRAND LAKE", "wmType": "Underground" }, "geometry": { "type": "LineString", "coordinates": [ [ -92.459797999967805, 46.8654910035239 ], [ -92.459760999967699, 46.865638003523898 ] ] } },
{ "type": "Feature", "properties": { "wmUplineSo": "GRAND LAKE", "wmType": "Underground" }, "geometry": { "type": "LineString", "coordinates": [ [ -92.405908, 46.842221 ], [ -92.406428, 46.842205 ] ] } },
{ "type": "Feature", "properties": { "wmUplineSo": "GRAND LAKE", "wmType": "Underground" }, "geometry": { "type": "LineString", "coordinates": [ [ -92.3927082452185, 46.867686769403697 ], [ -92.392738740493797, 46.8675328108407 ] ] } },
{ "type": "Feature", "properties": { "wmUplineSo": "GRAND LAKE", "wmType": "Underground" }, "geometry": { "type": "LineString", "coordinates": [ [ -92.425965982827407, 46.844756821074199 ], [ -92.426105661453505, 46.8449559194489 ] ] } },
{ "type": "Feature", "properties": { "wmUplineSo": "GRAND LAKE", "wmType": "Underground" }, "geometry": { "type": "LineString", "coordinates": [ [ -92.426105661453505, 46.8449559194489 ], [ -92.426290731141407, 46.845103894852798 ] ] } },
{ "type": "Feature", "properties": { "wmUplineSo": "GRAND LAKE", "wmType": "Underground" }, "geometry": { "type": "LineString", "coordinates": [ [ -92.426290731141407, 46.845103894852798 ], [ -92.426330565904195, 46.845184714507397 ] ] } },
{ "type": "Feature", "properties": { "wmUplineSo": "GRAND LAKE", "wmType": "Underground" }, "geometry": { "type": "LineString", "coordinates": [ [ -92.426330565904195, 46.845184714507397 ], [ -92.426346737118294, 46.845270249957203 ] ] } },
{ "type": "Feature", "properties": { "wmUplineSo": "GRAND LAKE", "wmType": "Underground" }, "geometry": { "type": "LineString", "coordinates": [ [ -92.426346737118294, 46.845270249957203 ], [ -92.426458465371994, 46.845363594913898 ] ] } },
{ "type": "Feature", "properties": { "wmUplineSo": "GRAND LAKE", "wmType": "Underground" }, "geometry": { "type": "LineString", "coordinates": [ [ -92.426458465371994, 46.845363594913898 ], [ -92.426526164686507, 46.845589318722297 ] ] } },
{ "type": "Feature", "properties": { "wmUplineSo": "GRAND LAKE", "wmType": "Underground" }, "geometry": { "type": "LineString", "coordinates": [ [ -92.426526164686507, 46.845589318722297 ], [ -92.426620643324995, 46.8458565537006 ] ] } },
{ "type": "Feature", "properties": { "wmUplineSo": "GRAND LAKE", "wmType": "Underground" }, "geometry": { "type": "LineString", "coordinates": [ [ -92.426620643324995, 46.8458565537006 ], [ -92.426678949994198, 46.846064761660898 ] ] } },
{ "type": "Feature", "properties": { "wmUplineSo": "GRAND LAKE", "wmType": "Underground" }, "geometry": { "type": "LineString", "coordinates": [ [ -92.426678949994198, 46.846064761660898 ], [ -92.426704824601998, 46.846079167976903 ] ] } },
{ "type": "Feature", "properties": { "wmUplineSo": "GRAND LAKE", "wmType": "Underground" }, "geometry": { "type": "LineString", "coordinates": [ [ -92.391573111153306, 46.850543677577598 ], [ -92.391586154325495, 46.850489465573297 ] ] } },
{ "type": "Feature", "properties": { "wmUplineSo": "GRAND LAKE", "wmType": "Underground" }, "geometry": { "type": "LineString", "coordinates": [ [ -92.392387283187006, 46.8512477613003 ], [ -92.392107274351005, 46.850810672722602 ] ] } },
{ "type": "Feature", "properties": { "wmUplineSo": "GRAND LAKE", "wmType": "Underground" }, "geometry": { "type": "LineString", "coordinates": [ [ -92.444711603971399, 46.844783869871698 ], [ -92.444738, 46.844966 ] ] } },
{ "type": "Feature", "properties": { "wmUplineSo": "GRAND LAKE", "wmType": "Underground" }, "geometry": { "type": "LineString", "coordinates": [ [ -92.402508, 46.840347 ], [ -92.402484298281806, 46.840344036539101 ] ] } },
{ "type": "Feature", "properties": { "wmUplineSo": "GRAND LAKE", "wmType": "Underground" }, "geometry": { "type": "LineString", "coordinates": [ [ -92.402484298281806, 46.840344036539101 ], [ -92.402457458011696, 46.840342896772 ] ] } },
{ "type": "Feature", "properties": { "wmUplineSo": "GRAND LAKE", "wmType": "Underground" }, "geometry": { "type": "LineString", "coordinates": [ [ -92.408954, 46.839491 ], [ -92.408814, 46.839609 ] ] } },
{ "type": "Feature", "properties": { "wmUplineSo": "GRAND LAKE", "wmType": "Underground" }, "geometry": { "type": "LineString", "coordinates": [ [ -92.408814, 46.839609 ], [ -92.408584, 46.839829 ] ] } },
{ "type": "Feature", "properties": { "wmUplineSo": "GRAND LAKE", "wmType": "Underground" }, "geometry": { "type": "LineString", "coordinates": [ [ -92.408584, 46.839829 ], [ -92.40843, 46.839843 ] ] } },
{ "type": "Feature", "properties": { "wmUplineSo": "GRAND LAKE", "wmType": "Underground" }, "geometry": { "type": "LineString", "coordinates": [ [ -92.40843, 46.839843 ], [ -92.40836, 46.839906 ] ] } },
{ "type": "Feature", "properties": { "wmUplineSo": "GRAND LAKE", "wmType": "Underground" }, "geometry": { "type": "LineString", "coordinates": [ [ -92.40836, 46.839906 ], [ -92.408345, 46.839927 ] ] } },
{ "type": "Feature", "properties": { "wmUplineSo": "GRAND LAKE", "wmType": "Underground" }, "geometry": { "type": "LineString", "coordinates": [ [ -92.376416664526005, 46.864382989310997 ], [ -92.376406285671806, 46.864357003368497 ] ] } },
{ "type": "Feature", "properties": { "wmUplineSo": "GRAND LAKE", "wmType": "Underground" }, "geometry": { "type": "LineString", "coordinates": [ [ -92.389160981023906, 46.874548330307903 ], [ -92.389123082651693, 46.874582105992197 ] ] } },
{ "type": "Feature", "properties": { "wmUplineSo": "GRAND LAKE", "wmType": "Underground" }, "geometry": { "type": "LineString", "coordinates": [ [ -92.376129031053495, 46.865555367345699 ], [ -92.376087082892994, 46.8649986107893 ] ] } },
{ "type": "Feature", "properties": { "wmUplineSo": "GRAND LAKE", "wmType": "Underground" }, "geometry": { "type": "LineString", "coordinates": [ [ -92.376087082892994, 46.8649986107893 ], [ -92.376221186591295, 46.864930476549098 ] ] } },
{ "type": "Feature", "properties": { "wmUplineSo": "GRAND LAKE", "wmType": "Underground" }, "geometry": { "type": "LineString", "coordinates": [ [ -92.376221186591295, 46.864930476549098 ], [ -92.376333126651105, 46.864770611598999 ] ] } },
{ "type": "Feature", "properties": { "wmUplineSo": "GRAND LAKE", "wmType": "Underground" }, "geometry": { "type": "LineString", "coordinates": [ [ -92.376333126651105, 46.864770611598999 ], [ -92.376473609698195, 46.864468051204 ] ] } },
{ "type": "Feature", "properties": { "wmUplineSo": "GRAND LAKE", "wmType": "Underground" }, "geometry": { "type": "LineString", "coordinates": [ [ -92.376473609698195, 46.864468051204 ], [ -92.376416664526005, 46.864382989310997 ] ] } },
{ "type": "Feature", "properties": { "wmUplineSo": "GRAND LAKE", "wmType": "Underground" }, "geometry": { "type": "LineString", "coordinates": [ [ -92.379189191269404, 46.8225995031015 ], [ -92.379293939458705, 46.822402253356501 ] ] } },
{ "type": "Feature", "properties": { "wmUplineSo": "GRAND LAKE", "wmType": "Underground" }, "geometry": { "type": "LineString", "coordinates": [ [ -92.379293939458705, 46.822402253356501 ], [ -92.379311874005595, 46.822122394488403 ] ] } },
{ "type": "Feature", "properties": { "wmUplineSo": "GRAND LAKE", "wmType": "Underground" }, "geometry": { "type": "LineString", "coordinates": [ [ -92.379311874005595, 46.822122394488403 ], [ -92.379285917013505, 46.821784631980599 ] ] } },
{ "type": "Feature", "properties": { "wmUplineSo": "GRAND LAKE", "wmType": "Underground" }, "geometry": { "type": "LineString", "coordinates": [ [ -92.379285917013505, 46.821784631980599 ], [ -92.379222806148306, 46.821527480370499 ] ] } },
{ "type": "Feature", "properties": { "wmUplineSo": "GRAND LAKE", "wmType": "Underground" }, "geometry": { "type": "LineString", "coordinates": [ [ -92.379222806148306, 46.821527480370499 ], [ -92.379039585126506, 46.821219552375901 ] ] } },
{ "type": "Feature", "properties": { "wmUplineSo": "GRAND LAKE", "wmType": "Underground" }, "geometry": { "type": "LineString", "coordinates": [ [ -92.379039585126506, 46.821219552375901 ], [ -92.378971104286606, 46.8210287417904 ] ] } },
{ "type": "Feature", "properties": { "wmUplineSo": "GRAND LAKE", "wmType": "Underground" }, "geometry": { "type": "LineString", "coordinates": [ [ -92.378971104286606, 46.8210287417904 ], [ -92.378876051394599, 46.820904717706199 ] ] } },
{ "type": "Feature", "properties": { "wmUplineSo": "GRAND LAKE", "wmType": "Underground" }, "geometry": { "type": "LineString", "coordinates": [ [ -92.378876051394599, 46.820904717706199 ], [ -92.378879852872302, 46.820743046722797 ] ] } },
{ "type": "Feature", "properties": { "wmUplineSo": "GRAND LAKE", "wmType": "Underground" }, "geometry": { "type": "LineString", "coordinates": [ [ -92.378879852872302, 46.820743046722797 ], [ -92.378671487632303, 46.820535835201802 ] ] } },
{ "type": "Feature", "properties": { "wmUplineSo": "GRAND LAKE", "wmType": "Underground" }, "geometry": { "type": "LineString", "coordinates": [ [ -92.378671487632303, 46.820535835201802 ], [ -92.378618449921007, 46.820487994848101 ] ] } },
{ "type": "Feature", "properties": { "wmUplineSo": "GRAND LAKE", "wmType": "Underground" }, "geometry": { "type": "LineString", "coordinates": [ [ -92.378618449921007, 46.820487994848101 ], [ -92.378608242293097, 46.820466406255797 ] ] } },
{ "type": "Feature", "properties": { "wmUplineSo": "GRAND LAKE", "wmType": "Underground" }, "geometry": { "type": "LineString", "coordinates": [ [ -92.406428, 46.842205 ], [ -92.407029465174602, 46.842178447537698 ] ] } },
{ "type": "Feature", "properties": { "wmUplineSo": "GRAND LAKE", "wmType": "Underground" }, "geometry": { "type": "LineString", "coordinates": [ [ -92.413630293043397, 46.849333951457297 ], [ -92.413692293151996, 46.8493974129563 ] ] } },
{ "type": "Feature", "properties": { "wmUplineSo": "GRAND LAKE", "wmType": "Underground" }, "geometry": { "type": "LineString", "coordinates": [ [ -92.413692293151996, 46.8493974129563 ], [ -92.413868004936006, 46.849427953061003 ] ] } },
{ "type": "Feature", "properties": { "wmUplineSo": "GRAND LAKE", "wmType": "Underground" }, "geometry": { "type": "LineString", "coordinates": [ [ -92.413868004936006, 46.849427953061003 ], [ -92.413973721822003, 46.849447572162397 ] ] } },
{ "type": "Feature", "properties": { "wmUplineSo": "GRAND LAKE", "wmType": "Underground" }, "geometry": { "type": "LineString", "coordinates": [ [ -92.413973721822003, 46.849447572162397 ], [ -92.414003295326097, 46.849451630487998 ] ] } },
{ "type": "Feature", "properties": { "wmUplineSo": "GRAND LAKE", "wmType": "Underground" }, "geometry": { "type": "LineString", "coordinates": [ [ -92.444870845344894, 46.855865948117099 ], [ -92.445005046229298, 46.855909397268199 ] ] } },
{ "type": "Feature", "properties": { "wmUplineSo": "GRAND LAKE", "wmType": "Underground" }, "geometry": { "type": "LineString", "coordinates": [ [ -92.445005046229298, 46.855909397268199 ], [ -92.445267581976097, 46.856307649410397 ] ] } },
{ "type": "Feature", "properties": { "wmUplineSo": "GRAND LAKE", "wmType": "Underground" }, "geometry": { "type": "LineString", "coordinates": [ [ -92.445267581976097, 46.856307649410397 ], [ -92.4452742054509, 46.856286542322401 ] ] } },
{ "type": "Feature", "properties": { "wmUplineSo": "GRAND LAKE", "wmType": "Underground" }, "geometry": { "type": "LineString", "coordinates": [ [ -92.417456223420203, 46.841360260834698 ], [ -92.417642519611505, 46.841540479112801 ] ] } },
{ "type": "Feature", "properties": { "wmUplineSo": "GRAND LAKE", "wmType": "Underground" }, "geometry": { "type": "LineString", "coordinates": [ [ -92.417874949013594, 46.841765323394398 ], [ -92.418231185719705, 46.8420550115409 ] ] } },
{ "type": "Feature", "properties": { "wmUplineSo": "GRAND LAKE", "wmType": "Underground" }, "geometry": { "type": "LineString", "coordinates": [ [ -92.418231185719705, 46.8420550115409 ], [ -92.418387934638403, 46.842209800956098 ] ] } },
{ "type": "Feature", "properties": { "wmUplineSo": "GRAND LAKE", "wmType": "Underground" }, "geometry": { "type": "LineString", "coordinates": [ [ -92.384411191215804, 46.865494610783998 ], [ -92.384395300844105, 46.865118385438997 ] ] } },
{ "type": "Feature", "properties": { "wmUplineSo": "GRAND LAKE", "wmType": "Underground" }, "geometry": { "type": "LineString", "coordinates": [ [ -92.407455175471497, 46.859125724083398 ], [ -92.407801545278005, 46.8591228665044 ] ] } },
{ "type": "Feature", "properties": { "wmUplineSo": "GRAND LAKE", "wmType": "Underground" }, "geometry": { "type": "LineString", "coordinates": [ [ -92.437836999966507, 46.858684003522001 ], [ -92.437910999966505, 46.858950003521997 ] ] } },
{ "type": "Feature", "properties": { "wmUplineSo": "GRAND LAKE", "wmType": "Underground" }, "geometry": { "type": "LineString", "coordinates": [ [ -92.363398442567402, 46.865761869574897 ], [ -92.362800686868098, 46.865752100774699 ] ] } },
{ "type": "Feature", "properties": { "wmUplineSo": "GRAND LAKE", "wmType": "Underground" }, "geometry": { "type": "LineString", "coordinates": [ [ -92.362800686868098, 46.865752100774699 ], [ -92.362446571489201, 46.865725009494497 ] ] } },
{ "type": "Feature", "properties": { "wmUplineSo": "GRAND LAKE", "wmType": "Underground" }, "geometry": { "type": "LineString", "coordinates": [ [ -92.362446571489201, 46.865725009494497 ], [ -92.362044371258406, 46.865719262789703 ] ] } },
{ "type": "Feature", "properties": { "wmUplineSo": "GRAND LAKE", "wmType": "Underground" }, "geometry": { "type": "LineString", "coordinates": [ [ -92.362044371258406, 46.865719262789703 ], [ -92.361207895862705, 46.865720443802402 ] ] } },
{ "type": "Feature", "properties": { "wmUplineSo": "GRAND LAKE", "wmType": "Underground" }, "geometry": { "type": "LineString", "coordinates": [ [ -92.361207895862705, 46.865720443802402 ], [ -92.360120146818701, 46.865735872300299 ] ] } },
{ "type": "Feature", "properties": { "wmUplineSo": "GRAND LAKE", "wmType": "Underground" }, "geometry": { "type": "LineString", "coordinates": [ [ -92.360120146818701, 46.865735872300299 ], [ -92.359715185992002, 46.865683465549502 ] ] } },
{ "type": "Feature", "properties": { "wmUplineSo": "GRAND LAKE", "wmType": "Underground" }, "geometry": { "type": "LineString", "coordinates": [ [ -92.359715185992002, 46.865683465549502 ], [ -92.359713299999896, 46.8657084000086 ] ] } },
{ "type": "Feature", "properties": { "wmUplineSo": "GRAND LAKE", "wmType": "Underground" }, "geometry": { "type": "LineString", "coordinates": [ [ -92.359715185992002, 46.865683465549502 ], [ -92.359079402517594, 46.865674073140298 ] ] } },
{ "type": "Feature", "properties": { "wmUplineSo": "GRAND LAKE", "wmType": "Underground" }, "geometry": { "type": "LineString", "coordinates": [ [ -92.359079402517594, 46.865674073140298 ], [ -92.358477067015698, 46.8656294844969 ] ] } },
{ "type": "Feature", "properties": { "wmUplineSo": "GRAND LAKE", "wmType": "Underground" }, "geometry": { "type": "LineString", "coordinates": [ [ -92.358477067015698, 46.8656294844969 ], [ -92.358156916163793, 46.865653940451601 ] ] } },
{ "type": "Feature", "properties": { "wmUplineSo": "GRAND LAKE", "wmType": "Underground" }, "geometry": { "type": "LineString", "coordinates": [ [ -92.358156916163793, 46.865653940451601 ], [ -92.357908055820701, 46.8656946257437 ] ] } },
{ "type": "Feature", "properties": { "wmUplineSo": "GRAND LAKE", "wmType": "Underground" }, "geometry": { "type": "LineString", "coordinates": [ [ -92.357908055820701, 46.8656946257437 ], [ -92.357559882206999, 46.865824992110298 ] ] } },
{ "type": "Feature", "properties": { "wmUplineSo": "GRAND LAKE", "wmType": "Underground" }, "geometry": { "type": "LineString", "coordinates": [ [ -92.357559882206999, 46.865824992110298 ], [ -92.357310434673806, 46.8659237299061 ], [ -92.357167396116793, 46.865968339124699 ], [ -92.356836234332903, 46.866019129812898 ] ] } },
{ "type": "Feature", "properties": { "wmUplineSo": "GRAND LAKE", "wmType": "Underground" }, "geometry": { "type": "LineString", "coordinates": [ [ -92.356836234332903, 46.866019129812898 ], [ -92.356152987111599, 46.866052948112397 ] ] } },
{ "type": "Feature", "properties": { "wmUplineSo": "GRAND LAKE", "wmType": "Underground" }, "geometry": { "type": "LineString", "coordinates": [ [ -92.356152987111599, 46.866052948112397 ], [ -92.355509843396007, 46.866085177094803 ] ] } },
{ "type": "Feature", "properties": { "wmUplineSo": "GRAND LAKE", "wmType": "Underground" }, "geometry": { "type": "LineString", "coordinates": [ [ -92.355509843396007, 46.866085177094803 ], [ -92.354881194088307, 46.866130266631302 ] ] } },
{ "type": "Feature", "properties": { "wmUplineSo": "GRAND LAKE", "wmType": "Underground" }, "geometry": { "type": "LineString", "coordinates": [ [ -92.354881194088307, 46.866130266631302 ], [ -92.354359766962205, 46.866097794985102 ] ] } },
{ "type": "Feature", "properties": { "wmUplineSo": "GRAND LAKE", "wmType": "Underground" }, "geometry": { "type": "LineString", "coordinates": [ [ -92.354359766962205, 46.866097794985102 ], [ -92.353813319007202, 46.866207400192501 ] ] } },
{ "type": "Feature", "properties": { "wmUplineSo": "GRAND LAKE", "wmType": "Underground" }, "geometry": { "type": "LineString", "coordinates": [ [ -92.353813319007202, 46.866207400192501 ], [ -92.3533507430339, 46.866159777112898 ] ] } },
{ "type": "Feature", "properties": { "wmUplineSo": "GRAND LAKE", "wmType": "Underground" }, "geometry": { "type": "LineString", "coordinates": [ [ -92.3533507430339, 46.866159777112898 ], [ -92.353004668133195, 46.866113959278103 ] ] } },
{ "type": "Feature", "properties": { "wmUplineSo": "GRAND LAKE", "wmType": "Underground" }, "geometry": { "type": "LineString", "coordinates": [ [ -92.444670829111203, 46.844430331705901 ], [ -92.444711603971399, 46.844783869871698 ] ] } },
{ "type": "Feature", "properties": { "wmUplineSo": "GRAND LAKE", "wmType": "Underground" }, "geometry": { "type": "LineString", "coordinates": [ [ -92.444711603971399, 46.844783869871698 ], [ -92.444734399999902, 46.844750100008604 ] ] } },
{ "type": "Feature", "properties": { "wmUplineSo": "GRAND LAKE", "wmType": "Underground" }, "geometry": { "type": "LineString", "coordinates": [ [ -92.393362999963898, 46.847464003518901 ], [ -92.393343599999895, 46.847455400008599 ] ] } },
{ "type": "Feature", "properties": { "wmUplineSo": "GRAND LAKE", "wmType": "Underground" }, "geometry": { "type": "LineString", "coordinates": [ [ -92.417264593166493, 46.841146504415597 ], [ -92.417456223420203, 46.841360260834698 ] ] } },
{ "type": "Feature", "properties": { "wmUplineSo": "GRAND LAKE", "wmType": "Underground" }, "geometry": { "type": "LineString", "coordinates": [ [ -92.418387934638403, 46.842209800956098 ], [ -92.418765911749503, 46.842218069340703 ] ] } },
{ "type": "Feature", "properties": { "wmUplineSo": "GRAND LAKE", "wmType": "Underground" }, "geometry": { "type": "LineString", "coordinates": [ [ -92.418765911749503, 46.842218069340703 ], [ -92.418960890409807, 46.842113973543199 ] ] } },
{ "type": "Feature", "properties": { "wmUplineSo": "GRAND LAKE", "wmType": "Underground" }, "geometry": { "type": "LineString", "coordinates": [ [ -92.365929172748494, 46.867209106236899 ], [ -92.365929563079007, 46.867219925797002 ] ] } },
{ "type": "Feature", "properties": { "wmUplineSo": "GRAND LAKE", "wmType": "Underground" }, "geometry": { "type": "LineString", "coordinates": [ [ -92.365924499999906, 46.867213400008602 ], [ -92.365929172748494, 46.867209106236899 ] ] } },
{ "type": "Feature", "properties": { "wmUplineSo": "GRAND LAKE", "wmType": "Underground" }, "geometry": { "type": "LineString", "coordinates": [ [ -92.393658446507303, 46.868954362605102 ], [ -92.393326299999899, 46.869154400008597 ] ] } },
{ "type": "Feature", "properties": { "wmUplineSo": "GRAND LAKE", "wmType": "Underground" }, "geometry": { "type": "LineString", "coordinates": [ [ -92.438140999966507, 46.859958003522301 ], [ -92.438192, 46.859984600008602 ] ] } },
{ "type": "Feature", "properties": { "wmUplineSo": "GRAND LAKE", "wmType": "Underground" }, "geometry": { "type": "LineString", "coordinates": [ [ -92.437910999966505, 46.858950003521997 ], [ -92.437984999966503, 46.859122003522202 ] ] } },
{ "type": "Feature", "properties": { "wmUplineSo": "GRAND LAKE", "wmType": "Underground" }, "geometry": { "type": "LineString", "coordinates": [ [ -92.438156999966495, 46.859503003522399 ], [ -92.438123999966507, 46.859757003522397 ] ] } },
{ "type": "Feature", "properties": { "wmUplineSo": "GRAND LAKE", "wmType": "Underground" }, "geometry": { "type": "LineString", "coordinates": [ [ -92.4377955287991, 46.8585640503997 ], [ -92.437836999966507, 46.858684003522001 ] ] } },
{ "type": "Feature", "properties": { "wmUplineSo": "GRAND LAKE", "wmType": "Underground" }, "geometry": { "type": "LineString", "coordinates": [ [ -92.404995805430602, 46.838078542045899 ], [ -92.404893392788296, 46.838183085229097 ] ] } },
{ "type": "Feature", "properties": { "wmUplineSo": "GRAND LAKE", "wmType": "Underground" }, "geometry": { "type": "LineString", "coordinates": [ [ -92.404893392788296, 46.838183085229097 ], [ -92.404833358466107, 46.838255015455402 ] ] } },
{ "type": "Feature", "properties": { "wmUplineSo": "GRAND LAKE", "wmType": "Underground" }, "geometry": { "type": "LineString", "coordinates": [ [ -92.404833358466107, 46.838255015455402 ], [ -92.404856593684002, 46.838259669101497 ] ] } },
{ "type": "Feature", "properties": { "wmUplineSo": "GRAND LAKE", "wmType": "Underground" }, "geometry": { "type": "LineString", "coordinates": [ [ -92.350151908274597, 46.869073954520097 ], [ -92.350094578060805, 46.869082028316399 ] ] } },
{ "type": "Feature", "properties": { "wmUplineSo": "GRAND LAKE", "wmType": "Underground" }, "geometry": { "type": "LineString", "coordinates": [ [ -92.350094578060805, 46.869082028316399 ], [ -92.350101305722603, 46.869102692751298 ] ] } },
{ "type": "Feature", "properties": { "wmUplineSo": "GRAND LAKE", "wmType": "Underground" }, "geometry": { "type": "LineString", "coordinates": [ [ -92.364683491901303, 46.881512681453799 ], [ -92.364560635880196, 46.881523350875497 ] ] } },
{ "type": "Feature", "properties": { "wmUplineSo": "GRAND LAKE", "wmType": "Underground" }, "geometry": { "type": "LineString", "coordinates": [ [ -92.364560635880196, 46.881523350875497 ], [ -92.364296213684199, 46.881450659493098 ] ] } },
{ "type": "Feature", "properties": { "wmUplineSo": "GRAND LAKE", "wmType": "Underground" }, "geometry": { "type": "LineString", "coordinates": [ [ -92.396017131885102, 46.8635655577799 ], [ -92.396081871214705, 46.863571604460198 ] ] } },
{ "type": "Feature", "properties": { "wmUplineSo": "GRAND LAKE", "wmType": "Underground" }, "geometry": { "type": "LineString", "coordinates": [ [ -92.396236, 46.863586 ], [ -92.396232, 46.863569 ] ] } },
{ "type": "Feature", "properties": { "wmUplineSo": "GRAND LAKE", "wmType": "Underground" }, "geometry": { "type": "LineString", "coordinates": [ [ -92.396081871214705, 46.863571604460198 ], [ -92.396236, 46.863586 ] ] } },
{ "type": "Feature", "properties": { "wmUplineSo": "GRAND LAKE", "wmType": "Underground" }, "geometry": { "type": "LineString", "coordinates": [ [ -92.350184151433893, 46.868923605808298 ], [ -92.350157777249805, 46.868927300420502 ], [ -92.350106408682294, 46.868934496337502 ] ] } },
{ "type": "Feature", "properties": { "wmUplineSo": "GRAND LAKE", "wmType": "Underground" }, "geometry": { "type": "LineString", "coordinates": [ [ -92.350106408682294, 46.868934496337502 ], [ -92.350151908274597, 46.869073954520097 ] ] } },
{ "type": "Feature", "properties": { "wmUplineSo": "GRAND LAKE", "wmType": "Underground" }, "geometry": { "type": "LineString", "coordinates": [ [ -92.350151908274597, 46.869073954520097 ], [ -92.350444248084401, 46.869088637568296 ] ] } },
{ "type": "Feature", "properties": { "wmUplineSo": "GRAND LAKE", "wmType": "Underground" }, "geometry": { "type": "LineString", "coordinates": [ [ -92.350444248084401, 46.869088637568296 ], [ -92.350628833810902, 46.869131550545902 ] ] } },
{ "type": "Feature", "properties": { "wmUplineSo": "GRAND LAKE", "wmType": "Underground" }, "geometry": { "type": "LineString", "coordinates": [ [ -92.350628833810902, 46.869131550545902 ], [ -92.350843957162795, 46.869195050360503 ] ] } },
{ "type": "Feature", "properties": { "wmUplineSo": "GRAND LAKE", "wmType": "Underground" }, "geometry": { "type": "LineString", "coordinates": [ [ -92.350843957162795, 46.869195050360503 ], [ -92.350867950593994, 46.869201169649699 ] ] } },
{ "type": "Feature", "properties": { "wmUplineSo": "GRAND LAKE", "wmType": "Underground" }, "geometry": { "type": "LineString", "coordinates": [ [ -92.351222664965803, 46.867781054718499 ], [ -92.351084678166501, 46.868177940202202 ], [ -92.350655495062597, 46.8686806517482 ], [ -92.350184151433893, 46.868923605808298 ] ] } },
{ "type": "Feature", "properties": { "wmUplineSo": "GRAND LAKE", "wmType": "Underground" }, "geometry": { "type": "LineString", "coordinates": [ [ -92.350106408682294, 46.868934496337502 ], [ -92.349490706707996, 46.869103949328597 ], [ -92.348453994783895, 46.869302260897499 ], [ -92.347561825443293, 46.869211197168902 ], [ -92.347258598983998, 46.869016008590698 ] ] } },
{ "type": "Feature", "properties": { "wmUplineSo": "GRAND LAKE", "wmType": "Underground" }, "geometry": { "type": "LineString", "coordinates": [ [ -92.351222664965803, 46.867781054718499 ], [ -92.350318142328106, 46.868066114513198 ] ] } },
{ "type": "Feature", "properties": { "wmUplineSo": "GRAND LAKE", "wmType": "Underground" }, "geometry": { "type": "LineString", "coordinates": [ [ -92.415222, 46.8528540000001 ], [ -92.415216645592807, 46.852847360556197 ] ] } },
{ "type": "Feature", "properties": { "wmUplineSo": "GRAND LAKE", "wmType": "Underground" }, "geometry": { "type": "LineString", "coordinates": [ [ -92.368712905190307, 46.865676626354897 ], [ -92.369069895406497, 46.866944619846699 ] ] } },
{ "type": "Feature", "properties": { "wmUplineSo": "GRAND LAKE", "wmType": "Underground" }, "geometry": { "type": "LineString", "coordinates": [ [ -92.369958634182694, 46.8656031778482 ], [ -92.369989459558496, 46.865566628341803 ] ] } },
{ "type": "Feature", "properties": { "wmUplineSo": "GRAND LAKE", "wmType": "Underground" }, "geometry": { "type": "LineString", "coordinates": [ [ -92.407446052286701, 46.859334999977499 ], [ -92.407881235306903, 46.859340153174799 ] ] } },
{ "type": "Feature", "properties": { "wmUplineSo": "GRAND LAKE", "wmType": "Underground" }, "geometry": { "type": "LineString", "coordinates": [ [ -92.417787, 46.846199999999897 ], [ -92.417528, 46.846185 ] ] } },
{ "type": "Feature", "properties": { "wmUplineSo": "GRAND LAKE", "wmType": "Underground" }, "geometry": { "type": "LineString", "coordinates": [ [ -92.4592539999677, 46.867385003524397 ], [ -92.459268999967705, 46.867587003524399 ] ] } },
{ "type": "Feature", "properties": { "wmUplineSo": "GRAND LAKE", "wmType": "Underground" }, "geometry": { "type": "LineString", "coordinates": [ [ -92.368280999962295, 46.861751824822797 ], [ -92.368594999962397, 46.861864878520102 ] ] } },
{ "type": "Feature", "properties": { "wmUplineSo": "GRAND LAKE", "wmType": "Underground" }, "geometry": { "type": "LineString", "coordinates": [ [ -92.415128, 46.852503 ], [ -92.415134, 46.852497 ] ] } },
{ "type": "Feature", "properties": { "wmUplineSo": "GRAND LAKE", "wmType": "Underground" }, "geometry": { "type": "LineString", "coordinates": [ [ -92.415097, 46.852699 ], [ -92.415128, 46.852503 ] ] } },
{ "type": "Feature", "properties": { "wmUplineSo": "GRAND LAKE", "wmType": "Underground" }, "geometry": { "type": "LineString", "coordinates": [ [ -92.459268999967705, 46.867587003524399 ], [ -92.459284499999896, 46.867561900008603 ] ] } },
{ "type": "Feature", "properties": { "wmUplineSo": "GRAND LAKE", "wmType": "Underground" }, "geometry": { "type": "LineString", "coordinates": [ [ -92.418080147056102, 46.845928549637897 ], [ -92.418498999999898, 46.845603100008603 ] ] } },
{ "type": "Feature", "properties": { "wmUplineSo": "GRAND LAKE", "wmType": "Underground" }, "geometry": { "type": "LineString", "coordinates": [ [ -92.415128, 46.852503 ], [ -92.41515, 46.852497999999898 ] ] } },
{ "type": "Feature", "properties": { "wmUplineSo": "GRAND LAKE", "wmType": "Underground" }, "geometry": { "type": "LineString", "coordinates": [ [ -92.360505378039903, 46.879841153003603 ], [ -92.360522, 46.879679300008597 ] ] } },
{ "type": "Feature", "properties": { "wmUplineSo": "GRAND LAKE", "wmType": "Underground" }, "geometry": { "type": "LineString", "coordinates": [ [ -92.390340656404604, 46.8673897287836 ], [ -92.390274599999898, 46.867213800008599 ] ] } },
{ "type": "Feature", "properties": { "wmUplineSo": "GRAND LAKE", "wmType": "Underground" }, "geometry": { "type": "LineString", "coordinates": [ [ -92.350318142328106, 46.868066114513198 ], [ -92.350153099999901, 46.868119300008601 ] ] } },
{ "type": "Feature", "properties": { "wmUplineSo": "GRAND LAKE", "wmType": "Underground" }, "geometry": { "type": "LineString", "coordinates": [ [ -92.347483172350493, 46.867942511617599 ], [ -92.347603799999902, 46.867831400008598 ] ] } },
{ "type": "Feature", "properties": { "wmUplineSo": "GRAND LAKE", "wmType": "Underground" }, "geometry": { "type": "LineString", "coordinates": [ [ -92.353461656921297, 46.866463175441503 ], [ -92.353533299999896, 46.866661400008603 ] ] } },
{ "type": "Feature", "properties": { "wmUplineSo": "GRAND LAKE", "wmType": "Underground" }, "geometry": { "type": "LineString", "coordinates": [ [ -92.3642658528764, 46.867313684240401 ], [ -92.364160599999906, 46.867407900008601 ] ] } },
{ "type": "Feature", "properties": { "wmUplineSo": "GRAND LAKE", "wmType": "Underground" }, "geometry": { "type": "LineString", "coordinates": [ [ -92.398111029550194, 46.862677011298203 ], [ -92.398365322655494, 46.8627802830812 ] ] } },
{ "type": "Feature", "properties": { "wmUplineSo": "GRAND LAKE", "wmType": "Underground" }, "geometry": { "type": "LineString", "coordinates": [ [ -92.371644613327007, 46.888276344501001 ], [ -92.371693099999902, 46.888535500008601 ] ] } },
{ "type": "Feature", "properties": { "wmUplineSo": "GRAND LAKE", "wmType": "Underground" }, "geometry": { "type": "LineString", "coordinates": [ [ -92.373517169250107, 46.888173810427098 ], [ -92.374048099999897, 46.887864400008603 ] ] } },
{ "type": "Feature", "properties": { "wmUplineSo": "GRAND LAKE", "wmType": "Underground" }, "geometry": { "type": "LineString", "coordinates": [ [ -92.372385459195598, 46.887739785525802 ], [ -92.372473299999896, 46.888104600008603 ] ] } },
{ "type": "Feature", "properties": { "wmUplineSo": "GRAND LAKE", "wmType": "Underground" }, "geometry": { "type": "LineString", "coordinates": [ [ -92.3633888701671, 46.883971664291202 ], [ -92.363233399999899, 46.884218100008603 ] ] } },
{ "type": "Feature", "properties": { "wmUplineSo": "GRAND LAKE", "wmType": "Underground" }, "geometry": { "type": "LineString", "coordinates": [ [ -92.366501251418498, 46.8736012650389 ], [ -92.366728099999904, 46.873598600008599 ] ] } },
{ "type": "Feature", "properties": { "wmUplineSo": "GRAND LAKE", "wmType": "Underground" }, "geometry": { "type": "LineString", "coordinates": [ [ -92.362110599602005, 46.873004793420698 ], [ -92.361601799999903, 46.872953300008596 ] ] } },
{ "type": "Feature", "properties": { "wmUplineSo": "GRAND LAKE", "wmType": "Underground" }, "geometry": { "type": "LineString", "coordinates": [ [ -92.372563909549697, 46.879402952148901 ], [ -92.372508799999906, 46.878857300008598 ] ] } },
{ "type": "Feature", "properties": { "wmUplineSo": "GRAND LAKE", "wmType": "Underground" }, "geometry": { "type": "LineString", "coordinates": [ [ -92.375934403304001, 46.880988479780697 ], [ -92.376249299999898, 46.8811893000086 ] ] } },
{ "type": "Feature", "properties": { "wmUplineSo": "GRAND LAKE", "wmType": "Underground" }, "geometry": { "type": "LineString", "coordinates": [ [ -92.378687695891998, 46.880888819020399 ], [ -92.3787137999999, 46.881427100008601 ] ] } },
{ "type": "Feature", "properties": { "wmUplineSo": "GRAND LAKE", "wmType": "Underground" }, "geometry": { "type": "LineString", "coordinates": [ [ -92.377307563985994, 46.880131560892302 ], [ -92.377136299999904, 46.880548500008601 ] ] } },
{ "type": "Feature", "properties": { "wmUplineSo": "GRAND LAKE", "wmType": "Underground" }, "geometry": { "type": "LineString", "coordinates": [ [ -92.429420567138393, 46.856883546411801 ], [ -92.429295799999906, 46.856916800008598 ] ] } },
{ "type": "Feature", "properties": { "wmUplineSo": "GRAND LAKE", "wmType": "Underground" }, "geometry": { "type": "LineString", "coordinates": [ [ -92.431114287928807, 46.843236106570501 ], [ -92.431519099999903, 46.843412000008598 ] ] } },
{ "type": "Feature", "properties": { "wmUplineSo": "GRAND LAKE", "wmType": "Underground" }, "geometry": { "type": "LineString", "coordinates": [ [ -92.422500653577998, 46.8559442854135 ], [ -92.422489299999896, 46.855988400008599 ] ] } },
{ "type": "Feature", "properties": { "wmUplineSo": "GRAND LAKE", "wmType": "Underground" }, "geometry": { "type": "LineString", "coordinates": [ [ -92.419703718053498, 46.859525225065802 ], [ -92.419009, 46.859520000008601 ] ] } },
{ "type": "Feature", "properties": { "wmUplineSo": "GRAND LAKE", "wmType": "Underground" }, "geometry": { "type": "LineString", "coordinates": [ [ -92.419703718053498, 46.859525225065802 ], [ -92.419697599999907, 46.859083400008601 ] ] } },
{ "type": "Feature", "properties": { "wmUplineSo": "GRAND LAKE", "wmType": "Underground" }, "geometry": { "type": "LineString", "coordinates": [ [ -92.412912370918804, 46.8549894972247 ], [ -92.413003499999903, 46.855075600008597 ] ] } },
{ "type": "Feature", "properties": { "wmUplineSo": "GRAND LAKE", "wmType": "Underground" }, "geometry": { "type": "LineString", "coordinates": [ [ -92.412912370918804, 46.8549894972247 ], [ -92.413016299999896, 46.8550090000086 ] ] } },
{ "type": "Feature", "properties": { "wmUplineSo": "GRAND LAKE", "wmType": "Underground" }, "geometry": { "type": "LineString", "coordinates": [ [ -92.416642795252599, 46.850760241853202 ], [ -92.416577799999899, 46.850822800008601 ] ] } },
{ "type": "Feature", "properties": { "wmUplineSo": "GRAND LAKE", "wmType": "Underground" }, "geometry": { "type": "LineString", "coordinates": [ [ -92.429020365911995, 46.8517482577425 ], [ -92.428768799999901, 46.851581300008597 ] ] } },
{ "type": "Feature", "properties": { "wmUplineSo": "GRAND LAKE", "wmType": "Underground" }, "geometry": { "type": "LineString", "coordinates": [ [ -92.418960890409807, 46.842113973543199 ], [ -92.419237999999893, 46.842297800008602 ] ] } },
{ "type": "Feature", "properties": { "wmUplineSo": "GRAND LAKE", "wmType": "Underground" }, "geometry": { "type": "LineString", "coordinates": [ [ -92.410480516433395, 46.850980331960997 ], [ -92.410348599999907, 46.850708800008597 ] ] } },
{ "type": "Feature", "properties": { "wmUplineSo": "GRAND LAKE", "wmType": "Underground" }, "geometry": { "type": "LineString", "coordinates": [ [ -92.410480516433395, 46.850980331960997 ], [ -92.410740599999897, 46.850115300008603 ] ] } },
{ "type": "Feature", "properties": { "wmUplineSo": "GRAND LAKE", "wmType": "Underground" }, "geometry": { "type": "LineString", "coordinates": [ [ -92.413370423835005, 46.852716247862801 ], [ -92.412974299999902, 46.852545600008597 ] ] } },
{ "type": "Feature", "properties": { "wmUplineSo": "GRAND LAKE", "wmType": "Underground" }, "geometry": { "type": "LineString", "coordinates": [ [ -92.413370423835005, 46.852716247862801 ], [ -92.412737099999902, 46.852435400008602 ] ] } },
{ "type": "Feature", "properties": { "wmUplineSo": "GRAND LAKE", "wmType": "Underground" }, "geometry": { "type": "LineString", "coordinates": [ [ -92.415778376747298, 46.853586657205298 ], [ -92.41547, 46.853694800008597 ] ] } },
{ "type": "Feature", "properties": { "wmUplineSo": "GRAND LAKE", "wmType": "Underground" }, "geometry": { "type": "LineString", "coordinates": [ [ -92.407774526365401, 46.859432653351803 ], [ -92.407827960784701, 46.859469791309301 ] ] } },
{ "type": "Feature", "properties": { "wmUplineSo": "GRAND LAKE", "wmType": "Underground" }, "geometry": { "type": "LineString", "coordinates": [ [ -92.378812650408705, 46.865068104827898 ], [ -92.378616299999905, 46.864829300008601 ] ] } },
{ "type": "Feature", "properties": { "wmUplineSo": "GRAND LAKE", "wmType": "Underground" }, "geometry": { "type": "LineString", "coordinates": [ [ -92.384395300844105, 46.865118385438997 ], [ -92.384387099999898, 46.865061500008601 ] ] } },
{ "type": "Feature", "properties": { "wmUplineSo": "GRAND LAKE", "wmType": "Underground" }, "geometry": { "type": "LineString", "coordinates": [ [ -92.370659677666197, 46.8647256774534 ], [ -92.370035399999907, 46.864749600008601 ] ] } },
{ "type": "Feature", "properties": { "wmUplineSo": "GRAND LAKE", "wmType": "Underground" }, "geometry": { "type": "LineString", "coordinates": [ [ -92.369069895406497, 46.866944619846699 ], [ -92.368856899999898, 46.866777800008599 ] ] } },
{ "type": "Feature", "properties": { "wmUplineSo": "GRAND LAKE", "wmType": "Underground" }, "geometry": { "type": "LineString", "coordinates": [ [ -92.365683758300406, 46.870966095176698 ], [ -92.365770525917398, 46.871070004759403 ] ] } },
{ "type": "Feature", "properties": { "wmUplineSo": "GRAND LAKE", "wmType": "Underground" }, "geometry": { "type": "LineString", "coordinates": [ [ -92.367465731229203, 46.869282181908197 ], [ -92.367426099999903, 46.869153400008599 ] ] } },
{ "type": "Feature", "properties": { "wmUplineSo": "GRAND LAKE", "wmType": "Underground" }, "geometry": { "type": "LineString", "coordinates": [ [ -92.371038757285106, 46.878878813831903 ], [ -92.370999099999906, 46.879118300008599 ] ] } },
{ "type": "Feature", "properties": { "wmUplineSo": "GRAND LAKE", "wmType": "Underground" }, "geometry": { "type": "LineString", "coordinates": [ [ -92.378584315435106, 46.817323475029703 ], [ -92.378463499999896, 46.817430100008501 ] ] } },
{ "type": "Feature", "properties": { "wmUplineSo": "GRAND LAKE", "wmType": "Underground" }, "geometry": { "type": "LineString", "coordinates": [ [ -92.394104533045393, 46.838000085635898 ], [ -92.394346299999896, 46.837943300008597 ] ] } },
{ "type": "Feature", "properties": { "wmUplineSo": "GRAND LAKE", "wmType": "Underground" }, "geometry": { "type": "LineString", "coordinates": [ [ -92.417270722905698, 46.850256877663902 ], [ -92.417266099999907, 46.850238900008598 ] ] } },
{ "type": "Feature", "properties": { "wmUplineSo": "GRAND LAKE", "wmType": "Underground" }, "geometry": { "type": "LineString", "coordinates": [ [ -92.417462761029896, 46.852917645912299 ], [ -92.417374299999906, 46.852991800008603 ] ] } },
{ "type": "Feature", "properties": { "wmUplineSo": "GRAND LAKE", "wmType": "Underground" }, "geometry": { "type": "LineString", "coordinates": [ [ -92.417462761029896, 46.852917645912299 ], [ -92.417423399999905, 46.853156600008603 ] ] } },
{ "type": "Feature", "properties": { "wmUplineSo": "GRAND LAKE", "wmType": "Underground" }, "geometry": { "type": "LineString", "coordinates": [ [ -92.378707479292601, 46.865538350311098 ], [ -92.378756111528006, 46.865517378034703 ] ] } },
{ "type": "Feature", "properties": { "wmUplineSo": "GRAND LAKE", "wmType": "Underground" }, "geometry": { "type": "LineString", "coordinates": [ [ -92.378707479292601, 46.865538350311098 ], [ -92.378756111528006, 46.865517378034703 ] ] } },
{ "type": "Feature", "properties": { "wmUplineSo": "GRAND LAKE", "wmType": "Underground" }, "geometry": { "type": "LineString", "coordinates": [ [ -92.385852474836497, 46.865146657829001 ], [ -92.386060399999906, 46.8651186000086 ] ] } },
{ "type": "Feature", "properties": { "wmUplineSo": "GRAND LAKE", "wmType": "Underground" }, "geometry": { "type": "LineString", "coordinates": [ [ -92.391301368648698, 46.864903444295102 ], [ -92.391255099999896, 46.864592100008601 ] ] } },
{ "type": "Feature", "properties": { "wmUplineSo": "GRAND LAKE", "wmType": "Underground" }, "geometry": { "type": "LineString", "coordinates": [ [ -92.464234554372695, 46.864798768750802 ], [ -92.464110599999898, 46.864655100008598 ] ] } },
{ "type": "Feature", "properties": { "wmUplineSo": "GRAND LAKE", "wmType": "Underground" }, "geometry": { "type": "LineString", "coordinates": [ [ -92.390284346107507, 46.864955237017703 ], [ -92.390093599999901, 46.864790100008598 ] ] } },
{ "type": "Feature", "properties": { "wmUplineSo": "GRAND LAKE", "wmType": "Underground" }, "geometry": { "type": "LineString", "coordinates": [ [ -92.427199791491404, 46.855856232349701 ], [ -92.427730599999904, 46.855618100008599 ] ] } }
]
}
