{
"type": "FeatureCollection",
"crs": { "type": "name", "properties": { "name": "urn:ogc:def:crs:OGC:1.3:CRS84" } },
"features": [
{ "type": "Feature", "properties": { "wmUplineSo": "HILL CITY", "wmType": "Underground" }, "geometry": { "type": "LineString", "coordinates": [ [ -93.7688902318652, 46.960781490709302 ], [ -93.769384600000194, 46.960643100008703 ] ] } },
{ "type": "Feature", "properties": { "wmUplineSo": "HILL CITY", "wmType": "Underground" }, "geometry": { "type": "LineString", "coordinates": [ [ -93.665046471995396, 46.962924501781004 ], [ -93.665189400000102, 46.963006400008702 ] ] } },
{ "type": "Feature", "properties": { "wmUplineSo": "HILL CITY", "wmType": "Underground" }, "geometry": { "type": "LineString", "coordinates": [ [ -93.683747000040896, 46.961634003550003 ], [ -93.683875100000094, 46.961639800008697 ] ] } },
{ "type": "Feature", "properties": { "wmUplineSo": "HILL CITY", "wmType": "Underground" }, "geometry": { "type": "LineString", "coordinates": [ [ -93.742578824588605, 46.981425661131802 ], [ -93.742906800000199, 46.981463100008703 ] ] } },
{ "type": "Feature", "properties": { "wmUplineSo": "HILL CITY", "wmType": "Underground" }, "geometry": { "type": "LineString", "coordinates": [ [ -93.740326796944899, 46.980094231389501 ], [ -93.740454900000202, 46.980392600008699 ] ] } },
{ "type": "Feature", "properties": { "wmUplineSo": "HILL CITY", "wmType": "Underground" }, "geometry": { "type": "LineString", "coordinates": [ [ -93.740244965224605, 46.969547914258499 ], [ -93.740187300000201, 46.969577600008698 ] ] } },
{ "type": "Feature", "properties": { "wmUplineSo": "HILL CITY", "wmType": "Underground" }, "geometry": { "type": "LineString", "coordinates": [ [ -93.738079259851304, 46.9875969829315 ], [ -93.738025300000203, 46.9877480000087 ] ] } },
{ "type": "Feature", "properties": { "wmUplineSo": "HILL CITY", "wmType": "Underground" }, "geometry": { "type": "LineString", "coordinates": [ [ -93.733917160822301, 46.986555718321497 ], [ -93.733071300000205, 46.986398700008699 ] ] } },
{ "type": "Feature", "properties": { "wmUplineSo": "HILL CITY", "wmType": "Underground" }, "geometry": { "type": "LineString", "coordinates": [ [ -93.694651081600796, 46.987593926233203 ], [ -93.694353300000103, 46.987861100008701 ] ] } },
{ "type": "Feature", "properties": { "wmUplineSo": "HILL CITY", "wmType": "Underground" }, "geometry": { "type": "LineString", "coordinates": [ [ -93.695288200288203, 46.989501957649999 ], [ -93.695320800000104, 46.9895678000088 ] ] } },
{ "type": "Feature", "properties": { "wmUplineSo": "HILL CITY", "wmType": "Underground" }, "geometry": { "type": "LineString", "coordinates": [ [ -93.6912527315002, 46.985750018824199 ], [ -93.691317, 46.985733300008697 ] ] } },
{ "type": "Feature", "properties": { "wmUplineSo": "HILL CITY", "wmType": "Underground" }, "geometry": { "type": "LineString", "coordinates": [ [ -93.676886678692796, 46.992081185006597 ], [ -93.676934800000097, 46.992057400008797 ] ] } },
{ "type": "Feature", "properties": { "wmUplineSo": "HILL CITY", "wmType": "Underground" }, "geometry": { "type": "LineString", "coordinates": [ [ -93.668365685610198, 46.993927122264601 ], [ -93.6678919000001, 46.994144900008699 ] ] } },
{ "type": "Feature", "properties": { "wmUplineSo": "HILL CITY", "wmType": "Underground" }, "geometry": { "type": "LineString", "coordinates": [ [ -93.6687907899816, 46.992725404876502 ], [ -93.669065300000099, 46.992876800008702 ] ] } },
{ "type": "Feature", "properties": { "wmUplineSo": "HILL CITY", "wmType": "Underground" }, "geometry": { "type": "LineString", "coordinates": [ [ -93.668995557450202, 46.991748085206297 ], [ -93.669127308575497, 46.991547080598501 ] ] } },
{ "type": "Feature", "properties": { "wmUplineSo": "HILL CITY", "wmType": "Underground" }, "geometry": { "type": "LineString", "coordinates": [ [ -93.666781669907195, 46.992140102586298 ], [ -93.664581100000106, 46.9919166000088 ] ] } },
{ "type": "Feature", "properties": { "wmUplineSo": "HILL CITY", "wmType": "Underground" }, "geometry": { "type": "LineString", "coordinates": [ [ -93.667643915524195, 46.992099768222097 ], [ -93.667847800000104, 46.991763400008701 ] ] } },
{ "type": "Feature", "properties": { "wmUplineSo": "HILL CITY", "wmType": "Underground" }, "geometry": { "type": "LineString", "coordinates": [ [ -93.670687650669805, 46.991865786571402 ], [ -93.670804695554096, 46.992020669990502 ] ] } },
{ "type": "Feature", "properties": { "wmUplineSo": "HILL CITY", "wmType": "Underground" }, "geometry": { "type": "LineString", "coordinates": [ [ -93.670687650669805, 46.991865786571402 ], [ -93.670538974360298, 46.991545447375003 ] ] } },
{ "type": "Feature", "properties": { "wmUplineSo": "HILL CITY", "wmType": "Underground" }, "geometry": { "type": "LineString", "coordinates": [ [ -93.672121000862603, 46.990360326173601 ], [ -93.671852000000101, 46.990593800008703 ] ] } },
{ "type": "Feature", "properties": { "wmUplineSo": "HILL CITY", "wmType": "Underground" }, "geometry": { "type": "LineString", "coordinates": [ [ -93.674660876815594, 46.9896062036687 ], [ -93.674479000000105, 46.989258100008797 ] ] } },
{ "type": "Feature", "properties": { "wmUplineSo": "HILL CITY", "wmType": "Underground" }, "geometry": { "type": "LineString", "coordinates": [ [ -93.674660876815594, 46.9896062036687 ], [ -93.6744606583962, 46.990048665558902 ] ] } },
{ "type": "Feature", "properties": { "wmUplineSo": "HILL CITY", "wmType": "Underground" }, "geometry": { "type": "LineString", "coordinates": [ [ -93.675413419619304, 46.990052674144003 ], [ -93.676132300000106, 46.990356500008701 ] ] } },
{ "type": "Feature", "properties": { "wmUplineSo": "HILL CITY", "wmType": "Underground" }, "geometry": { "type": "LineString", "coordinates": [ [ -93.631927556052005, 46.976426216942897 ], [ -93.632397400000102, 46.9763536000087 ] ] } },
{ "type": "Feature", "properties": { "wmUplineSo": "HILL CITY", "wmType": "Underground" }, "geometry": { "type": "LineString", "coordinates": [ [ -93.627656673373195, 46.955828498549899 ], [ -93.627519600000099, 46.955785800008698 ] ] } },
{ "type": "Feature", "properties": { "wmUplineSo": "HILL CITY", "wmType": "Underground" }, "geometry": { "type": "LineString", "coordinates": [ [ -93.629063067674707, 46.956340364414899 ], [ -93.630259300000105, 46.955961800008701 ] ] } },
{ "type": "Feature", "properties": { "wmUplineSo": "HILL CITY", "wmType": "Underground" }, "geometry": { "type": "LineString", "coordinates": [ [ -93.603487228147003, 46.986955800828397 ], [ -93.6032206000001, 46.986790600008803 ] ] } },
{ "type": "Feature", "properties": { "wmUplineSo": "HILL CITY", "wmType": "Underground" }, "geometry": { "type": "LineString", "coordinates": [ [ -93.603487228147003, 46.986955800828397 ], [ -93.603684851934702, 46.987175034172601 ] ] } },
{ "type": "Feature", "properties": { "wmUplineSo": "HILL CITY", "wmType": "Underground" }, "geometry": { "type": "LineString", "coordinates": [ [ -93.612034578412207, 46.986952162155497 ], [ -93.612173600000105, 46.987332300008703 ] ] } },
{ "type": "Feature", "properties": { "wmUplineSo": "HILL CITY", "wmType": "Underground" }, "geometry": { "type": "LineString", "coordinates": [ [ -93.601918210236306, 46.993396727539 ], [ -93.601711600000101, 46.993032500008702 ] ] } },
{ "type": "Feature", "properties": { "wmUplineSo": "HILL CITY", "wmType": "Underground" }, "geometry": { "type": "LineString", "coordinates": [ [ -93.599134459814294, 46.996854339556201 ], [ -93.599123900000095, 46.997032600008701 ] ] } },
{ "type": "Feature", "properties": { "wmUplineSo": "HILL CITY", "wmType": "Underground" }, "geometry": { "type": "LineString", "coordinates": [ [ -93.734875535374101, 46.9845841899836 ], [ -93.734978600000204, 46.984208300008703 ] ] } },
{ "type": "Feature", "properties": { "wmUplineSo": "HILL CITY", "wmType": "Underground" }, "geometry": { "type": "LineString", "coordinates": [ [ -93.602513060700304, 46.9966378939625 ], [ -93.6021645000001, 46.9970228000088 ] ] } },
{ "type": "Feature", "properties": { "wmUplineSo": "HILL CITY", "wmType": "Underground" }, "geometry": { "type": "LineString", "coordinates": [ [ -93.602513060700304, 46.9966378939625 ], [ -93.602003100000104, 46.996624900008698 ] ] } },
{ "type": "Feature", "properties": { "wmUplineSo": "HILL CITY", "wmType": "Underground" }, "geometry": { "type": "LineString", "coordinates": [ [ -93.780826693072598, 46.940591541355303 ], [ -93.781265500000202, 46.940770100008699 ] ] } },
{ "type": "Feature", "properties": { "wmUplineSo": "HILL CITY", "wmType": "Underground" }, "geometry": { "type": "LineString", "coordinates": [ [ -93.774104428988906, 46.937898493545603 ], [ -93.774098600000201, 46.937903900008699 ] ] } },
{ "type": "Feature", "properties": { "wmUplineSo": "HILL CITY", "wmType": "Underground" }, "geometry": { "type": "LineString", "coordinates": [ [ -93.760722692362904, 46.9137564266711 ], [ -93.761136100000201, 46.913653100008702 ] ] } },
{ "type": "Feature", "properties": { "wmUplineSo": "HILL CITY", "wmType": "Underground" }, "geometry": { "type": "LineString", "coordinates": [ [ -93.695551000041704, 46.985865003556697 ], [ -93.695563400000097, 46.985872600008697 ] ] } },
{ "type": "Feature", "properties": { "wmUplineSo": "HILL CITY", "wmType": "Underground" }, "geometry": { "type": "LineString", "coordinates": [ [ -93.730999900775799, 46.914765036077597 ], [ -93.731040100000101, 46.9147656000087 ] ] } },
{ "type": "Feature", "properties": { "wmUplineSo": "HILL CITY", "wmType": "Underground" }, "geometry": { "type": "LineString", "coordinates": [ [ -93.746379678170996, 46.959177353262298 ], [ -93.746465600000107, 46.959331900008699 ] ] } },
{ "type": "Feature", "properties": { "wmUplineSo": "HILL CITY", "wmType": "Underground" }, "geometry": { "type": "LineString", "coordinates": [ [ -93.613926080413194, 46.9863528148 ], [ -93.614057951949903, 46.985972647967799 ] ] } },
{ "type": "Feature", "properties": { "wmUplineSo": "HILL CITY", "wmType": "Underground" }, "geometry": { "type": "LineString", "coordinates": [ [ -93.612491354106297, 46.9960219443482 ], [ -93.611137108524602, 46.995960215307299 ] ] } },
{ "type": "Feature", "properties": { "wmUplineSo": "HILL CITY", "wmType": "Underground" }, "geometry": { "type": "LineString", "coordinates": [ [ -93.613107895983006, 46.986375454112697 ], [ -93.6132087921915, 46.9863672830298 ] ] } },
{ "type": "Feature", "properties": { "wmUplineSo": "HILL CITY", "wmType": "Underground" }, "geometry": { "type": "LineString", "coordinates": [ [ -93.682496721243595, 46.986757505522299 ], [ -93.683596995587195, 46.986769903689698 ] ] } },
{ "type": "Feature", "properties": { "wmUplineSo": "HILL CITY", "wmType": "Underground" }, "geometry": { "type": "LineString", "coordinates": [ [ -93.690722289190802, 46.986552404540902 ], [ -93.691622443744606, 46.986502265533097 ] ] } },
{ "type": "Feature", "properties": { "wmUplineSo": "HILL CITY", "wmType": "Underground" }, "geometry": { "type": "LineString", "coordinates": [ [ -93.693752088274607, 46.986392314213099 ], [ -93.6947994969494, 46.986324954867897 ] ] } },
{ "type": "Feature", "properties": { "wmUplineSo": "HILL CITY", "wmType": "Underground" }, "geometry": { "type": "LineString", "coordinates": [ [ -93.732430045595294, 46.985924911060899 ], [ -93.733479681559402, 46.985923085571898 ] ] } },
{ "type": "Feature", "properties": { "wmUplineSo": "HILL CITY", "wmType": "Underground" }, "geometry": { "type": "LineString", "coordinates": [ [ -93.737253700247607, 46.985948045296198 ], [ -93.738396352277604, 46.985940162898999 ] ] } },
{ "type": "Feature", "properties": { "wmUplineSo": "HILL CITY", "wmType": "Underground" }, "geometry": { "type": "LineString", "coordinates": [ [ -93.733479681559402, 46.985923085571898 ], [ -93.733917160822301, 46.986555718321497 ] ] } },
{ "type": "Feature", "properties": { "wmUplineSo": "HILL CITY", "wmType": "Underground" }, "geometry": { "type": "LineString", "coordinates": [ [ -93.734945828085202, 46.985929878263399 ], [ -93.734875535374101, 46.9845841899836 ] ] } },
{ "type": "Feature", "properties": { "wmUplineSo": "HILL CITY", "wmType": "Underground" }, "geometry": { "type": "LineString", "coordinates": [ [ -93.738396352277604, 46.985940162898999 ], [ -93.738079259851304, 46.9875969829315 ] ] } },
{ "type": "Feature", "properties": { "wmUplineSo": "HILL CITY", "wmType": "Underground" }, "geometry": { "type": "LineString", "coordinates": [ [ -93.607309139904501, 46.986370252045198 ], [ -93.607314001030701, 46.9863722635518 ] ] } },
{ "type": "Feature", "properties": { "wmUplineSo": "HILL CITY", "wmType": "Underground" }, "geometry": { "type": "LineString", "coordinates": [ [ -93.608124884643701, 46.9863659225772 ], [ -93.608124132762399, 46.9863671045944 ] ] } },
{ "type": "Feature", "properties": { "wmUplineSo": "HILL CITY", "wmType": "Underground" }, "geometry": { "type": "LineString", "coordinates": [ [ -93.613107895983006, 46.986375454112697 ], [ -93.613919730601495, 46.986368460650603 ] ] } },
{ "type": "Feature", "properties": { "wmUplineSo": "HILL CITY", "wmType": "Underground" }, "geometry": { "type": "LineString", "coordinates": [ [ -93.613919730601495, 46.986368460650603 ], [ -93.614557557157099, 46.986096767678497 ] ] } },
{ "type": "Feature", "properties": { "wmUplineSo": "HILL CITY", "wmType": "Underground" }, "geometry": { "type": "LineString", "coordinates": [ [ -93.616732309960398, 46.986351358137703 ], [ -93.616706368805296, 46.986209485725702 ] ] } },
{ "type": "Feature", "properties": { "wmUplineSo": "HILL CITY", "wmType": "Underground" }, "geometry": { "type": "LineString", "coordinates": [ [ -93.616706368805296, 46.986209485725702 ], [ -93.6167252703966, 46.986197478250901 ] ] } },
{ "type": "Feature", "properties": { "wmUplineSo": "HILL CITY", "wmType": "Underground" }, "geometry": { "type": "LineString", "coordinates": [ [ -93.625071000212898, 46.986325370051397 ], [ -93.625081000208695, 46.986331773987601 ] ] } },
{ "type": "Feature", "properties": { "wmUplineSo": "HILL CITY", "wmType": "Underground" }, "geometry": { "type": "LineString", "coordinates": [ [ -93.625081000208695, 46.986331773987601 ], [ -93.625026883512604, 46.985905362384798 ] ] } },
{ "type": "Feature", "properties": { "wmUplineSo": "HILL CITY", "wmType": "Underground" }, "geometry": { "type": "LineString", "coordinates": [ [ -93.658972990707397, 46.986698829920797 ], [ -93.659639106879197, 46.988138459631799 ] ] } },
{ "type": "Feature", "properties": { "wmUplineSo": "HILL CITY", "wmType": "Underground" }, "geometry": { "type": "LineString", "coordinates": [ [ -93.683481393957905, 46.986625263655597 ], [ -93.683609304686499, 46.986235972981298 ] ] } },
{ "type": "Feature", "properties": { "wmUplineSo": "HILL CITY", "wmType": "Underground" }, "geometry": { "type": "LineString", "coordinates": [ [ -93.683609304686499, 46.986235972981298 ], [ -93.6836570432543, 46.985967611487503 ] ] } },
{ "type": "Feature", "properties": { "wmUplineSo": "HILL CITY", "wmType": "Underground" }, "geometry": { "type": "LineString", "coordinates": [ [ -93.6836570432543, 46.985967611487503 ], [ -93.683623903934802, 46.985820998371501 ] ] } },
{ "type": "Feature", "properties": { "wmUplineSo": "HILL CITY", "wmType": "Underground" }, "geometry": { "type": "LineString", "coordinates": [ [ -93.683623903934802, 46.985820998371501 ], [ -93.683543401421801, 46.985691250451097 ] ] } },
{ "type": "Feature", "properties": { "wmUplineSo": "HILL CITY", "wmType": "Underground" }, "geometry": { "type": "LineString", "coordinates": [ [ -93.683543401421801, 46.985691250451097 ], [ -93.6833784532148, 46.985566085177503 ] ] } },
{ "type": "Feature", "properties": { "wmUplineSo": "HILL CITY", "wmType": "Underground" }, "geometry": { "type": "LineString", "coordinates": [ [ -93.6833784532148, 46.985566085177503 ], [ -93.683217235925795, 46.9854573924326 ] ] } },
{ "type": "Feature", "properties": { "wmUplineSo": "HILL CITY", "wmType": "Underground" }, "geometry": { "type": "LineString", "coordinates": [ [ -93.683217235925795, 46.9854573924326 ], [ -93.682828014476499, 46.985257598344901 ] ] } },
{ "type": "Feature", "properties": { "wmUplineSo": "HILL CITY", "wmType": "Underground" }, "geometry": { "type": "LineString", "coordinates": [ [ -93.682828014476499, 46.985257598344901 ], [ -93.682573014813798, 46.985171598273404 ] ] } },
{ "type": "Feature", "properties": { "wmUplineSo": "HILL CITY", "wmType": "Underground" }, "geometry": { "type": "LineString", "coordinates": [ [ -93.682573014813798, 46.985171598273404 ], [ -93.682555628825398, 46.985132345628799 ] ] } },
{ "type": "Feature", "properties": { "wmUplineSo": "HILL CITY", "wmType": "Underground" }, "geometry": { "type": "LineString", "coordinates": [ [ -93.816563000048902, 46.968818003551903 ], [ -93.816768000048896, 46.968997003551799 ] ] } },
{ "type": "Feature", "properties": { "wmUplineSo": "HILL CITY", "wmType": "Underground" }, "geometry": { "type": "LineString", "coordinates": [ [ -93.816768000048896, 46.968997003551799 ], [ -93.816917000049003, 46.969159003552001 ] ] } },
{ "type": "Feature", "properties": { "wmUplineSo": "HILL CITY", "wmType": "Underground" }, "geometry": { "type": "LineString", "coordinates": [ [ -93.816917000049003, 46.969159003552001 ], [ -93.817340000049001, 46.969138003551897 ] ] } },
{ "type": "Feature", "properties": { "wmUplineSo": "HILL CITY", "wmType": "Underground" }, "geometry": { "type": "LineString", "coordinates": [ [ -93.817340000049001, 46.969138003551897 ], [ -93.817625000049006, 46.969125003552001 ] ] } },
{ "type": "Feature", "properties": { "wmUplineSo": "HILL CITY", "wmType": "Underground" }, "geometry": { "type": "LineString", "coordinates": [ [ -93.817625000049006, 46.969125003552001 ], [ -93.817990000048994, 46.9690980035518 ] ] } },
{ "type": "Feature", "properties": { "wmUplineSo": "HILL CITY", "wmType": "Underground" }, "geometry": { "type": "LineString", "coordinates": [ [ -93.817990000048994, 46.9690980035518 ], [ -93.818285000049002, 46.969051003552003 ] ] } },
{ "type": "Feature", "properties": { "wmUplineSo": "HILL CITY", "wmType": "Underground" }, "geometry": { "type": "LineString", "coordinates": [ [ -93.818285000049002, 46.969051003552003 ], [ -93.818527000049002, 46.968967003551803 ] ] } },
{ "type": "Feature", "properties": { "wmUplineSo": "HILL CITY", "wmType": "Underground" }, "geometry": { "type": "LineString", "coordinates": [ [ -93.818527000049002, 46.968967003551803 ], [ -93.8185670000491, 46.968989003551997 ] ] } },
{ "type": "Feature", "properties": { "wmUplineSo": "HILL CITY", "wmType": "Underground" }, "geometry": { "type": "LineString", "coordinates": [ [ -93.8185670000491, 46.968989003551997 ], [ -93.818705864123601, 46.968816149113202 ] ] } },
{ "type": "Feature", "properties": { "wmUplineSo": "HILL CITY", "wmType": "Underground" }, "geometry": { "type": "LineString", "coordinates": [ [ -93.602535, 46.98965 ], [ -93.60207, 46.99001 ] ] } },
{ "type": "Feature", "properties": { "wmUplineSo": "HILL CITY", "wmType": "Underground" }, "geometry": { "type": "LineString", "coordinates": [ [ -93.79238, 46.947099999999899 ], [ -93.791919782504905, 46.947171228257602 ] ] } },
{ "type": "Feature", "properties": { "wmUplineSo": "HILL CITY", "wmType": "Underground" }, "geometry": { "type": "LineString", "coordinates": [ [ -93.608124132762399, 46.9863671045944 ], [ -93.608347991604703, 46.9861347858957 ] ] } },
{ "type": "Feature", "properties": { "wmUplineSo": "HILL CITY", "wmType": "Underground" }, "geometry": { "type": "LineString", "coordinates": [ [ -93.607314001030701, 46.9863722635518 ], [ -93.607595800000098, 46.986127300008697 ] ] } },
{ "type": "Feature", "properties": { "wmUplineSo": "HILL CITY", "wmType": "Underground" }, "geometry": { "type": "LineString", "coordinates": [ [ -93.602539407089296, 46.995947750400902 ], [ -93.602254176427707, 46.995705467586198 ] ] } },
{ "type": "Feature", "properties": { "wmUplineSo": "HILL CITY", "wmType": "Underground" }, "geometry": { "type": "LineString", "coordinates": [ [ -93.675802000272697, 46.986754025181 ], [ -93.676360867722906, 46.987282052662401 ] ] } },
{ "type": "Feature", "properties": { "wmUplineSo": "HILL CITY", "wmType": "Underground" }, "geometry": { "type": "LineString", "coordinates": [ [ -93.676360867722906, 46.987282052662401 ], [ -93.676364859285698, 46.988323999969197 ] ] } },
{ "type": "Feature", "properties": { "wmUplineSo": "HILL CITY", "wmType": "Underground" }, "geometry": { "type": "LineString", "coordinates": [ [ -93.629216094119101, 46.956828884763098 ], [ -93.629063067674707, 46.956340364414899 ] ] } },
{ "type": "Feature", "properties": { "wmUplineSo": "HILL CITY", "wmType": "Underground" }, "geometry": { "type": "LineString", "coordinates": [ [ -93.611137108524602, 46.995960215307299 ], [ -93.610925846947794, 46.996037415258797 ] ] } },
{ "type": "Feature", "properties": { "wmUplineSo": "HILL CITY", "wmType": "Underground" }, "geometry": { "type": "LineString", "coordinates": [ [ -93.776727773212102, 46.937121405384097 ], [ -93.7770922390321, 46.9370396760104 ] ] } },
{ "type": "Feature", "properties": { "wmUplineSo": "HILL CITY", "wmType": "Underground" }, "geometry": { "type": "LineString", "coordinates": [ [ -93.676364859285698, 46.988323999969197 ], [ -93.6763408576264, 46.989124880532799 ] ] } },
{ "type": "Feature", "properties": { "wmUplineSo": "HILL CITY", "wmType": "Underground" }, "geometry": { "type": "LineString", "coordinates": [ [ -93.6763408576264, 46.989124880532799 ], [ -93.6755770000685, 46.989689139336399 ] ] } },
{ "type": "Feature", "properties": { "wmUplineSo": "HILL CITY", "wmType": "Underground" }, "geometry": { "type": "LineString", "coordinates": [ [ -93.612927000036805, 46.996228003559402 ], [ -93.612874773484904, 46.996903881831102 ] ] } },
{ "type": "Feature", "properties": { "wmUplineSo": "HILL CITY", "wmType": "Underground" }, "geometry": { "type": "LineString", "coordinates": [ [ -93.60207, 46.99001 ], [ -93.601645, 46.990349000000101 ] ] } },
{ "type": "Feature", "properties": { "wmUplineSo": "HILL CITY", "wmType": "Underground" }, "geometry": { "type": "LineString", "coordinates": [ [ -93.6024564497162, 46.996105128039801 ], [ -93.601810874707695, 46.996117044717302 ] ] } },
{ "type": "Feature", "properties": { "wmUplineSo": "HILL CITY", "wmType": "Underground" }, "geometry": { "type": "LineString", "coordinates": [ [ -93.610925846947794, 46.996037415258797 ], [ -93.610591636025802, 46.996212729466201 ] ] } },
{ "type": "Feature", "properties": { "wmUplineSo": "HILL CITY", "wmType": "Underground" }, "geometry": { "type": "LineString", "coordinates": [ [ -93.751788713327798, 46.9552513751661 ], [ -93.750951859125706, 46.954960337896402 ], [ -93.750565984881902, 46.954390360217801 ], [ -93.750566194615899, 46.9538452639664 ] ] } },
{ "type": "Feature", "properties": { "wmUplineSo": "HILL CITY", "wmType": "Underground" }, "geometry": { "type": "LineString", "coordinates": [ [ -93.753019404345693, 46.955276771461499 ], [ -93.751788713327798, 46.9552513751661 ] ] } },
{ "type": "Feature", "properties": { "wmUplineSo": "HILL CITY", "wmType": "Underground" }, "geometry": { "type": "LineString", "coordinates": [ [ -93.754153655300499, 46.955583695125597 ], [ -93.753725073633106, 46.955285850273903 ], [ -93.753019404345693, 46.955276771461499 ] ] } },
{ "type": "Feature", "properties": { "wmUplineSo": "HILL CITY", "wmType": "Underground" }, "geometry": { "type": "LineString", "coordinates": [ [ -93.754114078304596, 46.955852573239099 ], [ -93.754153655300499, 46.955583695125597 ] ] } },
{ "type": "Feature", "properties": { "wmUplineSo": "HILL CITY", "wmType": "Underground" }, "geometry": { "type": "LineString", "coordinates": [ [ -93.754114078304596, 46.955852573239099 ], [ -93.753567388106305, 46.955833882998903 ] ] } },
{ "type": "Feature", "properties": { "wmUplineSo": "HILL CITY", "wmType": "Underground" }, "geometry": { "type": "LineString", "coordinates": [ [ -93.694692441654794, 46.9867579636268 ], [ -93.6950681497825, 46.986726338429598 ], [ -93.695288200288203, 46.989501957649999 ] ] } },
{ "type": "Feature", "properties": { "wmUplineSo": "HILL CITY", "wmType": "Underground" }, "geometry": { "type": "LineString", "coordinates": [ [ -93.601645, 46.990349000000101 ], [ -93.601307, 46.990549 ] ] } },
{ "type": "Feature", "properties": { "wmUplineSo": "HILL CITY", "wmType": "Underground" }, "geometry": { "type": "LineString", "coordinates": [ [ -93.601810874707695, 46.996117044717302 ], [ -93.6015349427133, 46.996104465059901 ] ] } },
{ "type": "Feature", "properties": { "wmUplineSo": "HILL CITY", "wmType": "Underground" }, "geometry": { "type": "LineString", "coordinates": [ [ -93.6015349427133, 46.996104465059901 ], [ -93.601533999728403, 46.995809029059899 ] ] } },
{ "type": "Feature", "properties": { "wmUplineSo": "HILL CITY", "wmType": "Underground" }, "geometry": { "type": "LineString", "coordinates": [ [ -93.601533999728403, 46.995809029059899 ], [ -93.601381173501807, 46.995780093346198 ] ] } },
{ "type": "Feature", "properties": { "wmUplineSo": "HILL CITY", "wmType": "Underground" }, "geometry": { "type": "LineString", "coordinates": [ [ -93.612874773484904, 46.996903881831102 ], [ -93.612811579552002, 46.997142792871202 ] ] } },
{ "type": "Feature", "properties": { "wmUplineSo": "HILL CITY", "wmType": "Underground" }, "geometry": { "type": "LineString", "coordinates": [ [ -93.676640071836502, 46.990869235868303 ], [ -93.676649521972493, 46.991423042414603 ] ] } },
{ "type": "Feature", "properties": { "wmUplineSo": "HILL CITY", "wmType": "Underground" }, "geometry": { "type": "LineString", "coordinates": [ [ -93.676649521972493, 46.991423042414603 ], [ -93.676886678692796, 46.992081185006597 ] ] } },
{ "type": "Feature", "properties": { "wmUplineSo": "HILL CITY", "wmType": "Underground" }, "geometry": { "type": "LineString", "coordinates": [ [ -93.655868, 47.013218 ], [ -93.655845411561003, 47.013932264244801 ], [ -93.656358070766103, 47.014104794433798 ] ] } },
{ "type": "Feature", "properties": { "wmUplineSo": "HILL CITY", "wmType": "Underground" }, "geometry": { "type": "LineString", "coordinates": [ [ -93.655664, 47.009684999999898 ], [ -93.656533074305401, 47.0099728229345 ] ] } },
{ "type": "Feature", "properties": { "wmUplineSo": "HILL CITY", "wmType": "Underground" }, "geometry": { "type": "LineString", "coordinates": [ [ -93.655644, 46.996846 ], [ -93.656508967974105, 46.997055039113199 ], [ -93.657495974365105, 46.996936468859197 ] ] } },
{ "type": "Feature", "properties": { "wmUplineSo": "HILL CITY", "wmType": "Underground" }, "geometry": { "type": "LineString", "coordinates": [ [ -93.631129, 46.997112000000101 ], [ -93.631254936697403, 46.996101386352201 ] ] } },
{ "type": "Feature", "properties": { "wmUplineSo": "HILL CITY", "wmType": "Underground" }, "geometry": { "type": "LineString", "coordinates": [ [ -93.627482, 46.997188999999899 ], [ -93.627468240217894, 46.996727275251601 ], [ -93.627748489965299, 46.996512439086302 ] ] } },
{ "type": "Feature", "properties": { "wmUplineSo": "HILL CITY", "wmType": "Underground" }, "geometry": { "type": "LineString", "coordinates": [ [ -93.623799302602293, 46.994592158172303 ], [ -93.624566866410404, 46.994573717314402 ] ] } },
{ "type": "Feature", "properties": { "wmUplineSo": "HILL CITY", "wmType": "Underground" }, "geometry": { "type": "LineString", "coordinates": [ [ -93.615786288716095, 46.993742086538198 ], [ -93.615748096422806, 46.994277472695899 ] ] } },
{ "type": "Feature", "properties": { "wmUplineSo": "HILL CITY", "wmType": "Underground" }, "geometry": { "type": "LineString", "coordinates": [ [ -93.602521386475601, 46.997135296117001 ], [ -93.602830154710006, 46.997641752872397 ], [ -93.603102021914097, 46.997925631363501 ], [ -93.603349058945298, 46.997983484074503 ], [ -93.6038991020433, 46.998024203389797 ], [ -93.604034475892306, 46.998213197631699 ], [ -93.604053945583701, 46.998305102525499 ], [ -93.604061633715901, 46.9983978186117 ], [ -93.604058846956804, 46.9984768632984 ] ] } },
{ "type": "Feature", "properties": { "wmUplineSo": "HILL CITY", "wmType": "Underground" }, "geometry": { "type": "LineString", "coordinates": [ [ -93.602513060700304, 46.9966378939625 ], [ -93.602521386475601, 46.997135296117001 ] ] } },
{ "type": "Feature", "properties": { "wmUplineSo": "HILL CITY", "wmType": "Underground" }, "geometry": { "type": "LineString", "coordinates": [ [ -93.599325484352207, 46.996197197156903 ], [ -93.5995105481569, 46.995912891501902 ] ] } },
{ "type": "Feature", "properties": { "wmUplineSo": "HILL CITY", "wmType": "Underground" }, "geometry": { "type": "LineString", "coordinates": [ [ -93.608661225430495, 46.993582129898101 ], [ -93.608638627385105, 46.9934852781766 ] ] } },
{ "type": "Feature", "properties": { "wmUplineSo": "HILL CITY", "wmType": "Underground" }, "geometry": { "type": "LineString", "coordinates": [ [ -93.613919730601495, 46.986368460650603 ], [ -93.613926080413194, 46.9863528148 ] ] } },
{ "type": "Feature", "properties": { "wmUplineSo": "HILL CITY", "wmType": "Underground" }, "geometry": { "type": "LineString", "coordinates": [ [ -93.614057951949903, 46.985972647967799 ], [ -93.6139989128949, 46.985239984067498 ] ] } },
{ "type": "Feature", "properties": { "wmUplineSo": "HILL CITY", "wmType": "Underground" }, "geometry": { "type": "LineString", "coordinates": [ [ -93.763095006389193, 46.928313133013198 ], [ -93.763589001812406, 46.929046215747697 ] ] } },
{ "type": "Feature", "properties": { "wmUplineSo": "HILL CITY", "wmType": "Underground" }, "geometry": { "type": "LineString", "coordinates": [ [ -93.820297104231898, 46.9729025519731 ], [ -93.820091592372904, 46.973173436405702 ], [ -93.820085078540899, 46.973433159509199 ], [ -93.817475348526202, 46.974570276174099 ], [ -93.816842604622707, 46.975117445088898 ], [ -93.816625953980207, 46.975304790415699 ], [ -93.816733077848696, 46.975714361305599 ], [ -93.816592488107304, 46.975833299322701 ], [ -93.815929428999198, 46.975806914371503 ], [ -93.814986240395797, 46.975886988285303 ] ] } },
{ "type": "Feature", "properties": { "wmUplineSo": "HILL CITY", "wmType": "Underground" }, "geometry": { "type": "LineString", "coordinates": [ [ -93.819919286071297, 46.972489780630802 ], [ -93.820297104231898, 46.9729025519731 ] ] } },
{ "type": "Feature", "properties": { "wmUplineSo": "HILL CITY", "wmType": "Underground" }, "geometry": { "type": "LineString", "coordinates": [ [ -93.816239675918197, 46.9652079061484 ], [ -93.816579580120404, 46.965259607002402 ], [ -93.817388698497197, 46.965157700688302 ], [ -93.818137358594399, 46.964774119168801 ], [ -93.818593933951405, 46.964317888116902 ], [ -93.818860273305404, 46.964123304909997 ], [ -93.819132893529797, 46.9640146088799 ], [ -93.819557811091599, 46.964044299455402 ] ] } },
{ "type": "Feature", "properties": { "wmUplineSo": "HILL CITY", "wmType": "Underground" }, "geometry": { "type": "LineString", "coordinates": [ [ -93.813417862420394, 46.961982947469899 ], [ -93.812652703741307, 46.9619168185082 ], [ -93.811467461743803, 46.962316923492502 ], [ -93.810458059742899, 46.962467784212102 ], [ -93.810142858089193, 46.962752186788002 ], [ -93.810536529795897, 46.963503396548099 ], [ -93.811625410539705, 46.964269148604998 ] ] } },
{ "type": "Feature", "properties": { "wmUplineSo": "HILL CITY", "wmType": "Underground" }, "geometry": { "type": "LineString", "coordinates": [ [ -93.790251838972097, 46.947023025305398 ], [ -93.789163100571798, 46.948413842270902 ], [ -93.788278757014396, 46.950219140581098 ], [ -93.787662169192004, 46.951192489535998 ] ] } },
{ "type": "Feature", "properties": { "wmUplineSo": "HILL CITY", "wmType": "Underground" }, "geometry": { "type": "LineString", "coordinates": [ [ -93.765621610877304, 46.958357495934699 ], [ -93.765626676327997, 46.959004620560599 ], [ -93.765852437960405, 46.959393344427802 ], [ -93.7666435762562, 46.959895230612702 ], [ -93.767397247744995, 46.9600645748639 ], [ -93.768444627227595, 46.960567519981304 ], [ -93.7688902318652, 46.960781490709302 ] ] } },
{ "type": "Feature", "properties": { "wmUplineSo": "HILL CITY", "wmType": "Underground" }, "geometry": { "type": "LineString", "coordinates": [ [ -93.665970033340898, 46.963268209500697 ], [ -93.665046471995396, 46.962924501781004 ] ] } },
{ "type": "Feature", "properties": { "wmUplineSo": "HILL CITY", "wmType": "Underground" }, "geometry": { "type": "LineString", "coordinates": [ [ -93.684433379448606, 46.958314526321601 ], [ -93.684609445865803, 46.9585883201717 ], [ -93.684418551950202, 46.959583567523197 ], [ -93.683856195490307, 46.960077720721102 ], [ -93.683773201454898, 46.960677003606797 ], [ -93.683758000040896, 46.960868003549898 ] ] } },
{ "type": "Feature", "properties": { "wmUplineSo": "HILL CITY", "wmType": "Underground" }, "geometry": { "type": "LineString", "coordinates": [ [ -93.741369690137802, 46.981716709180802 ], [ -93.742578824588605, 46.981425661131802 ] ] } },
{ "type": "Feature", "properties": { "wmUplineSo": "HILL CITY", "wmType": "Underground" }, "geometry": { "type": "LineString", "coordinates": [ [ -93.741359771960603, 46.979869749062097 ], [ -93.740326796944899, 46.980094231389501 ] ] } },
{ "type": "Feature", "properties": { "wmUplineSo": "HILL CITY", "wmType": "Underground" }, "geometry": { "type": "LineString", "coordinates": [ [ -93.741215267423996, 46.968878986879098 ], [ -93.740924446295097, 46.969177890283099 ], [ -93.740244965224605, 46.969547914258499 ] ] } },
{ "type": "Feature", "properties": { "wmUplineSo": "HILL CITY", "wmType": "Underground" }, "geometry": { "type": "LineString", "coordinates": [ [ -93.694692441654794, 46.9867579636268 ], [ -93.694651081600796, 46.987593926233203 ] ] } },
{ "type": "Feature", "properties": { "wmUplineSo": "HILL CITY", "wmType": "Underground" }, "geometry": { "type": "LineString", "coordinates": [ [ -93.6947994969494, 46.986324954867897 ], [ -93.694692441654794, 46.9867579636268 ] ] } },
{ "type": "Feature", "properties": { "wmUplineSo": "HILL CITY", "wmType": "Underground" }, "geometry": { "type": "LineString", "coordinates": [ [ -93.691420196110101, 46.986240812327097 ], [ -93.691181837697599, 46.985997609871497 ], [ -93.6912527315002, 46.985750018824199 ] ] } },
{ "type": "Feature", "properties": { "wmUplineSo": "HILL CITY", "wmType": "Underground" }, "geometry": { "type": "LineString", "coordinates": [ [ -93.691622443744606, 46.986502265533097 ], [ -93.691420196110101, 46.986240812327097 ] ] } },
{ "type": "Feature", "properties": { "wmUplineSo": "HILL CITY", "wmType": "Underground" }, "geometry": { "type": "LineString", "coordinates": [ [ -93.683596995587195, 46.986769903689698 ], [ -93.683320417380003, 46.987324313287203 ], [ -93.683553596687801, 46.9875565510998 ], [ -93.684005342901003, 46.988665865752097 ], [ -93.683694423033799, 46.989105030967501 ], [ -93.683987963313996, 46.989574031180297 ], [ -93.684372485999205, 46.990355182925398 ], [ -93.684369274964894, 46.990661500994001 ], [ -93.684523762247494, 46.9909094734736 ] ] } },
{ "type": "Feature", "properties": { "wmUplineSo": "HILL CITY", "wmType": "Underground" }, "geometry": { "type": "LineString", "coordinates": [ [ -93.668459876883105, 46.992669801088702 ], [ -93.668365685610198, 46.993927122264601 ] ] } },
{ "type": "Feature", "properties": { "wmUplineSo": "HILL CITY", "wmType": "Underground" }, "geometry": { "type": "LineString", "coordinates": [ [ -93.668459876883105, 46.992669801088702 ], [ -93.6687907899816, 46.992725404876502 ] ] } },
{ "type": "Feature", "properties": { "wmUplineSo": "HILL CITY", "wmType": "Underground" }, "geometry": { "type": "LineString", "coordinates": [ [ -93.668778439309094, 46.992276860396203 ], [ -93.668459876883105, 46.992669801088702 ] ] } },
{ "type": "Feature", "properties": { "wmUplineSo": "HILL CITY", "wmType": "Underground" }, "geometry": { "type": "LineString", "coordinates": [ [ -93.668778439309094, 46.992276860396203 ], [ -93.668995557450202, 46.991748085206297 ] ] } },
{ "type": "Feature", "properties": { "wmUplineSo": "HILL CITY", "wmType": "Underground" }, "geometry": { "type": "LineString", "coordinates": [ [ -93.667643915524195, 46.992099768222097 ], [ -93.666781669907195, 46.992140102586298 ] ] } },
{ "type": "Feature", "properties": { "wmUplineSo": "HILL CITY", "wmType": "Underground" }, "geometry": { "type": "LineString", "coordinates": [ [ -93.668778439309094, 46.992276860396203 ], [ -93.667643915524195, 46.992099768222097 ] ] } },
{ "type": "Feature", "properties": { "wmUplineSo": "HILL CITY", "wmType": "Underground" }, "geometry": { "type": "LineString", "coordinates": [ [ -93.670687650669805, 46.991865786571402 ], [ -93.668778439309094, 46.992276860396203 ] ] } },
{ "type": "Feature", "properties": { "wmUplineSo": "HILL CITY", "wmType": "Underground" }, "geometry": { "type": "LineString", "coordinates": [ [ -93.671985475551594, 46.989895804913402 ], [ -93.670687650669805, 46.991865786571402 ] ] } },
{ "type": "Feature", "properties": { "wmUplineSo": "HILL CITY", "wmType": "Underground" }, "geometry": { "type": "LineString", "coordinates": [ [ -93.671985475551594, 46.989895804913402 ], [ -93.672121000862603, 46.990360326173601 ] ] } },
{ "type": "Feature", "properties": { "wmUplineSo": "HILL CITY", "wmType": "Underground" }, "geometry": { "type": "LineString", "coordinates": [ [ -93.674660876815594, 46.9896062036687 ], [ -93.671985475551594, 46.989895804913402 ] ] } },
{ "type": "Feature", "properties": { "wmUplineSo": "HILL CITY", "wmType": "Underground" }, "geometry": { "type": "LineString", "coordinates": [ [ -93.6755770000685, 46.989689139336399 ], [ -93.674660876815594, 46.9896062036687 ] ] } },
{ "type": "Feature", "properties": { "wmUplineSo": "HILL CITY", "wmType": "Underground" }, "geometry": { "type": "LineString", "coordinates": [ [ -93.629360200998704, 46.976107545139499 ], [ -93.630657918092794, 46.976284760649598 ], [ -93.631607460854099, 46.976497162655697 ], [ -93.631927556052005, 46.976426216942897 ] ] } },
{ "type": "Feature", "properties": { "wmUplineSo": "HILL CITY", "wmType": "Underground" }, "geometry": { "type": "LineString", "coordinates": [ [ -93.628883462988298, 46.955766984056602 ], [ -93.627656673373195, 46.955828498549899 ] ] } },
{ "type": "Feature", "properties": { "wmUplineSo": "HILL CITY", "wmType": "Underground" }, "geometry": { "type": "LineString", "coordinates": [ [ -93.791281823610504, 46.947055037016 ], [ -93.790251838972097, 46.947023025305398 ] ] } },
{ "type": "Feature", "properties": { "wmUplineSo": "HILL CITY", "wmType": "Underground" }, "geometry": { "type": "LineString", "coordinates": [ [ -93.6755770000685, 46.989689139336399 ], [ -93.675413419619304, 46.990052674144003 ] ] } },
{ "type": "Feature", "properties": { "wmUplineSo": "HILL CITY", "wmType": "Underground" }, "geometry": { "type": "LineString", "coordinates": [ [ -93.6763408576264, 46.989124880532799 ], [ -93.676507964224797, 46.9900677727518 ] ] } },
{ "type": "Feature", "properties": { "wmUplineSo": "HILL CITY", "wmType": "Underground" }, "geometry": { "type": "LineString", "coordinates": [ [ -93.602539407089296, 46.995947750400902 ], [ -93.6024564497162, 46.996105128039801 ] ] } },
{ "type": "Feature", "properties": { "wmUplineSo": "HILL CITY", "wmType": "Underground" }, "geometry": { "type": "LineString", "coordinates": [ [ -93.666298205830003, 46.959541284416602 ], [ -93.666659195438797, 46.959423125127003 ] ] } },
{ "type": "Feature", "properties": { "wmUplineSo": "HILL CITY", "wmType": "Underground" }, "geometry": { "type": "LineString", "coordinates": [ [ -93.666659195438797, 46.959423125127003 ], [ -93.667112416620697, 46.959618587007697 ] ] } },
{ "type": "Feature", "properties": { "wmUplineSo": "HILL CITY", "wmType": "Underground" }, "geometry": { "type": "LineString", "coordinates": [ [ -93.667112416620697, 46.959618587007697 ], [ -93.668145481496595, 46.959718954562902 ] ] } },
{ "type": "Feature", "properties": { "wmUplineSo": "HILL CITY", "wmType": "Underground" }, "geometry": { "type": "LineString", "coordinates": [ [ -93.668145481496595, 46.959718954562902 ], [ -93.6691348836938, 46.9598068010106 ] ] } },
{ "type": "Feature", "properties": { "wmUplineSo": "HILL CITY", "wmType": "Underground" }, "geometry": { "type": "LineString", "coordinates": [ [ -93.6691348836938, 46.9598068010106 ], [ -93.670395038239903, 46.959973100311302 ] ] } },
{ "type": "Feature", "properties": { "wmUplineSo": "HILL CITY", "wmType": "Underground" }, "geometry": { "type": "LineString", "coordinates": [ [ -93.670395038239903, 46.959973100311302 ], [ -93.670877388037994, 46.959774514846799 ] ] } },
{ "type": "Feature", "properties": { "wmUplineSo": "HILL CITY", "wmType": "Underground" }, "geometry": { "type": "LineString", "coordinates": [ [ -93.670877388037994, 46.959774514846799 ], [ -93.670955031682198, 46.959743761974401 ] ] } },
{ "type": "Feature", "properties": { "wmUplineSo": "HILL CITY", "wmType": "Underground" }, "geometry": { "type": "LineString", "coordinates": [ [ -93.6569019367153, 47.011153843464399 ], [ -93.656816800000101, 47.011312500008799 ] ] } },
{ "type": "Feature", "properties": { "wmUplineSo": "HILL CITY", "wmType": "Underground" }, "geometry": { "type": "LineString", "coordinates": [ [ -93.683758000040896, 46.960868003549898 ], [ -93.683859000040897, 46.960865003549699 ] ] } },
{ "type": "Feature", "properties": { "wmUplineSo": "HILL CITY", "wmType": "Underground" }, "geometry": { "type": "LineString", "coordinates": [ [ -93.683859000040897, 46.960865003549699 ], [ -93.683982000040899, 46.960860003549797 ] ] } },
{ "type": "Feature", "properties": { "wmUplineSo": "HILL CITY", "wmType": "Underground" }, "geometry": { "type": "LineString", "coordinates": [ [ -93.683982000040899, 46.960860003549797 ], [ -93.684187900000097, 46.960776100008701 ] ] } },
{ "type": "Feature", "properties": { "wmUplineSo": "HILL CITY", "wmType": "Underground" }, "geometry": { "type": "LineString", "coordinates": [ [ -93.676507964224797, 46.9900677727518 ], [ -93.676518899595393, 46.990674759785598 ] ] } },
{ "type": "Feature", "properties": { "wmUplineSo": "HILL CITY", "wmType": "Underground" }, "geometry": { "type": "LineString", "coordinates": [ [ -93.6040969901306, 46.98668924207 ], [ -93.603587598291, 46.986730893511002 ], [ -93.603555155223205, 46.9867851086359 ], [ -93.603506490499797, 46.9868664313042 ], [ -93.603498249936493, 46.986890863618797 ], [ -93.6034818985529, 46.986928849707297 ], [ -93.603487228147003, 46.986955800828397 ] ] } },
{ "type": "Feature", "properties": { "wmUplineSo": "HILL CITY", "wmType": "Underground" }, "geometry": { "type": "LineString", "coordinates": [ [ -93.6763408576264, 46.989124880532799 ], [ -93.675809, 46.988924 ] ] } },
{ "type": "Feature", "properties": { "wmUplineSo": "HILL CITY", "wmType": "Underground" }, "geometry": { "type": "LineString", "coordinates": [ [ -93.675809, 46.988924 ], [ -93.675789, 46.988917 ] ] } },
{ "type": "Feature", "properties": { "wmUplineSo": "HILL CITY", "wmType": "Underground" }, "geometry": { "type": "LineString", "coordinates": [ [ -93.655546, 46.9895250000001 ], [ -93.655779208016696, 46.989498150777898 ], [ -93.655911044890999, 46.989253349024096 ], [ -93.656105624827802, 46.989159972717701 ], [ -93.656356936774301, 46.989060817441398 ], [ -93.656742545923606, 46.988939559269497 ] ] } },
{ "type": "Feature", "properties": { "wmUplineSo": "HILL CITY", "wmType": "Underground" }, "geometry": { "type": "LineString", "coordinates": [ [ -93.656742545923606, 46.988939559269497 ], [ -93.656580600000098, 46.988868100008702 ] ] } },
{ "type": "Feature", "properties": { "wmUplineSo": "HILL CITY", "wmType": "Underground" }, "geometry": { "type": "LineString", "coordinates": [ [ -93.603197, 46.989121 ], [ -93.602804, 46.989469 ] ] } },
{ "type": "Feature", "properties": { "wmUplineSo": "HILL CITY", "wmType": "Underground" }, "geometry": { "type": "LineString", "coordinates": [ [ -93.602804, 46.989469 ], [ -93.602535, 46.98965 ] ] } },
{ "type": "Feature", "properties": { "wmUplineSo": "HILL CITY", "wmType": "Underground" }, "geometry": { "type": "LineString", "coordinates": [ [ -93.599134459814294, 46.996854339556201 ], [ -93.599146400581205, 46.997337427751198 ], [ -93.599640362547206, 46.997631368294599 ], [ -93.600087270709807, 46.997851226951198 ] ] } },
{ "type": "Feature", "properties": { "wmUplineSo": "HILL CITY", "wmType": "Underground" }, "geometry": { "type": "LineString", "coordinates": [ [ -93.599844501774697, 46.996643963427502 ], [ -93.599134459814294, 46.996854339556201 ] ] } },
{ "type": "Feature", "properties": { "wmUplineSo": "HILL CITY", "wmType": "Underground" }, "geometry": { "type": "LineString", "coordinates": [ [ -93.6015349427133, 46.996104465059901 ], [ -93.601543293731197, 46.9963714752475 ], [ -93.599844501774697, 46.996643963427502 ] ] } },
{ "type": "Feature", "properties": { "wmUplineSo": "HILL CITY", "wmType": "Underground" }, "geometry": { "type": "LineString", "coordinates": [ [ -93.754823815453094, 46.956789409683502 ], [ -93.754114078304596, 46.955852573239099 ] ] } },
{ "type": "Feature", "properties": { "wmUplineSo": "HILL CITY", "wmType": "Underground" }, "geometry": { "type": "LineString", "coordinates": [ [ -93.775051349086098, 46.939775014658899 ], [ -93.775358204430603, 46.940055315109802 ], [ -93.779197363302103, 46.9401424536237 ], [ -93.780826693072598, 46.940591541355303 ] ] } },
{ "type": "Feature", "properties": { "wmUplineSo": "HILL CITY", "wmType": "Underground" }, "geometry": { "type": "LineString", "coordinates": [ [ -93.775017432692593, 46.937950055085999 ], [ -93.774913702173393, 46.937862902392602 ], [ -93.774104428988906, 46.937898493545603 ] ] } },
{ "type": "Feature", "properties": { "wmUplineSo": "HILL CITY", "wmType": "Underground" }, "geometry": { "type": "LineString", "coordinates": [ [ -93.774984456337293, 46.937415067021597 ], [ -93.776727773212102, 46.937121405384097 ] ] } },
{ "type": "Feature", "properties": { "wmUplineSo": "HILL CITY", "wmType": "Underground" }, "geometry": { "type": "LineString", "coordinates": [ [ -93.683758000040896, 46.960868003549898 ], [ -93.683747000040896, 46.961634003550003 ] ] } },
{ "type": "Feature", "properties": { "wmUplineSo": "HILL CITY", "wmType": "Underground" }, "geometry": { "type": "LineString", "coordinates": [ [ -93.696221374565894, 46.986243909286102 ], [ -93.695958918744793, 46.9857923590205 ], [ -93.695570838863105, 46.9858084671136 ], [ -93.695551000041704, 46.985865003556697 ] ] } },
{ "type": "Feature", "properties": { "wmUplineSo": "HILL CITY", "wmType": "Underground" }, "geometry": { "type": "LineString", "coordinates": [ [ -93.599134459814294, 46.996854339556201 ], [ -93.599325484352207, 46.996197197156903 ] ] } },
{ "type": "Feature", "properties": { "wmUplineSo": "HILL CITY", "wmType": "Underground" }, "geometry": { "type": "LineString", "coordinates": [ [ -93.7312886471952, 46.914783023071102 ], [ -93.731243288792101, 46.914780197480901 ] ] } },
{ "type": "Feature", "properties": { "wmUplineSo": "HILL CITY", "wmType": "Underground" }, "geometry": { "type": "LineString", "coordinates": [ [ -93.731243288792101, 46.914780197480901 ], [ -93.730999900775799, 46.914765036077597 ] ] } },
{ "type": "Feature", "properties": { "wmUplineSo": "HILL CITY", "wmType": "Underground" }, "geometry": { "type": "LineString", "coordinates": [ [ -93.601632433088497, 46.967725237610601 ], [ -93.602656073659205, 46.967688389617102 ] ] } },
{ "type": "Feature", "properties": { "wmUplineSo": "HILL CITY", "wmType": "Underground" }, "geometry": { "type": "LineString", "coordinates": [ [ -93.745947523890194, 46.958226627184303 ], [ -93.746027469890706, 46.958327090299598 ], [ -93.746513280924304, 46.958569119876699 ], [ -93.746379678170996, 46.959177353262298 ] ] } },
{ "type": "Feature", "properties": { "wmUplineSo": "HILL CITY", "wmType": "Underground" }, "geometry": { "type": "LineString", "coordinates": [ [ -93.745921778857294, 46.958194275779803 ], [ -93.745947523890194, 46.958226627184303 ] ] } },
{ "type": "Feature", "properties": { "wmUplineSo": "HILL CITY", "wmType": "Underground" }, "geometry": { "type": "LineString", "coordinates": [ [ -93.629063067674707, 46.956340364414899 ], [ -93.628883462988298, 46.955766984056602 ] ] } },
{ "type": "Feature", "properties": { "wmUplineSo": "HILL CITY", "wmType": "Underground" }, "geometry": { "type": "LineString", "coordinates": [ [ -93.608638627385105, 46.9934852781766 ], [ -93.608197682789097, 46.993007951871597 ] ] } },
{ "type": "Feature", "properties": { "wmUplineSo": "HILL CITY", "wmType": "Underground" }, "geometry": { "type": "LineString", "coordinates": [ [ -93.612811579552002, 46.997142792871202 ], [ -93.612486000036796, 46.997428003559797 ] ] } },
{ "type": "Feature", "properties": { "wmUplineSo": "HILL CITY", "wmType": "Underground" }, "geometry": { "type": "LineString", "coordinates": [ [ -93.612486000036796, 46.997428003559797 ], [ -93.612367000036798, 46.997566003559697 ] ] } },
{ "type": "Feature", "properties": { "wmUplineSo": "HILL CITY", "wmType": "Underground" }, "geometry": { "type": "LineString", "coordinates": [ [ -93.612367000036798, 46.997566003559697 ], [ -93.612275556770598, 46.997665347164698 ] ] } },
{ "type": "Feature", "properties": { "wmUplineSo": "HILL CITY", "wmType": "Underground" }, "geometry": { "type": "LineString", "coordinates": [ [ -93.601307, 46.990549 ], [ -93.601124, 46.99071 ] ] } },
{ "type": "Feature", "properties": { "wmUplineSo": "HILL CITY", "wmType": "Underground" }, "geometry": { "type": "LineString", "coordinates": [ [ -93.601124, 46.99071 ], [ -93.601126418638401, 46.990711407228297 ] ] } },
{ "type": "Feature", "properties": { "wmUplineSo": "HILL CITY", "wmType": "Underground" }, "geometry": { "type": "LineString", "coordinates": [ [ -93.683596995587195, 46.986769903689698 ], [ -93.683481393957905, 46.986625263655597 ] ] } },
{ "type": "Feature", "properties": { "wmUplineSo": "HILL CITY", "wmType": "Underground" }, "geometry": { "type": "LineString", "coordinates": [ [ -93.659639106879197, 46.988138459631799 ], [ -93.659778502253701, 46.988058546550398 ] ] } },
{ "type": "Feature", "properties": { "wmUplineSo": "HILL CITY", "wmType": "Underground" }, "geometry": { "type": "LineString", "coordinates": [ [ -93.674782, 46.986748999999897 ], [ -93.675802000272697, 46.986754025181 ] ] } },
{ "type": "Feature", "properties": { "wmUplineSo": "HILL CITY", "wmType": "Underground" }, "geometry": { "type": "LineString", "coordinates": [ [ -93.79309, 46.953596 ], [ -93.792791101946307, 46.953613190941503 ] ] } },
{ "type": "Feature", "properties": { "wmUplineSo": "HILL CITY", "wmType": "Underground" }, "geometry": { "type": "LineString", "coordinates": [ [ -93.601078913908594, 46.993387213447903 ], [ -93.601076500000104, 46.993263800008798 ] ] } },
{ "type": "Feature", "properties": { "wmUplineSo": "HILL CITY", "wmType": "Underground" }, "geometry": { "type": "LineString", "coordinates": [ [ -93.775134366912496, 46.942447992532998 ], [ -93.773596835762703, 46.9423119851972 ] ] } },
{ "type": "Feature", "properties": { "wmUplineSo": "HILL CITY", "wmType": "Underground" }, "geometry": { "type": "LineString", "coordinates": [ [ -93.605601029488696, 46.986365545770497 ], [ -93.605515, 46.9867500000001 ] ] } },
{ "type": "Feature", "properties": { "wmUplineSo": "HILL CITY", "wmType": "Underground" }, "geometry": { "type": "LineString", "coordinates": [ [ -93.605515, 46.9867500000001 ], [ -93.604943137899298, 46.986693534292399 ] ] } },
{ "type": "Feature", "properties": { "wmUplineSo": "HILL CITY", "wmType": "Underground" }, "geometry": { "type": "LineString", "coordinates": [ [ -93.604943137899298, 46.986693534292399 ], [ -93.6046940985199, 46.987108943616697 ] ] } },
{ "type": "Feature", "properties": { "wmUplineSo": "HILL CITY", "wmType": "Underground" }, "geometry": { "type": "LineString", "coordinates": [ [ -93.6046940985199, 46.987108943616697 ], [ -93.604516800624694, 46.987545284453503 ] ] } },
{ "type": "Feature", "properties": { "wmUplineSo": "HILL CITY", "wmType": "Underground" }, "geometry": { "type": "LineString", "coordinates": [ [ -93.604516800624694, 46.987545284453503 ], [ -93.603844392764103, 46.988431848179502 ] ] } },
{ "type": "Feature", "properties": { "wmUplineSo": "HILL CITY", "wmType": "Underground" }, "geometry": { "type": "LineString", "coordinates": [ [ -93.603844392764103, 46.988431848179502 ], [ -93.603545107484706, 46.988769260053402 ] ] } },
{ "type": "Feature", "properties": { "wmUplineSo": "HILL CITY", "wmType": "Underground" }, "geometry": { "type": "LineString", "coordinates": [ [ -93.603545107484706, 46.988769260053402 ], [ -93.603197, 46.989121 ] ] } },
{ "type": "Feature", "properties": { "wmUplineSo": "HILL CITY", "wmType": "Underground" }, "geometry": { "type": "LineString", "coordinates": [ [ -93.603197, 46.989121 ], [ -93.60331, 46.989539999999899 ] ] } },
{ "type": "Feature", "properties": { "wmUplineSo": "HILL CITY", "wmType": "Underground" }, "geometry": { "type": "LineString", "coordinates": [ [ -93.60331, 46.989539999999899 ], [ -93.603309702676896, 46.989591887955299 ] ] } },
{ "type": "Feature", "properties": { "wmUplineSo": "HILL CITY", "wmType": "Underground" }, "geometry": { "type": "LineString", "coordinates": [ [ -93.794901, 46.944396 ], [ -93.794962, 46.944354 ] ] } },
{ "type": "Feature", "properties": { "wmUplineSo": "HILL CITY", "wmType": "Underground" }, "geometry": { "type": "LineString", "coordinates": [ [ -93.794962, 46.944354 ], [ -93.79469, 46.944057 ] ] } },
{ "type": "Feature", "properties": { "wmUplineSo": "HILL CITY", "wmType": "Underground" }, "geometry": { "type": "LineString", "coordinates": [ [ -93.79469, 46.944057 ], [ -93.794478, 46.943725 ] ] } },
{ "type": "Feature", "properties": { "wmUplineSo": "HILL CITY", "wmType": "Underground" }, "geometry": { "type": "LineString", "coordinates": [ [ -93.794478, 46.943725 ], [ -93.794224, 46.94341 ] ] } },
{ "type": "Feature", "properties": { "wmUplineSo": "HILL CITY", "wmType": "Underground" }, "geometry": { "type": "LineString", "coordinates": [ [ -93.794224, 46.94341 ], [ -93.794036, 46.943130000000103 ] ] } },
{ "type": "Feature", "properties": { "wmUplineSo": "HILL CITY", "wmType": "Underground" }, "geometry": { "type": "LineString", "coordinates": [ [ -93.794036, 46.943130000000103 ], [ -93.794069, 46.942903000000101 ] ] } },
{ "type": "Feature", "properties": { "wmUplineSo": "HILL CITY", "wmType": "Underground" }, "geometry": { "type": "LineString", "coordinates": [ [ -93.794069, 46.942903000000101 ], [ -93.794113308241705, 46.9428551106326 ] ] } },
{ "type": "Feature", "properties": { "wmUplineSo": "HILL CITY", "wmType": "Underground" }, "geometry": { "type": "LineString", "coordinates": [ [ -93.612594712102194, 46.99390638709 ], [ -93.612850000036701, 46.994014003558803 ] ] } },
{ "type": "Feature", "properties": { "wmUplineSo": "HILL CITY", "wmType": "Underground" }, "geometry": { "type": "LineString", "coordinates": [ [ -93.612850000036701, 46.994014003558803 ], [ -93.612927000036805, 46.996228003559402 ] ] } },
{ "type": "Feature", "properties": { "wmUplineSo": "HILL CITY", "wmType": "Underground" }, "geometry": { "type": "LineString", "coordinates": [ [ -93.610591636025802, 46.996212729466201 ], [ -93.610292735790395, 46.996365344620401 ] ] } },
{ "type": "Feature", "properties": { "wmUplineSo": "HILL CITY", "wmType": "Underground" }, "geometry": { "type": "LineString", "coordinates": [ [ -93.750566194615899, 46.9538452639664 ], [ -93.750594623962598, 46.953348485585401 ] ] } },
{ "type": "Feature", "properties": { "wmUplineSo": "HILL CITY", "wmType": "Underground" }, "geometry": { "type": "LineString", "coordinates": [ [ -93.754153655300499, 46.955583695125597 ], [ -93.754589100000203, 46.955595300008703 ] ] } },
{ "type": "Feature", "properties": { "wmUplineSo": "HILL CITY", "wmType": "Underground" }, "geometry": { "type": "LineString", "coordinates": [ [ -93.751788713327798, 46.9552513751661 ], [ -93.7518886000002, 46.954698100008699 ] ] } },
{ "type": "Feature", "properties": { "wmUplineSo": "HILL CITY", "wmType": "Underground" }, "geometry": { "type": "LineString", "coordinates": [ [ -93.754114078304596, 46.955852573239099 ], [ -93.754600300000206, 46.956135300008697 ] ] } },
{ "type": "Feature", "properties": { "wmUplineSo": "HILL CITY", "wmType": "Underground" }, "geometry": { "type": "LineString", "coordinates": [ [ -93.753567388106305, 46.955833882998903 ], [ -93.753334100000203, 46.956145400008701 ] ] } },
{ "type": "Feature", "properties": { "wmUplineSo": "HILL CITY", "wmType": "Underground" }, "geometry": { "type": "LineString", "coordinates": [ [ -93.684523762247494, 46.9909094734736 ], [ -93.684805600000104, 46.991019600008698 ] ] } },
{ "type": "Feature", "properties": { "wmUplineSo": "HILL CITY", "wmType": "Underground" }, "geometry": { "type": "LineString", "coordinates": [ [ -93.612927000036805, 46.996228003559402 ], [ -93.612922426681294, 46.996227845307999 ], [ -93.612854569699095, 46.996225497238697 ] ] } },
{ "type": "Feature", "properties": { "wmUplineSo": "HILL CITY", "wmType": "Underground" }, "geometry": { "type": "LineString", "coordinates": [ [ -93.612927000036805, 46.996228003559402 ], [ -93.612491354106297, 46.9960219443482 ] ] } },
{ "type": "Feature", "properties": { "wmUplineSo": "HILL CITY", "wmType": "Underground" }, "geometry": { "type": "LineString", "coordinates": [ [ -93.610292735790395, 46.996365344620401 ], [ -93.610283639485004, 46.9963731198742 ] ] } },
{ "type": "Feature", "properties": { "wmUplineSo": "HILL CITY", "wmType": "Underground" }, "geometry": { "type": "LineString", "coordinates": [ [ -93.676518899595393, 46.990674759785598 ], [ -93.676640071836502, 46.990869235868303 ] ] } },
{ "type": "Feature", "properties": { "wmUplineSo": "HILL CITY", "wmType": "Underground" }, "geometry": { "type": "LineString", "coordinates": [ [ -93.656358070766103, 47.014104794433798 ], [ -93.656613800000102, 47.014328800008798 ] ] } },
{ "type": "Feature", "properties": { "wmUplineSo": "HILL CITY", "wmType": "Underground" }, "geometry": { "type": "LineString", "coordinates": [ [ -93.656533074305401, 47.0099728229345 ], [ -93.657223600000094, 47.010067100008797 ] ] } },
{ "type": "Feature", "properties": { "wmUplineSo": "HILL CITY", "wmType": "Underground" }, "geometry": { "type": "LineString", "coordinates": [ [ -93.657495974365105, 46.996936468859197 ], [ -93.657950500000098, 46.997252500008699 ] ] } },
{ "type": "Feature", "properties": { "wmUplineSo": "HILL CITY", "wmType": "Underground" }, "geometry": { "type": "LineString", "coordinates": [ [ -93.634574, 46.997038 ], [ -93.634872100000095, 46.996812300008799 ] ] } },
{ "type": "Feature", "properties": { "wmUplineSo": "HILL CITY", "wmType": "Underground" }, "geometry": { "type": "LineString", "coordinates": [ [ -93.631254936697403, 46.996101386352201 ], [ -93.6314378000001, 46.996026400008702 ] ] } },
{ "type": "Feature", "properties": { "wmUplineSo": "HILL CITY", "wmType": "Underground" }, "geometry": { "type": "LineString", "coordinates": [ [ -93.624566866410404, 46.994573717314402 ], [ -93.625737900000104, 46.995521300008697 ] ] } },
{ "type": "Feature", "properties": { "wmUplineSo": "HILL CITY", "wmType": "Underground" }, "geometry": { "type": "LineString", "coordinates": [ [ -93.615748096422806, 46.994277472695899 ], [ -93.616022800000096, 46.994368600008698 ] ] } },
{ "type": "Feature", "properties": { "wmUplineSo": "HILL CITY", "wmType": "Underground" }, "geometry": { "type": "LineString", "coordinates": [ [ -93.612854569699095, 46.996225497238697 ], [ -93.612404900000101, 46.996561100008698 ] ] } },
{ "type": "Feature", "properties": { "wmUplineSo": "HILL CITY", "wmType": "Underground" }, "geometry": { "type": "LineString", "coordinates": [ [ -93.612275556770598, 46.997665347164698 ], [ -93.612494400000102, 46.997990800008701 ] ] } },
{ "type": "Feature", "properties": { "wmUplineSo": "HILL CITY", "wmType": "Underground" }, "geometry": { "type": "LineString", "coordinates": [ [ -93.610292735790395, 46.996365344620401 ], [ -93.610285500000103, 46.996394800008702 ] ] } },
{ "type": "Feature", "properties": { "wmUplineSo": "HILL CITY", "wmType": "Underground" }, "geometry": { "type": "LineString", "coordinates": [ [ -93.602513060700304, 46.9966378939625 ], [ -93.603213800000105, 46.9967115000088 ] ] } },
{ "type": "Feature", "properties": { "wmUplineSo": "HILL CITY", "wmType": "Underground" }, "geometry": { "type": "LineString", "coordinates": [ [ -93.604058846956804, 46.9984768632984 ], [ -93.603958300000102, 46.998928600008803 ] ] } },
{ "type": "Feature", "properties": { "wmUplineSo": "HILL CITY", "wmType": "Underground" }, "geometry": { "type": "LineString", "coordinates": [ [ -93.602539407089296, 46.995947750400902 ], [ -93.602178600000101, 46.995857300008701 ] ] } },
{ "type": "Feature", "properties": { "wmUplineSo": "HILL CITY", "wmType": "Underground" }, "geometry": { "type": "LineString", "coordinates": [ [ -93.601381173501807, 46.995780093346198 ], [ -93.601153800000105, 46.995841000008802 ] ] } },
{ "type": "Feature", "properties": { "wmUplineSo": "HILL CITY", "wmType": "Underground" }, "geometry": { "type": "LineString", "coordinates": [ [ -93.600087270709807, 46.997851226951198 ], [ -93.600553100000099, 46.998058000008797 ] ] } },
{ "type": "Feature", "properties": { "wmUplineSo": "HILL CITY", "wmType": "Underground" }, "geometry": { "type": "LineString", "coordinates": [ [ -93.600087270709807, 46.997851226951198 ], [ -93.599748300000101, 46.997938100008803 ] ] } },
{ "type": "Feature", "properties": { "wmUplineSo": "HILL CITY", "wmType": "Underground" }, "geometry": { "type": "LineString", "coordinates": [ [ -93.5995105481569, 46.995912891501902 ], [ -93.599764300000103, 46.995884100008801 ] ] } },
{ "type": "Feature", "properties": { "wmUplineSo": "HILL CITY", "wmType": "Underground" }, "geometry": { "type": "LineString", "coordinates": [ [ -93.608197682789097, 46.993007951871597 ], [ -93.608187100000094, 46.9928858000088 ] ] } },
{ "type": "Feature", "properties": { "wmUplineSo": "HILL CITY", "wmType": "Underground" }, "geometry": { "type": "LineString", "coordinates": [ [ -93.6139989128949, 46.985239984067498 ], [ -93.613676100000106, 46.985061900008702 ] ] } },
{ "type": "Feature", "properties": { "wmUplineSo": "HILL CITY", "wmType": "Underground" }, "geometry": { "type": "LineString", "coordinates": [ [ -93.763589001812406, 46.929046215747697 ], [ -93.763617600000202, 46.928798600008697 ] ] } },
{ "type": "Feature", "properties": { "wmUplineSo": "HILL CITY", "wmType": "Underground" }, "geometry": { "type": "LineString", "coordinates": [ [ -93.768374923858602, 46.928850181465798 ], [ -93.768422600000207, 46.928818800008699 ] ] } },
{ "type": "Feature", "properties": { "wmUplineSo": "HILL CITY", "wmType": "Underground" }, "geometry": { "type": "LineString", "coordinates": [ [ -93.773596835762703, 46.9423119851972 ], [ -93.773412800000202, 46.942246300008698 ] ] } },
{ "type": "Feature", "properties": { "wmUplineSo": "HILL CITY", "wmType": "Underground" }, "geometry": { "type": "LineString", "coordinates": [ [ -93.814986240395797, 46.975886988285303 ], [ -93.815237800000205, 46.976434600008702 ] ] } },
{ "type": "Feature", "properties": { "wmUplineSo": "HILL CITY", "wmType": "Underground" }, "geometry": { "type": "LineString", "coordinates": [ [ -93.820297104231898, 46.9729025519731 ], [ -93.820683100000196, 46.973369100008703 ] ] } },
{ "type": "Feature", "properties": { "wmUplineSo": "HILL CITY", "wmType": "Underground" }, "geometry": { "type": "LineString", "coordinates": [ [ -93.819557811091599, 46.964044299455402 ], [ -93.820091500000203, 46.964165200008701 ] ] } },
{ "type": "Feature", "properties": { "wmUplineSo": "HILL CITY", "wmType": "Underground" }, "geometry": { "type": "LineString", "coordinates": [ [ -93.811625410539705, 46.964269148604998 ], [ -93.811940800000201, 46.964555300008698 ] ] } },
{ "type": "Feature", "properties": { "wmUplineSo": "HILL CITY", "wmType": "Underground" }, "geometry": { "type": "LineString", "coordinates": [ [ -93.800820398750901, 46.953784992661099 ], [ -93.800833300000207, 46.9538433000087 ] ] } },
{ "type": "Feature", "properties": { "wmUplineSo": "HILL CITY", "wmType": "Underground" }, "geometry": { "type": "LineString", "coordinates": [ [ -93.798110425529401, 46.953892959367302 ], [ -93.798118000000201, 46.953883100008703 ] ] } },
{ "type": "Feature", "properties": { "wmUplineSo": "HILL CITY", "wmType": "Underground" }, "geometry": { "type": "LineString", "coordinates": [ [ -93.796383432111895, 46.954174933291696 ], [ -93.796345100000195, 46.954225100008699 ] ] } },
{ "type": "Feature", "properties": { "wmUplineSo": "HILL CITY", "wmType": "Underground" }, "geometry": { "type": "LineString", "coordinates": [ [ -93.787662169192004, 46.951192489535998 ], [ -93.787296600000204, 46.951255900008697 ] ] } }
]
}
