{
"type": "FeatureCollection",
"crs": { "type": "name", "properties": { "name": "urn:ogc:def:crs:OGC:1.3:CRS84" } },
"features": [
{ "type": "Feature", "properties": { "wmUplineSo": "HILL CITY", "wmType": "Overhead" }, "geometry": { "type": "LineString", "coordinates": [ [ -93.597744, 46.970299 ], [ -93.5977363696298, 46.971350705040699 ] ] } },
{ "type": "Feature", "properties": { "wmUplineSo": "HILL CITY", "wmType": "Overhead" }, "geometry": { "type": "LineString", "coordinates": [ [ -93.598479545466205, 46.961786037815799 ], [ -93.5976010117285, 46.961310986761397 ] ] } },
{ "type": "Feature", "properties": { "wmUplineSo": "HILL CITY", "wmType": "Overhead" }, "geometry": { "type": "LineString", "coordinates": [ [ -93.5976010117285, 46.961310986761397 ], [ -93.596726752664097, 46.960837757021402 ] ] } },
{ "type": "Feature", "properties": { "wmUplineSo": "HILL CITY", "wmType": "Overhead" }, "geometry": { "type": "LineString", "coordinates": [ [ -93.602085599337798, 46.9637204392046 ], [ -93.601792483801006, 46.9638470848721 ] ] } },
{ "type": "Feature", "properties": { "wmUplineSo": "HILL CITY", "wmType": "Overhead" }, "geometry": { "type": "LineString", "coordinates": [ [ -93.601792483801006, 46.9638470848721 ], [ -93.600824960568502, 46.964256873020602 ], [ -93.599640443329307, 46.964692899095297 ] ] } },
{ "type": "Feature", "properties": { "wmUplineSo": "HILL CITY", "wmType": "Overhead" }, "geometry": { "type": "LineString", "coordinates": [ [ -93.593873652629, 46.979130669824698 ], [ -93.593646452988494, 46.979809990956703 ] ] } },
{ "type": "Feature", "properties": { "wmUplineSo": "HILL CITY", "wmType": "Overhead" }, "geometry": { "type": "LineString", "coordinates": [ [ -93.593328728709494, 46.9807964630781 ], [ -93.593425306862898, 46.980778215057803 ] ] } },
{ "type": "Feature", "properties": { "wmUplineSo": "HILL CITY", "wmType": "Overhead" }, "geometry": { "type": "LineString", "coordinates": [ [ -93.597760973418303, 46.972247717889097 ], [ -93.5978430692887, 46.972287011334103 ] ] } },
{ "type": "Feature", "properties": { "wmUplineSo": "HILL CITY", "wmType": "Overhead" }, "geometry": { "type": "LineString", "coordinates": [ [ -93.597640284840594, 46.966544950211599 ], [ -93.597630789438398, 46.9671999374238 ], [ -93.597646178485704, 46.968118328466197 ], [ -93.597727841143595, 46.968899324554201 ] ] } },
{ "type": "Feature", "properties": { "wmUplineSo": "HILL CITY", "wmType": "Overhead" }, "geometry": { "type": "LineString", "coordinates": [ [ -93.593796312033206, 46.979042437034501 ], [ -93.593775, 46.979018500008699 ] ] } },
{ "type": "Feature", "properties": { "wmUplineSo": "HILL CITY", "wmType": "Overhead" }, "geometry": { "type": "LineString", "coordinates": [ [ -93.598410436177303, 46.971835543870597 ], [ -93.598532300000102, 46.971687100008701 ] ] } },
{ "type": "Feature", "properties": { "wmUplineSo": "HILL CITY", "wmType": "Overhead" }, "geometry": { "type": "LineString", "coordinates": [ [ -93.593328728709494, 46.9807964630781 ], [ -93.5932371023234, 46.980955155659998 ] ] } },
{ "type": "Feature", "properties": { "wmUplineSo": "HILL CITY", "wmType": "Overhead" }, "geometry": { "type": "LineString", "coordinates": [ [ -93.593328728709494, 46.9807964630781 ], [ -93.593336900000097, 46.982142900008697 ] ] } },
{ "type": "Feature", "properties": { "wmUplineSo": "HILL CITY", "wmType": "Overhead" }, "geometry": { "type": "LineString", "coordinates": [ [ -93.593873652629, 46.979130669824698 ], [ -93.593796312033206, 46.979042437034501 ] ] } },
{ "type": "Feature", "properties": { "wmUplineSo": "HILL CITY", "wmType": "Overhead" }, "geometry": { "type": "LineString", "coordinates": [ [ -93.598753390727396, 46.962425018935498 ], [ -93.598479545466205, 46.961786037815799 ] ] } },
{ "type": "Feature", "properties": { "wmUplineSo": "HILL CITY", "wmType": "Overhead" }, "geometry": { "type": "LineString", "coordinates": [ [ -93.598479545466205, 46.961786037815799 ], [ -93.598438599427894, 46.961640499675902 ] ] } },
{ "type": "Feature", "properties": { "wmUplineSo": "HILL CITY", "wmType": "Overhead" }, "geometry": { "type": "LineString", "coordinates": [ [ -93.602304366239906, 46.967549542125901 ], [ -93.602604593168493, 46.963915443503801 ], [ -93.602085599337798, 46.9637204392046 ] ] } },
{ "type": "Feature", "properties": { "wmUplineSo": "HILL CITY", "wmType": "Overhead" }, "geometry": { "type": "LineString", "coordinates": [ [ -93.599640443329307, 46.964692899095297 ], [ -93.598753390727396, 46.962425018935498 ] ] } },
{ "type": "Feature", "properties": { "wmUplineSo": "HILL CITY", "wmType": "Overhead" }, "geometry": { "type": "LineString", "coordinates": [ [ -93.599640443329307, 46.964692899095297 ], [ -93.598592485518594, 46.965109936614901 ], [ -93.597604299885205, 46.965503172935101 ] ] } },
{ "type": "Feature", "properties": { "wmUplineSo": "HILL CITY", "wmType": "Overhead" }, "geometry": { "type": "LineString", "coordinates": [ [ -93.597604299885205, 46.965503172935101 ], [ -93.596294679131404, 46.966005181091901 ] ] } },
{ "type": "Feature", "properties": { "wmUplineSo": "HILL CITY", "wmType": "Overhead" }, "geometry": { "type": "LineString", "coordinates": [ [ -93.5977363696298, 46.971350705040699 ], [ -93.597760973418303, 46.972247717889097 ] ] } },
{ "type": "Feature", "properties": { "wmUplineSo": "HILL CITY", "wmType": "Overhead" }, "geometry": { "type": "LineString", "coordinates": [ [ -93.597604299885205, 46.965503172935101 ], [ -93.597612634695295, 46.966037066927697 ], [ -93.597640284840594, 46.966544950211599 ] ] } },
{ "type": "Feature", "properties": { "wmUplineSo": "HILL CITY", "wmType": "Overhead" }, "geometry": { "type": "LineString", "coordinates": [ [ -93.597727841143595, 46.968899324554201 ], [ -93.597721806679502, 46.969400725775301 ], [ -93.597744, 46.970299 ] ] } },
{ "type": "Feature", "properties": { "wmUplineSo": "HILL CITY", "wmType": "Overhead" }, "geometry": { "type": "LineString", "coordinates": [ [ -93.597760973418303, 46.972247717889097 ], [ -93.597804532549105, 46.9729843064299 ], [ -93.597812406172906, 46.9731174477173 ], [ -93.597787164966704, 46.973849006582597 ], [ -93.597777398605501, 46.973909057444303 ], [ -93.597813318731795, 46.974625991793602 ], [ -93.597852901001701, 46.975440088380203 ], [ -93.597858503970599, 46.976130057445197 ], [ -93.597404553500994, 46.976438289045099 ] ] } },
{ "type": "Feature", "properties": { "wmUplineSo": "HILL CITY", "wmType": "Overhead" }, "geometry": { "type": "LineString", "coordinates": [ [ -93.593646452988494, 46.979809990956703 ], [ -93.593328728709494, 46.9807964630781 ] ] } },
{ "type": "Feature", "properties": { "wmUplineSo": "HILL CITY", "wmType": "Overhead" }, "geometry": { "type": "LineString", "coordinates": [ [ -93.594428710452405, 46.978469837450099 ], [ -93.593873652629, 46.979130669824698 ] ] } },
{ "type": "Feature", "properties": { "wmUplineSo": "HILL CITY", "wmType": "Overhead" }, "geometry": { "type": "LineString", "coordinates": [ [ -93.597404553500994, 46.976438289045099 ], [ -93.597020609883103, 46.9767236127025 ], [ -93.596043347204102, 46.977334293253698 ] ] } },
{ "type": "Feature", "properties": { "wmUplineSo": "HILL CITY", "wmType": "Overhead" }, "geometry": { "type": "LineString", "coordinates": [ [ -93.596043347204102, 46.977334293253698 ], [ -93.5951551558842, 46.977954211260197 ], [ -93.5951551558842, 46.977954211260197 ] ] } },
{ "type": "Feature", "properties": { "wmUplineSo": "HILL CITY", "wmType": "Overhead" }, "geometry": { "type": "LineString", "coordinates": [ [ -93.5951551558842, 46.977954211260197 ], [ -93.594428710452405, 46.978469837450099 ] ] } }
]
}
