{
"type": "FeatureCollection",
"crs": { "type": "name", "properties": { "name": "urn:ogc:def:crs:OGC:1.3:CRS84" } },
"features": [
{ "type": "Feature", "properties": { "wmUplineSo": "IRON", "wmType": "Overhead" }, "geometry": { "type": "LineString", "coordinates": [ [ -92.728354000675594, 47.426827422333602 ], [ -92.728349522479306, 47.426733976500302 ] ] } },
{ "type": "Feature", "properties": { "wmUplineSo": "IRON", "wmType": "Overhead" }, "geometry": { "type": "LineString", "coordinates": [ [ -92.687470217010301, 47.429233880697602 ], [ -92.687494489138402, 47.429300438087701 ] ] } },
{ "type": "Feature", "properties": { "wmUplineSo": "IRON", "wmType": "Overhead" }, "geometry": { "type": "LineString", "coordinates": [ [ -92.769618461776005, 47.442085467771101 ], [ -92.769649115601993, 47.442987733011996 ] ] } },
{ "type": "Feature", "properties": { "wmUplineSo": "IRON", "wmType": "Overhead" }, "geometry": { "type": "LineString", "coordinates": [ [ -92.759319350661301, 47.429497176732603 ], [ -92.760491999984595, 47.4294840036792 ] ] } },
{ "type": "Feature", "properties": { "wmUplineSo": "IRON", "wmType": "Overhead" }, "geometry": { "type": "LineString", "coordinates": [ [ -92.760491999984595, 47.4294840036792 ], [ -92.760417788078797, 47.429437472313403 ] ] } },
{ "type": "Feature", "properties": { "wmUplineSo": "IRON", "wmType": "Overhead" }, "geometry": { "type": "LineString", "coordinates": [ [ -92.763291901137507, 47.429459036681898 ], [ -92.764768412214394, 47.429408197986298 ] ] } },
{ "type": "Feature", "properties": { "wmUplineSo": "IRON", "wmType": "Overhead" }, "geometry": { "type": "LineString", "coordinates": [ [ -92.769674857637298, 47.438642807290996 ], [ -92.768380999985098, 47.438256003681602 ] ] } },
{ "type": "Feature", "properties": { "wmUplineSo": "IRON", "wmType": "Overhead" }, "geometry": { "type": "LineString", "coordinates": [ [ -92.728446980181204, 47.427017746514203 ], [ -92.728354000675594, 47.426827422333602 ] ] } },
{ "type": "Feature", "properties": { "wmUplineSo": "IRON", "wmType": "Overhead" }, "geometry": { "type": "LineString", "coordinates": [ [ -92.768848554725295, 47.434761860907898 ], [ -92.768006583212198, 47.434745841191997 ] ] } },
{ "type": "Feature", "properties": { "wmUplineSo": "IRON", "wmType": "Overhead" }, "geometry": { "type": "LineString", "coordinates": [ [ -92.713937370720004, 47.429476092043103 ], [ -92.713904396211603, 47.429338410546997 ] ] } },
{ "type": "Feature", "properties": { "wmUplineSo": "IRON", "wmType": "Overhead" }, "geometry": { "type": "LineString", "coordinates": [ [ -92.713904396211603, 47.429338410546997 ], [ -92.7138001, 47.428888900009198 ] ] } },
{ "type": "Feature", "properties": { "wmUplineSo": "IRON", "wmType": "Overhead" }, "geometry": { "type": "LineString", "coordinates": [ [ -92.7380167993188, 47.4295743021828 ], [ -92.738357043853, 47.429572403859602 ] ] } },
{ "type": "Feature", "properties": { "wmUplineSo": "IRON", "wmType": "Overhead" }, "geometry": { "type": "LineString", "coordinates": [ [ -92.7380167993188, 47.4295743021828 ], [ -92.737824066086006, 47.430234519823799 ] ] } },
{ "type": "Feature", "properties": { "wmUplineSo": "IRON", "wmType": "Overhead" }, "geometry": { "type": "LineString", "coordinates": [ [ -92.737824066086006, 47.430234519823799 ], [ -92.737662691234505, 47.430937662320702 ] ] } },
{ "type": "Feature", "properties": { "wmUplineSo": "IRON", "wmType": "Overhead" }, "geometry": { "type": "LineString", "coordinates": [ [ -92.737501205501701, 47.431662230998 ], [ -92.737355734813505, 47.4323404114349 ] ] } },
{ "type": "Feature", "properties": { "wmUplineSo": "IRON", "wmType": "Overhead" }, "geometry": { "type": "LineString", "coordinates": [ [ -92.737662691234505, 47.430937662320702 ], [ -92.737501205501701, 47.431662230998 ] ] } },
{ "type": "Feature", "properties": { "wmUplineSo": "IRON", "wmType": "Overhead" }, "geometry": { "type": "LineString", "coordinates": [ [ -92.737355734813505, 47.4323404114349 ], [ -92.7373735, 47.432379400009303 ] ] } },
{ "type": "Feature", "properties": { "wmUplineSo": "IRON", "wmType": "Overhead" }, "geometry": { "type": "LineString", "coordinates": [ [ -92.764768412214394, 47.429408197986298 ], [ -92.7661875592038, 47.429393901837798 ] ] } },
{ "type": "Feature", "properties": { "wmUplineSo": "IRON", "wmType": "Overhead" }, "geometry": { "type": "LineString", "coordinates": [ [ -92.776159634275601, 47.415957294193603 ], [ -92.775782896885303, 47.416024035165798 ] ] } },
{ "type": "Feature", "properties": { "wmUplineSo": "IRON", "wmType": "Overhead" }, "geometry": { "type": "LineString", "coordinates": [ [ -92.775758954796501, 47.416461580388599 ], [ -92.776159634275601, 47.415957294193603 ] ] } },
{ "type": "Feature", "properties": { "wmUplineSo": "IRON", "wmType": "Overhead" }, "geometry": { "type": "LineString", "coordinates": [ [ -92.712683319231701, 47.429485911658503 ], [ -92.713937370720004, 47.429476092043103 ] ] } },
{ "type": "Feature", "properties": { "wmUplineSo": "IRON", "wmType": "Overhead" }, "geometry": { "type": "LineString", "coordinates": [ [ -92.729174355789496, 47.439800259398098 ], [ -92.728082999982504, 47.439884003682003 ] ] } },
{ "type": "Feature", "properties": { "wmUplineSo": "IRON", "wmType": "Overhead" }, "geometry": { "type": "LineString", "coordinates": [ [ -92.711364138500997, 47.429458876613502 ], [ -92.712683319231701, 47.429485911658503 ] ] } },
{ "type": "Feature", "properties": { "wmUplineSo": "IRON", "wmType": "Overhead" }, "geometry": { "type": "LineString", "coordinates": [ [ -92.706521218798002, 47.4343617571351 ], [ -92.705307478814007, 47.434366468378499 ] ] } },
{ "type": "Feature", "properties": { "wmUplineSo": "IRON", "wmType": "Overhead" }, "geometry": { "type": "LineString", "coordinates": [ [ -92.698649452785205, 47.430041207894803 ], [ -92.698688, 47.430092600009303 ] ] } },
{ "type": "Feature", "properties": { "wmUplineSo": "IRON", "wmType": "Overhead" }, "geometry": { "type": "LineString", "coordinates": [ [ -92.697100380878794, 47.425264727621098 ], [ -92.6966608, 47.425356800009197 ] ] } },
{ "type": "Feature", "properties": { "wmUplineSo": "IRON", "wmType": "Overhead" }, "geometry": { "type": "LineString", "coordinates": [ [ -92.6948611873228, 47.4204531593765 ], [ -92.6947263, 47.420510300009198 ] ] } },
{ "type": "Feature", "properties": { "wmUplineSo": "IRON", "wmType": "Overhead" }, "geometry": { "type": "LineString", "coordinates": [ [ -92.696244999980607, 47.419495003676197 ], [ -92.696176899999898, 47.419473300009201 ] ] } },
{ "type": "Feature", "properties": { "wmUplineSo": "IRON", "wmType": "Overhead" }, "geometry": { "type": "LineString", "coordinates": [ [ -92.698161685051303, 47.419622751242599 ], [ -92.6980083, 47.419704000009197 ] ] } },
{ "type": "Feature", "properties": { "wmUplineSo": "IRON", "wmType": "Overhead" }, "geometry": { "type": "LineString", "coordinates": [ [ -92.696822695358804, 47.417695463122897 ], [ -92.6979906, 47.417387300009203 ] ] } },
{ "type": "Feature", "properties": { "wmUplineSo": "IRON", "wmType": "Overhead" }, "geometry": { "type": "LineString", "coordinates": [ [ -92.703542319399602, 47.427847196861798 ], [ -92.703538061459497, 47.427778692619697 ] ] } },
{ "type": "Feature", "properties": { "wmUplineSo": "IRON", "wmType": "Overhead" }, "geometry": { "type": "LineString", "coordinates": [ [ -92.705170910803901, 47.423612292016202 ], [ -92.70514435, 47.423571860009197 ] ] } },
{ "type": "Feature", "properties": { "wmUplineSo": "IRON", "wmType": "Overhead" }, "geometry": { "type": "LineString", "coordinates": [ [ -92.7085565470029, 47.425909448302797 ], [ -92.708580156725304, 47.4254865307472 ] ] } },
{ "type": "Feature", "properties": { "wmUplineSo": "IRON", "wmType": "Overhead" }, "geometry": { "type": "LineString", "coordinates": [ [ -92.710089004590799, 47.425390789441103 ], [ -92.7100294, 47.425456500009197 ] ] } },
{ "type": "Feature", "properties": { "wmUplineSo": "IRON", "wmType": "Overhead" }, "geometry": { "type": "LineString", "coordinates": [ [ -92.707174999981206, 47.4348420036806 ], [ -92.7071443, 47.434851100009297 ] ] } },
{ "type": "Feature", "properties": { "wmUplineSo": "IRON", "wmType": "Overhead" }, "geometry": { "type": "LineString", "coordinates": [ [ -92.705307478814007, 47.434366468378499 ], [ -92.705487613275295, 47.434182153759402 ] ] } },
{ "type": "Feature", "properties": { "wmUplineSo": "IRON", "wmType": "Overhead" }, "geometry": { "type": "LineString", "coordinates": [ [ -92.707155612328194, 47.432336078804603 ], [ -92.7070956, 47.432381100009202 ] ] } },
{ "type": "Feature", "properties": { "wmUplineSo": "IRON", "wmType": "Overhead" }, "geometry": { "type": "LineString", "coordinates": [ [ -92.712169189814105, 47.430346094517603 ], [ -92.7119928, 47.430413600009203 ] ] } },
{ "type": "Feature", "properties": { "wmUplineSo": "IRON", "wmType": "Overhead" }, "geometry": { "type": "LineString", "coordinates": [ [ -92.713937370720004, 47.429476092043103 ], [ -92.7139096, 47.429487100009297 ] ] } },
{ "type": "Feature", "properties": { "wmUplineSo": "IRON", "wmType": "Overhead" }, "geometry": { "type": "LineString", "coordinates": [ [ -92.718495805726604, 47.430653982034698 ], [ -92.7183903, 47.430671100009299 ] ] } },
{ "type": "Feature", "properties": { "wmUplineSo": "IRON", "wmType": "Overhead" }, "geometry": { "type": "LineString", "coordinates": [ [ -92.717891184831203, 47.4286226797987 ], [ -92.7177571, 47.428640300009299 ] ] } },
{ "type": "Feature", "properties": { "wmUplineSo": "IRON", "wmType": "Overhead" }, "geometry": { "type": "LineString", "coordinates": [ [ -92.715943802247097, 47.430318852907398 ], [ -92.7157893, 47.430351500009301 ] ] } },
{ "type": "Feature", "properties": { "wmUplineSo": "IRON", "wmType": "Overhead" }, "geometry": { "type": "LineString", "coordinates": [ [ -92.7306662155802, 47.429147791273699 ], [ -92.7306838, 47.429144600009202 ] ] } },
{ "type": "Feature", "properties": { "wmUplineSo": "IRON", "wmType": "Overhead" }, "geometry": { "type": "LineString", "coordinates": [ [ -92.728743018442401, 47.4272674566067 ], [ -92.728446980181204, 47.427017746514203 ] ] } },
{ "type": "Feature", "properties": { "wmUplineSo": "IRON", "wmType": "Overhead" }, "geometry": { "type": "LineString", "coordinates": [ [ -92.729261136193301, 47.424522903062602 ], [ -92.729549, 47.424312900009198 ] ] } },
{ "type": "Feature", "properties": { "wmUplineSo": "IRON", "wmType": "Overhead" }, "geometry": { "type": "LineString", "coordinates": [ [ -92.729261136193301, 47.424522903062602 ], [ -92.728747844142305, 47.424569424382099 ], [ -92.728375998445102, 47.424830652351602 ] ] } },
{ "type": "Feature", "properties": { "wmUplineSo": "IRON", "wmType": "Overhead" }, "geometry": { "type": "LineString", "coordinates": [ [ -92.729246437236796, 47.423740099175397 ], [ -92.7294429, 47.423813600009197 ] ] } },
{ "type": "Feature", "properties": { "wmUplineSo": "IRON", "wmType": "Overhead" }, "geometry": { "type": "LineString", "coordinates": [ [ -92.729897020916994, 47.437872937988601 ], [ -92.7299516, 47.437891400009299 ] ] } },
{ "type": "Feature", "properties": { "wmUplineSo": "IRON", "wmType": "Overhead" }, "geometry": { "type": "LineString", "coordinates": [ [ -92.730904307695496, 47.433423016447598 ], [ -92.7313728, 47.4335264000092 ] ] } },
{ "type": "Feature", "properties": { "wmUplineSo": "IRON", "wmType": "Overhead" }, "geometry": { "type": "LineString", "coordinates": [ [ -92.736951702784907, 47.4285280858494 ], [ -92.7369741, 47.428541500009203 ] ] } },
{ "type": "Feature", "properties": { "wmUplineSo": "IRON", "wmType": "Overhead" }, "geometry": { "type": "LineString", "coordinates": [ [ -92.739179836223599, 47.429112050192302 ], [ -92.7389256, 47.429249300009197 ] ] } },
{ "type": "Feature", "properties": { "wmUplineSo": "IRON", "wmType": "Overhead" }, "geometry": { "type": "LineString", "coordinates": [ [ -92.746302093305701, 47.428982307322798 ], [ -92.746393515174105, 47.429011504671898 ] ] } },
{ "type": "Feature", "properties": { "wmUplineSo": "IRON", "wmType": "Overhead" }, "geometry": { "type": "LineString", "coordinates": [ [ -92.753214864329905, 47.431205404187303 ], [ -92.7531501, 47.431368400009198 ] ] } },
{ "type": "Feature", "properties": { "wmUplineSo": "IRON", "wmType": "Overhead" }, "geometry": { "type": "LineString", "coordinates": [ [ -92.772406288544602, 47.423010711192902 ], [ -92.7728792, 47.423196900009202 ] ] } },
{ "type": "Feature", "properties": { "wmUplineSo": "IRON", "wmType": "Overhead" }, "geometry": { "type": "LineString", "coordinates": [ [ -92.772406288544602, 47.423010711192902 ], [ -92.7722346, 47.423037300009199 ] ] } },
{ "type": "Feature", "properties": { "wmUplineSo": "IRON", "wmType": "Overhead" }, "geometry": { "type": "LineString", "coordinates": [ [ -92.774785632264795, 47.421722937721803 ], [ -92.7744395295842, 47.421513440443597 ], [ -92.7743365, 47.421437800009201 ] ] } },
{ "type": "Feature", "properties": { "wmUplineSo": "IRON", "wmType": "Overhead" }, "geometry": { "type": "LineString", "coordinates": [ [ -92.775083, 47.421271 ], [ -92.7746833, 47.421133600009199 ] ] } },
{ "type": "Feature", "properties": { "wmUplineSo": "IRON", "wmType": "Overhead" }, "geometry": { "type": "LineString", "coordinates": [ [ -92.775007159451405, 47.420570464851998 ], [ -92.7749464, 47.420620800009203 ] ] } },
{ "type": "Feature", "properties": { "wmUplineSo": "IRON", "wmType": "Overhead" }, "geometry": { "type": "LineString", "coordinates": [ [ -92.774038258289096, 47.419843152829401 ], [ -92.7740073, 47.4197991000092 ] ] } },
{ "type": "Feature", "properties": { "wmUplineSo": "IRON", "wmType": "Overhead" }, "geometry": { "type": "LineString", "coordinates": [ [ -92.774624408906007, 47.418009354307102 ], [ -92.774524, 47.4179896000092 ] ] } },
{ "type": "Feature", "properties": { "wmUplineSo": "IRON", "wmType": "Overhead" }, "geometry": { "type": "LineString", "coordinates": [ [ -92.776159634275601, 47.415957294193603 ], [ -92.7762426, 47.415870300009203 ] ] } },
{ "type": "Feature", "properties": { "wmUplineSo": "IRON", "wmType": "Overhead" }, "geometry": { "type": "LineString", "coordinates": [ [ -92.776674696262702, 47.415255975739903 ], [ -92.7768454, 47.4148613000092 ] ] } },
{ "type": "Feature", "properties": { "wmUplineSo": "IRON", "wmType": "Overhead" }, "geometry": { "type": "LineString", "coordinates": [ [ -92.769645047636601, 47.437243052461803 ], [ -92.7694893, 47.437402800009302 ] ] } },
{ "type": "Feature", "properties": { "wmUplineSo": "IRON", "wmType": "Overhead" }, "geometry": { "type": "LineString", "coordinates": [ [ -92.768380999985098, 47.438256003681602 ], [ -92.7684193, 47.4382387000093 ] ] } },
{ "type": "Feature", "properties": { "wmUplineSo": "IRON", "wmType": "Overhead" }, "geometry": { "type": "LineString", "coordinates": [ [ -92.768006583212198, 47.434745841191997 ], [ -92.768194123589495, 47.434533544132897 ] ] } },
{ "type": "Feature", "properties": { "wmUplineSo": "IRON", "wmType": "Overhead" }, "geometry": { "type": "LineString", "coordinates": [ [ -92.768388278358898, 47.4400684975611 ], [ -92.7682707, 47.440095500009299 ] ] } },
{ "type": "Feature", "properties": { "wmUplineSo": "IRON", "wmType": "Overhead" }, "geometry": { "type": "LineString", "coordinates": [ [ -92.789748544151195, 47.436196157509499 ], [ -92.7895971, 47.436218900009301 ] ] } },
{ "type": "Feature", "properties": { "wmUplineSo": "IRON", "wmType": "Overhead" }, "geometry": { "type": "LineString", "coordinates": [ [ -92.789748544151195, 47.436196157509499 ], [ -92.7899587784066, 47.435942584635796 ], [ -92.7898271, 47.435716100009301 ] ] } },
{ "type": "Feature", "properties": { "wmUplineSo": "IRON", "wmType": "Overhead" }, "geometry": { "type": "LineString", "coordinates": [ [ -92.789210244523701, 47.434644810655499 ], [ -92.7890798, 47.4348027000093 ] ] } },
{ "type": "Feature", "properties": { "wmUplineSo": "IRON", "wmType": "Overhead" }, "geometry": { "type": "LineString", "coordinates": [ [ -92.791644670540293, 47.433661284929201 ], [ -92.7918704, 47.433762100009197 ] ] } },
{ "type": "Feature", "properties": { "wmUplineSo": "IRON", "wmType": "Overhead" }, "geometry": { "type": "LineString", "coordinates": [ [ -92.781619666568801, 47.433936212723303 ], [ -92.7814701, 47.434023300009301 ] ] } },
{ "type": "Feature", "properties": { "wmUplineSo": "IRON", "wmType": "Overhead" }, "geometry": { "type": "LineString", "coordinates": [ [ -92.781407203693604, 47.435102487651697 ], [ -92.7810514, 47.435191900009301 ] ] } },
{ "type": "Feature", "properties": { "wmUplineSo": "IRON", "wmType": "Overhead" }, "geometry": { "type": "LineString", "coordinates": [ [ -92.780230415000801, 47.436371022150603 ], [ -92.7802341694604, 47.436233987235902 ] ] } },
{ "type": "Feature", "properties": { "wmUplineSo": "IRON", "wmType": "Overhead" }, "geometry": { "type": "LineString", "coordinates": [ [ -92.778617859701697, 47.435309471905299 ], [ -92.778560023388394, 47.435466111543299 ] ] } },
{ "type": "Feature", "properties": { "wmUplineSo": "IRON", "wmType": "Overhead" }, "geometry": { "type": "LineString", "coordinates": [ [ -92.780479452911905, 47.439582277756699 ], [ -92.780483206960099, 47.439445243060199 ] ] } },
{ "type": "Feature", "properties": { "wmUplineSo": "IRON", "wmType": "Overhead" }, "geometry": { "type": "LineString", "coordinates": [ [ -92.781451204711999, 47.437790553582502 ], [ -92.7806698, 47.437899600009303 ] ] } },
{ "type": "Feature", "properties": { "wmUplineSo": "IRON", "wmType": "Overhead" }, "geometry": { "type": "LineString", "coordinates": [ [ -92.774731901165893, 47.418876874445999 ], [ -92.774017587613699, 47.418858527694297 ] ] } },
{ "type": "Feature", "properties": { "wmUplineSo": "IRON", "wmType": "Overhead" }, "geometry": { "type": "LineString", "coordinates": [ [ -92.775602468233203, 47.416658527848398 ], [ -92.7756293, 47.416683800009203 ] ] } },
{ "type": "Feature", "properties": { "wmUplineSo": "IRON", "wmType": "Overhead" }, "geometry": { "type": "LineString", "coordinates": [ [ -92.769743714487504, 47.441109597990298 ], [ -92.769287, 47.4415432000092 ] ] } },
{ "type": "Feature", "properties": { "wmUplineSo": "IRON", "wmType": "Overhead" }, "geometry": { "type": "LineString", "coordinates": [ [ -92.730715999982706, 47.430452003679299 ], [ -92.730752999982698, 47.431221003679603 ] ] } },
{ "type": "Feature", "properties": { "wmUplineSo": "IRON", "wmType": "Overhead" }, "geometry": { "type": "LineString", "coordinates": [ [ -92.7306662155802, 47.429147791273699 ], [ -92.730608648899405, 47.428968546931301 ], [ -92.730529400265794, 47.4287217898476 ], [ -92.7305251, 47.428708400009199 ] ] } },
{ "type": "Feature", "properties": { "wmUplineSo": "IRON", "wmType": "Overhead" }, "geometry": { "type": "LineString", "coordinates": [ [ -92.773623446899293, 47.423620510962998 ], [ -92.772837, 47.423932600009202 ] ] } },
{ "type": "Feature", "properties": { "wmUplineSo": "IRON", "wmType": "Overhead" }, "geometry": { "type": "LineString", "coordinates": [ [ -92.7460737984579, 47.429569173367703 ], [ -92.746302093305701, 47.428982307322798 ] ] } },
{ "type": "Feature", "properties": { "wmUplineSo": "IRON", "wmType": "Overhead" }, "geometry": { "type": "LineString", "coordinates": [ [ -92.730752999982698, 47.431221003679603 ], [ -92.7312011, 47.431272000009301 ] ] } },
{ "type": "Feature", "properties": { "wmUplineSo": "IRON", "wmType": "Overhead" }, "geometry": { "type": "LineString", "coordinates": [ [ -92.696856999980596, 47.419420003676201 ], [ -92.696244999980607, 47.419495003676197 ] ] } },
{ "type": "Feature", "properties": { "wmUplineSo": "IRON", "wmType": "Overhead" }, "geometry": { "type": "LineString", "coordinates": [ [ -92.703565220215793, 47.428402266453702 ], [ -92.703542319399602, 47.427847196861798 ] ] } },
{ "type": "Feature", "properties": { "wmUplineSo": "IRON", "wmType": "Overhead" }, "geometry": { "type": "LineString", "coordinates": [ [ -92.756698263451497, 47.4295041256781 ], [ -92.756512546719307, 47.429177624712899 ] ] } },
{ "type": "Feature", "properties": { "wmUplineSo": "IRON", "wmType": "Overhead" }, "geometry": { "type": "LineString", "coordinates": [ [ -92.771916087390693, 47.428011000304501 ], [ -92.772098150037607, 47.427642090317498 ], [ -92.772547555547902, 47.427034094129297 ], [ -92.772886700245607, 47.426467030081596 ] ] } },
{ "type": "Feature", "properties": { "wmUplineSo": "IRON", "wmType": "Overhead" }, "geometry": { "type": "LineString", "coordinates": [ [ -92.769674857637298, 47.438642807290996 ], [ -92.769695020336997, 47.439315678799801 ], [ -92.769716137232294, 47.440167168155497 ] ] } },
{ "type": "Feature", "properties": { "wmUplineSo": "IRON", "wmType": "Overhead" }, "geometry": { "type": "LineString", "coordinates": [ [ -92.769716137232294, 47.440167168155497 ], [ -92.768388278358898, 47.4400684975611 ] ] } },
{ "type": "Feature", "properties": { "wmUplineSo": "IRON", "wmType": "Overhead" }, "geometry": { "type": "LineString", "coordinates": [ [ -92.769609312103498, 47.436433788766003 ], [ -92.769684729720396, 47.436434107375099 ] ] } },
{ "type": "Feature", "properties": { "wmUplineSo": "IRON", "wmType": "Overhead" }, "geometry": { "type": "LineString", "coordinates": [ [ -92.778617859701697, 47.435309471905299 ], [ -92.779937219446097, 47.435350318131597 ], [ -92.781380817822594, 47.435233836270399 ] ] } },
{ "type": "Feature", "properties": { "wmUplineSo": "IRON", "wmType": "Overhead" }, "geometry": { "type": "LineString", "coordinates": [ [ -92.781380817822594, 47.435233836270399 ], [ -92.781373076753894, 47.4363490897288 ] ] } },
{ "type": "Feature", "properties": { "wmUplineSo": "IRON", "wmType": "Overhead" }, "geometry": { "type": "LineString", "coordinates": [ [ -92.769684729720396, 47.436434107375099 ], [ -92.770726396693505, 47.436438503472402 ], [ -92.771957545932693, 47.436442022064803 ], [ -92.773304169236994, 47.436465138681598 ], [ -92.774606364793698, 47.436481618817503 ], [ -92.775827685530103, 47.436194358684297 ], [ -92.776870611032606, 47.435904859719699 ], [ -92.777878855799003, 47.435578615074803 ], [ -92.778617859701697, 47.435309471905299 ] ] } },
{ "type": "Feature", "properties": { "wmUplineSo": "IRON", "wmType": "Overhead" }, "geometry": { "type": "LineString", "coordinates": [ [ -92.781373076753894, 47.4363490897288 ], [ -92.780230415000801, 47.436371022150603 ] ] } },
{ "type": "Feature", "properties": { "wmUplineSo": "IRON", "wmType": "Overhead" }, "geometry": { "type": "LineString", "coordinates": [ [ -92.781408374905098, 47.437015420860803 ], [ -92.780954027041304, 47.437364468656703 ], [ -92.780753410079598, 47.438273120577698 ], [ -92.780635991520796, 47.438938048294801 ], [ -92.780479452911905, 47.439582277756699 ] ] } },
{ "type": "Feature", "properties": { "wmUplineSo": "IRON", "wmType": "Overhead" }, "geometry": { "type": "LineString", "coordinates": [ [ -92.781408374905098, 47.437015420860803 ], [ -92.781451204711999, 47.437790553582502 ] ] } },
{ "type": "Feature", "properties": { "wmUplineSo": "IRON", "wmType": "Overhead" }, "geometry": { "type": "LineString", "coordinates": [ [ -92.772886700245607, 47.426467030081596 ], [ -92.771651768500504, 47.4262439745481 ] ] } },
{ "type": "Feature", "properties": { "wmUplineSo": "IRON", "wmType": "Overhead" }, "geometry": { "type": "LineString", "coordinates": [ [ -92.772886700245607, 47.426467030081596 ], [ -92.773488563685802, 47.425665097043598 ] ] } },
{ "type": "Feature", "properties": { "wmUplineSo": "IRON", "wmType": "Overhead" }, "geometry": { "type": "LineString", "coordinates": [ [ -92.773488563685802, 47.425665097043598 ], [ -92.772480489359396, 47.425351240418699 ] ] } },
{ "type": "Feature", "properties": { "wmUplineSo": "IRON", "wmType": "Overhead" }, "geometry": { "type": "LineString", "coordinates": [ [ -92.773488563685802, 47.425665097043598 ], [ -92.773718433084099, 47.425373198527801 ] ] } },
{ "type": "Feature", "properties": { "wmUplineSo": "IRON", "wmType": "Overhead" }, "geometry": { "type": "LineString", "coordinates": [ [ -92.773986953760698, 47.423083768387301 ], [ -92.772406288544602, 47.423010711192902 ] ] } },
{ "type": "Feature", "properties": { "wmUplineSo": "IRON", "wmType": "Overhead" }, "geometry": { "type": "LineString", "coordinates": [ [ -92.774785632264795, 47.421722937721803 ], [ -92.775083, 47.421271 ] ] } },
{ "type": "Feature", "properties": { "wmUplineSo": "IRON", "wmType": "Overhead" }, "geometry": { "type": "LineString", "coordinates": [ [ -92.775083, 47.421271 ], [ -92.775046191544604, 47.4209310045376 ], [ -92.775007159451405, 47.420570464851998 ] ] } },
{ "type": "Feature", "properties": { "wmUplineSo": "IRON", "wmType": "Overhead" }, "geometry": { "type": "LineString", "coordinates": [ [ -92.775007159451405, 47.420570464851998 ], [ -92.774903302287896, 47.4198116571093 ] ] } },
{ "type": "Feature", "properties": { "wmUplineSo": "IRON", "wmType": "Overhead" }, "geometry": { "type": "LineString", "coordinates": [ [ -92.774903302287896, 47.4198116571093 ], [ -92.774038258289096, 47.419843152829401 ] ] } },
{ "type": "Feature", "properties": { "wmUplineSo": "IRON", "wmType": "Overhead" }, "geometry": { "type": "LineString", "coordinates": [ [ -92.774903302287896, 47.4198116571093 ], [ -92.774731901165893, 47.418876874445999 ] ] } },
{ "type": "Feature", "properties": { "wmUplineSo": "IRON", "wmType": "Overhead" }, "geometry": { "type": "LineString", "coordinates": [ [ -92.774731901165893, 47.418876874445999 ], [ -92.774624408906007, 47.418009354307102 ] ] } },
{ "type": "Feature", "properties": { "wmUplineSo": "IRON", "wmType": "Overhead" }, "geometry": { "type": "LineString", "coordinates": [ [ -92.774624408906007, 47.418009354307102 ], [ -92.775602468233203, 47.416658527848398 ], [ -92.775602468233203, 47.416658527848398 ] ] } },
{ "type": "Feature", "properties": { "wmUplineSo": "IRON", "wmType": "Overhead" }, "geometry": { "type": "LineString", "coordinates": [ [ -92.776159634275601, 47.415957294193603 ], [ -92.776674696262702, 47.415255975740003 ], [ -92.776674696262702, 47.415255975739903 ] ] } },
{ "type": "Feature", "properties": { "wmUplineSo": "IRON", "wmType": "Overhead" }, "geometry": { "type": "LineString", "coordinates": [ [ -92.776674696262702, 47.415255975739903 ], [ -92.777077377451604, 47.414585386255702 ] ] } },
{ "type": "Feature", "properties": { "wmUplineSo": "IRON", "wmType": "Overhead" }, "geometry": { "type": "LineString", "coordinates": [ [ -92.769883707694206, 47.434821314245703 ], [ -92.769799733261294, 47.435681925619598 ], [ -92.769609312103498, 47.436433788766003 ] ] } },
{ "type": "Feature", "properties": { "wmUplineSo": "IRON", "wmType": "Overhead" }, "geometry": { "type": "LineString", "coordinates": [ [ -92.769609312103498, 47.436433788766003 ], [ -92.769645047636601, 47.437243052461803 ] ] } },
{ "type": "Feature", "properties": { "wmUplineSo": "IRON", "wmType": "Overhead" }, "geometry": { "type": "LineString", "coordinates": [ [ -92.769645047636601, 47.437243052461803 ], [ -92.769674857637298, 47.438642807290996 ] ] } },
{ "type": "Feature", "properties": { "wmUplineSo": "IRON", "wmType": "Overhead" }, "geometry": { "type": "LineString", "coordinates": [ [ -92.7661875592038, 47.429393901837798 ], [ -92.766591628444203, 47.428696633599898 ], [ -92.766952273927004, 47.428108640283803 ], [ -92.767249135568804, 47.427603291265399 ] ] } },
{ "type": "Feature", "properties": { "wmUplineSo": "IRON", "wmType": "Overhead" }, "geometry": { "type": "LineString", "coordinates": [ [ -92.7661875592038, 47.429393901837798 ], [ -92.768894916667705, 47.429385106616003 ] ] } },
{ "type": "Feature", "properties": { "wmUplineSo": "IRON", "wmType": "Overhead" }, "geometry": { "type": "LineString", "coordinates": [ [ -92.768894916667705, 47.429385106616003 ], [ -92.770196165498604, 47.429359848052698 ], [ -92.771333102654097, 47.429365676342499 ] ] } },
{ "type": "Feature", "properties": { "wmUplineSo": "IRON", "wmType": "Overhead" }, "geometry": { "type": "LineString", "coordinates": [ [ -92.771333102654097, 47.429365676342499 ], [ -92.769883707694305, 47.434821314245703 ], [ -92.769883707694206, 47.434821314245703 ] ] } },
{ "type": "Feature", "properties": { "wmUplineSo": "IRON", "wmType": "Overhead" }, "geometry": { "type": "LineString", "coordinates": [ [ -92.771333102654097, 47.429365676342499 ], [ -92.771573198590602, 47.428607886019797 ] ] } },
{ "type": "Feature", "properties": { "wmUplineSo": "IRON", "wmType": "Overhead" }, "geometry": { "type": "LineString", "coordinates": [ [ -92.771573198590602, 47.428607886019797 ], [ -92.771916087390693, 47.428011000304501 ] ] } },
{ "type": "Feature", "properties": { "wmUplineSo": "IRON", "wmType": "Overhead" }, "geometry": { "type": "LineString", "coordinates": [ [ -92.781373076753894, 47.4363490897288 ], [ -92.781408374905098, 47.437015420860803 ] ] } },
{ "type": "Feature", "properties": { "wmUplineSo": "IRON", "wmType": "Overhead" }, "geometry": { "type": "LineString", "coordinates": [ [ -92.781380817822594, 47.435233836270399 ], [ -92.782388057886905, 47.435096383412699 ] ] } },
{ "type": "Feature", "properties": { "wmUplineSo": "IRON", "wmType": "Overhead" }, "geometry": { "type": "LineString", "coordinates": [ [ -92.782388057886905, 47.435096383412699 ], [ -92.781996272813899, 47.4345025774644 ], [ -92.781619666568801, 47.433936212723303 ] ] } },
{ "type": "Feature", "properties": { "wmUplineSo": "IRON", "wmType": "Overhead" }, "geometry": { "type": "LineString", "coordinates": [ [ -92.782388057886905, 47.435096383412699 ], [ -92.782985854802007, 47.435002930106499 ], [ -92.784221107274803, 47.434816540685503 ], [ -92.785434950746804, 47.434614788679603 ], [ -92.786820273373294, 47.434405554729501 ] ] } },
{ "type": "Feature", "properties": { "wmUplineSo": "IRON", "wmType": "Overhead" }, "geometry": { "type": "LineString", "coordinates": [ [ -92.786820273373294, 47.434405554729501 ], [ -92.787695608742993, 47.435323025151099 ], [ -92.7884018925796, 47.436051200146501 ], [ -92.789748544151195, 47.436196157509499 ] ] } },
{ "type": "Feature", "properties": { "wmUplineSo": "IRON", "wmType": "Overhead" }, "geometry": { "type": "LineString", "coordinates": [ [ -92.786820273373294, 47.434405554729501 ], [ -92.787959160665906, 47.434246072587896 ], [ -92.789025788235804, 47.4341017138034 ] ] } },
{ "type": "Feature", "properties": { "wmUplineSo": "IRON", "wmType": "Overhead" }, "geometry": { "type": "LineString", "coordinates": [ [ -92.789025788235804, 47.4341017138034 ], [ -92.789210244523701, 47.434644810655499 ] ] } },
{ "type": "Feature", "properties": { "wmUplineSo": "IRON", "wmType": "Overhead" }, "geometry": { "type": "LineString", "coordinates": [ [ -92.789025788235804, 47.4341017138034 ], [ -92.790510122704404, 47.433861159371503 ], [ -92.791644670540293, 47.433661284929201 ] ] } },
{ "type": "Feature", "properties": { "wmUplineSo": "IRON", "wmType": "Overhead" }, "geometry": { "type": "LineString", "coordinates": [ [ -92.781380817822594, 47.435233836270399 ], [ -92.781407203693604, 47.435102487651697 ] ] } },
{ "type": "Feature", "properties": { "wmUplineSo": "IRON", "wmType": "Overhead" }, "geometry": { "type": "LineString", "coordinates": [ [ -92.688588317589307, 47.429751155495097 ], [ -92.689532351708706, 47.4297366925747 ], [ -92.690672305771201, 47.429719217722898 ], [ -92.691556856546498, 47.429705650240798 ], [ -92.691556856546498, 47.429705650240798 ] ] } },
{ "type": "Feature", "properties": { "wmUplineSo": "IRON", "wmType": "Overhead" }, "geometry": { "type": "LineString", "coordinates": [ [ -92.692318999980301, 47.429692003679101 ], [ -92.693741477165105, 47.429591803492599 ], [ -92.6950117850228, 47.429579304438803 ], [ -92.6964123420844, 47.429560164235099 ], [ -92.697378853326896, 47.429556202662603 ] ] } },
{ "type": "Feature", "properties": { "wmUplineSo": "IRON", "wmType": "Overhead" }, "geometry": { "type": "LineString", "coordinates": [ [ -92.697378853326896, 47.429556202662603 ], [ -92.698572200793805, 47.429547601827402 ] ] } },
{ "type": "Feature", "properties": { "wmUplineSo": "IRON", "wmType": "Overhead" }, "geometry": { "type": "LineString", "coordinates": [ [ -92.699856377052299, 47.429547003931603 ], [ -92.701302161635297, 47.429524533697503 ], [ -92.702610589975095, 47.429545868532898 ] ] } },
{ "type": "Feature", "properties": { "wmUplineSo": "IRON", "wmType": "Overhead" }, "geometry": { "type": "LineString", "coordinates": [ [ -92.703647985717097, 47.429532434698899 ], [ -92.703607976324307, 47.4289861097458 ], [ -92.703565220215793, 47.428402266453702 ] ] } },
{ "type": "Feature", "properties": { "wmUplineSo": "IRON", "wmType": "Overhead" }, "geometry": { "type": "LineString", "coordinates": [ [ -92.703647985717097, 47.429532434698899 ], [ -92.707793204984796, 47.429530651290499 ] ] } },
{ "type": "Feature", "properties": { "wmUplineSo": "IRON", "wmType": "Overhead" }, "geometry": { "type": "LineString", "coordinates": [ [ -92.697383304362305, 47.4295050315746 ], [ -92.697425229665299, 47.429022957246197 ], [ -92.6974894959247, 47.428086400635003 ], [ -92.697541844928793, 47.427132849768903 ], [ -92.697613541044703, 47.426154332981604 ], [ -92.697647775416996, 47.425398135366798 ] ] } },
{ "type": "Feature", "properties": { "wmUplineSo": "IRON", "wmType": "Overhead" }, "geometry": { "type": "LineString", "coordinates": [ [ -92.696921697651007, 47.420308604094402 ], [ -92.696856999980596, 47.419420003676201 ] ] } },
{ "type": "Feature", "properties": { "wmUplineSo": "IRON", "wmType": "Overhead" }, "geometry": { "type": "LineString", "coordinates": [ [ -92.696856999980596, 47.419420003676201 ], [ -92.696822695358705, 47.417695463122897 ], [ -92.696822695358804, 47.417695463122897 ] ] } },
{ "type": "Feature", "properties": { "wmUplineSo": "IRON", "wmType": "Overhead" }, "geometry": { "type": "LineString", "coordinates": [ [ -92.697378853326896, 47.429556202662603 ], [ -92.697383304362305, 47.4295050315746 ] ] } },
{ "type": "Feature", "properties": { "wmUplineSo": "IRON", "wmType": "Overhead" }, "geometry": { "type": "LineString", "coordinates": [ [ -92.698572200793805, 47.429547601827402 ], [ -92.698649361249593, 47.430040623028198 ], [ -92.698649452785205, 47.430041207894803 ] ] } },
{ "type": "Feature", "properties": { "wmUplineSo": "IRON", "wmType": "Overhead" }, "geometry": { "type": "LineString", "coordinates": [ [ -92.697647775416996, 47.425398135366798 ], [ -92.697100380878794, 47.425264727621098 ] ] } },
{ "type": "Feature", "properties": { "wmUplineSo": "IRON", "wmType": "Overhead" }, "geometry": { "type": "LineString", "coordinates": [ [ -92.696921697651007, 47.420308604094402 ], [ -92.698161685051303, 47.419622751242599 ] ] } },
{ "type": "Feature", "properties": { "wmUplineSo": "IRON", "wmType": "Overhead" }, "geometry": { "type": "LineString", "coordinates": [ [ -92.696921697651007, 47.420308604094402 ], [ -92.696326817553199, 47.420317162688299 ], [ -92.6948611873228, 47.4204531593765 ] ] } },
{ "type": "Feature", "properties": { "wmUplineSo": "IRON", "wmType": "Overhead" }, "geometry": { "type": "LineString", "coordinates": [ [ -92.707793204984796, 47.429530651290499 ], [ -92.711364138500997, 47.429458876613502 ] ] } },
{ "type": "Feature", "properties": { "wmUplineSo": "IRON", "wmType": "Overhead" }, "geometry": { "type": "LineString", "coordinates": [ [ -92.711364138500997, 47.429458876613502 ], [ -92.712169189814105, 47.430346094517603 ] ] } },
{ "type": "Feature", "properties": { "wmUplineSo": "IRON", "wmType": "Overhead" }, "geometry": { "type": "LineString", "coordinates": [ [ -92.7077872495056, 47.429433977621699 ], [ -92.707744080405206, 47.428580970860601 ], [ -92.707699781646795, 47.427705614965198 ], [ -92.707652834469499, 47.426777895189097 ], [ -92.707609368495795, 47.425918939357103 ] ] } },
{ "type": "Feature", "properties": { "wmUplineSo": "IRON", "wmType": "Overhead" }, "geometry": { "type": "LineString", "coordinates": [ [ -92.707609368495795, 47.425918939357103 ], [ -92.7085565470029, 47.425909448302797 ], [ -92.7085565470029, 47.425909448302797 ] ] } },
{ "type": "Feature", "properties": { "wmUplineSo": "IRON", "wmType": "Overhead" }, "geometry": { "type": "LineString", "coordinates": [ [ -92.7085565470029, 47.425909448302797 ], [ -92.709991072864099, 47.425832909652399 ], [ -92.710089004590799, 47.425390789441103 ] ] } },
{ "type": "Feature", "properties": { "wmUplineSo": "IRON", "wmType": "Overhead" }, "geometry": { "type": "LineString", "coordinates": [ [ -92.707609368495795, 47.425918939357103 ], [ -92.707531440720103, 47.424945607934703 ], [ -92.70703125, 47.424407960009198 ], [ -92.705988778310996, 47.423995312867 ], [ -92.705170910803901, 47.423612292016202 ] ] } },
{ "type": "Feature", "properties": { "wmUplineSo": "IRON", "wmType": "Overhead" }, "geometry": { "type": "LineString", "coordinates": [ [ -92.707793204984796, 47.429530651290499 ], [ -92.7077872495056, 47.429433977621699 ] ] } },
{ "type": "Feature", "properties": { "wmUplineSo": "IRON", "wmType": "Overhead" }, "geometry": { "type": "LineString", "coordinates": [ [ -92.707793204984796, 47.429530651290499 ], [ -92.707800869097895, 47.4296038689954 ] ] } },
{ "type": "Feature", "properties": { "wmUplineSo": "IRON", "wmType": "Overhead" }, "geometry": { "type": "LineString", "coordinates": [ [ -92.707800869097895, 47.4296038689954 ], [ -92.707778758662499, 47.432140512120299 ] ] } },
{ "type": "Feature", "properties": { "wmUplineSo": "IRON", "wmType": "Overhead" }, "geometry": { "type": "LineString", "coordinates": [ [ -92.707778758662499, 47.432140512120299 ], [ -92.707155612328194, 47.432336078804603 ] ] } },
{ "type": "Feature", "properties": { "wmUplineSo": "IRON", "wmType": "Overhead" }, "geometry": { "type": "LineString", "coordinates": [ [ -92.707778758662499, 47.432140512120299 ], [ -92.707715235596595, 47.433642370902497 ] ] } },
{ "type": "Feature", "properties": { "wmUplineSo": "IRON", "wmType": "Overhead" }, "geometry": { "type": "LineString", "coordinates": [ [ -92.707713906270101, 47.434380276194297 ], [ -92.706521218798002, 47.4343617571351 ] ] } },
{ "type": "Feature", "properties": { "wmUplineSo": "IRON", "wmType": "Overhead" }, "geometry": { "type": "LineString", "coordinates": [ [ -92.718065277473201, 47.429506078933997 ], [ -92.719436347608706, 47.429508995807403 ], [ -92.720351772323397, 47.429510934192798 ], [ -92.721587739851898, 47.429513539721903 ], [ -92.722930543886605, 47.429516355370197 ], [ -92.724479387723605, 47.429519583519003 ], [ -92.725455991270593, 47.429521608230601 ], [ -92.727058301411901, 47.429524912146903 ], [ -92.727836528607099, 47.429526508748999 ], [ -92.728743257964098, 47.429528362321697 ], [ -92.728743257964098, 47.429528362321697 ] ] } },
{ "type": "Feature", "properties": { "wmUplineSo": "IRON", "wmType": "Overhead" }, "geometry": { "type": "LineString", "coordinates": [ [ -92.716951402873804, 47.429497382535203 ], [ -92.718065277473201, 47.429506078933997 ] ] } },
{ "type": "Feature", "properties": { "wmUplineSo": "IRON", "wmType": "Overhead" }, "geometry": { "type": "LineString", "coordinates": [ [ -92.718065277473201, 47.429506078933997 ], [ -92.718183288541795, 47.429390541553602 ] ] } },
{ "type": "Feature", "properties": { "wmUplineSo": "IRON", "wmType": "Overhead" }, "geometry": { "type": "LineString", "coordinates": [ [ -92.718183288541795, 47.429390541553602 ], [ -92.717891184831203, 47.4286226797987 ] ] } },
{ "type": "Feature", "properties": { "wmUplineSo": "IRON", "wmType": "Overhead" }, "geometry": { "type": "LineString", "coordinates": [ [ -92.716951402873804, 47.429497382535203 ], [ -92.718003812992194, 47.430055317244097 ], [ -92.718495805726604, 47.430653982034698 ] ] } },
{ "type": "Feature", "properties": { "wmUplineSo": "IRON", "wmType": "Overhead" }, "geometry": { "type": "LineString", "coordinates": [ [ -92.716069483620203, 47.429508064623498 ], [ -92.716951402873804, 47.429497382535203 ] ] } },
{ "type": "Feature", "properties": { "wmUplineSo": "IRON", "wmType": "Overhead" }, "geometry": { "type": "LineString", "coordinates": [ [ -92.716069483620203, 47.429508064623498 ], [ -92.715943802247097, 47.430318852907398 ] ] } },
{ "type": "Feature", "properties": { "wmUplineSo": "IRON", "wmType": "Overhead" }, "geometry": { "type": "LineString", "coordinates": [ [ -92.713937370720004, 47.429476092043103 ], [ -92.716069483620203, 47.429508064623498 ] ] } },
{ "type": "Feature", "properties": { "wmUplineSo": "IRON", "wmType": "Overhead" }, "geometry": { "type": "LineString", "coordinates": [ [ -92.728743257964098, 47.429528362321697 ], [ -92.728743018442401, 47.4272674566067 ], [ -92.728743018442401, 47.4272674566067 ] ] } },
{ "type": "Feature", "properties": { "wmUplineSo": "IRON", "wmType": "Overhead" }, "geometry": { "type": "LineString", "coordinates": [ [ -92.728743257964098, 47.429528362321697 ], [ -92.729605267540094, 47.429560973076597 ], [ -92.730327077929601, 47.4295586841478 ] ] } },
{ "type": "Feature", "properties": { "wmUplineSo": "IRON", "wmType": "Overhead" }, "geometry": { "type": "LineString", "coordinates": [ [ -92.729261136193301, 47.424522903062602 ], [ -92.729246437236796, 47.423740099175397 ] ] } },
{ "type": "Feature", "properties": { "wmUplineSo": "IRON", "wmType": "Overhead" }, "geometry": { "type": "LineString", "coordinates": [ [ -92.730327077929601, 47.4295586841478 ], [ -92.730707736553896, 47.4295595788752 ] ] } },
{ "type": "Feature", "properties": { "wmUplineSo": "IRON", "wmType": "Overhead" }, "geometry": { "type": "LineString", "coordinates": [ [ -92.728743018442401, 47.4272674566067 ], [ -92.729294152289398, 47.426288892461301 ], [ -92.729269945432904, 47.425352568363202 ], [ -92.729261136193301, 47.424522903062602 ] ] } },
{ "type": "Feature", "properties": { "wmUplineSo": "IRON", "wmType": "Overhead" }, "geometry": { "type": "LineString", "coordinates": [ [ -92.730707736553896, 47.4295595788752 ], [ -92.730723154856705, 47.430365649131801 ], [ -92.730715999982706, 47.430452003679299 ] ] } },
{ "type": "Feature", "properties": { "wmUplineSo": "IRON", "wmType": "Overhead" }, "geometry": { "type": "LineString", "coordinates": [ [ -92.730707736553896, 47.4295595788752 ], [ -92.732108273961401, 47.429569207119201 ], [ -92.733435649652705, 47.429578316605799 ], [ -92.734846947605604, 47.429587985173399 ], [ -92.735830251491393, 47.429594711354298 ], [ -92.735830251491393, 47.429594711354298 ] ] } },
{ "type": "Feature", "properties": { "wmUplineSo": "IRON", "wmType": "Overhead" }, "geometry": { "type": "LineString", "coordinates": [ [ -92.730327077929601, 47.4295586841478 ], [ -92.7306662155802, 47.429147791273699 ] ] } },
{ "type": "Feature", "properties": { "wmUplineSo": "IRON", "wmType": "Overhead" }, "geometry": { "type": "LineString", "coordinates": [ [ -92.730752999982698, 47.431221003679603 ], [ -92.730787849595302, 47.432178801589401 ], [ -92.730809246872298, 47.433143055284901 ] ] } },
{ "type": "Feature", "properties": { "wmUplineSo": "IRON", "wmType": "Overhead" }, "geometry": { "type": "LineString", "coordinates": [ [ -92.730809246872298, 47.433143055284901 ], [ -92.730222426758601, 47.433829117243597 ], [ -92.729648947148902, 47.434476520416098 ], [ -92.729142082293606, 47.434960401597799 ], [ -92.729123498393093, 47.4358069039219 ], [ -92.729105661958002, 47.436619330785398 ], [ -92.7290941100689, 47.437145489872002 ], [ -92.729082250835702, 47.437685635654198 ], [ -92.729082250835702, 47.437685635654198 ] ] } },
{ "type": "Feature", "properties": { "wmUplineSo": "IRON", "wmType": "Overhead" }, "geometry": { "type": "LineString", "coordinates": [ [ -92.729082250835702, 47.437685635654198 ], [ -92.729132904131802, 47.438848597070702 ], [ -92.729174355789496, 47.439800259398098 ], [ -92.729174355789496, 47.439800259398098 ] ] } },
{ "type": "Feature", "properties": { "wmUplineSo": "IRON", "wmType": "Overhead" }, "geometry": { "type": "LineString", "coordinates": [ [ -92.729082250835702, 47.437685635654198 ], [ -92.729897020916994, 47.437872937988601 ] ] } },
{ "type": "Feature", "properties": { "wmUplineSo": "IRON", "wmType": "Overhead" }, "geometry": { "type": "LineString", "coordinates": [ [ -92.730809246872298, 47.433143055284901 ], [ -92.730904307695496, 47.433423016447598 ] ] } },
{ "type": "Feature", "properties": { "wmUplineSo": "IRON", "wmType": "Overhead" }, "geometry": { "type": "LineString", "coordinates": [ [ -92.735830251491393, 47.429594711354298 ], [ -92.736985406146303, 47.429576730319098 ], [ -92.737883690069594, 47.429562739657598 ], [ -92.7380167993188, 47.4295743021828 ] ] } },
{ "type": "Feature", "properties": { "wmUplineSo": "IRON", "wmType": "Overhead" }, "geometry": { "type": "LineString", "coordinates": [ [ -92.735830251491393, 47.429594711354298 ], [ -92.736050976800698, 47.429097119010301 ], [ -92.736065145923504, 47.429065934099299 ] ] } },
{ "type": "Feature", "properties": { "wmUplineSo": "IRON", "wmType": "Overhead" }, "geometry": { "type": "LineString", "coordinates": [ [ -92.736399324397595, 47.428275229741203 ], [ -92.736951702784907, 47.4285280858494 ], [ -92.736951702784907, 47.4285280858494 ] ] } },
{ "type": "Feature", "properties": { "wmUplineSo": "IRON", "wmType": "Overhead" }, "geometry": { "type": "LineString", "coordinates": [ [ -92.738357043853, 47.429572403859602 ], [ -92.739624898076002, 47.4295615265994 ] ] } },
{ "type": "Feature", "properties": { "wmUplineSo": "IRON", "wmType": "Overhead" }, "geometry": { "type": "LineString", "coordinates": [ [ -92.739624898076002, 47.4295615265994 ], [ -92.739179836223599, 47.429112050192302 ] ] } },
{ "type": "Feature", "properties": { "wmUplineSo": "IRON", "wmType": "Overhead" }, "geometry": { "type": "LineString", "coordinates": [ [ -92.7460737984579, 47.429569173367703 ], [ -92.747567527085195, 47.429596551048299 ], [ -92.748869349955598, 47.429600293191797 ], [ -92.7500318254273, 47.429605463910796 ], [ -92.751176738409697, 47.4295953040846 ] ] } },
{ "type": "Feature", "properties": { "wmUplineSo": "IRON", "wmType": "Overhead" }, "geometry": { "type": "LineString", "coordinates": [ [ -92.752333135871595, 47.429569399763999 ], [ -92.752738970538203, 47.430322419762703 ], [ -92.753214864329905, 47.431205404187303 ] ] } },
{ "type": "Feature", "properties": { "wmUplineSo": "IRON", "wmType": "Overhead" }, "geometry": { "type": "LineString", "coordinates": [ [ -92.752333135871595, 47.429569399763999 ], [ -92.753721645264406, 47.429548654684197 ], [ -92.755325250870698, 47.429524675003897 ], [ -92.756698263451497, 47.4295041256781 ] ] } },
{ "type": "Feature", "properties": { "wmUplineSo": "IRON", "wmType": "Overhead" }, "geometry": { "type": "LineString", "coordinates": [ [ -92.760491999984595, 47.4294840036792 ], [ -92.762093687562299, 47.429453943074101 ] ] } },
{ "type": "Feature", "properties": { "wmUplineSo": "IRON", "wmType": "Overhead" }, "geometry": { "type": "LineString", "coordinates": [ [ -92.756698263451497, 47.4295041256781 ], [ -92.756842292696305, 47.429505411802303 ], [ -92.757968630053298, 47.429515463307801 ], [ -92.759319350661301, 47.429497176732603 ] ] } },
{ "type": "Feature", "properties": { "wmUplineSo": "IRON", "wmType": "Overhead" }, "geometry": { "type": "LineString", "coordinates": [ [ -92.762093687562299, 47.429453943074101 ], [ -92.763291901137507, 47.429459036681898 ] ] } },
{ "type": "Feature", "properties": { "wmUplineSo": "IRON", "wmType": "Overhead" }, "geometry": { "type": "LineString", "coordinates": [ [ -92.702610589975095, 47.429545868532898 ], [ -92.703647985717097, 47.429532434698899 ] ] } },
{ "type": "Feature", "properties": { "wmUplineSo": "IRON", "wmType": "Overhead" }, "geometry": { "type": "LineString", "coordinates": [ [ -92.751176738409697, 47.4295953040846 ], [ -92.752333135871595, 47.429569399763999 ] ] } },
{ "type": "Feature", "properties": { "wmUplineSo": "IRON", "wmType": "Overhead" }, "geometry": { "type": "LineString", "coordinates": [ [ -92.773672021483506, 47.424707733436101 ], [ -92.773623446899293, 47.423620510962998 ] ] } },
{ "type": "Feature", "properties": { "wmUplineSo": "IRON", "wmType": "Overhead" }, "geometry": { "type": "LineString", "coordinates": [ [ -92.773623446899293, 47.423620510962998 ], [ -92.773986953760698, 47.423083768387301 ] ] } },
{ "type": "Feature", "properties": { "wmUplineSo": "IRON", "wmType": "Overhead" }, "geometry": { "type": "LineString", "coordinates": [ [ -92.707715235596595, 47.433642370902497 ], [ -92.707713906270101, 47.434380276194297 ] ] } },
{ "type": "Feature", "properties": { "wmUplineSo": "IRON", "wmType": "Overhead" }, "geometry": { "type": "LineString", "coordinates": [ [ -92.707713906270101, 47.434380276194297 ], [ -92.707174999981206, 47.4348420036806 ] ] } },
{ "type": "Feature", "properties": { "wmUplineSo": "IRON", "wmType": "Overhead" }, "geometry": { "type": "LineString", "coordinates": [ [ -92.691556856546498, 47.429705650240798 ], [ -92.692318999980301, 47.429692003679101 ] ] } },
{ "type": "Feature", "properties": { "wmUplineSo": "IRON", "wmType": "Overhead" }, "geometry": { "type": "LineString", "coordinates": [ [ -92.691980999980302, 47.428855003678997 ], [ -92.691647999980205, 47.428006003678803 ] ] } },
{ "type": "Feature", "properties": { "wmUplineSo": "IRON", "wmType": "Overhead" }, "geometry": { "type": "LineString", "coordinates": [ [ -92.691647999980205, 47.428006003678803 ], [ -92.691339999980201, 47.427177003678501 ] ] } },
{ "type": "Feature", "properties": { "wmUplineSo": "IRON", "wmType": "Overhead" }, "geometry": { "type": "LineString", "coordinates": [ [ -92.691339999980201, 47.427177003678501 ], [ -92.6911326, 47.427091500009297 ] ] } },
{ "type": "Feature", "properties": { "wmUplineSo": "IRON", "wmType": "Overhead" }, "geometry": { "type": "LineString", "coordinates": [ [ -92.692318999980301, 47.429692003679101 ], [ -92.691980999980302, 47.428855003678997 ] ] } },
{ "type": "Feature", "properties": { "wmUplineSo": "IRON", "wmType": "Overhead" }, "geometry": { "type": "LineString", "coordinates": [ [ -92.687470217010301, 47.429233880697602 ], [ -92.688588317589307, 47.429751155495097 ] ] } },
{ "type": "Feature", "properties": { "wmUplineSo": "IRON", "wmType": "Overhead" }, "geometry": { "type": "LineString", "coordinates": [ [ -92.687002794812301, 47.429233989759801 ], [ -92.687470217010301, 47.429233880697602 ] ] } },
{ "type": "Feature", "properties": { "wmUplineSo": "IRON", "wmType": "Overhead" }, "geometry": { "type": "LineString", "coordinates": [ [ -92.769716137232294, 47.440167168155497 ], [ -92.769743714487504, 47.441109597990298 ] ] } },
{ "type": "Feature", "properties": { "wmUplineSo": "IRON", "wmType": "Overhead" }, "geometry": { "type": "LineString", "coordinates": [ [ -92.769743714487504, 47.441109597990298 ], [ -92.769618461776005, 47.442085467771101 ], [ -92.769618461776005, 47.442085467771101 ] ] } },
{ "type": "Feature", "properties": { "wmUplineSo": "IRON", "wmType": "Overhead" }, "geometry": { "type": "LineString", "coordinates": [ [ -92.772837, 47.423932600009202 ], [ -92.772836900245395, 47.423928164054601 ], [ -92.772835159560202, 47.423850758002501 ] ] } },
{ "type": "Feature", "properties": { "wmUplineSo": "IRON", "wmType": "Overhead" }, "geometry": { "type": "LineString", "coordinates": [ [ -92.77446, 47.422302000000101 ], [ -92.774785632264795, 47.421722937721803 ] ] } },
{ "type": "Feature", "properties": { "wmUplineSo": "IRON", "wmType": "Overhead" }, "geometry": { "type": "LineString", "coordinates": [ [ -92.773718433084099, 47.425373198527801 ], [ -92.773672021483506, 47.424707733436101 ] ] } },
{ "type": "Feature", "properties": { "wmUplineSo": "IRON", "wmType": "Overhead" }, "geometry": { "type": "LineString", "coordinates": [ [ -92.773986953760698, 47.423083768387301 ], [ -92.77446, 47.422302000000101 ] ] } },
{ "type": "Feature", "properties": { "wmUplineSo": "IRON", "wmType": "Overhead" }, "geometry": { "type": "LineString", "coordinates": [ [ -92.736065145923504, 47.429065934099299 ], [ -92.736399324397595, 47.428275229741203 ] ] } },
{ "type": "Feature", "properties": { "wmUplineSo": "IRON", "wmType": "Overhead" }, "geometry": { "type": "LineString", "coordinates": [ [ -92.769883707694206, 47.434821314245703 ], [ -92.768848554725295, 47.434761860907898 ] ] } },
{ "type": "Feature", "properties": { "wmUplineSo": "IRON", "wmType": "Overhead" }, "geometry": { "type": "LineString", "coordinates": [ [ -92.775602468233203, 47.416658527848398 ], [ -92.775758954796501, 47.416461580388599 ] ] } },
{ "type": "Feature", "properties": { "wmUplineSo": "IRON", "wmType": "Overhead" }, "geometry": { "type": "LineString", "coordinates": [ [ -92.739624898076002, 47.4295615265994 ], [ -92.740940044291506, 47.429562843878998 ] ] } },
{ "type": "Feature", "properties": { "wmUplineSo": "IRON", "wmType": "Overhead" }, "geometry": { "type": "LineString", "coordinates": [ [ -92.740940044291506, 47.429562843878998 ], [ -92.742290148457599, 47.429568080278599 ], [ -92.743608622419799, 47.429575962425901 ], [ -92.744953945343497, 47.429590263083398 ], [ -92.7460737984579, 47.429569173367703 ] ] } },
{ "type": "Feature", "properties": { "wmUplineSo": "IRON", "wmType": "Overhead" }, "geometry": { "type": "LineString", "coordinates": [ [ -92.698572200793805, 47.429547601827402 ], [ -92.699856377052299, 47.429547003931603 ] ] } },
{ "type": "Feature", "properties": { "wmUplineSo": "IRON", "wmType": "Overhead" }, "geometry": { "type": "LineString", "coordinates": [ [ -92.760491999984595, 47.4294840036792 ], [ -92.760534271570506, 47.429052917923897 ] ] } },
{ "type": "Feature", "properties": { "wmUplineSo": "IRON", "wmType": "Overhead" }, "geometry": { "type": "LineString", "coordinates": [ [ -92.697647775416996, 47.425398135366798 ], [ -92.697619758255001, 47.424439318842502 ], [ -92.697610844887606, 47.423463921910297 ], [ -92.6973477647349, 47.422493584698302 ], [ -92.6973083481641, 47.421715375341897 ], [ -92.697275537501397, 47.420922530475899 ], [ -92.696921697651007, 47.420308604094402 ] ] } }
]
}
