{
"type": "FeatureCollection",
"crs": { "type": "name", "properties": { "name": "urn:ogc:def:crs:OGC:1.3:CRS84" } },
"features": [
{ "type": "Feature", "properties": { "wmUplineSo": "IRON", "wmType": "Underground" }, "geometry": { "type": "LineString", "coordinates": [ [ -92.719358871848399, 47.372128518929003 ], [ -92.719355798191401, 47.372319292783601 ] ] } },
{ "type": "Feature", "properties": { "wmUplineSo": "IRON", "wmType": "Underground" }, "geometry": { "type": "LineString", "coordinates": [ [ -92.719355798191401, 47.372319292783601 ], [ -92.719355, 47.372439999999898 ] ] } },
{ "type": "Feature", "properties": { "wmUplineSo": "IRON", "wmType": "Underground" }, "geometry": { "type": "LineString", "coordinates": [ [ -92.719355, 47.372439999999898 ], [ -92.719365159936103, 47.372468911529602 ] ] } },
{ "type": "Feature", "properties": { "wmUplineSo": "IRON", "wmType": "Underground" }, "geometry": { "type": "LineString", "coordinates": [ [ -92.8098346093918, 47.391266965665203 ], [ -92.810352847457196, 47.386470221895799 ] ] } },
{ "type": "Feature", "properties": { "wmUplineSo": "IRON", "wmType": "Underground" }, "geometry": { "type": "LineString", "coordinates": [ [ -92.810352847457196, 47.386470221895799 ], [ -92.810814368249694, 47.377890188029497 ] ] } },
{ "type": "Feature", "properties": { "wmUplineSo": "IRON", "wmType": "Underground" }, "geometry": { "type": "LineString", "coordinates": [ [ -92.767645489441904, 47.421380984840503 ], [ -92.767514992820296, 47.421446547803299 ] ] } },
{ "type": "Feature", "properties": { "wmUplineSo": "IRON", "wmType": "Underground" }, "geometry": { "type": "LineString", "coordinates": [ [ -92.767514992820296, 47.421446547803299 ], [ -92.767520861584501, 47.421482880046199 ] ] } },
{ "type": "Feature", "properties": { "wmUplineSo": "IRON", "wmType": "Underground" }, "geometry": { "type": "LineString", "coordinates": [ [ -92.698286282387301, 47.3913868954279 ], [ -92.698346316283093, 47.391639260820199 ] ] } },
{ "type": "Feature", "properties": { "wmUplineSo": "IRON", "wmType": "Underground" }, "geometry": { "type": "LineString", "coordinates": [ [ -92.858704907852399, 47.4164514886902 ], [ -92.858918981373904, 47.416920128104202 ] ] } },
{ "type": "Feature", "properties": { "wmUplineSo": "IRON", "wmType": "Underground" }, "geometry": { "type": "LineString", "coordinates": [ [ -92.858918981373904, 47.416920128104202 ], [ -92.859133705920897, 47.417380382551002 ] ] } },
{ "type": "Feature", "properties": { "wmUplineSo": "IRON", "wmType": "Underground" }, "geometry": { "type": "LineString", "coordinates": [ [ -92.859133705920897, 47.417380382551002 ], [ -92.859415907631202, 47.418601488653202 ] ] } },
{ "type": "Feature", "properties": { "wmUplineSo": "IRON", "wmType": "Underground" }, "geometry": { "type": "LineString", "coordinates": [ [ -92.859415907631202, 47.418601488653202 ], [ -92.859623309824002, 47.419002980416998 ] ] } },
{ "type": "Feature", "properties": { "wmUplineSo": "IRON", "wmType": "Underground" }, "geometry": { "type": "LineString", "coordinates": [ [ -92.859623309824002, 47.419002980416998 ], [ -92.859350311632397, 47.419209980967899 ] ] } },
{ "type": "Feature", "properties": { "wmUplineSo": "IRON", "wmType": "Underground" }, "geometry": { "type": "LineString", "coordinates": [ [ -92.859350311632397, 47.419209980967899 ], [ -92.859167153360204, 47.419350446702197 ] ] } },
{ "type": "Feature", "properties": { "wmUplineSo": "IRON", "wmType": "Underground" }, "geometry": { "type": "LineString", "coordinates": [ [ -92.859167153360204, 47.419350446702197 ], [ -92.8589188768306, 47.419434067315002 ] ] } },
{ "type": "Feature", "properties": { "wmUplineSo": "IRON", "wmType": "Underground" }, "geometry": { "type": "LineString", "coordinates": [ [ -92.8589188768306, 47.419434067315002 ], [ -92.858775908243999, 47.419402488702801 ] ] } },
{ "type": "Feature", "properties": { "wmUplineSo": "IRON", "wmType": "Underground" }, "geometry": { "type": "LineString", "coordinates": [ [ -92.853204935622401, 47.4161838884513 ], [ -92.853360776788605, 47.415724739989699 ] ] } },
{ "type": "Feature", "properties": { "wmUplineSo": "IRON", "wmType": "Underground" }, "geometry": { "type": "LineString", "coordinates": [ [ -92.853360776788605, 47.415724739989699 ], [ -92.852907549120104, 47.415505123895898 ] ] } },
{ "type": "Feature", "properties": { "wmUplineSo": "IRON", "wmType": "Underground" }, "geometry": { "type": "LineString", "coordinates": [ [ -92.852907549120104, 47.415505123895898 ], [ -92.853605425998495, 47.415595941700701 ] ] } },
{ "type": "Feature", "properties": { "wmUplineSo": "IRON", "wmType": "Underground" }, "geometry": { "type": "LineString", "coordinates": [ [ -92.796818966839297, 47.398442549229401 ], [ -92.797112758708806, 47.398867958036199 ] ] } },
{ "type": "Feature", "properties": { "wmUplineSo": "IRON", "wmType": "Underground" }, "geometry": { "type": "LineString", "coordinates": [ [ -92.728393325988705, 47.414521516635297 ], [ -92.728900021312697, 47.4145175505043 ] ] } },
{ "type": "Feature", "properties": { "wmUplineSo": "IRON", "wmType": "Underground" }, "geometry": { "type": "LineString", "coordinates": [ [ -92.728900021312697, 47.4145175505043 ], [ -92.729723020686606, 47.414542550445702 ] ] } },
{ "type": "Feature", "properties": { "wmUplineSo": "IRON", "wmType": "Underground" }, "geometry": { "type": "LineString", "coordinates": [ [ -92.729723020686606, 47.414542550445702 ], [ -92.731673019193096, 47.4145375503061 ] ] } },
{ "type": "Feature", "properties": { "wmUplineSo": "IRON", "wmType": "Underground" }, "geometry": { "type": "LineString", "coordinates": [ [ -92.731673019193096, 47.4145375503061 ], [ -92.731896018930897, 47.413947550285897 ] ] } },
{ "type": "Feature", "properties": { "wmUplineSo": "IRON", "wmType": "Underground" }, "geometry": { "type": "LineString", "coordinates": [ [ -92.731896018930897, 47.413947550285897 ], [ -92.732118018674598, 47.413390550265802 ] ] } },
{ "type": "Feature", "properties": { "wmUplineSo": "IRON", "wmType": "Underground" }, "geometry": { "type": "LineString", "coordinates": [ [ -92.732118018674598, 47.413390550265802 ], [ -92.7321157134662, 47.4133228318614 ] ] } },
{ "type": "Feature", "properties": { "wmUplineSo": "IRON", "wmType": "Underground" }, "geometry": { "type": "LineString", "coordinates": [ [ -92.732118018674598, 47.413390550265802 ], [ -92.7321157134662, 47.4133228318614 ] ] } },
{ "type": "Feature", "properties": { "wmUplineSo": "IRON", "wmType": "Underground" }, "geometry": { "type": "LineString", "coordinates": [ [ -92.732118018674598, 47.413390550265802 ], [ -92.7321157134662, 47.4133228318614 ] ] } },
{ "type": "Feature", "properties": { "wmUplineSo": "IRON", "wmType": "Underground" }, "geometry": { "type": "LineString", "coordinates": [ [ -92.765072994119706, 47.417845551626201 ], [ -92.765001330108802, 47.417841530479699 ] ] } },
{ "type": "Feature", "properties": { "wmUplineSo": "IRON", "wmType": "Underground" }, "geometry": { "type": "LineString", "coordinates": [ [ -92.791917464811505, 47.407660713816597 ], [ -92.792905020407304, 47.408480134699303 ], [ -92.793563835660194, 47.409418121546501 ], [ -92.794052058061595, 47.411134342718597 ], [ -92.795290672663597, 47.411876525844697 ] ] } },
{ "type": "Feature", "properties": { "wmUplineSo": "IRON", "wmType": "Underground" }, "geometry": { "type": "LineString", "coordinates": [ [ -92.795290672663597, 47.411876525844697 ], [ -92.793527771458798, 47.412055845900298 ] ] } },
{ "type": "Feature", "properties": { "wmUplineSo": "IRON", "wmType": "Underground" }, "geometry": { "type": "LineString", "coordinates": [ [ -92.808003831160804, 47.374882183646697 ], [ -92.807868454805401, 47.374944344616701 ] ] } },
{ "type": "Feature", "properties": { "wmUplineSo": "IRON", "wmType": "Underground" }, "geometry": { "type": "LineString", "coordinates": [ [ -92.695227453242197, 47.386322286669099 ], [ -92.695977589135694, 47.386424790686497 ] ] } },
{ "type": "Feature", "properties": { "wmUplineSo": "IRON", "wmType": "Underground" }, "geometry": { "type": "LineString", "coordinates": [ [ -92.6945907319339, 47.39316260012 ], [ -92.6944161835508, 47.393273290005098 ] ] } },
{ "type": "Feature", "properties": { "wmUplineSo": "IRON", "wmType": "Underground" }, "geometry": { "type": "LineString", "coordinates": [ [ -92.696920818184793, 47.385673432789197 ], [ -92.697355345885896, 47.385575093405897 ] ] } },
{ "type": "Feature", "properties": { "wmUplineSo": "IRON", "wmType": "Underground" }, "geometry": { "type": "LineString", "coordinates": [ [ -92.713482577625399, 47.3737601700578 ], [ -92.713256452355395, 47.373843756210803 ] ] } },
{ "type": "Feature", "properties": { "wmUplineSo": "IRON", "wmType": "Underground" }, "geometry": { "type": "LineString", "coordinates": [ [ -92.801631285339695, 47.400761167160702 ], [ -92.801625563598407, 47.401212445249001 ] ] } },
{ "type": "Feature", "properties": { "wmUplineSo": "IRON", "wmType": "Underground" }, "geometry": { "type": "LineString", "coordinates": [ [ -92.828949738156695, 47.403439489837197 ], [ -92.828965743016695, 47.403460043339997 ] ] } },
{ "type": "Feature", "properties": { "wmUplineSo": "IRON", "wmType": "Underground" }, "geometry": { "type": "LineString", "coordinates": [ [ -92.835584534644497, 47.404087236031103 ], [ -92.835702537969397, 47.404177542872198 ] ] } },
{ "type": "Feature", "properties": { "wmUplineSo": "IRON", "wmType": "Underground" }, "geometry": { "type": "LineString", "coordinates": [ [ -92.835447973254006, 47.4028966600684 ], [ -92.835672037787901, 47.402831942864601 ] ] } },
{ "type": "Feature", "properties": { "wmUplineSo": "IRON", "wmType": "Underground" }, "geometry": { "type": "LineString", "coordinates": [ [ -92.859415907631202, 47.418601488653202 ], [ -92.859010922339905, 47.418766641345698 ] ] } },
{ "type": "Feature", "properties": { "wmUplineSo": "IRON", "wmType": "Underground" }, "geometry": { "type": "LineString", "coordinates": [ [ -92.858775908243999, 47.419402488702801 ], [ -92.858799822597703, 47.419399841365099 ] ] } },
{ "type": "Feature", "properties": { "wmUplineSo": "IRON", "wmType": "Underground" }, "geometry": { "type": "LineString", "coordinates": [ [ -92.809253259660593, 47.386604889998601 ], [ -92.809047555699195, 47.386696044619399 ] ] } },
{ "type": "Feature", "properties": { "wmUplineSo": "IRON", "wmType": "Underground" }, "geometry": { "type": "LineString", "coordinates": [ [ -92.832658597911006, 47.403182192138601 ], [ -92.832684136125593, 47.403155888027001 ] ] } },
{ "type": "Feature", "properties": { "wmUplineSo": "IRON", "wmType": "Underground" }, "geometry": { "type": "LineString", "coordinates": [ [ -92.738414013578193, 47.411710553478002 ], [ -92.738403813600399, 47.411695149813703 ] ] } },
{ "type": "Feature", "properties": { "wmUplineSo": "IRON", "wmType": "Underground" }, "geometry": { "type": "LineString", "coordinates": [ [ -92.738414013578193, 47.411710553478002 ], [ -92.738410913594393, 47.411692149813199 ] ] } },
{ "type": "Feature", "properties": { "wmUplineSo": "IRON", "wmType": "Underground" }, "geometry": { "type": "LineString", "coordinates": [ [ -92.820459925235099, 47.402505796577302 ], [ -92.819766949930596, 47.402628343980702 ] ] } },
{ "type": "Feature", "properties": { "wmUplineSo": "IRON", "wmType": "Underground" }, "geometry": { "type": "LineString", "coordinates": [ [ -92.767628776735506, 47.4184023961161 ], [ -92.767790292124005, 47.418297947769901 ] ] } },
{ "type": "Feature", "properties": { "wmUplineSo": "IRON", "wmType": "Underground" }, "geometry": { "type": "LineString", "coordinates": [ [ -92.768856340553597, 47.418205398302597 ], [ -92.768825591281299, 47.417973347694002 ] ] } },
{ "type": "Feature", "properties": { "wmUplineSo": "IRON", "wmType": "Underground" }, "geometry": { "type": "LineString", "coordinates": [ [ -92.769808963856605, 47.417815064766103 ], [ -92.769845490500103, 47.417971657621599 ] ] } },
{ "type": "Feature", "properties": { "wmUplineSo": "IRON", "wmType": "Underground" }, "geometry": { "type": "LineString", "coordinates": [ [ -92.768454897204506, 47.422113030055598 ], [ -92.768535992149395, 47.422165647745402 ] ] } },
{ "type": "Feature", "properties": { "wmUplineSo": "IRON", "wmType": "Underground" }, "geometry": { "type": "LineString", "coordinates": [ [ -92.767955618559995, 47.421458626105299 ], [ -92.767901092514094, 47.4213780477847 ] ] } },
{ "type": "Feature", "properties": { "wmUplineSo": "IRON", "wmType": "Underground" }, "geometry": { "type": "LineString", "coordinates": [ [ -92.815388813667397, 47.400492884257403 ], [ -92.815342953012106, 47.4006350442776 ] ] } },
{ "type": "Feature", "properties": { "wmUplineSo": "IRON", "wmType": "Underground" }, "geometry": { "type": "LineString", "coordinates": [ [ -92.759679205398697, 47.404749906105899 ], [ -92.759684796247996, 47.4048074482468 ] ] } },
{ "type": "Feature", "properties": { "wmUplineSo": "IRON", "wmType": "Underground" }, "geometry": { "type": "LineString", "coordinates": [ [ -92.766430705119703, 47.412044198592803 ], [ -92.766202292366103, 47.4119823478363 ] ] } },
{ "type": "Feature", "properties": { "wmUplineSo": "IRON", "wmType": "Underground" }, "geometry": { "type": "LineString", "coordinates": [ [ -92.745237373886397, 47.372646907013703 ], [ -92.744075525496498, 47.372739625304597 ] ] } },
{ "type": "Feature", "properties": { "wmUplineSo": "IRON", "wmType": "Underground" }, "geometry": { "type": "LineString", "coordinates": [ [ -92.765942724846198, 47.418658343943598 ], [ -92.765928593604599, 47.418655147904801 ] ] } },
{ "type": "Feature", "properties": { "wmUplineSo": "IRON", "wmType": "Underground" }, "geometry": { "type": "LineString", "coordinates": [ [ -92.734260625877397, 47.399072235680897 ], [ -92.734150814901099, 47.399082350024301 ] ] } },
{ "type": "Feature", "properties": { "wmUplineSo": "IRON", "wmType": "Underground" }, "geometry": { "type": "LineString", "coordinates": [ [ -92.830663222550697, 47.403193785233398 ], [ -92.832658597911006, 47.403182192138601 ] ] } },
{ "type": "Feature", "properties": { "wmUplineSo": "IRON", "wmType": "Underground" }, "geometry": { "type": "LineString", "coordinates": [ [ -92.764376484208, 47.419336963192698 ], [ -92.765894993615703, 47.418657551574 ] ] } },
{ "type": "Feature", "properties": { "wmUplineSo": "IRON", "wmType": "Underground" }, "geometry": { "type": "LineString", "coordinates": [ [ -92.809680010816706, 47.391933052977997 ], [ -92.8098346093918, 47.391266965665203 ] ] } },
{ "type": "Feature", "properties": { "wmUplineSo": "IRON", "wmType": "Underground" }, "geometry": { "type": "LineString", "coordinates": [ [ -92.765894993615703, 47.418657551574 ], [ -92.765942724846198, 47.418658343943598 ] ] } },
{ "type": "Feature", "properties": { "wmUplineSo": "IRON", "wmType": "Underground" }, "geometry": { "type": "LineString", "coordinates": [ [ -92.765894993615703, 47.418657551574 ], [ -92.765794993652904, 47.418402551579199 ] ] } },
{ "type": "Feature", "properties": { "wmUplineSo": "IRON", "wmType": "Underground" }, "geometry": { "type": "LineString", "coordinates": [ [ -92.765794993652904, 47.418402551579199 ], [ -92.765714993702105, 47.418324551584298 ] ] } },
{ "type": "Feature", "properties": { "wmUplineSo": "IRON", "wmType": "Underground" }, "geometry": { "type": "LineString", "coordinates": [ [ -92.765714993702105, 47.418324551584298 ], [ -92.765447993899699, 47.418280551602997 ] ] } },
{ "type": "Feature", "properties": { "wmUplineSo": "IRON", "wmType": "Underground" }, "geometry": { "type": "LineString", "coordinates": [ [ -92.765447993899699, 47.418280551602997 ], [ -92.765269994021807, 47.418188551615003 ] ] } },
{ "type": "Feature", "properties": { "wmUplineSo": "IRON", "wmType": "Underground" }, "geometry": { "type": "LineString", "coordinates": [ [ -92.830663222550697, 47.403193785233398 ], [ -92.8306925991414, 47.403170258597498 ] ] } },
{ "type": "Feature", "properties": { "wmUplineSo": "IRON", "wmType": "Underground" }, "geometry": { "type": "LineString", "coordinates": [ [ -92.808906577564102, 47.393268239650702 ], [ -92.809680010816706, 47.391933052977997 ] ] } },
{ "type": "Feature", "properties": { "wmUplineSo": "IRON", "wmType": "Underground" }, "geometry": { "type": "LineString", "coordinates": [ [ -92.739592012658306, 47.411592553393 ], [ -92.738414013578193, 47.411710553478002 ] ] } },
{ "type": "Feature", "properties": { "wmUplineSo": "IRON", "wmType": "Underground" }, "geometry": { "type": "LineString", "coordinates": [ [ -92.803813962866499, 47.407370545130398 ], [ -92.803957962714094, 47.407095545118203 ] ] } },
{ "type": "Feature", "properties": { "wmUplineSo": "IRON", "wmType": "Underground" }, "geometry": { "type": "LineString", "coordinates": [ [ -92.696141369436404, 47.393707720056298 ], [ -92.695010398150799, 47.393386736019302 ], [ -92.6945907319339, 47.39316260012 ] ] } },
{ "type": "Feature", "properties": { "wmUplineSo": "IRON", "wmType": "Underground" }, "geometry": { "type": "LineString", "coordinates": [ [ -92.696366220184501, 47.389459469933598 ], [ -92.695451307432705, 47.387184856834601 ] ] } },
{ "type": "Feature", "properties": { "wmUplineSo": "IRON", "wmType": "Underground" }, "geometry": { "type": "LineString", "coordinates": [ [ -92.695451307432705, 47.387184856834601 ], [ -92.695227453242197, 47.386322286669099 ] ] } },
{ "type": "Feature", "properties": { "wmUplineSo": "IRON", "wmType": "Underground" }, "geometry": { "type": "LineString", "coordinates": [ [ -92.695451307432705, 47.387184856834601 ], [ -92.696920818184793, 47.385673432789197 ] ] } },
{ "type": "Feature", "properties": { "wmUplineSo": "IRON", "wmType": "Underground" }, "geometry": { "type": "LineString", "coordinates": [ [ -92.717067144123106, 47.3736778930922 ], [ -92.713482577625399, 47.3737601700578 ] ] } },
{ "type": "Feature", "properties": { "wmUplineSo": "IRON", "wmType": "Underground" }, "geometry": { "type": "LineString", "coordinates": [ [ -92.717156381796798, 47.373675843521497 ], [ -92.717067144123106, 47.3736778930922 ] ] } },
{ "type": "Feature", "properties": { "wmUplineSo": "IRON", "wmType": "Underground" }, "geometry": { "type": "LineString", "coordinates": [ [ -92.793515413253502, 47.399568056521801 ], [ -92.795425967981799, 47.3989425493317 ] ] } },
{ "type": "Feature", "properties": { "wmUplineSo": "IRON", "wmType": "Underground" }, "geometry": { "type": "LineString", "coordinates": [ [ -92.795425967981799, 47.3989425493317 ], [ -92.795626909669494, 47.398797368820603 ], [ -92.796627387535096, 47.398445849128798 ], [ -92.796818966839297, 47.398442549229401 ] ] } },
{ "type": "Feature", "properties": { "wmUplineSo": "IRON", "wmType": "Underground" }, "geometry": { "type": "LineString", "coordinates": [ [ -92.796818966839297, 47.398442549229401 ], [ -92.799654512910806, 47.3972000231565 ], [ -92.802005989625798, 47.396169516706102 ] ] } },
{ "type": "Feature", "properties": { "wmUplineSo": "IRON", "wmType": "Underground" }, "geometry": { "type": "LineString", "coordinates": [ [ -92.802005989625798, 47.396169516706102 ], [ -92.803783230868802, 47.395590663045503 ] ] } },
{ "type": "Feature", "properties": { "wmUplineSo": "IRON", "wmType": "Underground" }, "geometry": { "type": "LineString", "coordinates": [ [ -92.803783230868802, 47.395590663045503 ], [ -92.804669948516306, 47.395216182429103 ] ] } },
{ "type": "Feature", "properties": { "wmUplineSo": "IRON", "wmType": "Underground" }, "geometry": { "type": "LineString", "coordinates": [ [ -92.804669948516306, 47.395216182429103 ], [ -92.805742250012301, 47.394770271201097 ] ] } },
{ "type": "Feature", "properties": { "wmUplineSo": "IRON", "wmType": "Underground" }, "geometry": { "type": "LineString", "coordinates": [ [ -92.805742250012301, 47.394770271201097 ], [ -92.806746401311301, 47.3943745573307 ] ] } },
{ "type": "Feature", "properties": { "wmUplineSo": "IRON", "wmType": "Underground" }, "geometry": { "type": "LineString", "coordinates": [ [ -92.806746401311301, 47.3943745573307 ], [ -92.808796200021206, 47.393589263174903 ] ] } },
{ "type": "Feature", "properties": { "wmUplineSo": "IRON", "wmType": "Underground" }, "geometry": { "type": "LineString", "coordinates": [ [ -92.808796200021206, 47.393589263174903 ], [ -92.809247060920001, 47.393421084114301 ] ] } },
{ "type": "Feature", "properties": { "wmUplineSo": "IRON", "wmType": "Underground" }, "geometry": { "type": "LineString", "coordinates": [ [ -92.810814368249694, 47.377890188029497 ], [ -92.810164383606903, 47.3747007520914 ] ] } },
{ "type": "Feature", "properties": { "wmUplineSo": "IRON", "wmType": "Underground" }, "geometry": { "type": "LineString", "coordinates": [ [ -92.809247060920001, 47.393421084114301 ], [ -92.808906577564102, 47.393268239650702 ] ] } },
{ "type": "Feature", "properties": { "wmUplineSo": "IRON", "wmType": "Underground" }, "geometry": { "type": "LineString", "coordinates": [ [ -92.810164383606903, 47.3747007520914 ], [ -92.809780545423806, 47.373239614672599 ] ] } },
{ "type": "Feature", "properties": { "wmUplineSo": "IRON", "wmType": "Underground" }, "geometry": { "type": "LineString", "coordinates": [ [ -92.798516840712296, 47.4005531562687 ], [ -92.800558303306701, 47.400627942038902 ], [ -92.801631285339695, 47.400761167160702 ] ] } },
{ "type": "Feature", "properties": { "wmUplineSo": "IRON", "wmType": "Underground" }, "geometry": { "type": "LineString", "coordinates": [ [ -92.833383271116006, 47.4034472666835 ], [ -92.834296844993602, 47.403353598395299 ] ] } },
{ "type": "Feature", "properties": { "wmUplineSo": "IRON", "wmType": "Underground" }, "geometry": { "type": "LineString", "coordinates": [ [ -92.834296844993602, 47.403353598395299 ], [ -92.835584534644497, 47.404087236031103 ] ] } },
{ "type": "Feature", "properties": { "wmUplineSo": "IRON", "wmType": "Underground" }, "geometry": { "type": "LineString", "coordinates": [ [ -92.834296844993602, 47.403353598395299 ], [ -92.835447973254006, 47.4028966600684 ] ] } },
{ "type": "Feature", "properties": { "wmUplineSo": "IRON", "wmType": "Underground" }, "geometry": { "type": "LineString", "coordinates": [ [ -92.810352847457196, 47.386470221895799 ], [ -92.809253259660593, 47.386604889998601 ] ] } },
{ "type": "Feature", "properties": { "wmUplineSo": "IRON", "wmType": "Underground" }, "geometry": { "type": "LineString", "coordinates": [ [ -92.810164383606903, 47.3747007520914 ], [ -92.808003831160804, 47.374882183646697 ] ] } },
{ "type": "Feature", "properties": { "wmUplineSo": "IRON", "wmType": "Underground" }, "geometry": { "type": "LineString", "coordinates": [ [ -92.809780545423806, 47.373239614672599 ], [ -92.809658295025699, 47.371638190967197 ] ] } },
{ "type": "Feature", "properties": { "wmUplineSo": "IRON", "wmType": "Underground" }, "geometry": { "type": "LineString", "coordinates": [ [ -92.828983497289798, 47.403130004075798 ], [ -92.830663222550697, 47.403193785233398 ] ] } },
{ "type": "Feature", "properties": { "wmUplineSo": "IRON", "wmType": "Underground" }, "geometry": { "type": "LineString", "coordinates": [ [ -92.828983497289798, 47.403130004075798 ], [ -92.8290059051361, 47.4031056388922 ] ] } },
{ "type": "Feature", "properties": { "wmUplineSo": "IRON", "wmType": "Underground" }, "geometry": { "type": "LineString", "coordinates": [ [ -92.696418284130104, 47.391098894570803 ], [ -92.696782283910807, 47.391033894737099 ] ] } },
{ "type": "Feature", "properties": { "wmUplineSo": "IRON", "wmType": "Underground" }, "geometry": { "type": "LineString", "coordinates": [ [ -92.697374283336899, 47.391146895009001 ], [ -92.698286282387301, 47.3913868954279 ] ] } },
{ "type": "Feature", "properties": { "wmUplineSo": "IRON", "wmType": "Underground" }, "geometry": { "type": "LineString", "coordinates": [ [ -92.698346316283093, 47.391639260820199 ], [ -92.698289882149098, 47.391643191771699 ] ] } },
{ "type": "Feature", "properties": { "wmUplineSo": "IRON", "wmType": "Underground" }, "geometry": { "type": "LineString", "coordinates": [ [ -92.791323848719301, 47.400218585994203 ], [ -92.793515413253502, 47.399568056521801 ] ] } },
{ "type": "Feature", "properties": { "wmUplineSo": "IRON", "wmType": "Underground" }, "geometry": { "type": "LineString", "coordinates": [ [ -92.788730494584101, 47.400394703175898 ], [ -92.788805144687998, 47.400389634452097 ] ] } },
{ "type": "Feature", "properties": { "wmUplineSo": "IRON", "wmType": "Underground" }, "geometry": { "type": "LineString", "coordinates": [ [ -92.820947282788396, 47.401273775057803 ], [ -92.820926322289196, 47.402509438587899 ], [ -92.820459925235099, 47.402505796577302 ] ] } },
{ "type": "Feature", "properties": { "wmUplineSo": "IRON", "wmType": "Underground" }, "geometry": { "type": "LineString", "coordinates": [ [ -92.696782283910807, 47.391033894737099 ], [ -92.697374283336899, 47.391146895009001 ] ] } },
{ "type": "Feature", "properties": { "wmUplineSo": "IRON", "wmType": "Underground" }, "geometry": { "type": "LineString", "coordinates": [ [ -92.768762543708405, 47.418045596237 ], [ -92.769808963856605, 47.417815064766103 ] ] } },
{ "type": "Feature", "properties": { "wmUplineSo": "IRON", "wmType": "Underground" }, "geometry": { "type": "LineString", "coordinates": [ [ -92.767628776735506, 47.4184023961161 ], [ -92.768762543708405, 47.418045596237 ] ] } },
{ "type": "Feature", "properties": { "wmUplineSo": "IRON", "wmType": "Underground" }, "geometry": { "type": "LineString", "coordinates": [ [ -92.768762543708405, 47.418045596237 ], [ -92.768856340553597, 47.418205398302597 ] ] } },
{ "type": "Feature", "properties": { "wmUplineSo": "IRON", "wmType": "Underground" }, "geometry": { "type": "LineString", "coordinates": [ [ -92.761069965483401, 47.418835243769202 ], [ -92.762598388618102, 47.418925169195902 ], [ -92.763019300006903, 47.419128411420502 ], [ -92.764012024344098, 47.4190892951748 ], [ -92.764376484208, 47.419336963192698 ] ] } },
{ "type": "Feature", "properties": { "wmUplineSo": "IRON", "wmType": "Underground" }, "geometry": { "type": "LineString", "coordinates": [ [ -92.764376484208, 47.419336963192698 ], [ -92.767645489441904, 47.421380984840503 ] ] } },
{ "type": "Feature", "properties": { "wmUplineSo": "IRON", "wmType": "Underground" }, "geometry": { "type": "LineString", "coordinates": [ [ -92.767645489441904, 47.421380984840503 ], [ -92.768454897204506, 47.422113030055598 ] ] } },
{ "type": "Feature", "properties": { "wmUplineSo": "IRON", "wmType": "Underground" }, "geometry": { "type": "LineString", "coordinates": [ [ -92.767645489441904, 47.421380984840503 ], [ -92.767955618559995, 47.421458626105299 ] ] } },
{ "type": "Feature", "properties": { "wmUplineSo": "IRON", "wmType": "Underground" }, "geometry": { "type": "LineString", "coordinates": [ [ -92.760069189379493, 47.4047986421212 ], [ -92.759679205398697, 47.404749906105899 ] ] } },
{ "type": "Feature", "properties": { "wmUplineSo": "IRON", "wmType": "Underground" }, "geometry": { "type": "LineString", "coordinates": [ [ -92.745093784456301, 47.372052205803698 ], [ -92.745137399547104, 47.372357576773197 ], [ -92.745237373886397, 47.372646907013703 ] ] } },
{ "type": "Feature", "properties": { "wmUplineSo": "IRON", "wmType": "Underground" }, "geometry": { "type": "LineString", "coordinates": [ [ -92.763563853386202, 47.413335931387401 ], [ -92.7643813490252, 47.413122387356097 ], [ -92.764735002442293, 47.413012657115999 ], [ -92.765289668401095, 47.412734130714099 ], [ -92.765934833689997, 47.412732825633398 ], [ -92.766506667423599, 47.412340275889399 ], [ -92.766430705119703, 47.412044198592803 ] ] } },
{ "type": "Feature", "properties": { "wmUplineSo": "IRON", "wmType": "Underground" }, "geometry": { "type": "LineString", "coordinates": [ [ -92.763342608312897, 47.4134007354223 ], [ -92.763563853386202, 47.413335931387401 ] ] } },
{ "type": "Feature", "properties": { "wmUplineSo": "IRON", "wmType": "Underground" }, "geometry": { "type": "LineString", "coordinates": [ [ -92.809247060920001, 47.393421084114301 ], [ -92.809418278755302, 47.394186349149102 ] ] } },
{ "type": "Feature", "properties": { "wmUplineSo": "IRON", "wmType": "Underground" }, "geometry": { "type": "LineString", "coordinates": [ [ -92.809418278755302, 47.394186349149102 ], [ -92.809429831444106, 47.394243364493903 ] ] } },
{ "type": "Feature", "properties": { "wmUplineSo": "IRON", "wmType": "Underground" }, "geometry": { "type": "LineString", "coordinates": [ [ -92.815468932953806, 47.400364040961001 ], [ -92.815388813667397, 47.400492884257403 ] ] } },
{ "type": "Feature", "properties": { "wmUplineSo": "IRON", "wmType": "Underground" }, "geometry": { "type": "LineString", "coordinates": [ [ -92.765942724846198, 47.418658343943598 ], [ -92.767628776735506, 47.4184023961161 ] ] } },
{ "type": "Feature", "properties": { "wmUplineSo": "IRON", "wmType": "Underground" }, "geometry": { "type": "LineString", "coordinates": [ [ -92.815504812147196, 47.400306342719396 ], [ -92.815468932953806, 47.400364040961001 ] ] } },
{ "type": "Feature", "properties": { "wmUplineSo": "IRON", "wmType": "Underground" }, "geometry": { "type": "LineString", "coordinates": [ [ -92.735376721280105, 47.400768438898297 ], [ -92.7346434090461, 47.400799270992103 ], [ -92.734642112999296, 47.399603326128101 ], [ -92.734175798001303, 47.399359266923199 ], [ -92.734260625877397, 47.399072235680897 ] ] } },
{ "type": "Feature", "properties": { "wmUplineSo": "IRON", "wmType": "Underground" }, "geometry": { "type": "LineString", "coordinates": [ [ -92.735409813074, 47.400759042722797 ], [ -92.735410742284003, 47.400767008254803 ], [ -92.735376721280105, 47.400768438898297 ] ] } },
{ "type": "Feature", "properties": { "wmUplineSo": "IRON", "wmType": "Underground" }, "geometry": { "type": "LineString", "coordinates": [ [ -92.795425967981799, 47.3989425493317 ], [ -92.795384968004598, 47.3988865493342 ] ] } },
{ "type": "Feature", "properties": { "wmUplineSo": "IRON", "wmType": "Underground" }, "geometry": { "type": "LineString", "coordinates": [ [ -92.765269994021807, 47.418188551615003 ], [ -92.765072994119706, 47.417845551626201 ] ] } },
{ "type": "Feature", "properties": { "wmUplineSo": "IRON", "wmType": "Underground" }, "geometry": { "type": "LineString", "coordinates": [ [ -92.803957962714094, 47.407095545118203 ], [ -92.803990280330893, 47.407113143919098 ] ] } },
{ "type": "Feature", "properties": { "wmUplineSo": "IRON", "wmType": "Underground" }, "geometry": { "type": "LineString", "coordinates": [ [ -92.788805144687998, 47.400389634452097 ], [ -92.788878731842701, 47.400384637853598 ] ] } },
{ "type": "Feature", "properties": { "wmUplineSo": "IRON", "wmType": "Underground" }, "geometry": { "type": "LineString", "coordinates": [ [ -92.788878731842701, 47.400384637853598 ], [ -92.791323848719301, 47.400218585994203 ] ] } },
{ "type": "Feature", "properties": { "wmUplineSo": "IRON", "wmType": "Underground" }, "geometry": { "type": "LineString", "coordinates": [ [ -92.833383271116006, 47.4034472666835 ], [ -92.833404361568, 47.403467815188101 ] ] } },
{ "type": "Feature", "properties": { "wmUplineSo": "IRON", "wmType": "Underground" }, "geometry": { "type": "LineString", "coordinates": [ [ -92.832658597911006, 47.403182192138601 ], [ -92.833383271116006, 47.4034472666835 ] ] } },
{ "type": "Feature", "properties": { "wmUplineSo": "IRON", "wmType": "Underground" }, "geometry": { "type": "LineString", "coordinates": [ [ -92.831989590851805, 47.403445322991303 ], [ -92.833383271116006, 47.4034472666835 ] ] } },
{ "type": "Feature", "properties": { "wmUplineSo": "IRON", "wmType": "Underground" }, "geometry": { "type": "LineString", "coordinates": [ [ -92.831989590851805, 47.403445322991303 ], [ -92.831943389447503, 47.403444472590003 ] ] } },
{ "type": "Feature", "properties": { "wmUplineSo": "IRON", "wmType": "Underground" }, "geometry": { "type": "LineString", "coordinates": [ [ -92.828949738156695, 47.403439489837197 ], [ -92.831989590851805, 47.403445322991303 ] ] } },
{ "type": "Feature", "properties": { "wmUplineSo": "IRON", "wmType": "Underground" }, "geometry": { "type": "LineString", "coordinates": [ [ -92.828949738156695, 47.403439489837197 ], [ -92.828945334608207, 47.403468522768399 ] ] } },
{ "type": "Feature", "properties": { "wmUplineSo": "IRON", "wmType": "Underground" }, "geometry": { "type": "LineString", "coordinates": [ [ -92.827854619860304, 47.403442859823798 ], [ -92.828949738156695, 47.403439489837197 ] ] } },
{ "type": "Feature", "properties": { "wmUplineSo": "IRON", "wmType": "Underground" }, "geometry": { "type": "LineString", "coordinates": [ [ -92.738414013578193, 47.411710553478002 ], [ -92.738410613596898, 47.411706649813297 ] ] } },
{ "type": "Feature", "properties": { "wmUplineSo": "IRON", "wmType": "Underground" }, "geometry": { "type": "LineString", "coordinates": [ [ -92.732118018674598, 47.413390550265802 ], [ -92.7321157134662, 47.4133228318614 ] ] } },
{ "type": "Feature", "properties": { "wmUplineSo": "IRON", "wmType": "Underground" }, "geometry": { "type": "LineString", "coordinates": [ [ -92.827842550537696, 47.403199562550697 ], [ -92.828983497289798, 47.403130004075798 ] ] } }
]
}
