{
"type": "FeatureCollection",
"crs": { "type": "name", "properties": { "name": "urn:ogc:def:crs:OGC:1.3:CRS84" } },
"features": [
{ "type": "Feature", "properties": { "wmUplineSo": "KEEWATIN", "wmType": "Underground" }, "geometry": { "type": "LineString", "coordinates": [ [ -92.916857416985707, 47.3805698244213 ], [ -92.916730738542796, 47.380517156442302 ] ] } },
{ "type": "Feature", "properties": { "wmUplineSo": "KEEWATIN", "wmType": "Underground" }, "geometry": { "type": "LineString", "coordinates": [ [ -92.915147639721098, 47.380696119741501 ], [ -92.915309604955794, 47.380551452931599 ] ] } },
{ "type": "Feature", "properties": { "wmUplineSo": "KEEWATIN", "wmType": "Underground" }, "geometry": { "type": "LineString", "coordinates": [ [ -92.914545400414795, 47.3806791725316 ], [ -92.914653905255406, 47.380505276738901 ] ] } },
{ "type": "Feature", "properties": { "wmUplineSo": "KEEWATIN", "wmType": "Underground" }, "geometry": { "type": "LineString", "coordinates": [ [ -92.913140093129599, 47.380565102338501 ], [ -92.913107961830605, 47.380416500448497 ] ] } },
{ "type": "Feature", "properties": { "wmUplineSo": "KEEWATIN", "wmType": "Underground" }, "geometry": { "type": "LineString", "coordinates": [ [ -92.912222982962902, 47.380489889126899 ], [ -92.912355109451198, 47.380382185881999 ] ] } },
{ "type": "Feature", "properties": { "wmUplineSo": "KEEWATIN", "wmType": "Underground" }, "geometry": { "type": "LineString", "coordinates": [ [ -92.9171395, 47.380135800009199 ], [ -92.917156618793996, 47.380026032478497 ], [ -92.917080510896795, 47.379946474499697 ], [ -92.916885247068805, 47.3799310823753 ], [ -92.916879574922703, 47.379928994448299 ] ] } },
{ "type": "Feature", "properties": { "wmUplineSo": "KEEWATIN", "wmType": "Underground" }, "geometry": { "type": "LineString", "coordinates": [ [ -92.915835472881199, 47.3802911818428 ], [ -92.915892878716093, 47.380463635764102 ] ] } },
{ "type": "Feature", "properties": { "wmUplineSo": "KEEWATIN", "wmType": "Underground" }, "geometry": { "type": "LineString", "coordinates": [ [ -92.9147629, 47.379995800009198 ], [ -92.914771119689505, 47.379798428416599 ] ] } },
{ "type": "Feature", "properties": { "wmUplineSo": "KEEWATIN", "wmType": "Underground" }, "geometry": { "type": "LineString", "coordinates": [ [ -92.9156571, 47.379999700009201 ], [ -92.915701559642798, 47.379838311696403 ] ] } },
{ "type": "Feature", "properties": { "wmUplineSo": "KEEWATIN", "wmType": "Underground" }, "geometry": { "type": "LineString", "coordinates": [ [ -92.913688611071393, 47.380162224951903 ], [ -92.913723656861805, 47.380327961714897 ] ] } },
{ "type": "Feature", "properties": { "wmUplineSo": "KEEWATIN", "wmType": "Underground" }, "geometry": { "type": "LineString", "coordinates": [ [ -92.913754058244294, 47.379898236304399 ], [ -92.913713242773994, 47.3797176210266 ] ] } },
{ "type": "Feature", "properties": { "wmUplineSo": "KEEWATIN", "wmType": "Underground" }, "geometry": { "type": "LineString", "coordinates": [ [ -92.9126022, 47.379846600009202 ], [ -92.912602441242498, 47.379657960880898 ] ] } },
{ "type": "Feature", "properties": { "wmUplineSo": "KEEWATIN", "wmType": "Underground" }, "geometry": { "type": "LineString", "coordinates": [ [ -92.912944295650107, 47.379169846790802 ], [ -92.912682967922706, 47.379196538014497 ] ] } },
{ "type": "Feature", "properties": { "wmUplineSo": "KEEWATIN", "wmType": "Underground" }, "geometry": { "type": "LineString", "coordinates": [ [ -92.917317485963494, 47.379257816078002 ], [ -92.917298355263, 47.379304404048597 ], [ -92.917043730211702, 47.379263874527503 ], [ -92.917022298152105, 47.3792627655342 ] ] } },
{ "type": "Feature", "properties": { "wmUplineSo": "KEEWATIN", "wmType": "Underground" }, "geometry": { "type": "LineString", "coordinates": [ [ -92.916143130737296, 47.379345428456404 ], [ -92.915926411837106, 47.3793723255367 ] ] } },
{ "type": "Feature", "properties": { "wmUplineSo": "KEEWATIN", "wmType": "Underground" }, "geometry": { "type": "LineString", "coordinates": [ [ -92.960194, 47.371725 ], [ -92.959946, 47.371737 ] ] } },
{ "type": "Feature", "properties": { "wmUplineSo": "KEEWATIN", "wmType": "Underground" }, "geometry": { "type": "LineString", "coordinates": [ [ -92.959946, 47.371737 ], [ -92.959234536434494, 47.371736011560003 ] ] } },
{ "type": "Feature", "properties": { "wmUplineSo": "KEEWATIN", "wmType": "Underground" }, "geometry": { "type": "LineString", "coordinates": [ [ -92.959234536434494, 47.371736011560003 ], [ -92.959238, 47.371955 ] ] } },
{ "type": "Feature", "properties": { "wmUplineSo": "KEEWATIN", "wmType": "Underground" }, "geometry": { "type": "LineString", "coordinates": [ [ -92.959238, 47.371955 ], [ -92.959246, 47.372209 ] ] } },
{ "type": "Feature", "properties": { "wmUplineSo": "KEEWATIN", "wmType": "Underground" }, "geometry": { "type": "LineString", "coordinates": [ [ -92.959246, 47.372209 ], [ -92.959250350383996, 47.372499804182603 ] ] } },
{ "type": "Feature", "properties": { "wmUplineSo": "KEEWATIN", "wmType": "Underground" }, "geometry": { "type": "LineString", "coordinates": [ [ -92.959250350383996, 47.372499804182603 ], [ -92.959110350322604, 47.372557804155001 ] ] } },
{ "type": "Feature", "properties": { "wmUplineSo": "KEEWATIN", "wmType": "Underground" }, "geometry": { "type": "LineString", "coordinates": [ [ -92.959110350322604, 47.372557804155001 ], [ -92.9591120091428, 47.372595167244498 ] ] } },
{ "type": "Feature", "properties": { "wmUplineSo": "KEEWATIN", "wmType": "Underground" }, "geometry": { "type": "LineString", "coordinates": [ [ -92.917244595479403, 47.378424349113097 ], [ -92.917145147529496, 47.3785936247602 ] ] } },
{ "type": "Feature", "properties": { "wmUplineSo": "KEEWATIN", "wmType": "Underground" }, "geometry": { "type": "LineString", "coordinates": [ [ -92.913408156563094, 47.385079975142503 ], [ -92.913406976227705, 47.385079854448598 ], [ -92.912661740025698, 47.3846265175181 ] ] } },
{ "type": "Feature", "properties": { "wmUplineSo": "KEEWATIN", "wmType": "Underground" }, "geometry": { "type": "LineString", "coordinates": [ [ -92.8948281, 47.369870800009203 ], [ -92.894897425462005, 47.369754344594398 ] ] } },
{ "type": "Feature", "properties": { "wmUplineSo": "KEEWATIN", "wmType": "Underground" }, "geometry": { "type": "LineString", "coordinates": [ [ -92.895134999993203, 47.3698520036627 ], [ -92.895857999993297, 47.370486003662798 ] ] } },
{ "type": "Feature", "properties": { "wmUplineSo": "KEEWATIN", "wmType": "Underground" }, "geometry": { "type": "LineString", "coordinates": [ [ -92.895857999993297, 47.370486003662798 ], [ -92.895882, 47.370407100009203 ] ] } },
{ "type": "Feature", "properties": { "wmUplineSo": "KEEWATIN", "wmType": "Underground" }, "geometry": { "type": "LineString", "coordinates": [ [ -92.895857999993297, 47.370486003662798 ], [ -92.895940953623295, 47.370480056786 ], [ -92.8962439415685, 47.370467138017901 ], [ -92.896372340049496, 47.370353790806497 ], [ -92.896473999993304, 47.370266003662699 ] ] } },
{ "type": "Feature", "properties": { "wmUplineSo": "KEEWATIN", "wmType": "Underground" }, "geometry": { "type": "LineString", "coordinates": [ [ -92.894897425462005, 47.369754344594398 ], [ -92.895134999993203, 47.3698520036627 ] ] } },
{ "type": "Feature", "properties": { "wmUplineSo": "KEEWATIN", "wmType": "Underground" }, "geometry": { "type": "LineString", "coordinates": [ [ -92.826421999988895, 47.340414003654502 ], [ -92.826214999988906, 47.340240003654301 ] ] } },
{ "type": "Feature", "properties": { "wmUplineSo": "KEEWATIN", "wmType": "Underground" }, "geometry": { "type": "LineString", "coordinates": [ [ -92.826214999988906, 47.340240003654301 ], [ -92.826153510140202, 47.339900386034699 ] ] } },
{ "type": "Feature", "properties": { "wmUplineSo": "KEEWATIN", "wmType": "Underground" }, "geometry": { "type": "LineString", "coordinates": [ [ -92.969769890396293, 47.383751041986898 ], [ -92.969656999997895, 47.3836680036665 ] ] } },
{ "type": "Feature", "properties": { "wmUplineSo": "KEEWATIN", "wmType": "Underground" }, "geometry": { "type": "LineString", "coordinates": [ [ -92.969656999997895, 47.3836680036665 ], [ -92.968784999997794, 47.383510003666402 ] ] } },
{ "type": "Feature", "properties": { "wmUplineSo": "KEEWATIN", "wmType": "Underground" }, "geometry": { "type": "LineString", "coordinates": [ [ -92.968784999997794, 47.383510003666402 ], [ -92.968232999997795, 47.383392003666401 ] ] } },
{ "type": "Feature", "properties": { "wmUplineSo": "KEEWATIN", "wmType": "Underground" }, "geometry": { "type": "LineString", "coordinates": [ [ -92.968232999997795, 47.383392003666401 ], [ -92.9682274, 47.383420900009199 ] ] } },
{ "type": "Feature", "properties": { "wmUplineSo": "KEEWATIN", "wmType": "Underground" }, "geometry": { "type": "LineString", "coordinates": [ [ -92.917436764158197, 47.379490954674601 ], [ -92.917418999994595, 47.379519003665202 ] ] } },
{ "type": "Feature", "properties": { "wmUplineSo": "KEEWATIN", "wmType": "Underground" }, "geometry": { "type": "LineString", "coordinates": [ [ -92.917418999994595, 47.379519003665202 ], [ -92.917563255093299, 47.3795288554035 ] ] } },
{ "type": "Feature", "properties": { "wmUplineSo": "KEEWATIN", "wmType": "Underground" }, "geometry": { "type": "LineString", "coordinates": [ [ -92.917828999994597, 47.379547003665401 ], [ -92.918047999994698, 47.379594003665403 ] ] } },
{ "type": "Feature", "properties": { "wmUplineSo": "KEEWATIN", "wmType": "Underground" }, "geometry": { "type": "LineString", "coordinates": [ [ -92.918047999994698, 47.379594003665403 ], [ -92.9186099999947, 47.379670003665296 ] ] } },
{ "type": "Feature", "properties": { "wmUplineSo": "KEEWATIN", "wmType": "Underground" }, "geometry": { "type": "LineString", "coordinates": [ [ -92.9186099999947, 47.379670003665296 ], [ -92.919141999994693, 47.379709003665297 ] ] } },
{ "type": "Feature", "properties": { "wmUplineSo": "KEEWATIN", "wmType": "Underground" }, "geometry": { "type": "LineString", "coordinates": [ [ -92.919141999994693, 47.379709003665297 ], [ -92.919722999994704, 47.379729003665197 ] ] } },
{ "type": "Feature", "properties": { "wmUplineSo": "KEEWATIN", "wmType": "Underground" }, "geometry": { "type": "LineString", "coordinates": [ [ -92.919722999994704, 47.379729003665197 ], [ -92.920959999994807, 47.380058003665297 ] ] } },
{ "type": "Feature", "properties": { "wmUplineSo": "KEEWATIN", "wmType": "Underground" }, "geometry": { "type": "LineString", "coordinates": [ [ -92.920959999994807, 47.380058003665297 ], [ -92.921681999994902, 47.379551003665298 ] ] } },
{ "type": "Feature", "properties": { "wmUplineSo": "KEEWATIN", "wmType": "Underground" }, "geometry": { "type": "LineString", "coordinates": [ [ -92.921681999994902, 47.379551003665298 ], [ -92.922066999994897, 47.379434003665303 ] ] } },
{ "type": "Feature", "properties": { "wmUplineSo": "KEEWATIN", "wmType": "Underground" }, "geometry": { "type": "LineString", "coordinates": [ [ -92.922066999994897, 47.379434003665303 ], [ -92.922640999994897, 47.379244003665299 ] ] } },
{ "type": "Feature", "properties": { "wmUplineSo": "KEEWATIN", "wmType": "Underground" }, "geometry": { "type": "LineString", "coordinates": [ [ -92.922640999994897, 47.379244003665299 ], [ -92.922671, 47.379248300009202 ] ] } },
{ "type": "Feature", "properties": { "wmUplineSo": "KEEWATIN", "wmType": "Underground" }, "geometry": { "type": "LineString", "coordinates": [ [ -92.917563255093299, 47.3795288554035 ], [ -92.917828999994597, 47.379547003665401 ] ] } },
{ "type": "Feature", "properties": { "wmUplineSo": "KEEWATIN", "wmType": "Underground" }, "geometry": { "type": "LineString", "coordinates": [ [ -92.826529999989006, 47.322963003649598 ], [ -92.8265565, 47.3229171000091 ] ] } },
{ "type": "Feature", "properties": { "wmUplineSo": "KEEWATIN", "wmType": "Underground" }, "geometry": { "type": "LineString", "coordinates": [ [ -92.827760999988996, 47.323436003649597 ], [ -92.827413260048999, 47.323293857546602 ] ] } },
{ "type": "Feature", "properties": { "wmUplineSo": "KEEWATIN", "wmType": "Underground" }, "geometry": { "type": "LineString", "coordinates": [ [ -92.827413260048999, 47.323293857546602 ], [ -92.826694999989002, 47.322990003649601 ] ] } },
{ "type": "Feature", "properties": { "wmUplineSo": "KEEWATIN", "wmType": "Underground" }, "geometry": { "type": "LineString", "coordinates": [ [ -92.828962999989102, 47.323517003649798 ], [ -92.828739999989097, 47.3234630036496 ] ] } },
{ "type": "Feature", "properties": { "wmUplineSo": "KEEWATIN", "wmType": "Underground" }, "geometry": { "type": "LineString", "coordinates": [ [ -92.838463693212503, 47.283042222532899 ], [ -92.838066999989707, 47.287825003639803 ] ] } },
{ "type": "Feature", "properties": { "wmUplineSo": "KEEWATIN", "wmType": "Underground" }, "geometry": { "type": "LineString", "coordinates": [ [ -92.838066999989707, 47.287825003639803 ], [ -92.836964999989604, 47.288238003639897 ] ] } },
{ "type": "Feature", "properties": { "wmUplineSo": "KEEWATIN", "wmType": "Underground" }, "geometry": { "type": "LineString", "coordinates": [ [ -92.836964999989604, 47.288238003639897 ], [ -92.835899999989607, 47.288457003640097 ] ] } },
{ "type": "Feature", "properties": { "wmUplineSo": "KEEWATIN", "wmType": "Underground" }, "geometry": { "type": "LineString", "coordinates": [ [ -92.835899999989607, 47.288457003640097 ], [ -92.8359504, 47.288492300009104 ] ] } },
{ "type": "Feature", "properties": { "wmUplineSo": "KEEWATIN", "wmType": "Underground" }, "geometry": { "type": "LineString", "coordinates": [ [ -92.913188081710999, 47.379271452454098 ], [ -92.913391203986293, 47.379355171110099 ] ] } },
{ "type": "Feature", "properties": { "wmUplineSo": "KEEWATIN", "wmType": "Underground" }, "geometry": { "type": "LineString", "coordinates": [ [ -92.852484985673101, 47.365567947419798 ], [ -92.852504269785101, 47.365573221880403 ], [ -92.858048224921504, 47.365625549714899 ], [ -92.858033212103095, 47.365807445271798 ], [ -92.858064714055999, 47.365826544909098 ] ] } },
{ "type": "Feature", "properties": { "wmUplineSo": "KEEWATIN", "wmType": "Underground" }, "geometry": { "type": "LineString", "coordinates": [ [ -92.849806, 47.334727999999899 ], [ -92.849777, 47.334701 ] ] } },
{ "type": "Feature", "properties": { "wmUplineSo": "KEEWATIN", "wmType": "Underground" }, "geometry": { "type": "LineString", "coordinates": [ [ -92.912341337454805, 47.379101459848798 ], [ -92.912368904145396, 47.378964348591502 ] ] } },
{ "type": "Feature", "properties": { "wmUplineSo": "KEEWATIN", "wmType": "Underground" }, "geometry": { "type": "LineString", "coordinates": [ [ -92.838472999989705, 47.282930003638498 ], [ -92.838463693212503, 47.283042222532899 ] ] } },
{ "type": "Feature", "properties": { "wmUplineSo": "KEEWATIN", "wmType": "Underground" }, "geometry": { "type": "LineString", "coordinates": [ [ -92.923353723493193, 47.371528862930802 ], [ -92.923484455947104, 47.371017645234097 ] ] } },
{ "type": "Feature", "properties": { "wmUplineSo": "KEEWATIN", "wmType": "Underground" }, "geometry": { "type": "LineString", "coordinates": [ [ -92.923484455947104, 47.371017645234097 ], [ -92.923732, 47.371110100009197 ] ] } },
{ "type": "Feature", "properties": { "wmUplineSo": "KEEWATIN", "wmType": "Underground" }, "geometry": { "type": "LineString", "coordinates": [ [ -92.912976050427801, 47.379042737802401 ], [ -92.913005753715595, 47.3788842010851 ] ] } },
{ "type": "Feature", "properties": { "wmUplineSo": "KEEWATIN", "wmType": "Underground" }, "geometry": { "type": "LineString", "coordinates": [ [ -92.915609279635405, 47.383496885832599 ], [ -92.916490942322994, 47.3836452065093 ] ] } },
{ "type": "Feature", "properties": { "wmUplineSo": "KEEWATIN", "wmType": "Underground" }, "geometry": { "type": "LineString", "coordinates": [ [ -92.828176999988997, 47.323447003649797 ], [ -92.827760999988996, 47.323436003649597 ] ] } },
{ "type": "Feature", "properties": { "wmUplineSo": "KEEWATIN", "wmType": "Underground" }, "geometry": { "type": "LineString", "coordinates": [ [ -92.848835, 47.335853999999898 ], [ -92.848836420142305, 47.335853783735999 ], [ -92.849032, 47.335824 ] ] } },
{ "type": "Feature", "properties": { "wmUplineSo": "KEEWATIN", "wmType": "Underground" }, "geometry": { "type": "LineString", "coordinates": [ [ -92.849032, 47.335824 ], [ -92.849105, 47.335611 ] ] } },
{ "type": "Feature", "properties": { "wmUplineSo": "KEEWATIN", "wmType": "Underground" }, "geometry": { "type": "LineString", "coordinates": [ [ -92.849105, 47.335611 ], [ -92.849394, 47.33526 ] ] } },
{ "type": "Feature", "properties": { "wmUplineSo": "KEEWATIN", "wmType": "Underground" }, "geometry": { "type": "LineString", "coordinates": [ [ -92.849394, 47.33526 ], [ -92.849554, 47.335116 ] ] } },
{ "type": "Feature", "properties": { "wmUplineSo": "KEEWATIN", "wmType": "Underground" }, "geometry": { "type": "LineString", "coordinates": [ [ -92.849554, 47.335116 ], [ -92.84981, 47.334936 ] ] } },
{ "type": "Feature", "properties": { "wmUplineSo": "KEEWATIN", "wmType": "Underground" }, "geometry": { "type": "LineString", "coordinates": [ [ -92.84981, 47.334936 ], [ -92.84994, 47.334812 ] ] } },
{ "type": "Feature", "properties": { "wmUplineSo": "KEEWATIN", "wmType": "Underground" }, "geometry": { "type": "LineString", "coordinates": [ [ -92.969989, 47.367847 ], [ -92.969734, 47.367845000000102 ] ] } },
{ "type": "Feature", "properties": { "wmUplineSo": "KEEWATIN", "wmType": "Underground" }, "geometry": { "type": "LineString", "coordinates": [ [ -92.969734, 47.367845000000102 ], [ -92.969369, 47.367822 ] ] } },
{ "type": "Feature", "properties": { "wmUplineSo": "KEEWATIN", "wmType": "Underground" }, "geometry": { "type": "LineString", "coordinates": [ [ -92.969369, 47.367822 ], [ -92.968805, 47.367943000000103 ] ] } },
{ "type": "Feature", "properties": { "wmUplineSo": "KEEWATIN", "wmType": "Underground" }, "geometry": { "type": "LineString", "coordinates": [ [ -92.968805, 47.367943000000103 ], [ -92.968616, 47.367807999999897 ] ] } },
{ "type": "Feature", "properties": { "wmUplineSo": "KEEWATIN", "wmType": "Underground" }, "geometry": { "type": "LineString", "coordinates": [ [ -92.968616, 47.367807999999897 ], [ -92.96843, 47.367679 ] ] } },
{ "type": "Feature", "properties": { "wmUplineSo": "KEEWATIN", "wmType": "Underground" }, "geometry": { "type": "LineString", "coordinates": [ [ -92.96843, 47.367679 ], [ -92.968397, 47.367682000000102 ] ] } },
{ "type": "Feature", "properties": { "wmUplineSo": "KEEWATIN", "wmType": "Underground" }, "geometry": { "type": "LineString", "coordinates": [ [ -92.826694999989002, 47.322990003649601 ], [ -92.826529999989006, 47.322963003649598 ] ] } },
{ "type": "Feature", "properties": { "wmUplineSo": "KEEWATIN", "wmType": "Underground" }, "geometry": { "type": "LineString", "coordinates": [ [ -92.805878999987598, 47.371837003663003 ], [ -92.805908999987594, 47.371912003663297 ] ] } },
{ "type": "Feature", "properties": { "wmUplineSo": "KEEWATIN", "wmType": "Underground" }, "geometry": { "type": "LineString", "coordinates": [ [ -92.826153510140202, 47.339900386034699 ], [ -92.826172999988898, 47.3393740036542 ] ] } },
{ "type": "Feature", "properties": { "wmUplineSo": "KEEWATIN", "wmType": "Underground" }, "geometry": { "type": "LineString", "coordinates": [ [ -92.916558243857907, 47.379496910232 ], [ -92.916512446589493, 47.379643294207597 ] ] } },
{ "type": "Feature", "properties": { "wmUplineSo": "KEEWATIN", "wmType": "Underground" }, "geometry": { "type": "LineString", "coordinates": [ [ -92.916128940529603, 47.379452552703199 ], [ -92.916102376695406, 47.379626329434998 ] ] } },
{ "type": "Feature", "properties": { "wmUplineSo": "KEEWATIN", "wmType": "Underground" }, "geometry": { "type": "LineString", "coordinates": [ [ -92.915323, 47.379343 ], [ -92.915132581330795, 47.379408772717198 ] ] } },
{ "type": "Feature", "properties": { "wmUplineSo": "KEEWATIN", "wmType": "Underground" }, "geometry": { "type": "LineString", "coordinates": [ [ -92.915172497850605, 47.379263634849899 ], [ -92.915198898032202, 47.379104276113097 ] ] } },
{ "type": "Feature", "properties": { "wmUplineSo": "KEEWATIN", "wmType": "Underground" }, "geometry": { "type": "LineString", "coordinates": [ [ -92.915323, 47.379343 ], [ -92.915328451874601, 47.379229645612803 ] ] } },
{ "type": "Feature", "properties": { "wmUplineSo": "KEEWATIN", "wmType": "Underground" }, "geometry": { "type": "LineString", "coordinates": [ [ -92.915323, 47.379343 ], [ -92.915172497850605, 47.379263634849899 ] ] } },
{ "type": "Feature", "properties": { "wmUplineSo": "KEEWATIN", "wmType": "Underground" }, "geometry": { "type": "LineString", "coordinates": [ [ -92.915530211544294, 47.379312645241498 ], [ -92.915584373048802, 47.379155747170302 ] ] } },
{ "type": "Feature", "properties": { "wmUplineSo": "KEEWATIN", "wmType": "Underground" }, "geometry": { "type": "LineString", "coordinates": [ [ -92.915323, 47.379343 ], [ -92.9155047844432, 47.379431903055597 ] ] } },
{ "type": "Feature", "properties": { "wmUplineSo": "KEEWATIN", "wmType": "Underground" }, "geometry": { "type": "LineString", "coordinates": [ [ -92.9155047844432, 47.379431903055597 ], [ -92.915483850958694, 47.3795485000757 ] ] } },
{ "type": "Feature", "properties": { "wmUplineSo": "KEEWATIN", "wmType": "Underground" }, "geometry": { "type": "LineString", "coordinates": [ [ -92.912826950278301, 47.380007169462097 ], [ -92.912795231461601, 47.380111899184399 ] ] } },
{ "type": "Feature", "properties": { "wmUplineSo": "KEEWATIN", "wmType": "Underground" }, "geometry": { "type": "LineString", "coordinates": [ [ -92.9152317, 47.379994500009197 ], [ -92.9154779039619, 47.379992142816597 ] ] } },
{ "type": "Feature", "properties": { "wmUplineSo": "KEEWATIN", "wmType": "Underground" }, "geometry": { "type": "LineString", "coordinates": [ [ -92.915117949122006, 47.3801470406965 ], [ -92.9150466922855, 47.379992714064798 ] ] } },
{ "type": "Feature", "properties": { "wmUplineSo": "KEEWATIN", "wmType": "Underground" }, "geometry": { "type": "LineString", "coordinates": [ [ -92.914026024028104, 47.3800562961964 ], [ -92.914157803272104, 47.379925680125297 ] ] } },
{ "type": "Feature", "properties": { "wmUplineSo": "KEEWATIN", "wmType": "Underground" }, "geometry": { "type": "LineString", "coordinates": [ [ -92.913962238749704, 47.379912677358 ], [ -92.913754058244294, 47.379898236304399 ] ] } },
{ "type": "Feature", "properties": { "wmUplineSo": "KEEWATIN", "wmType": "Underground" }, "geometry": { "type": "LineString", "coordinates": [ [ -92.915424218891403, 47.3787686945264 ], [ -92.9152108833282, 47.378674655241198 ] ] } },
{ "type": "Feature", "properties": { "wmUplineSo": "KEEWATIN", "wmType": "Underground" }, "geometry": { "type": "LineString", "coordinates": [ [ -92.915424218891403, 47.3787686945264 ], [ -92.915231638782899, 47.378846086015599 ] ] } },
{ "type": "Feature", "properties": { "wmUplineSo": "KEEWATIN", "wmType": "Underground" }, "geometry": { "type": "LineString", "coordinates": [ [ -92.915231638782899, 47.378846086015599 ], [ -92.915205110478595, 47.3789960548877 ] ] } },
{ "type": "Feature", "properties": { "wmUplineSo": "KEEWATIN", "wmType": "Underground" }, "geometry": { "type": "LineString", "coordinates": [ [ -92.915636702046399, 47.378852832751399 ], [ -92.915622431182598, 47.3790099530489 ] ] } },
{ "type": "Feature", "properties": { "wmUplineSo": "KEEWATIN", "wmType": "Underground" }, "geometry": { "type": "LineString", "coordinates": [ [ -92.915424218891403, 47.3787686945264 ], [ -92.915636702046399, 47.378852832751399 ] ] } },
{ "type": "Feature", "properties": { "wmUplineSo": "KEEWATIN", "wmType": "Underground" }, "geometry": { "type": "LineString", "coordinates": [ [ -92.915424218891403, 47.3787686945264 ], [ -92.915645582880003, 47.378719198743703 ] ] } },
{ "type": "Feature", "properties": { "wmUplineSo": "KEEWATIN", "wmType": "Underground" }, "geometry": { "type": "LineString", "coordinates": [ [ -92.916503494094002, 47.3788146845136 ], [ -92.916277407206394, 47.378661055321601 ] ] } },
{ "type": "Feature", "properties": { "wmUplineSo": "KEEWATIN", "wmType": "Underground" }, "geometry": { "type": "LineString", "coordinates": [ [ -92.916503494094002, 47.3788146845136 ], [ -92.916232723628099, 47.378840389745399 ] ] } },
{ "type": "Feature", "properties": { "wmUplineSo": "KEEWATIN", "wmType": "Underground" }, "geometry": { "type": "LineString", "coordinates": [ [ -92.916503494094002, 47.3788146845136 ], [ -92.916580323307599, 47.378684732834301 ] ] } },
{ "type": "Feature", "properties": { "wmUplineSo": "KEEWATIN", "wmType": "Underground" }, "geometry": { "type": "LineString", "coordinates": [ [ -92.916503494094002, 47.3788146845136 ], [ -92.916493759001995, 47.3786758309286 ] ] } },
{ "type": "Feature", "properties": { "wmUplineSo": "KEEWATIN", "wmType": "Underground" }, "geometry": { "type": "LineString", "coordinates": [ [ -92.916503494094002, 47.3788146845136 ], [ -92.916374602945993, 47.378666220986503 ] ] } },
{ "type": "Feature", "properties": { "wmUplineSo": "KEEWATIN", "wmType": "Underground" }, "geometry": { "type": "LineString", "coordinates": [ [ -92.916612924784602, 47.378936206341002 ], [ -92.916580794576404, 47.379139001622903 ] ] } },
{ "type": "Feature", "properties": { "wmUplineSo": "KEEWATIN", "wmType": "Underground" }, "geometry": { "type": "LineString", "coordinates": [ [ -92.916503494094002, 47.3788146845136 ], [ -92.916628041513107, 47.378873056406903 ] ] } },
{ "type": "Feature", "properties": { "wmUplineSo": "KEEWATIN", "wmType": "Underground" }, "geometry": { "type": "LineString", "coordinates": [ [ -92.916503494094002, 47.3788146845136 ], [ -92.9166590359808, 47.378777848154797 ] ] } },
{ "type": "Feature", "properties": { "wmUplineSo": "KEEWATIN", "wmType": "Underground" }, "geometry": { "type": "LineString", "coordinates": [ [ -92.913267367595296, 47.378687976978 ], [ -92.913493350397601, 47.378621495018201 ] ] } },
{ "type": "Feature", "properties": { "wmUplineSo": "KEEWATIN", "wmType": "Underground" }, "geometry": { "type": "LineString", "coordinates": [ [ -92.917353424501201, 47.378562597719103 ], [ -92.917244595479403, 47.378424349113097 ] ] } },
{ "type": "Feature", "properties": { "wmUplineSo": "KEEWATIN", "wmType": "Underground" }, "geometry": { "type": "LineString", "coordinates": [ [ -92.917311057113693, 47.378758980675698 ], [ -92.917330478097199, 47.378667335046003 ] ] } },
{ "type": "Feature", "properties": { "wmUplineSo": "KEEWATIN", "wmType": "Underground" }, "geometry": { "type": "LineString", "coordinates": [ [ -92.912268441945002, 47.380679357162002 ], [ -92.912422971999604, 47.380496632260602 ] ] } },
{ "type": "Feature", "properties": { "wmUplineSo": "KEEWATIN", "wmType": "Underground" }, "geometry": { "type": "LineString", "coordinates": [ [ -92.912268441945002, 47.380679357162002 ], [ -92.912222982962902, 47.380489889126899 ] ] } },
{ "type": "Feature", "properties": { "wmUplineSo": "KEEWATIN", "wmType": "Underground" }, "geometry": { "type": "LineString", "coordinates": [ [ -92.912463827823103, 47.383284171617497 ], [ -92.9126306, 47.3832465000092 ] ] } },
{ "type": "Feature", "properties": { "wmUplineSo": "KEEWATIN", "wmType": "Underground" }, "geometry": { "type": "LineString", "coordinates": [ [ -92.913140093129599, 47.380565102338501 ], [ -92.912709020043096, 47.380527634900297 ] ] } },
{ "type": "Feature", "properties": { "wmUplineSo": "KEEWATIN", "wmType": "Underground" }, "geometry": { "type": "LineString", "coordinates": [ [ -92.912422971999604, 47.380496632260602 ], [ -92.9125756, 47.380507400009201 ] ] } },
{ "type": "Feature", "properties": { "wmUplineSo": "KEEWATIN", "wmType": "Underground" }, "geometry": { "type": "LineString", "coordinates": [ [ -92.912222982962902, 47.380489889126899 ], [ -92.912100459917596, 47.380492274170798 ] ] } },
{ "type": "Feature", "properties": { "wmUplineSo": "KEEWATIN", "wmType": "Underground" }, "geometry": { "type": "LineString", "coordinates": [ [ -92.917262863531107, 47.379477770365597 ], [ -92.917238462703907, 47.379583448320503 ] ] } },
{ "type": "Feature", "properties": { "wmUplineSo": "KEEWATIN", "wmType": "Underground" }, "geometry": { "type": "LineString", "coordinates": [ [ -92.917238462703907, 47.379583448320503 ], [ -92.917204602109393, 47.379718651571402 ] ] } },
{ "type": "Feature", "properties": { "wmUplineSo": "KEEWATIN", "wmType": "Underground" }, "geometry": { "type": "LineString", "coordinates": [ [ -92.917299420665302, 47.379411135199298 ], [ -92.917317485963494, 47.379257816078002 ] ] } },
{ "type": "Feature", "properties": { "wmUplineSo": "KEEWATIN", "wmType": "Underground" }, "geometry": { "type": "LineString", "coordinates": [ [ -92.917317485963494, 47.379257816078002 ], [ -92.917320566928197, 47.3790806890417 ] ] } },
{ "type": "Feature", "properties": { "wmUplineSo": "KEEWATIN", "wmType": "Underground" }, "geometry": { "type": "LineString", "coordinates": [ [ -92.917262863531107, 47.379477770365597 ], [ -92.917299420665302, 47.379411135199298 ] ] } },
{ "type": "Feature", "properties": { "wmUplineSo": "KEEWATIN", "wmType": "Underground" }, "geometry": { "type": "LineString", "coordinates": [ [ -92.916346306588906, 47.379420571143598 ], [ -92.916583753479799, 47.379396388773799 ] ] } },
{ "type": "Feature", "properties": { "wmUplineSo": "KEEWATIN", "wmType": "Underground" }, "geometry": { "type": "LineString", "coordinates": [ [ -92.916143130737296, 47.379345428456404 ], [ -92.916160594244801, 47.379235544779 ] ] } },
{ "type": "Feature", "properties": { "wmUplineSo": "KEEWATIN", "wmType": "Underground" }, "geometry": { "type": "LineString", "coordinates": [ [ -92.916346306588906, 47.379420571143598 ], [ -92.916143130737296, 47.379345428456404 ] ] } },
{ "type": "Feature", "properties": { "wmUplineSo": "KEEWATIN", "wmType": "Underground" }, "geometry": { "type": "LineString", "coordinates": [ [ -92.916346306588906, 47.379420571143598 ], [ -92.916128940529603, 47.379452552703199 ] ] } },
{ "type": "Feature", "properties": { "wmUplineSo": "KEEWATIN", "wmType": "Underground" }, "geometry": { "type": "LineString", "coordinates": [ [ -92.916346306588906, 47.379420571143598 ], [ -92.916558243857907, 47.379496910232 ] ] } },
{ "type": "Feature", "properties": { "wmUplineSo": "KEEWATIN", "wmType": "Underground" }, "geometry": { "type": "LineString", "coordinates": [ [ -92.916583753479799, 47.379396388773799 ], [ -92.916601464718596, 47.379278553568497 ] ] } },
{ "type": "Feature", "properties": { "wmUplineSo": "KEEWATIN", "wmType": "Underground" }, "geometry": { "type": "LineString", "coordinates": [ [ -92.914183221682293, 47.379334383358199 ], [ -92.913980878495906, 47.379395893632903 ] ] } },
{ "type": "Feature", "properties": { "wmUplineSo": "KEEWATIN", "wmType": "Underground" }, "geometry": { "type": "LineString", "coordinates": [ [ -92.914183221682293, 47.379334383358199 ], [ -92.914431498947494, 47.379261717405498 ] ] } },
{ "type": "Feature", "properties": { "wmUplineSo": "KEEWATIN", "wmType": "Underground" }, "geometry": { "type": "LineString", "coordinates": [ [ -92.915132581330795, 47.379408772717198 ], [ -92.915094805026399, 47.379536308735702 ] ] } },
{ "type": "Feature", "properties": { "wmUplineSo": "KEEWATIN", "wmType": "Underground" }, "geometry": { "type": "LineString", "coordinates": [ [ -92.914183221682293, 47.379334383358199 ], [ -92.914387078375498, 47.379420243490898 ] ] } },
{ "type": "Feature", "properties": { "wmUplineSo": "KEEWATIN", "wmType": "Underground" }, "geometry": { "type": "LineString", "coordinates": [ [ -92.914431498947494, 47.379261717405498 ], [ -92.914469584731705, 47.3791188996519 ] ] } },
{ "type": "Feature", "properties": { "wmUplineSo": "KEEWATIN", "wmType": "Underground" }, "geometry": { "type": "LineString", "coordinates": [ [ -92.914183221682293, 47.379334383358199 ], [ -92.914015124337496, 47.379244264304504 ] ] } },
{ "type": "Feature", "properties": { "wmUplineSo": "KEEWATIN", "wmType": "Underground" }, "geometry": { "type": "LineString", "coordinates": [ [ -92.914015124337496, 47.379244264304504 ], [ -92.914053222066201, 47.379094780542601 ] ] } },
{ "type": "Feature", "properties": { "wmUplineSo": "KEEWATIN", "wmType": "Underground" }, "geometry": { "type": "LineString", "coordinates": [ [ -92.913980878495906, 47.379395893632903 ], [ -92.913947399329501, 47.379507050441603 ] ] } },
{ "type": "Feature", "properties": { "wmUplineSo": "KEEWATIN", "wmType": "Underground" }, "geometry": { "type": "LineString", "coordinates": [ [ -92.913188081710999, 47.379271452454098 ], [ -92.913404138018706, 47.379162338545001 ] ] } },
{ "type": "Feature", "properties": { "wmUplineSo": "KEEWATIN", "wmType": "Underground" }, "geometry": { "type": "LineString", "coordinates": [ [ -92.913391203986293, 47.379355171110099 ], [ -92.913370688474302, 47.379490145239899 ] ] } },
{ "type": "Feature", "properties": { "wmUplineSo": "KEEWATIN", "wmType": "Underground" }, "geometry": { "type": "LineString", "coordinates": [ [ -92.912864121280194, 47.379326916669299 ], [ -92.912842876605794, 47.379456890535202 ] ] } },
{ "type": "Feature", "properties": { "wmUplineSo": "KEEWATIN", "wmType": "Underground" }, "geometry": { "type": "LineString", "coordinates": [ [ -92.913188081710999, 47.379271452454098 ], [ -92.912864121280194, 47.379326916669299 ] ] } },
{ "type": "Feature", "properties": { "wmUplineSo": "KEEWATIN", "wmType": "Underground" }, "geometry": { "type": "LineString", "coordinates": [ [ -92.913188081710999, 47.379271452454098 ], [ -92.912944295650107, 47.379169846790802 ] ] } },
{ "type": "Feature", "properties": { "wmUplineSo": "KEEWATIN", "wmType": "Underground" }, "geometry": { "type": "LineString", "coordinates": [ [ -92.912944295650107, 47.379169846790802 ], [ -92.912976050427801, 47.379042737802401 ] ] } },
{ "type": "Feature", "properties": { "wmUplineSo": "KEEWATIN", "wmType": "Underground" }, "geometry": { "type": "LineString", "coordinates": [ [ -92.913404138018706, 47.379162338545001 ], [ -92.913423973301505, 47.379057361585701 ] ] } },
{ "type": "Feature", "properties": { "wmUplineSo": "KEEWATIN", "wmType": "Underground" }, "geometry": { "type": "LineString", "coordinates": [ [ -92.912305308713101, 47.379268562319901 ], [ -92.912279813945602, 47.379424245142403 ] ] } },
{ "type": "Feature", "properties": { "wmUplineSo": "KEEWATIN", "wmType": "Underground" }, "geometry": { "type": "LineString", "coordinates": [ [ -92.912473991114894, 47.379227769002803 ], [ -92.912305308713101, 47.379268562319901 ] ] } },
{ "type": "Feature", "properties": { "wmUplineSo": "KEEWATIN", "wmType": "Underground" }, "geometry": { "type": "LineString", "coordinates": [ [ -92.912473991114894, 47.379227769002803 ], [ -92.912341337454805, 47.379101459848798 ] ] } },
{ "type": "Feature", "properties": { "wmUplineSo": "KEEWATIN", "wmType": "Underground" }, "geometry": { "type": "LineString", "coordinates": [ [ -92.912368904145396, 47.378964348591502 ], [ -92.912387465192197, 47.378810865436698 ] ] } },
{ "type": "Feature", "properties": { "wmUplineSo": "KEEWATIN", "wmType": "Underground" }, "geometry": { "type": "LineString", "coordinates": [ [ -92.913267367595296, 47.378687976978 ], [ -92.913462, 47.3787277000092 ] ] } },
{ "type": "Feature", "properties": { "wmUplineSo": "KEEWATIN", "wmType": "Underground" }, "geometry": { "type": "LineString", "coordinates": [ [ -92.913493350397601, 47.378621495018201 ], [ -92.913499235683005, 47.378451988643398 ] ] } },
{ "type": "Feature", "properties": { "wmUplineSo": "KEEWATIN", "wmType": "Underground" }, "geometry": { "type": "LineString", "coordinates": [ [ -92.913462, 47.3787277000092 ], [ -92.913451576901906, 47.378895966243903 ] ] } },
{ "type": "Feature", "properties": { "wmUplineSo": "KEEWATIN", "wmType": "Underground" }, "geometry": { "type": "LineString", "coordinates": [ [ -92.914356675350305, 47.3787145606533 ], [ -92.9141399088074, 47.378810105446298 ] ] } },
{ "type": "Feature", "properties": { "wmUplineSo": "KEEWATIN", "wmType": "Underground" }, "geometry": { "type": "LineString", "coordinates": [ [ -92.9141399088074, 47.378810105446298 ], [ -92.914116538931196, 47.3789557910479 ] ] } },
{ "type": "Feature", "properties": { "wmUplineSo": "KEEWATIN", "wmType": "Underground" }, "geometry": { "type": "LineString", "coordinates": [ [ -92.914515415242505, 47.378806705956698 ], [ -92.914484548511794, 47.3789689223266 ] ] } },
{ "type": "Feature", "properties": { "wmUplineSo": "KEEWATIN", "wmType": "Underground" }, "geometry": { "type": "LineString", "coordinates": [ [ -92.914356675350305, 47.3787145606533 ], [ -92.914535503700193, 47.378670411799099 ] ] } },
{ "type": "Feature", "properties": { "wmUplineSo": "KEEWATIN", "wmType": "Underground" }, "geometry": { "type": "LineString", "coordinates": [ [ -92.914356675350305, 47.3787145606533 ], [ -92.914515415242505, 47.378806705956698 ] ] } },
{ "type": "Feature", "properties": { "wmUplineSo": "KEEWATIN", "wmType": "Underground" }, "geometry": { "type": "LineString", "coordinates": [ [ -92.914356675350305, 47.3787145606533 ], [ -92.914169610793394, 47.378650139958403 ] ] } },
{ "type": "Feature", "properties": { "wmUplineSo": "KEEWATIN", "wmType": "Underground" }, "geometry": { "type": "LineString", "coordinates": [ [ -92.914169610793394, 47.378650139958403 ], [ -92.914180315953203, 47.378533014096199 ] ] } },
{ "type": "Feature", "properties": { "wmUplineSo": "KEEWATIN", "wmType": "Underground" }, "geometry": { "type": "LineString", "coordinates": [ [ -92.916503494094002, 47.3788146845136 ], [ -92.916696230380893, 47.378679216218003 ] ] } },
{ "type": "Feature", "properties": { "wmUplineSo": "KEEWATIN", "wmType": "Underground" }, "geometry": { "type": "LineString", "coordinates": [ [ -92.916503494094002, 47.3788146845136 ], [ -92.916612924784602, 47.378936206341002 ] ] } },
{ "type": "Feature", "properties": { "wmUplineSo": "KEEWATIN", "wmType": "Underground" }, "geometry": { "type": "LineString", "coordinates": [ [ -92.916229721613504, 47.378893145537198 ], [ -92.916192654408306, 47.379058931116603 ] ] } },
{ "type": "Feature", "properties": { "wmUplineSo": "KEEWATIN", "wmType": "Underground" }, "geometry": { "type": "LineString", "coordinates": [ [ -92.916503494094002, 47.3788146845136 ], [ -92.916229721613504, 47.378893145537198 ] ] } },
{ "type": "Feature", "properties": { "wmUplineSo": "KEEWATIN", "wmType": "Underground" }, "geometry": { "type": "LineString", "coordinates": [ [ -92.916503494094002, 47.3788146845136 ], [ -92.916253856429705, 47.378775648248599 ] ] } },
{ "type": "Feature", "properties": { "wmUplineSo": "KEEWATIN", "wmType": "Underground" }, "geometry": { "type": "LineString", "coordinates": [ [ -92.912661740025698, 47.3846265175181 ], [ -92.9126974, 47.384606500009198 ] ] } },
{ "type": "Feature", "properties": { "wmUplineSo": "KEEWATIN", "wmType": "Underground" }, "geometry": { "type": "LineString", "coordinates": [ [ -92.912238231773898, 47.384364569339503 ], [ -92.9122646, 47.384337700009198 ] ] } },
{ "type": "Feature", "properties": { "wmUplineSo": "KEEWATIN", "wmType": "Underground" }, "geometry": { "type": "LineString", "coordinates": [ [ -92.912238231773898, 47.384364569339503 ], [ -92.912735, 47.384331000009198 ] ] } },
{ "type": "Feature", "properties": { "wmUplineSo": "KEEWATIN", "wmType": "Underground" }, "geometry": { "type": "LineString", "coordinates": [ [ -92.804200794174704, 47.370039728555 ], [ -92.804201921446904, 47.369997849682299 ], [ -92.804017, 47.370140200009203 ] ] } },
{ "type": "Feature", "properties": { "wmUplineSo": "KEEWATIN", "wmType": "Underground" }, "geometry": { "type": "LineString", "coordinates": [ [ -92.914749711258594, 47.384906622758599 ], [ -92.9145318, 47.384731800009199 ] ] } },
{ "type": "Feature", "properties": { "wmUplineSo": "KEEWATIN", "wmType": "Underground" }, "geometry": { "type": "LineString", "coordinates": [ [ -92.849488874868001, 47.371209362023997 ], [ -92.8492982, 47.371379600009199 ] ] } },
{ "type": "Feature", "properties": { "wmUplineSo": "KEEWATIN", "wmType": "Underground" }, "geometry": { "type": "LineString", "coordinates": [ [ -92.854124703280206, 47.364874344400597 ], [ -92.8539267, 47.364917300009203 ] ] } },
{ "type": "Feature", "properties": { "wmUplineSo": "KEEWATIN", "wmType": "Underground" }, "geometry": { "type": "LineString", "coordinates": [ [ -92.8300412, 47.319862500009101 ], [ -92.829776, 47.319964600009101 ] ] } },
{ "type": "Feature", "properties": { "wmUplineSo": "KEEWATIN", "wmType": "Underground" }, "geometry": { "type": "LineString", "coordinates": [ [ -92.867021907102099, 47.371391854043502 ], [ -92.86698, 47.371116500009201 ] ] } },
{ "type": "Feature", "properties": { "wmUplineSo": "KEEWATIN", "wmType": "Underground" }, "geometry": { "type": "LineString", "coordinates": [ [ -92.862431507123006, 47.3709516058383 ], [ -92.8625745, 47.370834500009202 ] ] } },
{ "type": "Feature", "properties": { "wmUplineSo": "KEEWATIN", "wmType": "Underground" }, "geometry": { "type": "LineString", "coordinates": [ [ -92.859929047871503, 47.369186125997601 ], [ -92.859876262873001, 47.3691829181884 ], [ -92.8597875, 47.369246300009202 ] ] } },
{ "type": "Feature", "properties": { "wmUplineSo": "KEEWATIN", "wmType": "Underground" }, "geometry": { "type": "LineString", "coordinates": [ [ -92.858064714055999, 47.365826544909098 ], [ -92.8578969, 47.365745400009203 ] ] } },
{ "type": "Feature", "properties": { "wmUplineSo": "KEEWATIN", "wmType": "Underground" }, "geometry": { "type": "LineString", "coordinates": [ [ -92.874093873332598, 47.371368331703302 ], [ -92.8741056, 47.371349800009199 ] ] } },
{ "type": "Feature", "properties": { "wmUplineSo": "KEEWATIN", "wmType": "Underground" }, "geometry": { "type": "LineString", "coordinates": [ [ -92.8935002060079, 47.370068642522497 ], [ -92.8934206, 47.370189600009198 ] ] } },
{ "type": "Feature", "properties": { "wmUplineSo": "KEEWATIN", "wmType": "Underground" }, "geometry": { "type": "LineString", "coordinates": [ [ -92.896473999993304, 47.370266003662699 ], [ -92.8965975, 47.370286600009202 ] ] } },
{ "type": "Feature", "properties": { "wmUplineSo": "KEEWATIN", "wmType": "Underground" }, "geometry": { "type": "LineString", "coordinates": [ [ -92.902376387963102, 47.363462885345598 ], [ -92.9021109, 47.363479200009202 ] ] } },
{ "type": "Feature", "properties": { "wmUplineSo": "KEEWATIN", "wmType": "Underground" }, "geometry": { "type": "LineString", "coordinates": [ [ -92.902661416134293, 47.361994280990302 ], [ -92.9025052, 47.362113900009199 ] ] } },
{ "type": "Feature", "properties": { "wmUplineSo": "KEEWATIN", "wmType": "Underground" }, "geometry": { "type": "LineString", "coordinates": [ [ -92.89456, 47.351014999999897 ], [ -92.8943458, 47.351117100009198 ] ] } },
{ "type": "Feature", "properties": { "wmUplineSo": "KEEWATIN", "wmType": "Underground" }, "geometry": { "type": "LineString", "coordinates": [ [ -92.912735, 47.384331000009198 ], [ -92.9127526, 47.384342400009203 ] ] } },
{ "type": "Feature", "properties": { "wmUplineSo": "KEEWATIN", "wmType": "Underground" }, "geometry": { "type": "LineString", "coordinates": [ [ -92.912826950278301, 47.380007169462097 ], [ -92.9126022, 47.379846600009202 ] ] } },
{ "type": "Feature", "properties": { "wmUplineSo": "KEEWATIN", "wmType": "Underground" }, "geometry": { "type": "LineString", "coordinates": [ [ -92.9121424204573, 47.379842679190297 ], [ -92.912154473301101, 47.379701917630001 ] ] } },
{ "type": "Feature", "properties": { "wmUplineSo": "KEEWATIN", "wmType": "Underground" }, "geometry": { "type": "LineString", "coordinates": [ [ -92.912266161629304, 47.379946697346099 ], [ -92.9121424204573, 47.379842679190297 ] ] } },
{ "type": "Feature", "properties": { "wmUplineSo": "KEEWATIN", "wmType": "Underground" }, "geometry": { "type": "LineString", "coordinates": [ [ -92.912266161629304, 47.379946697346099 ], [ -92.912100121722901, 47.379985492922998 ] ] } },
{ "type": "Feature", "properties": { "wmUplineSo": "KEEWATIN", "wmType": "Underground" }, "geometry": { "type": "LineString", "coordinates": [ [ -92.912100121722901, 47.379985492922998 ], [ -92.912078905776298, 47.3800968966545 ] ] } },
{ "type": "Feature", "properties": { "wmUplineSo": "KEEWATIN", "wmType": "Underground" }, "geometry": { "type": "LineString", "coordinates": [ [ -92.916790285673102, 47.378304602589303 ], [ -92.9170347, 47.378307000009201 ] ] } },
{ "type": "Feature", "properties": { "wmUplineSo": "KEEWATIN", "wmType": "Underground" }, "geometry": { "type": "LineString", "coordinates": [ [ -92.916672234475598, 47.378183939116397 ], [ -92.916790285673102, 47.378304602589303 ] ] } },
{ "type": "Feature", "properties": { "wmUplineSo": "KEEWATIN", "wmType": "Underground" }, "geometry": { "type": "LineString", "coordinates": [ [ -92.916566899691503, 47.378300996382997 ], [ -92.916390260841794, 47.378292296912598 ] ] } },
{ "type": "Feature", "properties": { "wmUplineSo": "KEEWATIN", "wmType": "Underground" }, "geometry": { "type": "LineString", "coordinates": [ [ -92.916672234475598, 47.378183939116397 ], [ -92.916566899691503, 47.378300996382997 ] ] } },
{ "type": "Feature", "properties": { "wmUplineSo": "KEEWATIN", "wmType": "Underground" }, "geometry": { "type": "LineString", "coordinates": [ [ -92.915670124070303, 47.378246534776601 ], [ -92.915911256250197, 47.378254330375803 ] ] } },
{ "type": "Feature", "properties": { "wmUplineSo": "KEEWATIN", "wmType": "Underground" }, "geometry": { "type": "LineString", "coordinates": [ [ -92.916390260841794, 47.378292296912598 ], [ -92.916186273943197, 47.378289291025702 ] ] } },
{ "type": "Feature", "properties": { "wmUplineSo": "KEEWATIN", "wmType": "Underground" }, "geometry": { "type": "LineString", "coordinates": [ [ -92.915628256953994, 47.378125560852297 ], [ -92.915670124070303, 47.378246534776601 ] ] } },
{ "type": "Feature", "properties": { "wmUplineSo": "KEEWATIN", "wmType": "Underground" }, "geometry": { "type": "LineString", "coordinates": [ [ -92.915628256953994, 47.378125560852297 ], [ -92.915513325352606, 47.378222294184397 ] ] } },
{ "type": "Feature", "properties": { "wmUplineSo": "KEEWATIN", "wmType": "Underground" }, "geometry": { "type": "LineString", "coordinates": [ [ -92.915513325352606, 47.378222294184397 ], [ -92.915264982200995, 47.378223380626203 ] ] } },
{ "type": "Feature", "properties": { "wmUplineSo": "KEEWATIN", "wmType": "Underground" }, "geometry": { "type": "LineString", "coordinates": [ [ -92.914705395568106, 47.378073015887999 ], [ -92.914834623082101, 47.378188778615701 ] ] } },
{ "type": "Feature", "properties": { "wmUplineSo": "KEEWATIN", "wmType": "Underground" }, "geometry": { "type": "LineString", "coordinates": [ [ -92.914705395568106, 47.378073015887999 ], [ -92.9146411, 47.378160200009198 ] ] } },
{ "type": "Feature", "properties": { "wmUplineSo": "KEEWATIN", "wmType": "Underground" }, "geometry": { "type": "LineString", "coordinates": [ [ -92.914834623082101, 47.378188778615701 ], [ -92.9151264, 47.378187000009198 ] ] } },
{ "type": "Feature", "properties": { "wmUplineSo": "KEEWATIN", "wmType": "Underground" }, "geometry": { "type": "LineString", "coordinates": [ [ -92.913600491052307, 47.378170173001301 ], [ -92.913747720178506, 47.378250286584397 ] ] } },
{ "type": "Feature", "properties": { "wmUplineSo": "KEEWATIN", "wmType": "Underground" }, "geometry": { "type": "LineString", "coordinates": [ [ -92.913747720178506, 47.378250286584397 ], [ -92.9139277892656, 47.378200481311502 ] ] } },
{ "type": "Feature", "properties": { "wmUplineSo": "KEEWATIN", "wmType": "Underground" }, "geometry": { "type": "LineString", "coordinates": [ [ -92.91767883, 47.378265380009204 ], [ -92.9173651, 47.378010300009201 ] ] } },
{ "type": "Feature", "properties": { "wmUplineSo": "KEEWATIN", "wmType": "Underground" }, "geometry": { "type": "LineString", "coordinates": [ [ -92.913408156563094, 47.385079975142503 ], [ -92.9132114, 47.384920100009197 ] ] } },
{ "type": "Feature", "properties": { "wmUplineSo": "KEEWATIN", "wmType": "Underground" }, "geometry": { "type": "LineString", "coordinates": [ [ -92.913408156563094, 47.385079975142503 ], [ -92.913529, 47.3848535000092 ] ] } },
{ "type": "Feature", "properties": { "wmUplineSo": "KEEWATIN", "wmType": "Underground" }, "geometry": { "type": "LineString", "coordinates": [ [ -92.923569845500595, 47.3756733125472 ], [ -92.9227452, 47.375876700009201 ] ] } },
{ "type": "Feature", "properties": { "wmUplineSo": "KEEWATIN", "wmType": "Underground" }, "geometry": { "type": "LineString", "coordinates": [ [ -92.916223173110097, 47.3803187473397 ], [ -92.916454499294503, 47.380327248856197 ] ] } },
{ "type": "Feature", "properties": { "wmUplineSo": "KEEWATIN", "wmType": "Underground" }, "geometry": { "type": "LineString", "coordinates": [ [ -92.916007152323502, 47.380183197502099 ], [ -92.9159868, 47.380298400009202 ] ] } },
{ "type": "Feature", "properties": { "wmUplineSo": "KEEWATIN", "wmType": "Underground" }, "geometry": { "type": "LineString", "coordinates": [ [ -92.916067229244902, 47.380028514845399 ], [ -92.9158305, 47.3800276000092 ] ] } },
{ "type": "Feature", "properties": { "wmUplineSo": "KEEWATIN", "wmType": "Underground" }, "geometry": { "type": "LineString", "coordinates": [ [ -92.915117949122006, 47.3801470406965 ], [ -92.915156204305404, 47.380273539571597 ] ] } },
{ "type": "Feature", "properties": { "wmUplineSo": "KEEWATIN", "wmType": "Underground" }, "geometry": { "type": "LineString", "coordinates": [ [ -92.9150466922855, 47.379992714064798 ], [ -92.9147629, 47.379995800009198 ] ] } },
{ "type": "Feature", "properties": { "wmUplineSo": "KEEWATIN", "wmType": "Underground" }, "geometry": { "type": "LineString", "coordinates": [ [ -92.915117949122006, 47.3801470406965 ], [ -92.9152317, 47.379994500009197 ] ] } },
{ "type": "Feature", "properties": { "wmUplineSo": "KEEWATIN", "wmType": "Underground" }, "geometry": { "type": "LineString", "coordinates": [ [ -92.9154779039619, 47.379992142816597 ], [ -92.9156571, 47.379999700009201 ] ] } },
{ "type": "Feature", "properties": { "wmUplineSo": "KEEWATIN", "wmType": "Underground" }, "geometry": { "type": "LineString", "coordinates": [ [ -92.915156204305404, 47.380273539571597 ], [ -92.915422305374904, 47.380282447714599 ] ] } },
{ "type": "Feature", "properties": { "wmUplineSo": "KEEWATIN", "wmType": "Underground" }, "geometry": { "type": "LineString", "coordinates": [ [ -92.915117949122006, 47.3801470406965 ], [ -92.914990108959003, 47.380243418828002 ] ] } },
{ "type": "Feature", "properties": { "wmUplineSo": "KEEWATIN", "wmType": "Underground" }, "geometry": { "type": "LineString", "coordinates": [ [ -92.914990108959003, 47.380243418828002 ], [ -92.914794529246507, 47.380238988239299 ] ] } },
{ "type": "Feature", "properties": { "wmUplineSo": "KEEWATIN", "wmType": "Underground" }, "geometry": { "type": "LineString", "coordinates": [ [ -92.914157803272104, 47.379925680125297 ], [ -92.914395191969902, 47.379928642025199 ] ] } },
{ "type": "Feature", "properties": { "wmUplineSo": "KEEWATIN", "wmType": "Underground" }, "geometry": { "type": "LineString", "coordinates": [ [ -92.914026024028104, 47.3800562961964 ], [ -92.913962238749704, 47.379912677358 ] ] } },
{ "type": "Feature", "properties": { "wmUplineSo": "KEEWATIN", "wmType": "Underground" }, "geometry": { "type": "LineString", "coordinates": [ [ -92.914143064897999, 47.380198169823501 ], [ -92.914367378019307, 47.380207860683697 ] ] } },
{ "type": "Feature", "properties": { "wmUplineSo": "KEEWATIN", "wmType": "Underground" }, "geometry": { "type": "LineString", "coordinates": [ [ -92.914026024028104, 47.3800562961964 ], [ -92.914143064897999, 47.380198169823501 ] ] } },
{ "type": "Feature", "properties": { "wmUplineSo": "KEEWATIN", "wmType": "Underground" }, "geometry": { "type": "LineString", "coordinates": [ [ -92.914026024028104, 47.3800562961964 ], [ -92.9139285, 47.380182600009199 ] ] } },
{ "type": "Feature", "properties": { "wmUplineSo": "KEEWATIN", "wmType": "Underground" }, "geometry": { "type": "LineString", "coordinates": [ [ -92.912463827823103, 47.383284171617497 ], [ -92.9125422, 47.383423900009198 ] ] } },
{ "type": "Feature", "properties": { "wmUplineSo": "KEEWATIN", "wmType": "Underground" }, "geometry": { "type": "LineString", "coordinates": [ [ -92.911940980068096, 47.383411347576804 ], [ -92.9120983, 47.3833730000092 ] ] } },
{ "type": "Feature", "properties": { "wmUplineSo": "KEEWATIN", "wmType": "Underground" }, "geometry": { "type": "LineString", "coordinates": [ [ -92.914053095225896, 47.383377643571002 ], [ -92.9140435, 47.383368300009202 ] ] } },
{ "type": "Feature", "properties": { "wmUplineSo": "KEEWATIN", "wmType": "Underground" }, "geometry": { "type": "LineString", "coordinates": [ [ -92.971528420211996, 47.378832235018002 ], [ -92.971362, 47.379016700009203 ] ] } },
{ "type": "Feature", "properties": { "wmUplineSo": "KEEWATIN", "wmType": "Underground" }, "geometry": { "type": "LineString", "coordinates": [ [ -92.96985626, 47.352958680009202 ], [ -92.9692271, 47.353031700009197 ] ] } },
{ "type": "Feature", "properties": { "wmUplineSo": "KEEWATIN", "wmType": "Underground" }, "geometry": { "type": "LineString", "coordinates": [ [ -92.915462429279202, 47.384596929426799 ], [ -92.9154902, 47.384272000009197 ] ] } },
{ "type": "Feature", "properties": { "wmUplineSo": "KEEWATIN", "wmType": "Underground" }, "geometry": { "type": "LineString", "coordinates": [ [ -92.9160307656838, 47.384166733534798 ], [ -92.9160555529037, 47.384152161778999 ] ] } },
{ "type": "Feature", "properties": { "wmUplineSo": "KEEWATIN", "wmType": "Underground" }, "geometry": { "type": "LineString", "coordinates": [ [ -92.915147639721098, 47.380696119741501 ], [ -92.914926153027594, 47.380671195585201 ] ] } },
{ "type": "Feature", "properties": { "wmUplineSo": "KEEWATIN", "wmType": "Underground" }, "geometry": { "type": "LineString", "coordinates": [ [ -92.915243311906707, 47.380877770645 ], [ -92.915147639721098, 47.380696119741501 ] ] } },
{ "type": "Feature", "properties": { "wmUplineSo": "KEEWATIN", "wmType": "Underground" }, "geometry": { "type": "LineString", "coordinates": [ [ -92.915243311906707, 47.380877770645 ], [ -92.915369138815606, 47.380713425018101 ] ] } },
{ "type": "Feature", "properties": { "wmUplineSo": "KEEWATIN", "wmType": "Underground" }, "geometry": { "type": "LineString", "coordinates": [ [ -92.915369138815606, 47.380713425018101 ], [ -92.915582246932203, 47.380717391381602 ] ] } },
{ "type": "Feature", "properties": { "wmUplineSo": "KEEWATIN", "wmType": "Underground" }, "geometry": { "type": "LineString", "coordinates": [ [ -92.915582246932203, 47.380717391381602 ], [ -92.915828992571207, 47.380729000513199 ] ] } },
{ "type": "Feature", "properties": { "wmUplineSo": "KEEWATIN", "wmType": "Underground" }, "geometry": { "type": "LineString", "coordinates": [ [ -92.914384793856101, 47.380831442738902 ], [ -92.9144388526325, 47.380673379209803 ] ] } },
{ "type": "Feature", "properties": { "wmUplineSo": "KEEWATIN", "wmType": "Underground" }, "geometry": { "type": "LineString", "coordinates": [ [ -92.914545400414795, 47.3806791725316 ], [ -92.914741773644707, 47.380685322067897 ] ] } },
{ "type": "Feature", "properties": { "wmUplineSo": "KEEWATIN", "wmType": "Underground" }, "geometry": { "type": "LineString", "coordinates": [ [ -92.9144388526325, 47.380673379209803 ], [ -92.914545400414795, 47.3806791725316 ] ] } },
{ "type": "Feature", "properties": { "wmUplineSo": "KEEWATIN", "wmType": "Underground" }, "geometry": { "type": "LineString", "coordinates": [ [ -92.914384793856101, 47.380831442738902 ], [ -92.914284009920195, 47.380668812615198 ] ] } },
{ "type": "Feature", "properties": { "wmUplineSo": "KEEWATIN", "wmType": "Underground" }, "geometry": { "type": "LineString", "coordinates": [ [ -92.914284009920195, 47.380668812615198 ], [ -92.914048476786903, 47.3806600654883 ] ] } },
{ "type": "Feature", "properties": { "wmUplineSo": "KEEWATIN", "wmType": "Underground" }, "geometry": { "type": "LineString", "coordinates": [ [ -92.913258588457396, 47.3807868507892 ], [ -92.913140093129599, 47.380565102338501 ] ] } },
{ "type": "Feature", "properties": { "wmUplineSo": "KEEWATIN", "wmType": "Underground" }, "geometry": { "type": "LineString", "coordinates": [ [ -92.913258588457396, 47.3807868507892 ], [ -92.913350348759707, 47.3805981160721 ] ] } },
{ "type": "Feature", "properties": { "wmUplineSo": "KEEWATIN", "wmType": "Underground" }, "geometry": { "type": "LineString", "coordinates": [ [ -92.913562747440494, 47.380606847191899 ], [ -92.913783528304606, 47.380634154220999 ] ] } },
{ "type": "Feature", "properties": { "wmUplineSo": "KEEWATIN", "wmType": "Underground" }, "geometry": { "type": "LineString", "coordinates": [ [ -92.913350348759707, 47.3805981160721 ], [ -92.913562747440494, 47.380606847191899 ] ] } },
{ "type": "Feature", "properties": { "wmUplineSo": "KEEWATIN", "wmType": "Underground" }, "geometry": { "type": "LineString", "coordinates": [ [ -92.9170388, 47.380273100009198 ], [ -92.917004430318798, 47.380407977589897 ] ] } },
{ "type": "Feature", "properties": { "wmUplineSo": "KEEWATIN", "wmType": "Underground" }, "geometry": { "type": "LineString", "coordinates": [ [ -92.916731897073902, 47.380746801458798 ], [ -92.916857416985707, 47.3805698244213 ] ] } },
{ "type": "Feature", "properties": { "wmUplineSo": "KEEWATIN", "wmType": "Underground" }, "geometry": { "type": "LineString", "coordinates": [ [ -92.916510646199001, 47.380966312959103 ], [ -92.916731897073902, 47.380746801458798 ] ] } },
{ "type": "Feature", "properties": { "wmUplineSo": "KEEWATIN", "wmType": "Underground" }, "geometry": { "type": "LineString", "coordinates": [ [ -92.916510646199001, 47.380966312959103 ], [ -92.916434577398206, 47.380798009714702 ] ] } },
{ "type": "Feature", "properties": { "wmUplineSo": "KEEWATIN", "wmType": "Underground" }, "geometry": { "type": "LineString", "coordinates": [ [ -92.916434577398206, 47.380798009714702 ], [ -92.916243914064495, 47.380786442876399 ] ] } },
{ "type": "Feature", "properties": { "wmUplineSo": "KEEWATIN", "wmType": "Underground" }, "geometry": { "type": "LineString", "coordinates": [ [ -92.916007152323502, 47.380183197502099 ], [ -92.916223173110097, 47.3803187473397 ] ] } },
{ "type": "Feature", "properties": { "wmUplineSo": "KEEWATIN", "wmType": "Underground" }, "geometry": { "type": "LineString", "coordinates": [ [ -92.917060017061701, 47.3802144715563 ], [ -92.9171395, 47.380135800009199 ] ] } },
{ "type": "Feature", "properties": { "wmUplineSo": "KEEWATIN", "wmType": "Underground" }, "geometry": { "type": "LineString", "coordinates": [ [ -92.917060017061701, 47.3802144715563 ], [ -92.9170388, 47.380273100009198 ] ] } },
{ "type": "Feature", "properties": { "wmUplineSo": "KEEWATIN", "wmType": "Underground" }, "geometry": { "type": "LineString", "coordinates": [ [ -92.915835472881199, 47.3802911818428 ], [ -92.915658818394206, 47.380288195083502 ] ] } },
{ "type": "Feature", "properties": { "wmUplineSo": "KEEWATIN", "wmType": "Underground" }, "geometry": { "type": "LineString", "coordinates": [ [ -92.9159868, 47.380298400009202 ], [ -92.915835472881199, 47.3802911818428 ] ] } },
{ "type": "Feature", "properties": { "wmUplineSo": "KEEWATIN", "wmType": "Underground" }, "geometry": { "type": "LineString", "coordinates": [ [ -92.916007152323502, 47.380183197502099 ], [ -92.916067229244902, 47.380028514845399 ] ] } },
{ "type": "Feature", "properties": { "wmUplineSo": "KEEWATIN", "wmType": "Underground" }, "geometry": { "type": "LineString", "coordinates": [ [ -92.916007152323502, 47.380183197502099 ], [ -92.916321674008103, 47.380045842401302 ] ] } },
{ "type": "Feature", "properties": { "wmUplineSo": "KEEWATIN", "wmType": "Underground" }, "geometry": { "type": "LineString", "coordinates": [ [ -92.916321674008103, 47.380045842401302 ], [ -92.9165196, 47.380061400009197 ] ] } },
{ "type": "Feature", "properties": { "wmUplineSo": "KEEWATIN", "wmType": "Underground" }, "geometry": { "type": "LineString", "coordinates": [ [ -92.9139285, 47.380182600009199 ], [ -92.913688611071393, 47.380162224951903 ] ] } },
{ "type": "Feature", "properties": { "wmUplineSo": "KEEWATIN", "wmType": "Underground" }, "geometry": { "type": "LineString", "coordinates": [ [ -92.913688611071393, 47.380162224951903 ], [ -92.913455004144794, 47.380153705536799 ] ] } },
{ "type": "Feature", "properties": { "wmUplineSo": "KEEWATIN", "wmType": "Underground" }, "geometry": { "type": "LineString", "coordinates": [ [ -92.913085345977393, 47.379859162778097 ], [ -92.913304055530205, 47.379865042240098 ] ] } },
{ "type": "Feature", "properties": { "wmUplineSo": "KEEWATIN", "wmType": "Underground" }, "geometry": { "type": "LineString", "coordinates": [ [ -92.913028091008002, 47.380146240128198 ], [ -92.913246799398195, 47.380153548159697 ] ] } },
{ "type": "Feature", "properties": { "wmUplineSo": "KEEWATIN", "wmType": "Underground" }, "geometry": { "type": "LineString", "coordinates": [ [ -92.912826950278301, 47.380007169462097 ], [ -92.913028091008002, 47.380146240128198 ] ] } },
{ "type": "Feature", "properties": { "wmUplineSo": "KEEWATIN", "wmType": "Underground" }, "geometry": { "type": "LineString", "coordinates": [ [ -92.913304055530205, 47.379865042240098 ], [ -92.913505942932304, 47.379869480131802 ] ] } },
{ "type": "Feature", "properties": { "wmUplineSo": "KEEWATIN", "wmType": "Underground" }, "geometry": { "type": "LineString", "coordinates": [ [ -92.912826950278301, 47.380007169462097 ], [ -92.913085345977393, 47.379859162778097 ] ] } },
{ "type": "Feature", "properties": { "wmUplineSo": "KEEWATIN", "wmType": "Underground" }, "geometry": { "type": "LineString", "coordinates": [ [ -92.912795231461601, 47.380111899184399 ], [ -92.912623737103004, 47.380107742984002 ] ] } },
{ "type": "Feature", "properties": { "wmUplineSo": "KEEWATIN", "wmType": "Underground" }, "geometry": { "type": "LineString", "coordinates": [ [ -92.870325999991607, 47.370706003662903 ], [ -92.8701994, 47.370713000009196 ] ] } },
{ "type": "Feature", "properties": { "wmUplineSo": "KEEWATIN", "wmType": "Underground" }, "geometry": { "type": "LineString", "coordinates": [ [ -92.8166788307812, 47.369818529307402 ], [ -92.8161629, 47.369538500009199 ] ] } },
{ "type": "Feature", "properties": { "wmUplineSo": "KEEWATIN", "wmType": "Underground" }, "geometry": { "type": "LineString", "coordinates": [ [ -92.818118225652, 47.371245624333 ], [ -92.8186431, 47.371059500009203 ] ] } },
{ "type": "Feature", "properties": { "wmUplineSo": "KEEWATIN", "wmType": "Underground" }, "geometry": { "type": "LineString", "coordinates": [ [ -92.917330478097199, 47.378667335046003 ], [ -92.917353424501201, 47.378562597719103 ] ] } },
{ "type": "Feature", "properties": { "wmUplineSo": "KEEWATIN", "wmType": "Underground" }, "geometry": { "type": "LineString", "coordinates": [ [ -92.917302221412299, 47.378840788552701 ], [ -92.917311057113693, 47.378758980675698 ] ] } },
{ "type": "Feature", "properties": { "wmUplineSo": "KEEWATIN", "wmType": "Underground" }, "geometry": { "type": "LineString", "coordinates": [ [ -92.917302221412299, 47.378840788552701 ], [ -92.917301188761201, 47.378920687341498 ] ] } },
{ "type": "Feature", "properties": { "wmUplineSo": "KEEWATIN", "wmType": "Underground" }, "geometry": { "type": "LineString", "coordinates": [ [ -92.914602656303202, 47.3834256696408 ], [ -92.9145966, 47.383643100009202 ] ] } },
{ "type": "Feature", "properties": { "wmUplineSo": "KEEWATIN", "wmType": "Underground" }, "geometry": { "type": "LineString", "coordinates": [ [ -92.914602656303202, 47.3834256696408 ], [ -92.914403478020205, 47.383702159783802 ] ] } },
{ "type": "Feature", "properties": { "wmUplineSo": "KEEWATIN", "wmType": "Underground" }, "geometry": { "type": "LineString", "coordinates": [ [ -92.915183105181995, 47.383448955947799 ], [ -92.9152004, 47.383676300009199 ] ] } },
{ "type": "Feature", "properties": { "wmUplineSo": "KEEWATIN", "wmType": "Underground" }, "geometry": { "type": "LineString", "coordinates": [ [ -92.915183105181995, 47.383448955947799 ], [ -92.9151908, 47.3837086000092 ] ] } },
{ "type": "Feature", "properties": { "wmUplineSo": "KEEWATIN", "wmType": "Underground" }, "geometry": { "type": "LineString", "coordinates": [ [ -92.915609279635405, 47.383496885832599 ], [ -92.9155576, 47.383686600009199 ] ] } },
{ "type": "Feature", "properties": { "wmUplineSo": "KEEWATIN", "wmType": "Underground" }, "geometry": { "type": "LineString", "coordinates": [ [ -92.915462429279202, 47.384596929426799 ], [ -92.9154271, 47.384623000009199 ] ] } },
{ "type": "Feature", "properties": { "wmUplineSo": "KEEWATIN", "wmType": "Underground" }, "geometry": { "type": "LineString", "coordinates": [ [ -92.913872978294606, 47.385100668012598 ], [ -92.9138617, 47.3850785000092 ] ] } },
{ "type": "Feature", "properties": { "wmUplineSo": "KEEWATIN", "wmType": "Underground" }, "geometry": { "type": "LineString", "coordinates": [ [ -92.914749711258594, 47.384906622758599 ], [ -92.9147252, 47.384917100009197 ] ] } },
{ "type": "Feature", "properties": { "wmUplineSo": "KEEWATIN", "wmType": "Underground" }, "geometry": { "type": "LineString", "coordinates": [ [ -92.913167041187506, 47.383317932789602 ], [ -92.9133874, 47.3833243000092 ] ] } },
{ "type": "Feature", "properties": { "wmUplineSo": "KEEWATIN", "wmType": "Underground" }, "geometry": { "type": "LineString", "coordinates": [ [ -92.913772692539098, 47.383362196083503 ], [ -92.9137639, 47.383529400009202 ] ] } },
{ "type": "Feature", "properties": { "wmUplineSo": "KEEWATIN", "wmType": "Underground" }, "geometry": { "type": "LineString", "coordinates": [ [ -92.913167041187506, 47.383317932789602 ], [ -92.9134051, 47.383319100009203 ] ] } },
{ "type": "Feature", "properties": { "wmUplineSo": "KEEWATIN", "wmType": "Underground" }, "geometry": { "type": "LineString", "coordinates": [ [ -92.913167041187506, 47.383317932789602 ], [ -92.9131535, 47.383482200009198 ] ] } },
{ "type": "Feature", "properties": { "wmUplineSo": "KEEWATIN", "wmType": "Underground" }, "geometry": { "type": "LineString", "coordinates": [ [ -92.915566437798702, 47.372500248784498 ], [ -92.9155576116341, 47.372540715413699 ] ] } },
{ "type": "Feature", "properties": { "wmUplineSo": "KEEWATIN", "wmType": "Underground" }, "geometry": { "type": "LineString", "coordinates": [ [ -92.972673663272403, 47.399307059589702 ], [ -92.9727042, 47.399327000009201 ] ] } },
{ "type": "Feature", "properties": { "wmUplineSo": "KEEWATIN", "wmType": "Underground" }, "geometry": { "type": "LineString", "coordinates": [ [ -92.971843148125203, 47.3927277491143 ], [ -92.9718562, 47.392767100009202 ] ] } },
{ "type": "Feature", "properties": { "wmUplineSo": "KEEWATIN", "wmType": "Underground" }, "geometry": { "type": "LineString", "coordinates": [ [ -92.971843148125203, 47.3927277491143 ], [ -92.971944, 47.3928162000092 ] ] } },
{ "type": "Feature", "properties": { "wmUplineSo": "KEEWATIN", "wmType": "Underground" }, "geometry": { "type": "LineString", "coordinates": [ [ -92.915462429279202, 47.384596929426799 ], [ -92.9154382, 47.3846133000092 ] ] } },
{ "type": "Feature", "properties": { "wmUplineSo": "KEEWATIN", "wmType": "Underground" }, "geometry": { "type": "LineString", "coordinates": [ [ -92.969528277307106, 47.381898379614199 ], [ -92.9696388, 47.382000200009202 ] ] } },
{ "type": "Feature", "properties": { "wmUplineSo": "KEEWATIN", "wmType": "Underground" }, "geometry": { "type": "LineString", "coordinates": [ [ -92.820157306816, 47.354277206294299 ], [ -92.8200901, 47.3542906000092 ] ] } },
{ "type": "Feature", "properties": { "wmUplineSo": "KEEWATIN", "wmType": "Underground" }, "geometry": { "type": "LineString", "coordinates": [ [ -92.830172817376194, 47.2850711736411 ], [ -92.8301838, 47.284952400009097 ] ] } },
{ "type": "Feature", "properties": { "wmUplineSo": "KEEWATIN", "wmType": "Underground" }, "geometry": { "type": "LineString", "coordinates": [ [ -92.900017696639495, 47.367905805167901 ], [ -92.9000026, 47.3678027000092 ] ] } },
{ "type": "Feature", "properties": { "wmUplineSo": "KEEWATIN", "wmType": "Underground" }, "geometry": { "type": "LineString", "coordinates": [ [ -92.916346306588906, 47.379420571143598 ], [ -92.915323, 47.379343 ] ] } },
{ "type": "Feature", "properties": { "wmUplineSo": "KEEWATIN", "wmType": "Underground" }, "geometry": { "type": "LineString", "coordinates": [ [ -92.915323, 47.379343 ], [ -92.915530211544294, 47.379312645241498 ] ] } },
{ "type": "Feature", "properties": { "wmUplineSo": "KEEWATIN", "wmType": "Underground" }, "geometry": { "type": "LineString", "coordinates": [ [ -92.894549, 47.354121 ], [ -92.894244, 47.354121 ] ] } },
{ "type": "Feature", "properties": { "wmUplineSo": "KEEWATIN", "wmType": "Underground" }, "geometry": { "type": "LineString", "coordinates": [ [ -92.869731650632502, 47.371618213950498 ], [ -92.870325999991607, 47.370706003662903 ] ] } },
{ "type": "Feature", "properties": { "wmUplineSo": "KEEWATIN", "wmType": "Underground" }, "geometry": { "type": "LineString", "coordinates": [ [ -92.805908999987594, 47.371912003663297 ], [ -92.806023999987602, 47.371937003663199 ] ] } },
{ "type": "Feature", "properties": { "wmUplineSo": "KEEWATIN", "wmType": "Underground" }, "geometry": { "type": "LineString", "coordinates": [ [ -92.806023999987602, 47.371937003663199 ], [ -92.806164999987601, 47.372007003663001 ] ] } },
{ "type": "Feature", "properties": { "wmUplineSo": "KEEWATIN", "wmType": "Underground" }, "geometry": { "type": "LineString", "coordinates": [ [ -92.806164999987601, 47.372007003663001 ], [ -92.806228999987596, 47.372143003663098 ] ] } },
{ "type": "Feature", "properties": { "wmUplineSo": "KEEWATIN", "wmType": "Underground" }, "geometry": { "type": "LineString", "coordinates": [ [ -92.894244, 47.354121 ], [ -92.894239, 47.354122 ] ] } },
{ "type": "Feature", "properties": { "wmUplineSo": "KEEWATIN", "wmType": "Underground" }, "geometry": { "type": "LineString", "coordinates": [ [ -92.862986598606497, 47.371629610897699 ], [ -92.862834209852906, 47.371404258372799 ] ] } },
{ "type": "Feature", "properties": { "wmUplineSo": "KEEWATIN", "wmType": "Underground" }, "geometry": { "type": "LineString", "coordinates": [ [ -92.826172999988898, 47.3393740036542 ], [ -92.8261998, 47.339401100009198 ] ] } },
{ "type": "Feature", "properties": { "wmUplineSo": "KEEWATIN", "wmType": "Underground" }, "geometry": { "type": "LineString", "coordinates": [ [ -92.916243914064495, 47.380786442876399 ], [ -92.916033627900305, 47.380771052119201 ] ] } },
{ "type": "Feature", "properties": { "wmUplineSo": "KEEWATIN", "wmType": "Underground" }, "geometry": { "type": "LineString", "coordinates": [ [ -92.84994, 47.334812 ], [ -92.849806, 47.334727999999899 ] ] } },
{ "type": "Feature", "properties": { "wmUplineSo": "KEEWATIN", "wmType": "Underground" }, "geometry": { "type": "LineString", "coordinates": [ [ -92.913872978294606, 47.385100668012598 ], [ -92.913759810196098, 47.385115932551102 ], [ -92.913408156563094, 47.385079975142503 ] ] } },
{ "type": "Feature", "properties": { "wmUplineSo": "KEEWATIN", "wmType": "Underground" }, "geometry": { "type": "LineString", "coordinates": [ [ -92.914749711258594, 47.384906622758599 ], [ -92.914343461086702, 47.385037206207699 ] ] } },
{ "type": "Feature", "properties": { "wmUplineSo": "KEEWATIN", "wmType": "Underground" }, "geometry": { "type": "LineString", "coordinates": [ [ -92.914343461086702, 47.385037206207699 ], [ -92.913872978294606, 47.385100668012598 ] ] } },
{ "type": "Feature", "properties": { "wmUplineSo": "KEEWATIN", "wmType": "Underground" }, "geometry": { "type": "LineString", "coordinates": [ [ -92.917262863531107, 47.379477770365597 ], [ -92.916346306588906, 47.379420571143598 ] ] } },
{ "type": "Feature", "properties": { "wmUplineSo": "KEEWATIN", "wmType": "Underground" }, "geometry": { "type": "LineString", "coordinates": [ [ -92.915323, 47.379343 ], [ -92.914183221682293, 47.379334383358199 ] ] } },
{ "type": "Feature", "properties": { "wmUplineSo": "KEEWATIN", "wmType": "Underground" }, "geometry": { "type": "LineString", "coordinates": [ [ -92.914183221682293, 47.379334383358199 ], [ -92.913652296752701, 47.379292600197097 ], [ -92.913579162054305, 47.379288919896503 ], [ -92.913188081710999, 47.379271452454098 ] ] } },
{ "type": "Feature", "properties": { "wmUplineSo": "KEEWATIN", "wmType": "Underground" }, "geometry": { "type": "LineString", "coordinates": [ [ -92.913188081710999, 47.379271452454098 ], [ -92.912473991114894, 47.379227769002803 ] ] } },
{ "type": "Feature", "properties": { "wmUplineSo": "KEEWATIN", "wmType": "Underground" }, "geometry": { "type": "LineString", "coordinates": [ [ -92.914356675350305, 47.3787145606533 ], [ -92.913267367595296, 47.378687976978 ] ] } },
{ "type": "Feature", "properties": { "wmUplineSo": "KEEWATIN", "wmType": "Underground" }, "geometry": { "type": "LineString", "coordinates": [ [ -92.915424218891403, 47.3787686945264 ], [ -92.914356675350305, 47.3787145606533 ] ] } },
{ "type": "Feature", "properties": { "wmUplineSo": "KEEWATIN", "wmType": "Underground" }, "geometry": { "type": "LineString", "coordinates": [ [ -92.902831185755304, 47.363164233408298 ], [ -92.902768859443299, 47.363205160901103 ] ] } },
{ "type": "Feature", "properties": { "wmUplineSo": "KEEWATIN", "wmType": "Underground" }, "geometry": { "type": "LineString", "coordinates": [ [ -92.902768859443299, 47.363205160901103 ], [ -92.902376387963102, 47.363462885345598 ] ] } },
{ "type": "Feature", "properties": { "wmUplineSo": "KEEWATIN", "wmType": "Underground" }, "geometry": { "type": "LineString", "coordinates": [ [ -92.902893382694302, 47.362516585083803 ], [ -92.902894447760801, 47.3620445262479 ], [ -92.902661416134293, 47.361994280990302 ] ] } },
{ "type": "Feature", "properties": { "wmUplineSo": "KEEWATIN", "wmType": "Underground" }, "geometry": { "type": "LineString", "coordinates": [ [ -92.806919061566902, 47.370244869770303 ], [ -92.804200794174704, 47.370039728555 ] ] } },
{ "type": "Feature", "properties": { "wmUplineSo": "KEEWATIN", "wmType": "Underground" }, "geometry": { "type": "LineString", "coordinates": [ [ -92.852487284187305, 47.365129689541902 ], [ -92.852658512935605, 47.365108347723101 ] ] } },
{ "type": "Feature", "properties": { "wmUplineSo": "KEEWATIN", "wmType": "Underground" }, "geometry": { "type": "LineString", "coordinates": [ [ -92.852658512935605, 47.365108347723101 ], [ -92.854124703280206, 47.364874344400597 ] ] } },
{ "type": "Feature", "properties": { "wmUplineSo": "KEEWATIN", "wmType": "Underground" }, "geometry": { "type": "LineString", "coordinates": [ [ -92.862834209852906, 47.371404258372799 ], [ -92.862431507123006, 47.3709516058383 ] ] } },
{ "type": "Feature", "properties": { "wmUplineSo": "KEEWATIN", "wmType": "Underground" }, "geometry": { "type": "LineString", "coordinates": [ [ -92.862431507123006, 47.3709516058383 ], [ -92.859929047871503, 47.369186125997601 ] ] } },
{ "type": "Feature", "properties": { "wmUplineSo": "KEEWATIN", "wmType": "Underground" }, "geometry": { "type": "LineString", "coordinates": [ [ -92.866939208058, 47.371618815797198 ], [ -92.867021907102099, 47.371391854043502 ] ] } },
{ "type": "Feature", "properties": { "wmUplineSo": "KEEWATIN", "wmType": "Underground" }, "geometry": { "type": "LineString", "coordinates": [ [ -92.873911063506497, 47.371586385648698 ], [ -92.874093873332598, 47.371368331703302 ] ] } },
{ "type": "Feature", "properties": { "wmUplineSo": "KEEWATIN", "wmType": "Underground" }, "geometry": { "type": "LineString", "coordinates": [ [ -92.893784999993102, 47.369750003662503 ], [ -92.893884563581295, 47.369956656127002 ], [ -92.8935002060079, 47.370068642522497 ] ] } },
{ "type": "Feature", "properties": { "wmUplineSo": "KEEWATIN", "wmType": "Underground" }, "geometry": { "type": "LineString", "coordinates": [ [ -92.912661740025698, 47.3846265175181 ], [ -92.912238231773898, 47.384364569339603 ], [ -92.912238231773898, 47.384364569339503 ] ] } },
{ "type": "Feature", "properties": { "wmUplineSo": "KEEWATIN", "wmType": "Underground" }, "geometry": { "type": "LineString", "coordinates": [ [ -92.912238231773898, 47.384364569339503 ], [ -92.912238203093395, 47.384364551020496 ], [ -92.911966848667305, 47.384198473925402 ], [ -92.911785965354198, 47.383886757937098 ], [ -92.911833054965996, 47.383668693193997 ] ] } },
{ "type": "Feature", "properties": { "wmUplineSo": "KEEWATIN", "wmType": "Underground" }, "geometry": { "type": "LineString", "coordinates": [ [ -92.911833054965996, 47.383668693193997 ], [ -92.911883712161398, 47.383434098159 ], [ -92.911940980068096, 47.383411347576804 ] ] } },
{ "type": "Feature", "properties": { "wmUplineSo": "KEEWATIN", "wmType": "Underground" }, "geometry": { "type": "LineString", "coordinates": [ [ -92.911940980068096, 47.383411347576804 ], [ -92.912288603292097, 47.3832732507366 ], [ -92.912463827823103, 47.383284171617497 ] ] } },
{ "type": "Feature", "properties": { "wmUplineSo": "KEEWATIN", "wmType": "Underground" }, "geometry": { "type": "LineString", "coordinates": [ [ -92.972655078524397, 47.3788316582474 ], [ -92.971528420211996, 47.378832235018002 ] ] } },
{ "type": "Feature", "properties": { "wmUplineSo": "KEEWATIN", "wmType": "Underground" }, "geometry": { "type": "LineString", "coordinates": [ [ -92.915462429279202, 47.384596929426799 ], [ -92.915017003409204, 47.384820703799399 ], [ -92.914749711258594, 47.384906622758599 ] ] } },
{ "type": "Feature", "properties": { "wmUplineSo": "KEEWATIN", "wmType": "Underground" }, "geometry": { "type": "LineString", "coordinates": [ [ -92.9163812601751, 47.384195558942999 ], [ -92.9160307656838, 47.384166733534798 ] ] } },
{ "type": "Feature", "properties": { "wmUplineSo": "KEEWATIN", "wmType": "Underground" }, "geometry": { "type": "LineString", "coordinates": [ [ -92.9160307656838, 47.384166733534798 ], [ -92.915462429279202, 47.384596929426799 ] ] } },
{ "type": "Feature", "properties": { "wmUplineSo": "KEEWATIN", "wmType": "Underground" }, "geometry": { "type": "LineString", "coordinates": [ [ -92.917083944990196, 47.380964396130402 ], [ -92.916650266373594, 47.3809547287035 ] ] } },
{ "type": "Feature", "properties": { "wmUplineSo": "KEEWATIN", "wmType": "Underground" }, "geometry": { "type": "LineString", "coordinates": [ [ -92.916650266373594, 47.3809547287035 ], [ -92.916510646199001, 47.380966312959103 ] ] } },
{ "type": "Feature", "properties": { "wmUplineSo": "KEEWATIN", "wmType": "Underground" }, "geometry": { "type": "LineString", "coordinates": [ [ -92.916510646199001, 47.380966312959103 ], [ -92.915243311906707, 47.380877770645 ] ] } },
{ "type": "Feature", "properties": { "wmUplineSo": "KEEWATIN", "wmType": "Underground" }, "geometry": { "type": "LineString", "coordinates": [ [ -92.915243311906707, 47.380877770645 ], [ -92.914384793856101, 47.380831442738902 ] ] } },
{ "type": "Feature", "properties": { "wmUplineSo": "KEEWATIN", "wmType": "Underground" }, "geometry": { "type": "LineString", "coordinates": [ [ -92.914384793856101, 47.380831442738902 ], [ -92.913258588457396, 47.3807868507892 ] ] } },
{ "type": "Feature", "properties": { "wmUplineSo": "KEEWATIN", "wmType": "Underground" }, "geometry": { "type": "LineString", "coordinates": [ [ -92.913258588457396, 47.3807868507892 ], [ -92.912268441945002, 47.380679357162002 ] ] } },
{ "type": "Feature", "properties": { "wmUplineSo": "KEEWATIN", "wmType": "Underground" }, "geometry": { "type": "LineString", "coordinates": [ [ -92.917225300092198, 47.380231221432602 ], [ -92.917169225375403, 47.380226419390198 ] ] } },
{ "type": "Feature", "properties": { "wmUplineSo": "KEEWATIN", "wmType": "Underground" }, "geometry": { "type": "LineString", "coordinates": [ [ -92.917169225375403, 47.380226419390198 ], [ -92.917060017061701, 47.3802144715563 ] ] } },
{ "type": "Feature", "properties": { "wmUplineSo": "KEEWATIN", "wmType": "Underground" }, "geometry": { "type": "LineString", "coordinates": [ [ -92.917060017061701, 47.3802144715563 ], [ -92.916007152323502, 47.380183197502099 ] ] } },
{ "type": "Feature", "properties": { "wmUplineSo": "KEEWATIN", "wmType": "Underground" }, "geometry": { "type": "LineString", "coordinates": [ [ -92.916007152323502, 47.380183197502099 ], [ -92.915117949122006, 47.3801470406965 ] ] } },
{ "type": "Feature", "properties": { "wmUplineSo": "KEEWATIN", "wmType": "Underground" }, "geometry": { "type": "LineString", "coordinates": [ [ -92.915117949122006, 47.3801470406965 ], [ -92.914026024028104, 47.3800562961964 ] ] } },
{ "type": "Feature", "properties": { "wmUplineSo": "KEEWATIN", "wmType": "Underground" }, "geometry": { "type": "LineString", "coordinates": [ [ -92.914026024028104, 47.3800562961964 ], [ -92.912826950278301, 47.380007169462097 ] ] } },
{ "type": "Feature", "properties": { "wmUplineSo": "KEEWATIN", "wmType": "Underground" }, "geometry": { "type": "LineString", "coordinates": [ [ -92.912826950278301, 47.380007169462097 ], [ -92.912266161629304, 47.379946697346099 ] ] } },
{ "type": "Feature", "properties": { "wmUplineSo": "KEEWATIN", "wmType": "Underground" }, "geometry": { "type": "LineString", "coordinates": [ [ -92.917324616265802, 47.379481350768998 ], [ -92.917262863531107, 47.379477770365597 ] ] } },
{ "type": "Feature", "properties": { "wmUplineSo": "KEEWATIN", "wmType": "Underground" }, "geometry": { "type": "LineString", "coordinates": [ [ -92.917436764158197, 47.379490954674601 ], [ -92.917324616265802, 47.379481350768998 ] ] } },
{ "type": "Feature", "properties": { "wmUplineSo": "KEEWATIN", "wmType": "Underground" }, "geometry": { "type": "LineString", "coordinates": [ [ -92.916672234475598, 47.378183939116397 ], [ -92.915628256953994, 47.378125560852297 ] ] } },
{ "type": "Feature", "properties": { "wmUplineSo": "KEEWATIN", "wmType": "Underground" }, "geometry": { "type": "LineString", "coordinates": [ [ -92.915628256953994, 47.378125560852297 ], [ -92.914705395568106, 47.378073015887999 ] ] } },
{ "type": "Feature", "properties": { "wmUplineSo": "KEEWATIN", "wmType": "Underground" }, "geometry": { "type": "LineString", "coordinates": [ [ -92.914705395568106, 47.378073015887999 ], [ -92.913600491052307, 47.378170173001301 ] ] } },
{ "type": "Feature", "properties": { "wmUplineSo": "KEEWATIN", "wmType": "Underground" }, "geometry": { "type": "LineString", "coordinates": [ [ -92.913600491052307, 47.378170173001301 ], [ -92.913461447914102, 47.3783770363912 ] ] } },
{ "type": "Feature", "properties": { "wmUplineSo": "KEEWATIN", "wmType": "Underground" }, "geometry": { "type": "LineString", "coordinates": [ [ -92.913267367595296, 47.378687976978 ], [ -92.913461256947201, 47.378377096043998 ] ] } },
{ "type": "Feature", "properties": { "wmUplineSo": "KEEWATIN", "wmType": "Underground" }, "geometry": { "type": "LineString", "coordinates": [ [ -92.91767883, 47.378265380009204 ], [ -92.917554676412607, 47.378253658281302 ] ] } },
{ "type": "Feature", "properties": { "wmUplineSo": "KEEWATIN", "wmType": "Underground" }, "geometry": { "type": "LineString", "coordinates": [ [ -92.917554676412607, 47.378253658281302 ], [ -92.916672234475598, 47.378183939116397 ] ] } },
{ "type": "Feature", "properties": { "wmUplineSo": "KEEWATIN", "wmType": "Underground" }, "geometry": { "type": "LineString", "coordinates": [ [ -92.9235611, 47.374755860009202 ], [ -92.923569845500595, 47.3756733125472 ] ] } },
{ "type": "Feature", "properties": { "wmUplineSo": "KEEWATIN", "wmType": "Underground" }, "geometry": { "type": "LineString", "coordinates": [ [ -92.815173088360396, 47.371477275618801 ], [ -92.8166788307812, 47.369818529307402 ] ] } },
{ "type": "Feature", "properties": { "wmUplineSo": "KEEWATIN", "wmType": "Underground" }, "geometry": { "type": "LineString", "coordinates": [ [ -92.817961639523801, 47.371381218117698 ], [ -92.818118225652, 47.371245624333 ] ] } },
{ "type": "Feature", "properties": { "wmUplineSo": "KEEWATIN", "wmType": "Underground" }, "geometry": { "type": "LineString", "coordinates": [ [ -92.817709540811094, 47.371655074221898 ], [ -92.817961639523801, 47.371381218117698 ] ] } },
{ "type": "Feature", "properties": { "wmUplineSo": "KEEWATIN", "wmType": "Underground" }, "geometry": { "type": "LineString", "coordinates": [ [ -92.917562978857106, 47.378852404063998 ], [ -92.917302221412299, 47.378840788552701 ] ] } },
{ "type": "Feature", "properties": { "wmUplineSo": "KEEWATIN", "wmType": "Underground" }, "geometry": { "type": "LineString", "coordinates": [ [ -92.917302221412299, 47.378840788552701 ], [ -92.916503494094002, 47.3788146845136 ] ] } },
{ "type": "Feature", "properties": { "wmUplineSo": "KEEWATIN", "wmType": "Underground" }, "geometry": { "type": "LineString", "coordinates": [ [ -92.9152108833282, 47.378674655241198 ], [ -92.915211035998695, 47.378579424560499 ] ] } },
{ "type": "Feature", "properties": { "wmUplineSo": "KEEWATIN", "wmType": "Underground" }, "geometry": { "type": "LineString", "coordinates": [ [ -92.914387078375498, 47.379420243490898 ], [ -92.914376394305293, 47.379524513214797 ] ] } },
{ "type": "Feature", "properties": { "wmUplineSo": "KEEWATIN", "wmType": "Underground" }, "geometry": { "type": "LineString", "coordinates": [ [ -92.914053095225896, 47.383377643571002 ], [ -92.914602656303202, 47.3834256696408 ] ] } },
{ "type": "Feature", "properties": { "wmUplineSo": "KEEWATIN", "wmType": "Underground" }, "geometry": { "type": "LineString", "coordinates": [ [ -92.914602656303202, 47.3834256696408 ], [ -92.915183105181995, 47.383448955947799 ] ] } },
{ "type": "Feature", "properties": { "wmUplineSo": "KEEWATIN", "wmType": "Underground" }, "geometry": { "type": "LineString", "coordinates": [ [ -92.915183105181995, 47.383448955947799 ], [ -92.915609279635405, 47.383496885832599 ] ] } },
{ "type": "Feature", "properties": { "wmUplineSo": "KEEWATIN", "wmType": "Underground" }, "geometry": { "type": "LineString", "coordinates": [ [ -92.912463827823103, 47.383284171617497 ], [ -92.913167041187506, 47.383317932789602 ] ] } },
{ "type": "Feature", "properties": { "wmUplineSo": "KEEWATIN", "wmType": "Underground" }, "geometry": { "type": "LineString", "coordinates": [ [ -92.913772692539098, 47.383362196083503 ], [ -92.914053095225896, 47.383377643571002 ] ] } },
{ "type": "Feature", "properties": { "wmUplineSo": "KEEWATIN", "wmType": "Underground" }, "geometry": { "type": "LineString", "coordinates": [ [ -92.913167041187506, 47.383317932789602 ], [ -92.913772692539098, 47.383362196083503 ] ] } },
{ "type": "Feature", "properties": { "wmUplineSo": "KEEWATIN", "wmType": "Underground" }, "geometry": { "type": "LineString", "coordinates": [ [ -92.915629999994493, 47.371806003663202 ], [ -92.915566437798702, 47.372500248784498 ] ] } },
{ "type": "Feature", "properties": { "wmUplineSo": "KEEWATIN", "wmType": "Underground" }, "geometry": { "type": "LineString", "coordinates": [ [ -92.973385889021401, 47.398210631849999 ], [ -92.973385947841606, 47.398852199386802 ], [ -92.973385964794005, 47.399042702593697 ], [ -92.972673663272403, 47.399307059589702 ] ] } },
{ "type": "Feature", "properties": { "wmUplineSo": "KEEWATIN", "wmType": "Underground" }, "geometry": { "type": "LineString", "coordinates": [ [ -92.969215644598407, 47.382188980810298 ], [ -92.969270016800493, 47.382138440491801 ] ] } },
{ "type": "Feature", "properties": { "wmUplineSo": "KEEWATIN", "wmType": "Underground" }, "geometry": { "type": "LineString", "coordinates": [ [ -92.969270016800493, 47.382138440491801 ], [ -92.969528277307106, 47.381898379614199 ] ] } },
{ "type": "Feature", "properties": { "wmUplineSo": "KEEWATIN", "wmType": "Underground" }, "geometry": { "type": "LineString", "coordinates": [ [ -92.820189403380496, 47.354361570837099 ], [ -92.820157306816, 47.354277206294299 ] ] } },
{ "type": "Feature", "properties": { "wmUplineSo": "KEEWATIN", "wmType": "Underground" }, "geometry": { "type": "LineString", "coordinates": [ [ -92.90011597, 47.367618560009198 ], [ -92.900175582579706, 47.3678310202557 ] ] } },
{ "type": "Feature", "properties": { "wmUplineSo": "KEEWATIN", "wmType": "Underground" }, "geometry": { "type": "LineString", "coordinates": [ [ -92.900175582579706, 47.3678310202557 ], [ -92.900017696639495, 47.367905805167901 ] ] } },
{ "type": "Feature", "properties": { "wmUplineSo": "KEEWATIN", "wmType": "Underground" }, "geometry": { "type": "LineString", "coordinates": [ [ -92.916503494094002, 47.3788146845136 ], [ -92.915424218891403, 47.3787686945264 ] ] } },
{ "type": "Feature", "properties": { "wmUplineSo": "KEEWATIN", "wmType": "Underground" }, "geometry": { "type": "LineString", "coordinates": [ [ -92.831096573350706, 47.285341352926103 ], [ -92.831002435134195, 47.2852155816568 ], [ -92.830323459063493, 47.2851662171283 ], [ -92.830172817376194, 47.2850711736411 ] ] } },
{ "type": "Feature", "properties": { "wmUplineSo": "KEEWATIN", "wmType": "Underground" }, "geometry": { "type": "LineString", "coordinates": [ [ -92.915636702046399, 47.378852832751399 ], [ -92.915860448310298, 47.378885674162603 ] ] } },
{ "type": "Feature", "properties": { "wmUplineSo": "KEEWATIN", "wmType": "Underground" }, "geometry": { "type": "LineString", "coordinates": [ [ -92.826281990202602, 47.282599618674901 ], [ -92.825664, 47.282592999999899 ] ] } },
{ "type": "Feature", "properties": { "wmUplineSo": "KEEWATIN", "wmType": "Underground" }, "geometry": { "type": "LineString", "coordinates": [ [ -92.825664, 47.282592999999899 ], [ -92.825134849916495, 47.282595544262698 ] ] } },
{ "type": "Feature", "properties": { "wmUplineSo": "KEEWATIN", "wmType": "Underground" }, "geometry": { "type": "LineString", "coordinates": [ [ -92.825134849916495, 47.282595544262698 ], [ -92.823384, 47.2826090000001 ] ] } },
{ "type": "Feature", "properties": { "wmUplineSo": "KEEWATIN", "wmType": "Underground" }, "geometry": { "type": "LineString", "coordinates": [ [ -92.823384, 47.2826090000001 ], [ -92.823057, 47.28248 ] ] } },
{ "type": "Feature", "properties": { "wmUplineSo": "KEEWATIN", "wmType": "Underground" }, "geometry": { "type": "LineString", "coordinates": [ [ -92.823057, 47.28248 ], [ -92.82307, 47.282459000000102 ] ] } },
{ "type": "Feature", "properties": { "wmUplineSo": "KEEWATIN", "wmType": "Underground" }, "geometry": { "type": "LineString", "coordinates": [ [ -92.806228999987596, 47.372143003663098 ], [ -92.806326999987604, 47.372375003663201 ] ] } },
{ "type": "Feature", "properties": { "wmUplineSo": "KEEWATIN", "wmType": "Underground" }, "geometry": { "type": "LineString", "coordinates": [ [ -92.806326999987604, 47.372375003663201 ], [ -92.8064035, 47.372400500009199 ] ] } },
{ "type": "Feature", "properties": { "wmUplineSo": "KEEWATIN", "wmType": "Underground" }, "geometry": { "type": "LineString", "coordinates": [ [ -92.915172497850605, 47.379263634849899 ], [ -92.914867135607295, 47.379308919000103 ] ] } },
{ "type": "Feature", "properties": { "wmUplineSo": "KEEWATIN", "wmType": "Underground" }, "geometry": { "type": "LineString", "coordinates": [ [ -92.914515415242505, 47.378806705956698 ], [ -92.914797730928697, 47.378836246433202 ] ] } },
{ "type": "Feature", "properties": { "wmUplineSo": "KEEWATIN", "wmType": "Underground" }, "geometry": { "type": "LineString", "coordinates": [ [ -92.894239, 47.354122 ], [ -92.893943999993098, 47.354183003658299 ] ] } },
{ "type": "Feature", "properties": { "wmUplineSo": "KEEWATIN", "wmType": "Underground" }, "geometry": { "type": "LineString", "coordinates": [ [ -92.913462, 47.3787277000092 ], [ -92.913710125318104, 47.378750620713497 ] ] } },
{ "type": "Feature", "properties": { "wmUplineSo": "KEEWATIN", "wmType": "Underground" }, "geometry": { "type": "LineString", "coordinates": [ [ -92.914535503700193, 47.378670411799099 ], [ -92.914547579004306, 47.378569488191701 ] ] } },
{ "type": "Feature", "properties": { "wmUplineSo": "KEEWATIN", "wmType": "Underground" }, "geometry": { "type": "LineString", "coordinates": [ [ -92.915911256250197, 47.378254330375803 ], [ -92.916012317406896, 47.378442732729297 ] ] } },
{ "type": "Feature", "properties": { "wmUplineSo": "KEEWATIN", "wmType": "Underground" }, "geometry": { "type": "LineString", "coordinates": [ [ -92.914834623082101, 47.378188778615701 ], [ -92.914844406289205, 47.378374848128999 ] ] } },
{ "type": "Feature", "properties": { "wmUplineSo": "KEEWATIN", "wmType": "Underground" }, "geometry": { "type": "LineString", "coordinates": [ [ -92.915645582880003, 47.378719198743703 ], [ -92.915650990413397, 47.378625162314897 ] ] } },
{ "type": "Feature", "properties": { "wmUplineSo": "KEEWATIN", "wmType": "Underground" }, "geometry": { "type": "LineString", "coordinates": [ [ -92.913747720178506, 47.378250286584397 ], [ -92.913850050516501, 47.378348530696798 ] ] } },
{ "type": "Feature", "properties": { "wmUplineSo": "KEEWATIN", "wmType": "Underground" }, "geometry": { "type": "LineString", "coordinates": [ [ -92.828739999989097, 47.3234630036496 ], [ -92.828176999988997, 47.323447003649797 ] ] } },
{ "type": "Feature", "properties": { "wmUplineSo": "KEEWATIN", "wmType": "Underground" }, "geometry": { "type": "LineString", "coordinates": [ [ -92.914015124337496, 47.379244264304504 ], [ -92.913762539390902, 47.3792700005367 ] ] } },
{ "type": "Feature", "properties": { "wmUplineSo": "KEEWATIN", "wmType": "Underground" }, "geometry": { "type": "LineString", "coordinates": [ [ -92.912387465192197, 47.378810865436698 ], [ -92.912699740890801, 47.378776553545698 ] ] } },
{ "type": "Feature", "properties": { "wmUplineSo": "KEEWATIN", "wmType": "Underground" }, "geometry": { "type": "LineString", "coordinates": [ [ -92.916612924784602, 47.378936206341002 ], [ -92.916921786446594, 47.378962195517801 ] ] } },
{ "type": "Feature", "properties": { "wmUplineSo": "KEEWATIN", "wmType": "Underground" }, "geometry": { "type": "LineString", "coordinates": [ [ -92.809403999981001, 47.371606005537402 ], [ -92.809309539152906, 47.371721773524499 ] ] } }
]
}
