{
"type": "FeatureCollection",
"crs": { "type": "name", "properties": { "name": "urn:ogc:def:crs:OGC:1.3:CRS84" } },
"features": [
{ "type": "Feature", "properties": { "wmUplineSo": "KNIFE FALLS", "wmType": "Underground" }, "geometry": { "type": "LineString", "coordinates": [ [ -92.411896035739105, 46.7658498802097 ], [ -92.410714, 46.765751 ] ] } },
{ "type": "Feature", "properties": { "wmUplineSo": "KNIFE FALLS", "wmType": "Underground" }, "geometry": { "type": "LineString", "coordinates": [ [ -92.410714, 46.765751 ], [ -92.410693, 46.765756000000103 ] ] } },
{ "type": "Feature", "properties": { "wmUplineSo": "KNIFE FALLS", "wmType": "Underground" }, "geometry": { "type": "LineString", "coordinates": [ [ -92.481550311293702, 46.757436805146902 ], [ -92.481683, 46.757430999999897 ] ] } },
{ "type": "Feature", "properties": { "wmUplineSo": "KNIFE FALLS", "wmType": "Underground" }, "geometry": { "type": "LineString", "coordinates": [ [ -92.435475345102404, 46.779025881588701 ], [ -92.435452819880595, 46.779022837653997 ] ] } },
{ "type": "Feature", "properties": { "wmUplineSo": "KNIFE FALLS", "wmType": "Underground" }, "geometry": { "type": "LineString", "coordinates": [ [ -92.435996185103406, 46.779540827081497 ], [ -92.435611697276002, 46.779546366913898 ] ] } },
{ "type": "Feature", "properties": { "wmUplineSo": "KNIFE FALLS", "wmType": "Underground" }, "geometry": { "type": "LineString", "coordinates": [ [ -92.435611697276002, 46.779546366913898 ], [ -92.435475345102404, 46.779025881588701 ] ] } },
{ "type": "Feature", "properties": { "wmUplineSo": "KNIFE FALLS", "wmType": "Underground" }, "geometry": { "type": "LineString", "coordinates": [ [ -92.435475345102404, 46.779025881588701 ], [ -92.435334738699893, 46.778786675965399 ] ] } },
{ "type": "Feature", "properties": { "wmUplineSo": "KNIFE FALLS", "wmType": "Underground" }, "geometry": { "type": "LineString", "coordinates": [ [ -92.435334738699893, 46.778786675965399 ], [ -92.435453360847205, 46.778294999859099 ] ] } },
{ "type": "Feature", "properties": { "wmUplineSo": "KNIFE FALLS", "wmType": "Underground" }, "geometry": { "type": "LineString", "coordinates": [ [ -92.435453360847205, 46.778294999859099 ], [ -92.435326856601904, 46.778082916927403 ] ] } },
{ "type": "Feature", "properties": { "wmUplineSo": "KNIFE FALLS", "wmType": "Underground" }, "geometry": { "type": "LineString", "coordinates": [ [ -92.435326856601904, 46.778082916927403 ], [ -92.435261852097995, 46.7777807466748 ] ] } },
{ "type": "Feature", "properties": { "wmUplineSo": "KNIFE FALLS", "wmType": "Underground" }, "geometry": { "type": "LineString", "coordinates": [ [ -92.435261852097995, 46.7777807466748 ], [ -92.435389385907897, 46.777519602121401 ] ] } },
{ "type": "Feature", "properties": { "wmUplineSo": "KNIFE FALLS", "wmType": "Underground" }, "geometry": { "type": "LineString", "coordinates": [ [ -92.435389385907897, 46.777519602121401 ], [ -92.435342966228205, 46.7772812489847 ] ] } },
{ "type": "Feature", "properties": { "wmUplineSo": "KNIFE FALLS", "wmType": "Underground" }, "geometry": { "type": "LineString", "coordinates": [ [ -92.435342966228205, 46.7772812489847 ], [ -92.435294157507101, 46.7770382210241 ] ] } },
{ "type": "Feature", "properties": { "wmUplineSo": "KNIFE FALLS", "wmType": "Underground" }, "geometry": { "type": "LineString", "coordinates": [ [ -92.435294157507101, 46.7770382210241 ], [ -92.435286273337198, 46.777029054677698 ] ] } },
{ "type": "Feature", "properties": { "wmUplineSo": "KNIFE FALLS", "wmType": "Underground" }, "geometry": { "type": "LineString", "coordinates": [ [ -92.460101865991305, 46.777169552261903 ], [ -92.460121637840999, 46.7771993750383 ] ] } },
{ "type": "Feature", "properties": { "wmUplineSo": "KNIFE FALLS", "wmType": "Underground" }, "geometry": { "type": "LineString", "coordinates": [ [ -92.460121637840999, 46.7771993750383 ], [ -92.460161385931798, 46.777250099343803 ] ] } },
{ "type": "Feature", "properties": { "wmUplineSo": "KNIFE FALLS", "wmType": "Underground" }, "geometry": { "type": "LineString", "coordinates": [ [ -92.460161385931798, 46.777250099343803 ], [ -92.460131836144598, 46.777683002310802 ] ] } },
{ "type": "Feature", "properties": { "wmUplineSo": "KNIFE FALLS", "wmType": "Underground" }, "geometry": { "type": "LineString", "coordinates": [ [ -92.460131836144598, 46.777683002310802 ], [ -92.4601254976604, 46.777776659827801 ] ] } },
{ "type": "Feature", "properties": { "wmUplineSo": "KNIFE FALLS", "wmType": "Underground" }, "geometry": { "type": "LineString", "coordinates": [ [ -92.4601254976604, 46.777776659827801 ], [ -92.460364954680202, 46.778234923734701 ] ] } },
{ "type": "Feature", "properties": { "wmUplineSo": "KNIFE FALLS", "wmType": "Underground" }, "geometry": { "type": "LineString", "coordinates": [ [ -92.460364954680202, 46.778234923734701 ], [ -92.460520056222606, 46.778549412446701 ] ] } },
{ "type": "Feature", "properties": { "wmUplineSo": "KNIFE FALLS", "wmType": "Underground" }, "geometry": { "type": "LineString", "coordinates": [ [ -92.460520056222606, 46.778549412446701 ], [ -92.460606744718305, 46.778569734727 ] ] } },
{ "type": "Feature", "properties": { "wmUplineSo": "KNIFE FALLS", "wmType": "Underground" }, "geometry": { "type": "LineString", "coordinates": [ [ -92.460606744718305, 46.778569734727 ], [ -92.460633711027995, 46.778585849849499 ] ] } },
{ "type": "Feature", "properties": { "wmUplineSo": "KNIFE FALLS", "wmType": "Underground" }, "geometry": { "type": "LineString", "coordinates": [ [ -92.4389843272523, 46.7740158362001 ], [ -92.438852912234395, 46.7742169981316 ] ] } },
{ "type": "Feature", "properties": { "wmUplineSo": "KNIFE FALLS", "wmType": "Underground" }, "geometry": { "type": "LineString", "coordinates": [ [ -92.438852912234395, 46.7742169981316 ], [ -92.439062242323004, 46.774251132411798 ] ] } },
{ "type": "Feature", "properties": { "wmUplineSo": "KNIFE FALLS", "wmType": "Underground" }, "geometry": { "type": "LineString", "coordinates": [ [ -92.439062242323004, 46.774251132411798 ], [ -92.439237216655599, 46.774299907510397 ] ] } },
{ "type": "Feature", "properties": { "wmUplineSo": "KNIFE FALLS", "wmType": "Underground" }, "geometry": { "type": "LineString", "coordinates": [ [ -92.439237216655599, 46.774299907510397 ], [ -92.439544780459997, 46.7745009319638 ] ] } },
{ "type": "Feature", "properties": { "wmUplineSo": "KNIFE FALLS", "wmType": "Underground" }, "geometry": { "type": "LineString", "coordinates": [ [ -92.439544780459997, 46.7745009319638 ], [ -92.439668986226195, 46.774527588044201 ] ] } },
{ "type": "Feature", "properties": { "wmUplineSo": "KNIFE FALLS", "wmType": "Underground" }, "geometry": { "type": "LineString", "coordinates": [ [ -92.439668986226195, 46.774527588044201 ], [ -92.439893205580205, 46.774650138412802 ] ] } },
{ "type": "Feature", "properties": { "wmUplineSo": "KNIFE FALLS", "wmType": "Underground" }, "geometry": { "type": "LineString", "coordinates": [ [ -92.415134582914007, 46.769499681150798 ], [ -92.415269, 46.768300175021999 ] ] } },
{ "type": "Feature", "properties": { "wmUplineSo": "KNIFE FALLS", "wmType": "Underground" }, "geometry": { "type": "LineString", "coordinates": [ [ -92.415269, 46.768300175021999 ], [ -92.415241, 46.7682995459407 ] ] } },
{ "type": "Feature", "properties": { "wmUplineSo": "KNIFE FALLS", "wmType": "Underground" }, "geometry": { "type": "LineString", "coordinates": [ [ -92.387853375336803, 46.778584886969803 ], [ -92.387875789601495, 46.778582809117999 ] ] } },
{ "type": "Feature", "properties": { "wmUplineSo": "KNIFE FALLS", "wmType": "Underground" }, "geometry": { "type": "LineString", "coordinates": [ [ -92.387919161275093, 46.779271471313301 ], [ -92.387853375336803, 46.778584886969803 ] ] } },
{ "type": "Feature", "properties": { "wmUplineSo": "KNIFE FALLS", "wmType": "Underground" }, "geometry": { "type": "LineString", "coordinates": [ [ -92.481523, 46.757438 ], [ -92.481535359951906, 46.757437459260203 ] ] } },
{ "type": "Feature", "properties": { "wmUplineSo": "KNIFE FALLS", "wmType": "Underground" }, "geometry": { "type": "LineString", "coordinates": [ [ -92.481683, 46.757430999999897 ], [ -92.481903, 46.757351 ] ] } },
{ "type": "Feature", "properties": { "wmUplineSo": "KNIFE FALLS", "wmType": "Underground" }, "geometry": { "type": "LineString", "coordinates": [ [ -92.481903, 46.757351 ], [ -92.482055, 46.757316 ] ] } },
{ "type": "Feature", "properties": { "wmUplineSo": "KNIFE FALLS", "wmType": "Underground" }, "geometry": { "type": "LineString", "coordinates": [ [ -92.482055, 46.757316 ], [ -92.482169, 46.757323 ] ] } },
{ "type": "Feature", "properties": { "wmUplineSo": "KNIFE FALLS", "wmType": "Underground" }, "geometry": { "type": "LineString", "coordinates": [ [ -92.482169, 46.757323 ], [ -92.482394, 46.757272 ] ] } },
{ "type": "Feature", "properties": { "wmUplineSo": "KNIFE FALLS", "wmType": "Underground" }, "geometry": { "type": "LineString", "coordinates": [ [ -92.482394, 46.757272 ], [ -92.482376, 46.757184000000102 ] ] } },
{ "type": "Feature", "properties": { "wmUplineSo": "KNIFE FALLS", "wmType": "Underground" }, "geometry": { "type": "LineString", "coordinates": [ [ -92.482376, 46.757184000000102 ], [ -92.482538, 46.757252 ] ] } },
{ "type": "Feature", "properties": { "wmUplineSo": "KNIFE FALLS", "wmType": "Underground" }, "geometry": { "type": "LineString", "coordinates": [ [ -92.482538, 46.757252 ], [ -92.482599, 46.757345 ] ] } },
{ "type": "Feature", "properties": { "wmUplineSo": "KNIFE FALLS", "wmType": "Underground" }, "geometry": { "type": "LineString", "coordinates": [ [ -92.482599, 46.757345 ], [ -92.48275, 46.757393999999898 ] ] } },
{ "type": "Feature", "properties": { "wmUplineSo": "KNIFE FALLS", "wmType": "Underground" }, "geometry": { "type": "LineString", "coordinates": [ [ -92.48275, 46.757393999999898 ], [ -92.482894, 46.757338 ] ] } },
{ "type": "Feature", "properties": { "wmUplineSo": "KNIFE FALLS", "wmType": "Underground" }, "geometry": { "type": "LineString", "coordinates": [ [ -92.482894, 46.757338 ], [ -92.483033, 46.757260000000102 ] ] } },
{ "type": "Feature", "properties": { "wmUplineSo": "KNIFE FALLS", "wmType": "Underground" }, "geometry": { "type": "LineString", "coordinates": [ [ -92.483033, 46.757260000000102 ], [ -92.48306, 46.757295 ] ] } },
{ "type": "Feature", "properties": { "wmUplineSo": "KNIFE FALLS", "wmType": "Underground" }, "geometry": { "type": "LineString", "coordinates": [ [ -92.48306, 46.757295 ], [ -92.483092, 46.7572860000001 ] ] } },
{ "type": "Feature", "properties": { "wmUplineSo": "KNIFE FALLS", "wmType": "Underground" }, "geometry": { "type": "LineString", "coordinates": [ [ -92.481523, 46.757438 ], [ -92.481550311293702, 46.757436805146902 ] ] } },
{ "type": "Feature", "properties": { "wmUplineSo": "KNIFE FALLS", "wmType": "Underground" }, "geometry": { "type": "LineString", "coordinates": [ [ -92.427335734508105, 46.798111606069099 ], [ -92.427178843499405, 46.797816962974998 ] ] } },
{ "type": "Feature", "properties": { "wmUplineSo": "KNIFE FALLS", "wmType": "Underground" }, "geometry": { "type": "LineString", "coordinates": [ [ -92.406928202690196, 46.792664733313202 ], [ -92.406899868786795, 46.792971738335602 ] ] } },
{ "type": "Feature", "properties": { "wmUplineSo": "KNIFE FALLS", "wmType": "Underground" }, "geometry": { "type": "LineString", "coordinates": [ [ -92.406899868786795, 46.792971738335602 ], [ -92.407197508254797, 46.7929640033149 ] ] } },
{ "type": "Feature", "properties": { "wmUplineSo": "KNIFE FALLS", "wmType": "Underground" }, "geometry": { "type": "LineString", "coordinates": [ [ -92.407197508254797, 46.7929640033149 ], [ -92.407211275312406, 46.792986827965201 ] ] } },
{ "type": "Feature", "properties": { "wmUplineSo": "KNIFE FALLS", "wmType": "Underground" }, "geometry": { "type": "LineString", "coordinates": [ [ -92.406899868786795, 46.792971738335602 ], [ -92.406914742922297, 46.793069437316703 ] ] } },
{ "type": "Feature", "properties": { "wmUplineSo": "KNIFE FALLS", "wmType": "Underground" }, "geometry": { "type": "LineString", "coordinates": [ [ -92.414363046739297, 46.778221863467799 ], [ -92.414403, 46.7779260000001 ] ] } },
{ "type": "Feature", "properties": { "wmUplineSo": "KNIFE FALLS", "wmType": "Underground" }, "geometry": { "type": "LineString", "coordinates": [ [ -92.422932261795296, 46.779206656733997 ], [ -92.423082912094699, 46.779258047409598 ] ] } },
{ "type": "Feature", "properties": { "wmUplineSo": "KNIFE FALLS", "wmType": "Underground" }, "geometry": { "type": "LineString", "coordinates": [ [ -92.423082912094699, 46.779258047409598 ], [ -92.423041038130293, 46.779335255259298 ] ] } },
{ "type": "Feature", "properties": { "wmUplineSo": "KNIFE FALLS", "wmType": "Underground" }, "geometry": { "type": "LineString", "coordinates": [ [ -92.423041038130293, 46.779335255259298 ], [ -92.423027071310102, 46.779754418699802 ] ] } },
{ "type": "Feature", "properties": { "wmUplineSo": "KNIFE FALLS", "wmType": "Underground" }, "geometry": { "type": "LineString", "coordinates": [ [ -92.423027071310102, 46.779754418699802 ], [ -92.423029057837098, 46.7802378765345 ] ] } },
{ "type": "Feature", "properties": { "wmUplineSo": "KNIFE FALLS", "wmType": "Underground" }, "geometry": { "type": "LineString", "coordinates": [ [ -92.423029057837098, 46.7802378765345 ], [ -92.423061869453903, 46.780877854381302 ] ] } },
{ "type": "Feature", "properties": { "wmUplineSo": "KNIFE FALLS", "wmType": "Underground" }, "geometry": { "type": "LineString", "coordinates": [ [ -92.423061869453903, 46.780877854381302 ], [ -92.422968018751504, 46.781095841438699 ] ] } },
{ "type": "Feature", "properties": { "wmUplineSo": "KNIFE FALLS", "wmType": "Underground" }, "geometry": { "type": "LineString", "coordinates": [ [ -92.422968018751504, 46.781095841438699 ], [ -92.422854069717602, 46.781179276238198 ] ] } },
{ "type": "Feature", "properties": { "wmUplineSo": "KNIFE FALLS", "wmType": "Underground" }, "geometry": { "type": "LineString", "coordinates": [ [ -92.422854069717602, 46.781179276238198 ], [ -92.422705707290504, 46.781227459357602 ] ] } },
{ "type": "Feature", "properties": { "wmUplineSo": "KNIFE FALLS", "wmType": "Underground" }, "geometry": { "type": "LineString", "coordinates": [ [ -92.422705707290504, 46.781227459357602 ], [ -92.422446999992601, 46.7812635676611 ] ] } },
{ "type": "Feature", "properties": { "wmUplineSo": "KNIFE FALLS", "wmType": "Underground" }, "geometry": { "type": "LineString", "coordinates": [ [ -92.422446999992601, 46.7812635676611 ], [ -92.422124185634502, 46.781388655860802 ] ] } },
{ "type": "Feature", "properties": { "wmUplineSo": "KNIFE FALLS", "wmType": "Underground" }, "geometry": { "type": "LineString", "coordinates": [ [ -92.422124185634502, 46.781388655860802 ], [ -92.422196332321207, 46.781535194074003 ] ] } },
{ "type": "Feature", "properties": { "wmUplineSo": "KNIFE FALLS", "wmType": "Underground" }, "geometry": { "type": "LineString", "coordinates": [ [ -92.422196332321207, 46.781535194074003 ], [ -92.422203783226905, 46.781549584877297 ] ] } },
{ "type": "Feature", "properties": { "wmUplineSo": "KNIFE FALLS", "wmType": "Underground" }, "geometry": { "type": "LineString", "coordinates": [ [ -92.430700264071206, 46.764829312932001 ], [ -92.430702780740106, 46.764828663488998 ], [ -92.430712903496698, 46.764826051244299 ], [ -92.431207712110407, 46.764850536100298 ], [ -92.431222857032196, 46.764855677753999 ] ] } },
{ "type": "Feature", "properties": { "wmUplineSo": "KNIFE FALLS", "wmType": "Underground" }, "geometry": { "type": "LineString", "coordinates": [ [ -92.431222857032196, 46.764855677753999 ], [ -92.430700264071206, 46.764829312932001 ] ] } },
{ "type": "Feature", "properties": { "wmUplineSo": "KNIFE FALLS", "wmType": "Underground" }, "geometry": { "type": "LineString", "coordinates": [ [ -92.430700264071206, 46.764829312932001 ], [ -92.429796102198793, 46.764786576410302 ] ] } },
{ "type": "Feature", "properties": { "wmUplineSo": "KNIFE FALLS", "wmType": "Underground" }, "geometry": { "type": "LineString", "coordinates": [ [ -92.429796102198793, 46.764786576410302 ], [ -92.428658624685497, 46.764734038651397 ] ] } },
{ "type": "Feature", "properties": { "wmUplineSo": "KNIFE FALLS", "wmType": "Underground" }, "geometry": { "type": "LineString", "coordinates": [ [ -92.428658624685497, 46.764734038651397 ], [ -92.428604844589003, 46.764991981402297 ] ] } },
{ "type": "Feature", "properties": { "wmUplineSo": "KNIFE FALLS", "wmType": "Underground" }, "geometry": { "type": "LineString", "coordinates": [ [ -92.428604844589003, 46.764991981402297 ], [ -92.428621227843195, 46.7651090162475 ] ] } },
{ "type": "Feature", "properties": { "wmUplineSo": "KNIFE FALLS", "wmType": "Underground" }, "geometry": { "type": "LineString", "coordinates": [ [ -92.428604844589003, 46.764991981402297 ], [ -92.4282612263613, 46.764975827632398 ] ] } },
{ "type": "Feature", "properties": { "wmUplineSo": "KNIFE FALLS", "wmType": "Underground" }, "geometry": { "type": "LineString", "coordinates": [ [ -92.4282612263613, 46.764975827632398 ], [ -92.427594176918703, 46.764951794238698 ] ] } },
{ "type": "Feature", "properties": { "wmUplineSo": "KNIFE FALLS", "wmType": "Underground" }, "geometry": { "type": "LineString", "coordinates": [ [ -92.427594176918703, 46.764951794238698 ], [ -92.427361791977404, 46.764941926722898 ] ] } },
{ "type": "Feature", "properties": { "wmUplineSo": "KNIFE FALLS", "wmType": "Underground" }, "geometry": { "type": "LineString", "coordinates": [ [ -92.427361791977404, 46.764941926722898 ], [ -92.426917748209107, 46.764928030545498 ] ] } },
{ "type": "Feature", "properties": { "wmUplineSo": "KNIFE FALLS", "wmType": "Underground" }, "geometry": { "type": "LineString", "coordinates": [ [ -92.426917748209107, 46.764928030545498 ], [ -92.427012214227304, 46.7652726185582 ] ] } },
{ "type": "Feature", "properties": { "wmUplineSo": "KNIFE FALLS", "wmType": "Underground" }, "geometry": { "type": "LineString", "coordinates": [ [ -92.427012214227304, 46.7652726185582 ], [ -92.427410871547096, 46.7653180034727 ] ] } },
{ "type": "Feature", "properties": { "wmUplineSo": "KNIFE FALLS", "wmType": "Underground" }, "geometry": { "type": "LineString", "coordinates": [ [ -92.426917748209107, 46.764928030545498 ], [ -92.426265190418704, 46.764927126508802 ] ] } },
{ "type": "Feature", "properties": { "wmUplineSo": "KNIFE FALLS", "wmType": "Underground" }, "geometry": { "type": "LineString", "coordinates": [ [ -92.426265190418704, 46.764927126508802 ], [ -92.426292000094094, 46.7646938316134 ] ] } },
{ "type": "Feature", "properties": { "wmUplineSo": "KNIFE FALLS", "wmType": "Underground" }, "geometry": { "type": "LineString", "coordinates": [ [ -92.426292000094094, 46.7646938316134 ], [ -92.426317089999898, 46.764809100008499 ] ] } },
{ "type": "Feature", "properties": { "wmUplineSo": "KNIFE FALLS", "wmType": "Underground" }, "geometry": { "type": "LineString", "coordinates": [ [ -92.426265190418704, 46.764927126508802 ], [ -92.425802351792498, 46.764932242461803 ] ] } },
{ "type": "Feature", "properties": { "wmUplineSo": "KNIFE FALLS", "wmType": "Underground" }, "geometry": { "type": "LineString", "coordinates": [ [ -92.431109097464599, 46.764278082210502 ], [ -92.431160792690903, 46.764246383418701 ] ] } },
{ "type": "Feature", "properties": { "wmUplineSo": "KNIFE FALLS", "wmType": "Underground" }, "geometry": { "type": "LineString", "coordinates": [ [ -92.431160792690903, 46.764246383418701 ], [ -92.431247968371395, 46.764247439736302 ] ] } },
{ "type": "Feature", "properties": { "wmUplineSo": "KNIFE FALLS", "wmType": "Underground" }, "geometry": { "type": "LineString", "coordinates": [ [ -92.431247968371395, 46.764247439736302 ], [ -92.431255047968193, 46.764508791122402 ] ] } },
{ "type": "Feature", "properties": { "wmUplineSo": "KNIFE FALLS", "wmType": "Underground" }, "geometry": { "type": "LineString", "coordinates": [ [ -92.431255047968193, 46.764508791122402 ], [ -92.431222857032196, 46.764855677753999 ] ] } },
{ "type": "Feature", "properties": { "wmUplineSo": "KNIFE FALLS", "wmType": "Underground" }, "geometry": { "type": "LineString", "coordinates": [ [ -92.431222857032196, 46.764855677753999 ], [ -92.4316926500791, 46.764881525776403 ] ] } },
{ "type": "Feature", "properties": { "wmUplineSo": "KNIFE FALLS", "wmType": "Underground" }, "geometry": { "type": "LineString", "coordinates": [ [ -92.4316926500791, 46.764881525776403 ], [ -92.432741546136299, 46.764923884102203 ] ] } },
{ "type": "Feature", "properties": { "wmUplineSo": "KNIFE FALLS", "wmType": "Underground" }, "geometry": { "type": "LineString", "coordinates": [ [ -92.432741546136299, 46.764923884102203 ], [ -92.433298031669906, 46.764949353279903 ] ] } },
{ "type": "Feature", "properties": { "wmUplineSo": "KNIFE FALLS", "wmType": "Underground" }, "geometry": { "type": "LineString", "coordinates": [ [ -92.433298031669906, 46.764949353279903 ], [ -92.434576079947902, 46.7650024740907 ] ] } },
{ "type": "Feature", "properties": { "wmUplineSo": "KNIFE FALLS", "wmType": "Underground" }, "geometry": { "type": "LineString", "coordinates": [ [ -92.434576079947902, 46.7650024740907 ], [ -92.435342656293898, 46.765034664220501 ] ] } },
{ "type": "Feature", "properties": { "wmUplineSo": "KNIFE FALLS", "wmType": "Underground" }, "geometry": { "type": "LineString", "coordinates": [ [ -92.435342656293898, 46.765034664220501 ], [ -92.436992626693197, 46.765108079964598 ] ] } },
{ "type": "Feature", "properties": { "wmUplineSo": "KNIFE FALLS", "wmType": "Underground" }, "geometry": { "type": "LineString", "coordinates": [ [ -92.436992626693197, 46.765108079964598 ], [ -92.438757218503497, 46.765167893202801 ] ] } },
{ "type": "Feature", "properties": { "wmUplineSo": "KNIFE FALLS", "wmType": "Underground" }, "geometry": { "type": "LineString", "coordinates": [ [ -92.438757218503497, 46.765167893202801 ], [ -92.438912275594703, 46.765171189961798 ] ] } },
{ "type": "Feature", "properties": { "wmUplineSo": "KNIFE FALLS", "wmType": "Underground" }, "geometry": { "type": "LineString", "coordinates": [ [ -92.438916128459198, 46.764677471933297 ], [ -92.438940737291801, 46.764641311018998 ] ] } },
{ "type": "Feature", "properties": { "wmUplineSo": "KNIFE FALLS", "wmType": "Underground" }, "geometry": { "type": "LineString", "coordinates": [ [ -92.438912275594703, 46.765171189961798 ], [ -92.438916128459198, 46.764677471933297 ] ] } },
{ "type": "Feature", "properties": { "wmUplineSo": "KNIFE FALLS", "wmType": "Underground" }, "geometry": { "type": "LineString", "coordinates": [ [ -92.431069315805502, 46.764252923762797 ], [ -92.431109230452506, 46.764253122182701 ] ] } },
{ "type": "Feature", "properties": { "wmUplineSo": "KNIFE FALLS", "wmType": "Underground" }, "geometry": { "type": "LineString", "coordinates": [ [ -92.431069182799206, 46.764277883790399 ], [ -92.431069315805502, 46.764252923762797 ] ] } },
{ "type": "Feature", "properties": { "wmUplineSo": "KNIFE FALLS", "wmType": "Underground" }, "geometry": { "type": "LineString", "coordinates": [ [ -92.431069182799206, 46.764277883790399 ], [ -92.431109097464599, 46.764278082210502 ] ] } },
{ "type": "Feature", "properties": { "wmUplineSo": "KNIFE FALLS", "wmType": "Underground" }, "geometry": { "type": "LineString", "coordinates": [ [ -92.431029268134196, 46.764277685356397 ], [ -92.431069182799206, 46.764277883790399 ] ] } },
{ "type": "Feature", "properties": { "wmUplineSo": "KNIFE FALLS", "wmType": "Underground" }, "geometry": { "type": "LineString", "coordinates": [ [ -92.425802351792498, 46.764932242461803 ], [ -92.424840172552393, 46.7649350367548 ] ] } },
{ "type": "Feature", "properties": { "wmUplineSo": "KNIFE FALLS", "wmType": "Underground" }, "geometry": { "type": "LineString", "coordinates": [ [ -92.430991802897793, 46.764252529353399 ], [ -92.431029268134196, 46.764277685356397 ] ] } },
{ "type": "Feature", "properties": { "wmUplineSo": "KNIFE FALLS", "wmType": "Underground" }, "geometry": { "type": "LineString", "coordinates": [ [ -92.431069315805502, 46.764252923762797 ], [ -92.431029401158995, 46.764252725329001 ] ] } },
{ "type": "Feature", "properties": { "wmUplineSo": "KNIFE FALLS", "wmType": "Underground" }, "geometry": { "type": "LineString", "coordinates": [ [ -92.425885084535906, 46.779241242649398 ], [ -92.425689491551097, 46.779451971051998 ] ] } },
{ "type": "Feature", "properties": { "wmUplineSo": "KNIFE FALLS", "wmType": "Underground" }, "geometry": { "type": "LineString", "coordinates": [ [ -92.414403, 46.7779260000001 ], [ -92.414273, 46.777855000000102 ] ] } },
{ "type": "Feature", "properties": { "wmUplineSo": "KNIFE FALLS", "wmType": "Underground" }, "geometry": { "type": "LineString", "coordinates": [ [ -92.413378, 46.776981999999897 ], [ -92.413284, 46.776274999999899 ] ] } },
{ "type": "Feature", "properties": { "wmUplineSo": "KNIFE FALLS", "wmType": "Underground" }, "geometry": { "type": "LineString", "coordinates": [ [ -92.413284, 46.776274999999899 ], [ -92.41327, 46.776271000000101 ] ] } },
{ "type": "Feature", "properties": { "wmUplineSo": "KNIFE FALLS", "wmType": "Underground" }, "geometry": { "type": "LineString", "coordinates": [ [ -92.414273, 46.777855000000102 ], [ -92.413944, 46.777568000000102 ] ] } },
{ "type": "Feature", "properties": { "wmUplineSo": "KNIFE FALLS", "wmType": "Underground" }, "geometry": { "type": "LineString", "coordinates": [ [ -92.413944, 46.777568000000102 ], [ -92.413483, 46.777318 ] ] } },
{ "type": "Feature", "properties": { "wmUplineSo": "KNIFE FALLS", "wmType": "Underground" }, "geometry": { "type": "LineString", "coordinates": [ [ -92.413483, 46.777318 ], [ -92.413378, 46.776981999999897 ] ] } },
{ "type": "Feature", "properties": { "wmUplineSo": "KNIFE FALLS", "wmType": "Underground" }, "geometry": { "type": "LineString", "coordinates": [ [ -92.420717518083904, 46.779176451370198 ], [ -92.420828438086403, 46.781182316578203 ] ] } },
{ "type": "Feature", "properties": { "wmUplineSo": "KNIFE FALLS", "wmType": "Underground" }, "geometry": { "type": "LineString", "coordinates": [ [ -92.420828438086403, 46.781182316578203 ], [ -92.420767799999894, 46.7811286000085 ] ] } },
{ "type": "Feature", "properties": { "wmUplineSo": "KNIFE FALLS", "wmType": "Underground" }, "geometry": { "type": "LineString", "coordinates": [ [ -92.427410871547096, 46.7653180034727 ], [ -92.427507243708703, 46.765335799127897 ] ] } },
{ "type": "Feature", "properties": { "wmUplineSo": "KNIFE FALLS", "wmType": "Underground" }, "geometry": { "type": "LineString", "coordinates": [ [ -92.406867230325702, 46.787275383416002 ], [ -92.406887281846195, 46.787477758052397 ] ] } },
{ "type": "Feature", "properties": { "wmUplineSo": "KNIFE FALLS", "wmType": "Underground" }, "geometry": { "type": "LineString", "coordinates": [ [ -92.416588097400407, 46.779130134775102 ], [ -92.416468, 46.779393999999897 ] ] } },
{ "type": "Feature", "properties": { "wmUplineSo": "KNIFE FALLS", "wmType": "Underground" }, "geometry": { "type": "LineString", "coordinates": [ [ -92.416468, 46.779393999999897 ], [ -92.416454, 46.779517 ] ] } },
{ "type": "Feature", "properties": { "wmUplineSo": "KNIFE FALLS", "wmType": "Underground" }, "geometry": { "type": "LineString", "coordinates": [ [ -92.416454, 46.779517 ], [ -92.416409, 46.779655 ] ] } },
{ "type": "Feature", "properties": { "wmUplineSo": "KNIFE FALLS", "wmType": "Underground" }, "geometry": { "type": "LineString", "coordinates": [ [ -92.416409, 46.779655 ], [ -92.416438, 46.779772 ] ] } },
{ "type": "Feature", "properties": { "wmUplineSo": "KNIFE FALLS", "wmType": "Underground" }, "geometry": { "type": "LineString", "coordinates": [ [ -92.416438, 46.779772 ], [ -92.416446, 46.779888999999898 ] ] } },
{ "type": "Feature", "properties": { "wmUplineSo": "KNIFE FALLS", "wmType": "Underground" }, "geometry": { "type": "LineString", "coordinates": [ [ -92.416446, 46.779888999999898 ], [ -92.416436, 46.780055 ] ] } },
{ "type": "Feature", "properties": { "wmUplineSo": "KNIFE FALLS", "wmType": "Underground" }, "geometry": { "type": "LineString", "coordinates": [ [ -92.416436, 46.780055 ], [ -92.416489, 46.780223 ] ] } },
{ "type": "Feature", "properties": { "wmUplineSo": "KNIFE FALLS", "wmType": "Underground" }, "geometry": { "type": "LineString", "coordinates": [ [ -92.416489, 46.780223 ], [ -92.416504, 46.7803240000001 ] ] } },
{ "type": "Feature", "properties": { "wmUplineSo": "KNIFE FALLS", "wmType": "Underground" }, "geometry": { "type": "LineString", "coordinates": [ [ -92.416504, 46.7803240000001 ], [ -92.416546, 46.780565 ] ] } },
{ "type": "Feature", "properties": { "wmUplineSo": "KNIFE FALLS", "wmType": "Underground" }, "geometry": { "type": "LineString", "coordinates": [ [ -92.416546, 46.780565 ], [ -92.416507, 46.780751000000102 ] ] } },
{ "type": "Feature", "properties": { "wmUplineSo": "KNIFE FALLS", "wmType": "Underground" }, "geometry": { "type": "LineString", "coordinates": [ [ -92.439893205580205, 46.774650138412802 ], [ -92.439950053510401, 46.774694367177297 ] ] } },
{ "type": "Feature", "properties": { "wmUplineSo": "KNIFE FALLS", "wmType": "Underground" }, "geometry": { "type": "LineString", "coordinates": [ [ -92.439950053510401, 46.774694367177297 ], [ -92.439977441249098, 46.7746985169995 ] ] } },
{ "type": "Feature", "properties": { "wmUplineSo": "KNIFE FALLS", "wmType": "Underground" }, "geometry": { "type": "LineString", "coordinates": [ [ -92.407629046596298, 46.787857671487103 ], [ -92.407918581375299, 46.787884118412499 ] ] } },
{ "type": "Feature", "properties": { "wmUplineSo": "KNIFE FALLS", "wmType": "Underground" }, "geometry": { "type": "LineString", "coordinates": [ [ -92.408225365984094, 46.787846424664899 ], [ -92.408486808811602, 46.787804116376797 ] ] } },
{ "type": "Feature", "properties": { "wmUplineSo": "KNIFE FALLS", "wmType": "Underground" }, "geometry": { "type": "LineString", "coordinates": [ [ -92.406887281846195, 46.787477758052397 ], [ -92.407125670811098, 46.787477771949199 ] ] } },
{ "type": "Feature", "properties": { "wmUplineSo": "KNIFE FALLS", "wmType": "Underground" }, "geometry": { "type": "LineString", "coordinates": [ [ -92.408753370287101, 46.787616119526803 ], [ -92.408917484961606, 46.7876652959838 ] ] } },
{ "type": "Feature", "properties": { "wmUplineSo": "KNIFE FALLS", "wmType": "Underground" }, "geometry": { "type": "LineString", "coordinates": [ [ -92.407918581375299, 46.787884118412499 ], [ -92.408225365984094, 46.787846424664899 ] ] } },
{ "type": "Feature", "properties": { "wmUplineSo": "KNIFE FALLS", "wmType": "Underground" }, "geometry": { "type": "LineString", "coordinates": [ [ -92.408486808811602, 46.787804116376797 ], [ -92.408753370287101, 46.787616119526803 ] ] } },
{ "type": "Feature", "properties": { "wmUplineSo": "KNIFE FALLS", "wmType": "Underground" }, "geometry": { "type": "LineString", "coordinates": [ [ -92.408149268314006, 46.7920314605716 ], [ -92.408086099999906, 46.792163800008503 ] ] } },
{ "type": "Feature", "properties": { "wmUplineSo": "KNIFE FALLS", "wmType": "Underground" }, "geometry": { "type": "LineString", "coordinates": [ [ -92.408172619876893, 46.794661345827599 ], [ -92.408307899999897, 46.794840800008501 ] ] } },
{ "type": "Feature", "properties": { "wmUplineSo": "KNIFE FALLS", "wmType": "Underground" }, "geometry": { "type": "LineString", "coordinates": [ [ -92.447629785947399, 46.762352767360603 ], [ -92.4476553122974, 46.762444807247 ] ] } },
{ "type": "Feature", "properties": { "wmUplineSo": "KNIFE FALLS", "wmType": "Underground" }, "geometry": { "type": "LineString", "coordinates": [ [ -92.408928184597201, 46.763944630104596 ], [ -92.409123799999904, 46.764333800008501 ] ] } },
{ "type": "Feature", "properties": { "wmUplineSo": "KNIFE FALLS", "wmType": "Underground" }, "geometry": { "type": "LineString", "coordinates": [ [ -92.423219207353199, 46.776266541272001 ], [ -92.423846599999905, 46.776244100008498 ] ] } },
{ "type": "Feature", "properties": { "wmUplineSo": "KNIFE FALLS", "wmType": "Underground" }, "geometry": { "type": "LineString", "coordinates": [ [ -92.436894847161099, 46.786256035476001 ], [ -92.436960999999897, 46.786271400008502 ] ] } },
{ "type": "Feature", "properties": { "wmUplineSo": "KNIFE FALLS", "wmType": "Underground" }, "geometry": { "type": "LineString", "coordinates": [ [ -92.425689491551097, 46.779451971051998 ], [ -92.425647999999896, 46.779527700008501 ] ] } },
{ "type": "Feature", "properties": { "wmUplineSo": "KNIFE FALLS", "wmType": "Underground" }, "geometry": { "type": "LineString", "coordinates": [ [ -92.422092127687094, 46.776661718180698 ], [ -92.421896, 46.776579500008502 ] ] } },
{ "type": "Feature", "properties": { "wmUplineSo": "KNIFE FALLS", "wmType": "Underground" }, "geometry": { "type": "LineString", "coordinates": [ [ -92.414873236401405, 46.776550792578902 ], [ -92.415141199999894, 46.776377800008497 ] ] } },
{ "type": "Feature", "properties": { "wmUplineSo": "KNIFE FALLS", "wmType": "Underground" }, "geometry": { "type": "LineString", "coordinates": [ [ -92.432140812461498, 46.799102085341602 ], [ -92.432638499999896, 46.7988360000085 ] ] } },
{ "type": "Feature", "properties": { "wmUplineSo": "KNIFE FALLS", "wmType": "Underground" }, "geometry": { "type": "LineString", "coordinates": [ [ -92.427260812154003, 46.797134670868701 ], [ -92.4271963999999, 46.797152700008503 ] ] } },
{ "type": "Feature", "properties": { "wmUplineSo": "KNIFE FALLS", "wmType": "Underground" }, "geometry": { "type": "LineString", "coordinates": [ [ -92.432212141921596, 46.796100541043501 ], [ -92.4325974999999, 46.795952600008498 ] ] } },
{ "type": "Feature", "properties": { "wmUplineSo": "KNIFE FALLS", "wmType": "Underground" }, "geometry": { "type": "LineString", "coordinates": [ [ -92.429778210802297, 46.793900839008899 ], [ -92.429688999999897, 46.793944900008498 ] ] } },
{ "type": "Feature", "properties": { "wmUplineSo": "KNIFE FALLS", "wmType": "Underground" }, "geometry": { "type": "LineString", "coordinates": [ [ -92.429618166769203, 46.791212711039599 ], [ -92.429587899999902, 46.791110700008502 ] ] } },
{ "type": "Feature", "properties": { "wmUplineSo": "KNIFE FALLS", "wmType": "Underground" }, "geometry": { "type": "LineString", "coordinates": [ [ -92.469722472322601, 46.7459598259628 ], [ -92.469769599999907, 46.745991300008498 ] ] } },
{ "type": "Feature", "properties": { "wmUplineSo": "KNIFE FALLS", "wmType": "Underground" }, "geometry": { "type": "LineString", "coordinates": [ [ -92.473238396551906, 46.7579965024416 ], [ -92.472959099999898, 46.758144900008503 ] ] } },
{ "type": "Feature", "properties": { "wmUplineSo": "KNIFE FALLS", "wmType": "Underground" }, "geometry": { "type": "LineString", "coordinates": [ [ -92.4735803034215, 46.759506749794099 ], [ -92.473846599999902, 46.759330800008499 ] ] } },
{ "type": "Feature", "properties": { "wmUplineSo": "KNIFE FALLS", "wmType": "Underground" }, "geometry": { "type": "LineString", "coordinates": [ [ -92.4735803034215, 46.759506749794099 ], [ -92.473980399999903, 46.759796800008502 ] ] } },
{ "type": "Feature", "properties": { "wmUplineSo": "KNIFE FALLS", "wmType": "Underground" }, "geometry": { "type": "LineString", "coordinates": [ [ -92.467497584156305, 46.763299681043698 ], [ -92.467411099999893, 46.763379800008501 ] ] } },
{ "type": "Feature", "properties": { "wmUplineSo": "KNIFE FALLS", "wmType": "Underground" }, "geometry": { "type": "LineString", "coordinates": [ [ -92.470444637607898, 46.761603347776401 ], [ -92.471053599999905, 46.761793600008502 ] ] } },
{ "type": "Feature", "properties": { "wmUplineSo": "KNIFE FALLS", "wmType": "Underground" }, "geometry": { "type": "LineString", "coordinates": [ [ -92.468594879714004, 46.764350843299702 ], [ -92.468989499999907, 46.764245800008503 ] ] } },
{ "type": "Feature", "properties": { "wmUplineSo": "KNIFE FALLS", "wmType": "Underground" }, "geometry": { "type": "LineString", "coordinates": [ [ -92.465651871114602, 46.774076512531302 ], [ -92.465773299999896, 46.774301500008498 ] ] } },
{ "type": "Feature", "properties": { "wmUplineSo": "KNIFE FALLS", "wmType": "Underground" }, "geometry": { "type": "LineString", "coordinates": [ [ -92.458966113409502, 46.7710174519163 ], [ -92.459041999999897, 46.770882300008502 ] ] } },
{ "type": "Feature", "properties": { "wmUplineSo": "KNIFE FALLS", "wmType": "Underground" }, "geometry": { "type": "LineString", "coordinates": [ [ -92.453918010019905, 46.774197753113199 ], [ -92.453820599999901, 46.7740183000085 ] ] } },
{ "type": "Feature", "properties": { "wmUplineSo": "KNIFE FALLS", "wmType": "Underground" }, "geometry": { "type": "LineString", "coordinates": [ [ -92.455567928315503, 46.772109439457303 ], [ -92.455864599999899, 46.772016300008502 ] ] } },
{ "type": "Feature", "properties": { "wmUplineSo": "KNIFE FALLS", "wmType": "Underground" }, "geometry": { "type": "LineString", "coordinates": [ [ -92.455567928315503, 46.772109439457303 ], [ -92.455064799999903, 46.771915600008498 ] ] } },
{ "type": "Feature", "properties": { "wmUplineSo": "KNIFE FALLS", "wmType": "Underground" }, "geometry": { "type": "LineString", "coordinates": [ [ -92.456594816214206, 46.775617919363903 ], [ -92.456532399999901, 46.775624300008502 ] ] } },
{ "type": "Feature", "properties": { "wmUplineSo": "KNIFE FALLS", "wmType": "Underground" }, "geometry": { "type": "LineString", "coordinates": [ [ -92.455130916260202, 46.7752451481552 ], [ -92.455479499999896, 46.775084600008498 ] ] } },
{ "type": "Feature", "properties": { "wmUplineSo": "KNIFE FALLS", "wmType": "Underground" }, "geometry": { "type": "LineString", "coordinates": [ [ -92.453856952675693, 46.770794666729699 ], [ -92.454206599999907, 46.770632300008501 ] ] } },
{ "type": "Feature", "properties": { "wmUplineSo": "KNIFE FALLS", "wmType": "Underground" }, "geometry": { "type": "LineString", "coordinates": [ [ -92.445574848581401, 46.774983487015199 ], [ -92.445558899999895, 46.774989000008503 ] ] } },
{ "type": "Feature", "properties": { "wmUplineSo": "KNIFE FALLS", "wmType": "Underground" }, "geometry": { "type": "LineString", "coordinates": [ [ -92.445403287803799, 46.774070214622803 ], [ -92.445260299999902, 46.773992100008499 ] ] } },
{ "type": "Feature", "properties": { "wmUplineSo": "KNIFE FALLS", "wmType": "Underground" }, "geometry": { "type": "LineString", "coordinates": [ [ -92.4352432703392, 46.775335075502603 ], [ -92.4356527999999, 46.775287400008501 ] ] } },
{ "type": "Feature", "properties": { "wmUplineSo": "KNIFE FALLS", "wmType": "Underground" }, "geometry": { "type": "LineString", "coordinates": [ [ -92.43970068518, 46.769858969900099 ], [ -92.439689599999895, 46.7697968000085 ] ] } },
{ "type": "Feature", "properties": { "wmUplineSo": "KNIFE FALLS", "wmType": "Underground" }, "geometry": { "type": "LineString", "coordinates": [ [ -92.440357983891303, 46.769966951361901 ], [ -92.440563499999897, 46.770003600008501 ] ] } },
{ "type": "Feature", "properties": { "wmUplineSo": "KNIFE FALLS", "wmType": "Underground" }, "geometry": { "type": "LineString", "coordinates": [ [ -92.419807404064102, 46.765769275948699 ], [ -92.420793499999903, 46.766306300008502 ] ] } },
{ "type": "Feature", "properties": { "wmUplineSo": "KNIFE FALLS", "wmType": "Underground" }, "geometry": { "type": "LineString", "coordinates": [ [ -92.422435740988405, 46.765976925425001 ], [ -92.422374399999896, 46.766055800008502 ] ] } },
{ "type": "Feature", "properties": { "wmUplineSo": "KNIFE FALLS", "wmType": "Underground" }, "geometry": { "type": "LineString", "coordinates": [ [ -92.424109087172098, 46.763411434882599 ], [ -92.424163299999904, 46.763358500008501 ] ] } },
{ "type": "Feature", "properties": { "wmUplineSo": "KNIFE FALLS", "wmType": "Underground" }, "geometry": { "type": "LineString", "coordinates": [ [ -92.426797849012601, 46.791106840876303 ], [ -92.427819899999903, 46.791078000008497 ] ] } },
{ "type": "Feature", "properties": { "wmUplineSo": "KNIFE FALLS", "wmType": "Underground" }, "geometry": { "type": "LineString", "coordinates": [ [ -92.388078296897703, 46.779604868307501 ], [ -92.387975819473198, 46.779839900992897 ], [ -92.387930571189301, 46.779953621900802 ], [ -92.387816407318098, 46.780019555560997 ] ] } },
{ "type": "Feature", "properties": { "wmUplineSo": "KNIFE FALLS", "wmType": "Underground" }, "geometry": { "type": "LineString", "coordinates": [ [ -92.406425560429795, 46.796301094298002 ], [ -92.406292699999895, 46.796736700008502 ] ] } },
{ "type": "Feature", "properties": { "wmUplineSo": "KNIFE FALLS", "wmType": "Underground" }, "geometry": { "type": "LineString", "coordinates": [ [ -92.408952305085705, 46.785895511561002 ], [ -92.4076112999999, 46.785297400008503 ] ] } },
{ "type": "Feature", "properties": { "wmUplineSo": "KNIFE FALLS", "wmType": "Underground" }, "geometry": { "type": "LineString", "coordinates": [ [ -92.409448876096306, 46.786329451057703 ], [ -92.410172061250606, 46.786277350882898 ] ] } },
{ "type": "Feature", "properties": { "wmUplineSo": "KNIFE FALLS", "wmType": "Underground" }, "geometry": { "type": "LineString", "coordinates": [ [ -92.407435581586, 46.7900652310962 ], [ -92.407742599999906, 46.7899340000085 ] ] } },
{ "type": "Feature", "properties": { "wmUplineSo": "KNIFE FALLS", "wmType": "Underground" }, "geometry": { "type": "LineString", "coordinates": [ [ -92.407592020403897, 46.789277155011497 ], [ -92.4078307999999, 46.789102300008501 ] ] } },
{ "type": "Feature", "properties": { "wmUplineSo": "KNIFE FALLS", "wmType": "Underground" }, "geometry": { "type": "LineString", "coordinates": [ [ -92.407592020403897, 46.789277155011497 ], [ -92.407245599999897, 46.789366500008498 ] ] } },
{ "type": "Feature", "properties": { "wmUplineSo": "KNIFE FALLS", "wmType": "Underground" }, "geometry": { "type": "LineString", "coordinates": [ [ -92.405444445548795, 46.787151446697798 ], [ -92.405106, 46.787130800008498 ] ] } },
{ "type": "Feature", "properties": { "wmUplineSo": "KNIFE FALLS", "wmType": "Underground" }, "geometry": { "type": "LineString", "coordinates": [ [ -92.439437946548395, 46.7826234778708 ], [ -92.440484199999901, 46.7825574000085 ] ] } },
{ "type": "Feature", "properties": { "wmUplineSo": "KNIFE FALLS", "wmType": "Underground" }, "geometry": { "type": "LineString", "coordinates": [ [ -92.419688323086802, 46.771296329388001 ], [ -92.419303099999894, 46.771013100008503 ] ] } },
{ "type": "Feature", "properties": { "wmUplineSo": "KNIFE FALLS", "wmType": "Underground" }, "geometry": { "type": "LineString", "coordinates": [ [ -92.4662221760357, 46.746329772701699 ], [ -92.46617, 46.746325100008498 ] ] } },
{ "type": "Feature", "properties": { "wmUplineSo": "KNIFE FALLS", "wmType": "Underground" }, "geometry": { "type": "LineString", "coordinates": [ [ -92.468311285890707, 46.746139405296297 ], [ -92.468647099999899, 46.745907000008501 ] ] } },
{ "type": "Feature", "properties": { "wmUplineSo": "KNIFE FALLS", "wmType": "Underground" }, "geometry": { "type": "LineString", "coordinates": [ [ -92.4140240896173, 46.779462267428102 ], [ -92.414083699999907, 46.7794826000085 ] ] } },
{ "type": "Feature", "properties": { "wmUplineSo": "KNIFE FALLS", "wmType": "Underground" }, "geometry": { "type": "LineString", "coordinates": [ [ -92.461635939866298, 46.769159828804902 ], [ -92.461853799999901, 46.768976400008498 ] ] } },
{ "type": "Feature", "properties": { "wmUplineSo": "KNIFE FALLS", "wmType": "Underground" }, "geometry": { "type": "LineString", "coordinates": [ [ -92.445677938595495, 46.762328750807399 ], [ -92.445647599999901, 46.762504000008498 ] ] } },
{ "type": "Feature", "properties": { "wmUplineSo": "KNIFE FALLS", "wmType": "Underground" }, "geometry": { "type": "LineString", "coordinates": [ [ -92.443709554392001, 46.769965172069497 ], [ -92.442668899999902, 46.770146000008502 ] ] } },
{ "type": "Feature", "properties": { "wmUplineSo": "KNIFE FALLS", "wmType": "Underground" }, "geometry": { "type": "LineString", "coordinates": [ [ -92.458799442818503, 46.778422739021103 ], [ -92.459122099999902, 46.778337800008501 ] ] } },
{ "type": "Feature", "properties": { "wmUplineSo": "KNIFE FALLS", "wmType": "Underground" }, "geometry": { "type": "LineString", "coordinates": [ [ -92.428512380943403, 46.790569260351603 ], [ -92.428399476189398, 46.790436753726098 ], [ -92.428153447589196, 46.790424256550601 ], [ -92.427901278711502, 46.7903456754239 ], [ -92.4279156999999, 46.7902623000085 ] ] } },
{ "type": "Feature", "properties": { "wmUplineSo": "KNIFE FALLS", "wmType": "Underground" }, "geometry": { "type": "LineString", "coordinates": [ [ -92.438959316902896, 46.773530938940297 ], [ -92.438835599999905, 46.772970300008502 ] ] } },
{ "type": "Feature", "properties": { "wmUplineSo": "KNIFE FALLS", "wmType": "Underground" }, "geometry": { "type": "LineString", "coordinates": [ [ -92.407125670811098, 46.787477771949199 ], [ -92.407122473429993, 46.787804362178797 ] ] } },
{ "type": "Feature", "properties": { "wmUplineSo": "KNIFE FALLS", "wmType": "Underground" }, "geometry": { "type": "LineString", "coordinates": [ [ -92.406636286930507, 46.7947453952169 ], [ -92.406449425950598, 46.794846143154302 ] ] } },
{ "type": "Feature", "properties": { "wmUplineSo": "KNIFE FALLS", "wmType": "Underground" }, "geometry": { "type": "LineString", "coordinates": [ [ -92.441882484457906, 46.772396117095198 ], [ -92.441830305468997, 46.772329475524501 ] ] } },
{ "type": "Feature", "properties": { "wmUplineSo": "KNIFE FALLS", "wmType": "Underground" }, "geometry": { "type": "LineString", "coordinates": [ [ -92.387919587342495, 46.7792787002452 ], [ -92.387919161275093, 46.779271471313301 ] ] } },
{ "type": "Feature", "properties": { "wmUplineSo": "KNIFE FALLS", "wmType": "Underground" }, "geometry": { "type": "LineString", "coordinates": [ [ -92.414403, 46.7779260000001 ], [ -92.414410615805593, 46.777869273199499 ] ] } },
{ "type": "Feature", "properties": { "wmUplineSo": "KNIFE FALLS", "wmType": "Underground" }, "geometry": { "type": "LineString", "coordinates": [ [ -92.414410615805593, 46.777869273199499 ], [ -92.414708395770404, 46.777004230307597 ], [ -92.414552725373198, 46.776656736629299 ], [ -92.414873236401405, 46.776550792578902 ] ] } },
{ "type": "Feature", "properties": { "wmUplineSo": "KNIFE FALLS", "wmType": "Underground" }, "geometry": { "type": "LineString", "coordinates": [ [ -92.407122473429993, 46.787804362178797 ], [ -92.407234511366795, 46.787835893936801 ] ] } },
{ "type": "Feature", "properties": { "wmUplineSo": "KNIFE FALLS", "wmType": "Underground" }, "geometry": { "type": "LineString", "coordinates": [ [ -92.408917484961606, 46.7876652959838 ], [ -92.409195270680598, 46.787618535415703 ] ] } },
{ "type": "Feature", "properties": { "wmUplineSo": "KNIFE FALLS", "wmType": "Underground" }, "geometry": { "type": "LineString", "coordinates": [ [ -92.441830305468997, 46.772329475524501 ], [ -92.441899, 46.772286000008499 ] ] } },
{ "type": "Feature", "properties": { "wmUplineSo": "KNIFE FALLS", "wmType": "Underground" }, "geometry": { "type": "LineString", "coordinates": [ [ -92.438161435104007, 46.786743882787697 ], [ -92.436894847161099, 46.786256035476001 ] ] } },
{ "type": "Feature", "properties": { "wmUplineSo": "KNIFE FALLS", "wmType": "Underground" }, "geometry": { "type": "LineString", "coordinates": [ [ -92.422899896748902, 46.777376340834302 ], [ -92.422840154080106, 46.776699127901402 ] ] } },
{ "type": "Feature", "properties": { "wmUplineSo": "KNIFE FALLS", "wmType": "Underground" }, "geometry": { "type": "LineString", "coordinates": [ [ -92.422911220469103, 46.777739631025902 ], [ -92.422899896748902, 46.777376340834302 ] ] } },
{ "type": "Feature", "properties": { "wmUplineSo": "KNIFE FALLS", "wmType": "Underground" }, "geometry": { "type": "LineString", "coordinates": [ [ -92.425891999966098, 46.779234440682202 ], [ -92.425885084535906, 46.779241242649398 ] ] } },
{ "type": "Feature", "properties": { "wmUplineSo": "KNIFE FALLS", "wmType": "Underground" }, "geometry": { "type": "LineString", "coordinates": [ [ -92.422840154080106, 46.776699127901402 ], [ -92.422092127687094, 46.776661718180698 ] ] } },
{ "type": "Feature", "properties": { "wmUplineSo": "KNIFE FALLS", "wmType": "Underground" }, "geometry": { "type": "LineString", "coordinates": [ [ -92.414407909290901, 46.778799355480601 ], [ -92.414363046739297, 46.778221863467799 ] ] } },
{ "type": "Feature", "properties": { "wmUplineSo": "KNIFE FALLS", "wmType": "Underground" }, "geometry": { "type": "LineString", "coordinates": [ [ -92.431108415013298, 46.799003694481698 ], [ -92.432140812461498, 46.799102085341602 ] ] } },
{ "type": "Feature", "properties": { "wmUplineSo": "KNIFE FALLS", "wmType": "Underground" }, "geometry": { "type": "LineString", "coordinates": [ [ -92.406855712357, 46.794636950576198 ], [ -92.406817318851395, 46.796253062689303 ], [ -92.406425560429795, 46.796301094298002 ] ] } },
{ "type": "Feature", "properties": { "wmUplineSo": "KNIFE FALLS", "wmType": "Underground" }, "geometry": { "type": "LineString", "coordinates": [ [ -92.428454889251498, 46.797166831237803 ], [ -92.427260812154003, 46.797134670868701 ] ] } },
{ "type": "Feature", "properties": { "wmUplineSo": "KNIFE FALLS", "wmType": "Underground" }, "geometry": { "type": "LineString", "coordinates": [ [ -92.430564725812104, 46.796238341872098 ], [ -92.432212141921596, 46.796100541043501 ] ] } },
{ "type": "Feature", "properties": { "wmUplineSo": "KNIFE FALLS", "wmType": "Underground" }, "geometry": { "type": "LineString", "coordinates": [ [ -92.428810410389104, 46.793747858518401 ], [ -92.429778210802297, 46.793900839008899 ] ] } },
{ "type": "Feature", "properties": { "wmUplineSo": "KNIFE FALLS", "wmType": "Underground" }, "geometry": { "type": "LineString", "coordinates": [ [ -92.428749798890493, 46.791077257506601 ], [ -92.429618166769203, 46.791212711039599 ] ] } },
{ "type": "Feature", "properties": { "wmUplineSo": "KNIFE FALLS", "wmType": "Underground" }, "geometry": { "type": "LineString", "coordinates": [ [ -92.409818831495201, 46.764619514089297 ], [ -92.409756176878801, 46.7642705974786 ], [ -92.409136111439594, 46.764165456918597 ], [ -92.408928184597201, 46.763944630104596 ] ] } },
{ "type": "Feature", "properties": { "wmUplineSo": "KNIFE FALLS", "wmType": "Underground" }, "geometry": { "type": "LineString", "coordinates": [ [ -92.422840154080106, 46.776699127901402 ], [ -92.422903753209297, 46.776450298064503 ], [ -92.423219207353199, 46.776266541272001 ] ] } },
{ "type": "Feature", "properties": { "wmUplineSo": "KNIFE FALLS", "wmType": "Underground" }, "geometry": { "type": "LineString", "coordinates": [ [ -92.470749172527604, 46.745688068258801 ], [ -92.470263787256798, 46.745837237755097 ] ] } },
{ "type": "Feature", "properties": { "wmUplineSo": "KNIFE FALLS", "wmType": "Underground" }, "geometry": { "type": "LineString", "coordinates": [ [ -92.470263787256798, 46.745837237755097 ], [ -92.469722472322601, 46.7459598259628 ] ] } },
{ "type": "Feature", "properties": { "wmUplineSo": "KNIFE FALLS", "wmType": "Underground" }, "geometry": { "type": "LineString", "coordinates": [ [ -92.4734441157009, 46.757569471827502 ], [ -92.473472031966693, 46.757788321825103 ] ] } },
{ "type": "Feature", "properties": { "wmUplineSo": "KNIFE FALLS", "wmType": "Underground" }, "geometry": { "type": "LineString", "coordinates": [ [ -92.473472031966693, 46.757788321825103 ], [ -92.473238396551906, 46.7579965024416 ] ] } },
{ "type": "Feature", "properties": { "wmUplineSo": "KNIFE FALLS", "wmType": "Underground" }, "geometry": { "type": "LineString", "coordinates": [ [ -92.473238396551906, 46.7579965024416 ], [ -92.473283055070894, 46.758997247669797 ], [ -92.4735803034215, 46.759506749794099 ] ] } },
{ "type": "Feature", "properties": { "wmUplineSo": "KNIFE FALLS", "wmType": "Underground" }, "geometry": { "type": "LineString", "coordinates": [ [ -92.467486555678093, 46.762354339865901 ], [ -92.467497584156305, 46.763299681043698 ] ] } },
{ "type": "Feature", "properties": { "wmUplineSo": "KNIFE FALLS", "wmType": "Underground" }, "geometry": { "type": "LineString", "coordinates": [ [ -92.469310177727706, 46.763946379171799 ], [ -92.468594879714004, 46.764350843299702 ] ] } },
{ "type": "Feature", "properties": { "wmUplineSo": "KNIFE FALLS", "wmType": "Underground" }, "geometry": { "type": "LineString", "coordinates": [ [ -92.469493941009205, 46.763856298247298 ], [ -92.469310177727706, 46.763946379171799 ] ] } },
{ "type": "Feature", "properties": { "wmUplineSo": "KNIFE FALLS", "wmType": "Underground" }, "geometry": { "type": "LineString", "coordinates": [ [ -92.465270623032893, 46.773112538859898 ], [ -92.465651871114602, 46.774076512531302 ] ] } },
{ "type": "Feature", "properties": { "wmUplineSo": "KNIFE FALLS", "wmType": "Underground" }, "geometry": { "type": "LineString", "coordinates": [ [ -92.465292068057494, 46.772897250714898 ], [ -92.465270623032893, 46.773112538859898 ] ] } },
{ "type": "Feature", "properties": { "wmUplineSo": "KNIFE FALLS", "wmType": "Underground" }, "geometry": { "type": "LineString", "coordinates": [ [ -92.460074473269401, 46.770987266904299 ], [ -92.458966113409502, 46.7710174519163 ] ] } },
{ "type": "Feature", "properties": { "wmUplineSo": "KNIFE FALLS", "wmType": "Underground" }, "geometry": { "type": "LineString", "coordinates": [ [ -92.460173849968399, 46.768889912927499 ], [ -92.460523032527206, 46.768990674614102 ] ] } },
{ "type": "Feature", "properties": { "wmUplineSo": "KNIFE FALLS", "wmType": "Underground" }, "geometry": { "type": "LineString", "coordinates": [ [ -92.460523032527206, 46.768990674614102 ], [ -92.461635939866298, 46.769159828804902 ] ] } },
{ "type": "Feature", "properties": { "wmUplineSo": "KNIFE FALLS", "wmType": "Underground" }, "geometry": { "type": "LineString", "coordinates": [ [ -92.453761321931296, 46.772916246594697 ], [ -92.4536154178017, 46.773011398525298 ], [ -92.4535799119448, 46.774028188336104 ], [ -92.453918010019905, 46.774197753113199 ] ] } },
{ "type": "Feature", "properties": { "wmUplineSo": "KNIFE FALLS", "wmType": "Underground" }, "geometry": { "type": "LineString", "coordinates": [ [ -92.456373414400204, 46.772922731447103 ], [ -92.456353431471996, 46.773164354008202 ], [ -92.456274583994301, 46.773348826550702 ], [ -92.455904814916593, 46.7735287684811 ], [ -92.455691129824402, 46.773703997817698 ], [ -92.455653602854596, 46.7738962544909 ], [ -92.455683091119397, 46.774088228675403 ], [ -92.455837832591797, 46.774299092710798 ], [ -92.455965842353706, 46.774515355705397 ], [ -92.455994187731505, 46.774601504514699 ] ] } },
{ "type": "Feature", "properties": { "wmUplineSo": "KNIFE FALLS", "wmType": "Underground" }, "geometry": { "type": "LineString", "coordinates": [ [ -92.455994187731505, 46.774601504514699 ], [ -92.456037229822599, 46.775187842702501 ], [ -92.456498205690096, 46.775395005141199 ], [ -92.456629516204899, 46.775511324946002 ], [ -92.456594816214206, 46.775617919363903 ] ] } },
{ "type": "Feature", "properties": { "wmUplineSo": "KNIFE FALLS", "wmType": "Underground" }, "geometry": { "type": "LineString", "coordinates": [ [ -92.455994187731505, 46.774601504514699 ], [ -92.455264312670707, 46.7749829616114 ], [ -92.455134684106199, 46.775130931255802 ], [ -92.455130916260202, 46.7752451481552 ] ] } },
{ "type": "Feature", "properties": { "wmUplineSo": "KNIFE FALLS", "wmType": "Underground" }, "geometry": { "type": "LineString", "coordinates": [ [ -92.452829329816694, 46.771377151613599 ], [ -92.452863889617106, 46.771524136823601 ], [ -92.453236220300695, 46.771534657422002 ], [ -92.453644054050599, 46.771502583379998 ], [ -92.453759572519701, 46.771462435344702 ], [ -92.453847751447498, 46.771371472980199 ], [ -92.453856952675693, 46.770794666729699 ] ] } },
{ "type": "Feature", "properties": { "wmUplineSo": "KNIFE FALLS", "wmType": "Underground" }, "geometry": { "type": "LineString", "coordinates": [ [ -92.446380625006, 46.773836691922497 ], [ -92.446252698761398, 46.774017296647997 ], [ -92.446253203069801, 46.774280040473599 ], [ -92.446263526763104, 46.774802507455497 ], [ -92.4459570809464, 46.774873680401598 ], [ -92.445574848581401, 46.774983487015199 ] ] } },
{ "type": "Feature", "properties": { "wmUplineSo": "KNIFE FALLS", "wmType": "Underground" }, "geometry": { "type": "LineString", "coordinates": [ [ -92.446380625006, 46.773836691922497 ], [ -92.445730468114405, 46.773926815642099 ], [ -92.445403287803799, 46.774070214622803 ] ] } },
{ "type": "Feature", "properties": { "wmUplineSo": "KNIFE FALLS", "wmType": "Underground" }, "geometry": { "type": "LineString", "coordinates": [ [ -92.438852912234395, 46.7742169981316 ], [ -92.438289492743493, 46.774670069919601 ], [ -92.437615722888395, 46.774923737833902 ], [ -92.436546482092993, 46.7748783415392 ], [ -92.436202177228196, 46.774915774902098 ], [ -92.435778950648199, 46.775137664713498 ], [ -92.4354237777968, 46.7751892101697 ], [ -92.4352432703392, 46.775335075502603 ] ] } },
{ "type": "Feature", "properties": { "wmUplineSo": "KNIFE FALLS", "wmType": "Underground" }, "geometry": { "type": "LineString", "coordinates": [ [ -92.438866351662298, 46.772486197358802 ], [ -92.438959316902896, 46.773530938940297 ] ] } },
{ "type": "Feature", "properties": { "wmUplineSo": "KNIFE FALLS", "wmType": "Underground" }, "geometry": { "type": "LineString", "coordinates": [ [ -92.438866351662298, 46.772486197358802 ], [ -92.439153014087495, 46.770276827205201 ], [ -92.439653188326105, 46.769927572101402 ] ] } },
{ "type": "Feature", "properties": { "wmUplineSo": "KNIFE FALLS", "wmType": "Underground" }, "geometry": { "type": "LineString", "coordinates": [ [ -92.439653188326105, 46.769927572101402 ], [ -92.43970068518, 46.769858969900099 ] ] } },
{ "type": "Feature", "properties": { "wmUplineSo": "KNIFE FALLS", "wmType": "Underground" }, "geometry": { "type": "LineString", "coordinates": [ [ -92.439653188326105, 46.769927572101402 ], [ -92.440357983891303, 46.769966951361901 ] ] } },
{ "type": "Feature", "properties": { "wmUplineSo": "KNIFE FALLS", "wmType": "Underground" }, "geometry": { "type": "LineString", "coordinates": [ [ -92.419718986256697, 46.764939768040001 ], [ -92.419807404064102, 46.765769275948699 ] ] } },
{ "type": "Feature", "properties": { "wmUplineSo": "KNIFE FALLS", "wmType": "Underground" }, "geometry": { "type": "LineString", "coordinates": [ [ -92.422297939275296, 46.764928632547402 ], [ -92.422715732447401, 46.765423717671297 ], [ -92.422435740988405, 46.765976925425001 ] ] } },
{ "type": "Feature", "properties": { "wmUplineSo": "KNIFE FALLS", "wmType": "Underground" }, "geometry": { "type": "LineString", "coordinates": [ [ -92.4230111672194, 46.764797146622499 ], [ -92.422816579106495, 46.764045708461403 ] ] } },
{ "type": "Feature", "properties": { "wmUplineSo": "KNIFE FALLS", "wmType": "Underground" }, "geometry": { "type": "LineString", "coordinates": [ [ -92.422816579106495, 46.764045708461403 ], [ -92.424109087172098, 46.763411434882599 ] ] } },
{ "type": "Feature", "properties": { "wmUplineSo": "KNIFE FALLS", "wmType": "Underground" }, "geometry": { "type": "LineString", "coordinates": [ [ -92.428494178252095, 46.790972345146102 ], [ -92.428161550189998, 46.790965193895403 ], [ -92.427977956338594, 46.7911255063147 ], [ -92.426797849012601, 46.791106840876303 ] ] } },
{ "type": "Feature", "properties": { "wmUplineSo": "KNIFE FALLS", "wmType": "Underground" }, "geometry": { "type": "LineString", "coordinates": [ [ -92.406855712357, 46.794636950576198 ], [ -92.408172619876893, 46.794661345827599 ] ] } },
{ "type": "Feature", "properties": { "wmUplineSo": "KNIFE FALLS", "wmType": "Underground" }, "geometry": { "type": "LineString", "coordinates": [ [ -92.406876337289205, 46.785788663714698 ], [ -92.408952305085705, 46.785895511561002 ] ] } },
{ "type": "Feature", "properties": { "wmUplineSo": "KNIFE FALLS", "wmType": "Underground" }, "geometry": { "type": "LineString", "coordinates": [ [ -92.406929024713307, 46.7920218615563 ], [ -92.408149268314006, 46.7920314605716 ] ] } },
{ "type": "Feature", "properties": { "wmUplineSo": "KNIFE FALLS", "wmType": "Underground" }, "geometry": { "type": "LineString", "coordinates": [ [ -92.406929024713307, 46.7920218615563 ], [ -92.406928202690196, 46.792664733313202 ] ] } },
{ "type": "Feature", "properties": { "wmUplineSo": "KNIFE FALLS", "wmType": "Underground" }, "geometry": { "type": "LineString", "coordinates": [ [ -92.407134274646694, 46.790063633224797 ], [ -92.407435581586, 46.7900652310962 ] ] } },
{ "type": "Feature", "properties": { "wmUplineSo": "KNIFE FALLS", "wmType": "Underground" }, "geometry": { "type": "LineString", "coordinates": [ [ -92.406910926867297, 46.790071710083801 ], [ -92.406898536829999, 46.791010245155199 ] ] } },
{ "type": "Feature", "properties": { "wmUplineSo": "KNIFE FALLS", "wmType": "Underground" }, "geometry": { "type": "LineString", "coordinates": [ [ -92.406905407385693, 46.789296063113902 ], [ -92.406910926867297, 46.790071710083801 ] ] } },
{ "type": "Feature", "properties": { "wmUplineSo": "KNIFE FALLS", "wmType": "Underground" }, "geometry": { "type": "LineString", "coordinates": [ [ -92.406905407385693, 46.789296063113902 ], [ -92.407592020403897, 46.789277155011497 ] ] } },
{ "type": "Feature", "properties": { "wmUplineSo": "KNIFE FALLS", "wmType": "Underground" }, "geometry": { "type": "LineString", "coordinates": [ [ -92.406887281846195, 46.787477758052397 ], [ -92.406905407385693, 46.789296063113902 ] ] } },
{ "type": "Feature", "properties": { "wmUplineSo": "KNIFE FALLS", "wmType": "Underground" }, "geometry": { "type": "LineString", "coordinates": [ [ -92.406867230325702, 46.787275383416002 ], [ -92.405444445548795, 46.787151446697798 ] ] } },
{ "type": "Feature", "properties": { "wmUplineSo": "KNIFE FALLS", "wmType": "Underground" }, "geometry": { "type": "LineString", "coordinates": [ [ -92.406897116571599, 46.786263785867 ], [ -92.409448876096306, 46.786329451057703 ] ] } },
{ "type": "Feature", "properties": { "wmUplineSo": "KNIFE FALLS", "wmType": "Underground" }, "geometry": { "type": "LineString", "coordinates": [ [ -92.406897116571599, 46.786263785867 ], [ -92.406867230325702, 46.787275383416002 ] ] } },
{ "type": "Feature", "properties": { "wmUplineSo": "KNIFE FALLS", "wmType": "Underground" }, "geometry": { "type": "LineString", "coordinates": [ [ -92.406848788682794, 46.783948064763798 ], [ -92.406876337289205, 46.785788663714698 ] ] } },
{ "type": "Feature", "properties": { "wmUplineSo": "KNIFE FALLS", "wmType": "Underground" }, "geometry": { "type": "LineString", "coordinates": [ [ -92.439183123057006, 46.782601194764702 ], [ -92.439437946548395, 46.7826234778708 ] ] } },
{ "type": "Feature", "properties": { "wmUplineSo": "KNIFE FALLS", "wmType": "Underground" }, "geometry": { "type": "LineString", "coordinates": [ [ -92.417893543965803, 46.770631393019201 ], [ -92.418497631460895, 46.770896581514897 ], [ -92.418881377145397, 46.771231232043597 ], [ -92.419688323086802, 46.771296329388001 ] ] } },
{ "type": "Feature", "properties": { "wmUplineSo": "KNIFE FALLS", "wmType": "Underground" }, "geometry": { "type": "LineString", "coordinates": [ [ -92.469722472322601, 46.7459598259628 ], [ -92.468957839087594, 46.746119318405 ], [ -92.468311285890707, 46.746139405296297 ] ] } },
{ "type": "Feature", "properties": { "wmUplineSo": "KNIFE FALLS", "wmType": "Underground" }, "geometry": { "type": "LineString", "coordinates": [ [ -92.468311285890707, 46.746139405296297 ], [ -92.467698967661093, 46.746479032745199 ], [ -92.4664791721775, 46.746408100978101 ], [ -92.4662221760357, 46.746329772701699 ] ] } },
{ "type": "Feature", "properties": { "wmUplineSo": "KNIFE FALLS", "wmType": "Underground" }, "geometry": { "type": "LineString", "coordinates": [ [ -92.449132053822098, 46.762278411143001 ], [ -92.447630768154198, 46.762179320731498 ] ] } },
{ "type": "Feature", "properties": { "wmUplineSo": "KNIFE FALLS", "wmType": "Underground" }, "geometry": { "type": "LineString", "coordinates": [ [ -92.447630768154198, 46.762179320731498 ], [ -92.447629785947399, 46.762352767360603 ] ] } },
{ "type": "Feature", "properties": { "wmUplineSo": "KNIFE FALLS", "wmType": "Underground" }, "geometry": { "type": "LineString", "coordinates": [ [ -92.447630768154198, 46.762179320731498 ], [ -92.446930822385298, 46.762174910115398 ], [ -92.445677938595495, 46.762328750807399 ] ] } },
{ "type": "Feature", "properties": { "wmUplineSo": "KNIFE FALLS", "wmType": "Underground" }, "geometry": { "type": "LineString", "coordinates": [ [ -92.441058797310802, 46.772521331589402 ], [ -92.441180117614607, 46.7721710228072 ] ] } },
{ "type": "Feature", "properties": { "wmUplineSo": "KNIFE FALLS", "wmType": "Underground" }, "geometry": { "type": "LineString", "coordinates": [ [ -92.441180117614607, 46.7721710228072 ], [ -92.441629727040393, 46.771085086596003 ], [ -92.443697831595202, 46.770045792020298 ], [ -92.443709554392001, 46.769965172069497 ] ] } },
{ "type": "Feature", "properties": { "wmUplineSo": "KNIFE FALLS", "wmType": "Underground" }, "geometry": { "type": "LineString", "coordinates": [ [ -92.4554864993123, 46.772724461228698 ], [ -92.455626124717298, 46.772577653578303 ] ] } },
{ "type": "Feature", "properties": { "wmUplineSo": "KNIFE FALLS", "wmType": "Underground" }, "geometry": { "type": "LineString", "coordinates": [ [ -92.455626124717298, 46.772577653578303 ], [ -92.4554685472214, 46.772257785291799 ], [ -92.455567928315503, 46.772109439457303 ] ] } },
{ "type": "Feature", "properties": { "wmUplineSo": "KNIFE FALLS", "wmType": "Underground" }, "geometry": { "type": "LineString", "coordinates": [ [ -92.429916343160599, 46.7707875876213 ], [ -92.4327644803559, 46.770558259628999 ] ] } },
{ "type": "Feature", "properties": { "wmUplineSo": "KNIFE FALLS", "wmType": "Underground" }, "geometry": { "type": "LineString", "coordinates": [ [ -92.406876337289205, 46.785788663714698 ], [ -92.406897116571599, 46.786263785867 ] ] } },
{ "type": "Feature", "properties": { "wmUplineSo": "KNIFE FALLS", "wmType": "Underground" }, "geometry": { "type": "LineString", "coordinates": [ [ -92.406910926867297, 46.790071710083801 ], [ -92.407134274646694, 46.790063633224797 ] ] } },
{ "type": "Feature", "properties": { "wmUplineSo": "KNIFE FALLS", "wmType": "Underground" }, "geometry": { "type": "LineString", "coordinates": [ [ -92.407977538440093, 46.779192711979597 ], [ -92.408161593569602, 46.7793861180959 ], [ -92.408256641099001, 46.779649524711097 ], [ -92.408300540477498, 46.779888305995897 ], [ -92.408205488358902, 46.780136769781897 ], [ -92.408164404798498, 46.780326576405898 ], [ -92.408207901479003, 46.780577255028298 ], [ -92.408285229938301, 46.780852282914999 ], [ -92.408226827517694, 46.781041812671603 ], [ -92.408171648883894, 46.781136161804397 ], [ -92.408170843148, 46.781159957405301 ], [ -92.408183327519495, 46.781303004271997 ] ] } },
{ "type": "Feature", "properties": { "wmUplineSo": "KNIFE FALLS", "wmType": "Underground" }, "geometry": { "type": "LineString", "coordinates": [ [ -92.407646146969796, 46.779038945754401 ], [ -92.407977538440093, 46.779192711979597 ] ] } },
{ "type": "Feature", "properties": { "wmUplineSo": "KNIFE FALLS", "wmType": "Underground" }, "geometry": { "type": "LineString", "coordinates": [ [ -92.460046068694098, 46.777197151703497 ], [ -92.459233888755705, 46.777603418532898 ], [ -92.458799442818503, 46.778422739021103 ] ] } },
{ "type": "Feature", "properties": { "wmUplineSo": "KNIFE FALLS", "wmType": "Underground" }, "geometry": { "type": "LineString", "coordinates": [ [ -92.460101865991305, 46.777169552261903 ], [ -92.460046068694098, 46.777197151703497 ] ] } },
{ "type": "Feature", "properties": { "wmUplineSo": "KNIFE FALLS", "wmType": "Underground" }, "geometry": { "type": "LineString", "coordinates": [ [ -92.438959316902896, 46.773530938940297 ], [ -92.4389843272523, 46.7740158362001 ] ] } },
{ "type": "Feature", "properties": { "wmUplineSo": "KNIFE FALLS", "wmType": "Underground" }, "geometry": { "type": "LineString", "coordinates": [ [ -92.406449425950598, 46.794846143154302 ], [ -92.406265479904604, 46.794968183286301 ] ] } },
{ "type": "Feature", "properties": { "wmUplineSo": "KNIFE FALLS", "wmType": "Underground" }, "geometry": { "type": "LineString", "coordinates": [ [ -92.416507, 46.780751000000102 ], [ -92.416363, 46.780833999999899 ] ] } },
{ "type": "Feature", "properties": { "wmUplineSo": "KNIFE FALLS", "wmType": "Underground" }, "geometry": { "type": "LineString", "coordinates": [ [ -92.416363, 46.780833999999899 ], [ -92.416346, 46.780859 ] ] } },
{ "type": "Feature", "properties": { "wmUplineSo": "KNIFE FALLS", "wmType": "Underground" }, "geometry": { "type": "LineString", "coordinates": [ [ -92.4392949551833, 46.7877552007375 ], [ -92.438965170402, 46.7878138677235 ] ] } },
{ "type": "Feature", "properties": { "wmUplineSo": "KNIFE FALLS", "wmType": "Underground" }, "geometry": { "type": "LineString", "coordinates": [ [ -92.438965170402, 46.7878138677235 ], [ -92.438541138929097, 46.787854899872301 ] ] } },
{ "type": "Feature", "properties": { "wmUplineSo": "KNIFE FALLS", "wmType": "Underground" }, "geometry": { "type": "LineString", "coordinates": [ [ -92.438541138929097, 46.787854899872301 ], [ -92.438171796305696, 46.787914427313801 ] ] } },
{ "type": "Feature", "properties": { "wmUplineSo": "KNIFE FALLS", "wmType": "Underground" }, "geometry": { "type": "LineString", "coordinates": [ [ -92.438171796305696, 46.787914427313801 ], [ -92.438042551943397, 46.787952307326599 ] ] } },
{ "type": "Feature", "properties": { "wmUplineSo": "KNIFE FALLS", "wmType": "Underground" }, "geometry": { "type": "LineString", "coordinates": [ [ -92.4418265500111, 46.772540908081503 ], [ -92.441882484457906, 46.772396117095198 ] ] } },
{ "type": "Feature", "properties": { "wmUplineSo": "KNIFE FALLS", "wmType": "Underground" }, "geometry": { "type": "LineString", "coordinates": [ [ -92.438042551943397, 46.787952307326599 ], [ -92.437897031555195, 46.788081732277199 ] ] } },
{ "type": "Feature", "properties": { "wmUplineSo": "KNIFE FALLS", "wmType": "Underground" }, "geometry": { "type": "LineString", "coordinates": [ [ -92.437897031555195, 46.788081732277199 ], [ -92.437869722717707, 46.788108923710901 ] ] } },
{ "type": "Feature", "properties": { "wmUplineSo": "KNIFE FALLS", "wmType": "Underground" }, "geometry": { "type": "LineString", "coordinates": [ [ -92.437897031555195, 46.788081732277199 ], [ -92.437825533514896, 46.788129589981502 ] ] } },
{ "type": "Feature", "properties": { "wmUplineSo": "KNIFE FALLS", "wmType": "Underground" }, "geometry": { "type": "LineString", "coordinates": [ [ -92.406898536829999, 46.791010245155199 ], [ -92.406912508317902, 46.791253181881203 ] ] } },
{ "type": "Feature", "properties": { "wmUplineSo": "KNIFE FALLS", "wmType": "Underground" }, "geometry": { "type": "LineString", "coordinates": [ [ -92.406912508317902, 46.791253181881203 ], [ -92.407305297801599, 46.791293988644298 ] ] } },
{ "type": "Feature", "properties": { "wmUplineSo": "KNIFE FALLS", "wmType": "Underground" }, "geometry": { "type": "LineString", "coordinates": [ [ -92.407305297801599, 46.791293988644298 ], [ -92.407591214474394, 46.791299657821703 ] ] } },
{ "type": "Feature", "properties": { "wmUplineSo": "KNIFE FALLS", "wmType": "Underground" }, "geometry": { "type": "LineString", "coordinates": [ [ -92.407591214474394, 46.791299657821703 ], [ -92.407933691437805, 46.7913220316359 ] ] } },
{ "type": "Feature", "properties": { "wmUplineSo": "KNIFE FALLS", "wmType": "Underground" }, "geometry": { "type": "LineString", "coordinates": [ [ -92.407234511366795, 46.787835893936801 ], [ -92.407629046596298, 46.787857671487103 ] ] } },
{ "type": "Feature", "properties": { "wmUplineSo": "KNIFE FALLS", "wmType": "Underground" }, "geometry": { "type": "LineString", "coordinates": [ [ -92.425891999966098, 46.779234440682202 ], [ -92.425113836083696, 46.779249192714303 ], [ -92.425105899208603, 46.7792513275771 ], [ -92.424564229488595, 46.7792834010706 ], [ -92.424532783081503, 46.779263670373098 ], [ -92.424521923972904, 46.779242955823001 ], [ -92.424541723919901, 46.779227306433299 ] ] } },
{ "type": "Feature", "properties": { "wmUplineSo": "KNIFE FALLS", "wmType": "Underground" }, "geometry": { "type": "LineString", "coordinates": [ [ -92.407933691437805, 46.7913220316359 ], [ -92.408461558154499, 46.791414396559198 ] ] } },
{ "type": "Feature", "properties": { "wmUplineSo": "KNIFE FALLS", "wmType": "Underground" }, "geometry": { "type": "LineString", "coordinates": [ [ -92.408461558154499, 46.791414396559198 ], [ -92.408891879821397, 46.791387095995503 ] ] } },
{ "type": "Feature", "properties": { "wmUplineSo": "KNIFE FALLS", "wmType": "Underground" }, "geometry": { "type": "LineString", "coordinates": [ [ -92.408891879821397, 46.791387095995503 ], [ -92.409489240359605, 46.7913131406413 ] ] } },
{ "type": "Feature", "properties": { "wmUplineSo": "KNIFE FALLS", "wmType": "Underground" }, "geometry": { "type": "LineString", "coordinates": [ [ -92.409489240359605, 46.7913131406413 ], [ -92.409973860985502, 46.791180169942798 ] ] } },
{ "type": "Feature", "properties": { "wmUplineSo": "KNIFE FALLS", "wmType": "Underground" }, "geometry": { "type": "LineString", "coordinates": [ [ -92.409973860985502, 46.791180169942798 ], [ -92.410514196423705, 46.791179430235303 ] ] } },
{ "type": "Feature", "properties": { "wmUplineSo": "KNIFE FALLS", "wmType": "Underground" }, "geometry": { "type": "LineString", "coordinates": [ [ -92.406855712357, 46.794636950576198 ], [ -92.406820725731095, 46.7946890013298 ] ] } },
{ "type": "Feature", "properties": { "wmUplineSo": "KNIFE FALLS", "wmType": "Underground" }, "geometry": { "type": "LineString", "coordinates": [ [ -92.427516497515995, 46.800166198926703 ], [ -92.427872076531003, 46.800488132987297 ] ] } },
{ "type": "Feature", "properties": { "wmUplineSo": "KNIFE FALLS", "wmType": "Underground" }, "geometry": { "type": "LineString", "coordinates": [ [ -92.425109284768695, 46.777175903935401 ], [ -92.425004442384605, 46.777172747713898 ] ] } },
{ "type": "Feature", "properties": { "wmUplineSo": "KNIFE FALLS", "wmType": "Underground" }, "geometry": { "type": "LineString", "coordinates": [ [ -92.425004442384605, 46.777172747713898 ], [ -92.424708442424006, 46.777171747730698 ] ] } },
{ "type": "Feature", "properties": { "wmUplineSo": "KNIFE FALLS", "wmType": "Underground" }, "geometry": { "type": "LineString", "coordinates": [ [ -92.409195270680598, 46.787618535415703 ], [ -92.409204888953496, 46.787632391274997 ] ] } },
{ "type": "Feature", "properties": { "wmUplineSo": "KNIFE FALLS", "wmType": "Underground" }, "geometry": { "type": "LineString", "coordinates": [ [ -92.406914742922297, 46.793069437316703 ], [ -92.406902267007794, 46.793400734658 ], [ -92.406855712357, 46.794636950576198 ], [ -92.406855712357, 46.794636950576198 ] ] } },
{ "type": "Feature", "properties": { "wmUplineSo": "KNIFE FALLS", "wmType": "Underground" }, "geometry": { "type": "LineString", "coordinates": [ [ -92.406265479904604, 46.794968183286301 ], [ -92.406111219118401, 46.794933369969598 ] ] } },
{ "type": "Feature", "properties": { "wmUplineSo": "KNIFE FALLS", "wmType": "Underground" }, "geometry": { "type": "LineString", "coordinates": [ [ -92.406111219118401, 46.794933369969598 ], [ -92.406088773215401, 46.7949241066149 ] ] } },
{ "type": "Feature", "properties": { "wmUplineSo": "KNIFE FALLS", "wmType": "Underground" }, "geometry": { "type": "LineString", "coordinates": [ [ -92.406820725731095, 46.7946890013298 ], [ -92.406636286930507, 46.7947453952169 ] ] } },
{ "type": "Feature", "properties": { "wmUplineSo": "KNIFE FALLS", "wmType": "Underground" }, "geometry": { "type": "LineString", "coordinates": [ [ -92.410514196423705, 46.791179430235303 ], [ -92.410925645038802, 46.791193563845198 ] ] } },
{ "type": "Feature", "properties": { "wmUplineSo": "KNIFE FALLS", "wmType": "Underground" }, "geometry": { "type": "LineString", "coordinates": [ [ -92.410925645038802, 46.791193563845198 ], [ -92.4110095999999, 46.791165000008498 ] ] } },
{ "type": "Feature", "properties": { "wmUplineSo": "KNIFE FALLS", "wmType": "Underground" }, "geometry": { "type": "LineString", "coordinates": [ [ -92.406912508317902, 46.791253181881203 ], [ -92.406929024713307, 46.7920218615563 ] ] } }
]
}
