{
"type": "FeatureCollection",
"crs": { "type": "name", "properties": { "name": "urn:ogc:def:crs:OGC:1.3:CRS84" } },
"features": [
{ "type": "Feature", "properties": { "wmUplineSo": "KNIFE FALLS", "wmType": "Underground" }, "geometry": { "type": "LineString", "coordinates": [ [ -92.355234651445201, 46.677735769179698 ], [ -92.3554846388394, 46.677461284887301 ] ] } },
{ "type": "Feature", "properties": { "wmUplineSo": "KNIFE FALLS", "wmType": "Underground" }, "geometry": { "type": "LineString", "coordinates": [ [ -92.353863954858696, 46.6669893347769 ], [ -92.353951999962405, 46.666956003470197 ] ] } },
{ "type": "Feature", "properties": { "wmUplineSo": "KNIFE FALLS", "wmType": "Underground" }, "geometry": { "type": "LineString", "coordinates": [ [ -92.353951999962405, 46.666956003470197 ], [ -92.354199999962404, 46.666939003470098 ] ] } },
{ "type": "Feature", "properties": { "wmUplineSo": "KNIFE FALLS", "wmType": "Underground" }, "geometry": { "type": "LineString", "coordinates": [ [ -92.354199999962404, 46.666939003470098 ], [ -92.354443999962399, 46.667063003470197 ] ] } },
{ "type": "Feature", "properties": { "wmUplineSo": "KNIFE FALLS", "wmType": "Underground" }, "geometry": { "type": "LineString", "coordinates": [ [ -92.354443999962399, 46.667063003470197 ], [ -92.354611999962401, 46.667259003470299 ] ] } },
{ "type": "Feature", "properties": { "wmUplineSo": "KNIFE FALLS", "wmType": "Underground" }, "geometry": { "type": "LineString", "coordinates": [ [ -92.354611999962401, 46.667259003470299 ], [ -92.354619999962395, 46.667280003470403 ] ] } },
{ "type": "Feature", "properties": { "wmUplineSo": "KNIFE FALLS", "wmType": "Underground" }, "geometry": { "type": "LineString", "coordinates": [ [ -92.401571999925196, 46.728747826666002 ], [ -92.401577109345297, 46.728719414742002 ] ] } },
{ "type": "Feature", "properties": { "wmUplineSo": "KNIFE FALLS", "wmType": "Underground" }, "geometry": { "type": "LineString", "coordinates": [ [ -92.381768459098296, 46.728990922689498 ], [ -92.381907570505405, 46.728961462236597 ] ] } },
{ "type": "Feature", "properties": { "wmUplineSo": "KNIFE FALLS", "wmType": "Underground" }, "geometry": { "type": "LineString", "coordinates": [ [ -92.377044809700195, 46.728852692495401 ], [ -92.377015730402604, 46.728851689940697 ] ] } },
{ "type": "Feature", "properties": { "wmUplineSo": "KNIFE FALLS", "wmType": "Underground" }, "geometry": { "type": "LineString", "coordinates": [ [ -92.372518214504098, 46.728719930663999 ], [ -92.372488365576999, 46.728677058100502 ] ] } },
{ "type": "Feature", "properties": { "wmUplineSo": "KNIFE FALLS", "wmType": "Underground" }, "geometry": { "type": "LineString", "coordinates": [ [ -92.372488365576999, 46.728677058100502 ], [ -92.372217110654802, 46.727787308277001 ] ] } },
{ "type": "Feature", "properties": { "wmUplineSo": "KNIFE FALLS", "wmType": "Underground" }, "geometry": { "type": "LineString", "coordinates": [ [ -92.431110483775697, 46.764147726935299 ], [ -92.431165312127206, 46.764178247596298 ] ] } },
{ "type": "Feature", "properties": { "wmUplineSo": "KNIFE FALLS", "wmType": "Underground" }, "geometry": { "type": "LineString", "coordinates": [ [ -92.431165312127206, 46.764178247596298 ], [ -92.431274361095404, 46.7641683072899 ] ] } },
{ "type": "Feature", "properties": { "wmUplineSo": "KNIFE FALLS", "wmType": "Underground" }, "geometry": { "type": "LineString", "coordinates": [ [ -92.431274361095404, 46.7641683072899 ], [ -92.431285124000993, 46.764507456447497 ] ] } },
{ "type": "Feature", "properties": { "wmUplineSo": "KNIFE FALLS", "wmType": "Underground" }, "geometry": { "type": "LineString", "coordinates": [ [ -92.431285124000993, 46.764507456447497 ], [ -92.4312780107865, 46.764836081241199 ] ] } },
{ "type": "Feature", "properties": { "wmUplineSo": "KNIFE FALLS", "wmType": "Underground" }, "geometry": { "type": "LineString", "coordinates": [ [ -92.4312780107865, 46.764836081241199 ], [ -92.431682801589304, 46.764857197101399 ] ] } },
{ "type": "Feature", "properties": { "wmUplineSo": "KNIFE FALLS", "wmType": "Underground" }, "geometry": { "type": "LineString", "coordinates": [ [ -92.431682801589304, 46.764857197101399 ], [ -92.432731003997901, 46.764900600639599 ] ] } },
{ "type": "Feature", "properties": { "wmUplineSo": "KNIFE FALLS", "wmType": "Underground" }, "geometry": { "type": "LineString", "coordinates": [ [ -92.432731003997901, 46.764900600639599 ], [ -92.4327516892738, 46.764884912984201 ] ] } },
{ "type": "Feature", "properties": { "wmUplineSo": "KNIFE FALLS", "wmType": "Underground" }, "geometry": { "type": "LineString", "coordinates": [ [ -92.432731003997901, 46.764900600639599 ], [ -92.433280925021194, 46.764915230305199 ] ] } },
{ "type": "Feature", "properties": { "wmUplineSo": "KNIFE FALLS", "wmType": "Underground" }, "geometry": { "type": "LineString", "coordinates": [ [ -92.433280925021194, 46.764915230305199 ], [ -92.4345706666181, 46.764976214789897 ] ] } },
{ "type": "Feature", "properties": { "wmUplineSo": "KNIFE FALLS", "wmType": "Underground" }, "geometry": { "type": "LineString", "coordinates": [ [ -92.4345706666181, 46.764976214789897 ], [ -92.435343695404399, 46.765011461097103 ] ] } },
{ "type": "Feature", "properties": { "wmUplineSo": "KNIFE FALLS", "wmType": "Underground" }, "geometry": { "type": "LineString", "coordinates": [ [ -92.435343695404399, 46.765011461097103 ], [ -92.437000719625004, 46.765074071008598 ] ] } },
{ "type": "Feature", "properties": { "wmUplineSo": "KNIFE FALLS", "wmType": "Underground" }, "geometry": { "type": "LineString", "coordinates": [ [ -92.437000719625004, 46.765074071008598 ], [ -92.438759921548197, 46.765148669356797 ] ] } },
{ "type": "Feature", "properties": { "wmUplineSo": "KNIFE FALLS", "wmType": "Underground" }, "geometry": { "type": "LineString", "coordinates": [ [ -92.438759921548197, 46.765148669356797 ], [ -92.438891644045299, 46.765145083785498 ] ] } },
{ "type": "Feature", "properties": { "wmUplineSo": "KNIFE FALLS", "wmType": "Underground" }, "geometry": { "type": "LineString", "coordinates": [ [ -92.438891644045299, 46.765145083785498 ], [ -92.438894042685504, 46.764635397945703 ] ] } },
{ "type": "Feature", "properties": { "wmUplineSo": "KNIFE FALLS", "wmType": "Underground" }, "geometry": { "type": "LineString", "coordinates": [ [ -92.438894042685504, 46.764635397945703 ], [ -92.438942006846204, 46.7645960962749 ] ] } },
{ "type": "Feature", "properties": { "wmUplineSo": "KNIFE FALLS", "wmType": "Underground" }, "geometry": { "type": "LineString", "coordinates": [ [ -92.431030654637794, 46.764147330083098 ], [ -92.431070569206497, 46.764147528516197 ] ] } },
{ "type": "Feature", "properties": { "wmUplineSo": "KNIFE FALLS", "wmType": "Underground" }, "geometry": { "type": "LineString", "coordinates": [ [ -92.431070569206497, 46.764147528516197 ], [ -92.431110483775697, 46.764147726935299 ] ] } },
{ "type": "Feature", "properties": { "wmUplineSo": "KNIFE FALLS", "wmType": "Underground" }, "geometry": { "type": "LineString", "coordinates": [ [ -92.431070569206497, 46.764147528516197 ], [ -92.431070194397293, 46.764169470033501 ] ] } },
{ "type": "Feature", "properties": { "wmUplineSo": "KNIFE FALLS", "wmType": "Underground" }, "geometry": { "type": "LineString", "coordinates": [ [ -92.431070194397293, 46.764169470033501 ], [ -92.431110108982693, 46.764169668452901 ] ] } },
{ "type": "Feature", "properties": { "wmUplineSo": "KNIFE FALLS", "wmType": "Underground" }, "geometry": { "type": "LineString", "coordinates": [ [ -92.431070194397293, 46.764169470033501 ], [ -92.431030279812404, 46.764169271600302 ] ] } },
{ "type": "Feature", "properties": { "wmUplineSo": "KNIFE FALLS", "wmType": "Underground" }, "geometry": { "type": "LineString", "coordinates": [ [ -92.374981419022504, 46.674043126219203 ], [ -92.375088458738901, 46.674051332283398 ] ] } },
{ "type": "Feature", "properties": { "wmUplineSo": "KNIFE FALLS", "wmType": "Underground" }, "geometry": { "type": "LineString", "coordinates": [ [ -92.375088458738901, 46.674051332283398 ], [ -92.375171465928602, 46.674016499329198 ] ] } },
{ "type": "Feature", "properties": { "wmUplineSo": "KNIFE FALLS", "wmType": "Underground" }, "geometry": { "type": "LineString", "coordinates": [ [ -92.375171465928602, 46.674016499329198 ], [ -92.3752558999999, 46.674027400008399 ] ] } },
{ "type": "Feature", "properties": { "wmUplineSo": "KNIFE FALLS", "wmType": "Underground" }, "geometry": { "type": "LineString", "coordinates": [ [ -92.340850806854903, 46.680415200098501 ], [ -92.340856462582096, 46.681054643002703 ] ] } },
{ "type": "Feature", "properties": { "wmUplineSo": "KNIFE FALLS", "wmType": "Underground" }, "geometry": { "type": "LineString", "coordinates": [ [ -92.340856462582096, 46.681054643002703 ], [ -92.340920399999902, 46.6810636000084 ] ] } },
{ "type": "Feature", "properties": { "wmUplineSo": "KNIFE FALLS", "wmType": "Underground" }, "geometry": { "type": "LineString", "coordinates": [ [ -92.342084887216004, 46.680455105750099 ], [ -92.340850806854903, 46.680415200098501 ] ] } },
{ "type": "Feature", "properties": { "wmUplineSo": "KNIFE FALLS", "wmType": "Underground" }, "geometry": { "type": "LineString", "coordinates": [ [ -92.340850806854903, 46.680415200098501 ], [ -92.340398831754499, 46.679568105468697 ] ] } },
{ "type": "Feature", "properties": { "wmUplineSo": "KNIFE FALLS", "wmType": "Underground" }, "geometry": { "type": "LineString", "coordinates": [ [ -92.357865485566094, 46.670539268238002 ], [ -92.358241919076804, 46.671016760280601 ], [ -92.358749654334204, 46.671372005858601 ], [ -92.358439304611395, 46.671875053682001 ], [ -92.358296779457305, 46.672226653282699 ], [ -92.358222923169706, 46.672621497184402 ], [ -92.358263599080004, 46.672973892101197 ] ] } },
{ "type": "Feature", "properties": { "wmUplineSo": "KNIFE FALLS", "wmType": "Underground" }, "geometry": { "type": "LineString", "coordinates": [ [ -92.3488078441748, 46.675843424552298 ], [ -92.348870899999895, 46.675816000008403 ] ] } },
{ "type": "Feature", "properties": { "wmUplineSo": "KNIFE FALLS", "wmType": "Underground" }, "geometry": { "type": "LineString", "coordinates": [ [ -92.375056278545401, 46.676989457513997 ], [ -92.374614703364202, 46.676944808703198 ] ] } },
{ "type": "Feature", "properties": { "wmUplineSo": "KNIFE FALLS", "wmType": "Underground" }, "geometry": { "type": "LineString", "coordinates": [ [ -92.348829719244904, 46.674181587737003 ], [ -92.348824892777401, 46.674200805060998 ] ] } },
{ "type": "Feature", "properties": { "wmUplineSo": "KNIFE FALLS", "wmType": "Underground" }, "geometry": { "type": "LineString", "coordinates": [ [ -92.342084887216004, 46.680455105750099 ], [ -92.3422675999999, 46.680402100008401 ] ] } },
{ "type": "Feature", "properties": { "wmUplineSo": "KNIFE FALLS", "wmType": "Underground" }, "geometry": { "type": "LineString", "coordinates": [ [ -92.344141501579799, 46.681291311446799 ], [ -92.344530684221596, 46.681301488808103 ] ] } },
{ "type": "Feature", "properties": { "wmUplineSo": "KNIFE FALLS", "wmType": "Underground" }, "geometry": { "type": "LineString", "coordinates": [ [ -92.340398831754499, 46.679568105468697 ], [ -92.340226499999901, 46.678924000008401 ] ] } },
{ "type": "Feature", "properties": { "wmUplineSo": "KNIFE FALLS", "wmType": "Underground" }, "geometry": { "type": "LineString", "coordinates": [ [ -92.340856462582096, 46.681054643002703 ], [ -92.340844299999901, 46.6810721000084 ] ] } },
{ "type": "Feature", "properties": { "wmUplineSo": "KNIFE FALLS", "wmType": "Underground" }, "geometry": { "type": "LineString", "coordinates": [ [ -92.366246971263905, 46.676764860839803 ], [ -92.3661835999999, 46.676288100008399 ] ] } },
{ "type": "Feature", "properties": { "wmUplineSo": "KNIFE FALLS", "wmType": "Underground" }, "geometry": { "type": "LineString", "coordinates": [ [ -92.365436145255202, 46.671962902039397 ], [ -92.365402499999902, 46.671874100008402 ] ] } },
{ "type": "Feature", "properties": { "wmUplineSo": "KNIFE FALLS", "wmType": "Underground" }, "geometry": { "type": "LineString", "coordinates": [ [ -92.368078128625697, 46.672214778015999 ], [ -92.367348299999904, 46.671898400008402 ] ] } },
{ "type": "Feature", "properties": { "wmUplineSo": "KNIFE FALLS", "wmType": "Underground" }, "geometry": { "type": "LineString", "coordinates": [ [ -92.371596815422294, 46.665814213663097 ], [ -92.371324499999901, 46.665439600008398 ] ] } },
{ "type": "Feature", "properties": { "wmUplineSo": "KNIFE FALLS", "wmType": "Underground" }, "geometry": { "type": "LineString", "coordinates": [ [ -92.366507430654195, 46.671459288661701 ], [ -92.36641, 46.671453300008402 ] ] } },
{ "type": "Feature", "properties": { "wmUplineSo": "KNIFE FALLS", "wmType": "Underground" }, "geometry": { "type": "LineString", "coordinates": [ [ -92.369005269631302, 46.672247957133798 ], [ -92.369272999999893, 46.6728948000084 ] ] } },
{ "type": "Feature", "properties": { "wmUplineSo": "KNIFE FALLS", "wmType": "Underground" }, "geometry": { "type": "LineString", "coordinates": [ [ -92.369680606046401, 46.671319360271099 ], [ -92.369700099999903, 46.671058300008397 ] ] } },
{ "type": "Feature", "properties": { "wmUplineSo": "KNIFE FALLS", "wmType": "Underground" }, "geometry": { "type": "LineString", "coordinates": [ [ -92.3527790894899, 46.674462940942099 ], [ -92.3529012999999, 46.674442500008396 ] ] } },
{ "type": "Feature", "properties": { "wmUplineSo": "KNIFE FALLS", "wmType": "Underground" }, "geometry": { "type": "LineString", "coordinates": [ [ -92.407118204952994, 46.739142558817797 ], [ -92.406919099999897, 46.7386623000085 ] ] } },
{ "type": "Feature", "properties": { "wmUplineSo": "KNIFE FALLS", "wmType": "Underground" }, "geometry": { "type": "LineString", "coordinates": [ [ -92.411218469903602, 46.743868410575303 ], [ -92.411221799999893, 46.743800400008503 ] ] } },
{ "type": "Feature", "properties": { "wmUplineSo": "KNIFE FALLS", "wmType": "Underground" }, "geometry": { "type": "LineString", "coordinates": [ [ -92.411576060638097, 46.7428020267348 ], [ -92.411301599999902, 46.742748600008497 ] ] } },
{ "type": "Feature", "properties": { "wmUplineSo": "KNIFE FALLS", "wmType": "Underground" }, "geometry": { "type": "LineString", "coordinates": [ [ -92.348325970830103, 46.673175440100003 ], [ -92.347787299999894, 46.673621500008402 ] ] } },
{ "type": "Feature", "properties": { "wmUplineSo": "KNIFE FALLS", "wmType": "Underground" }, "geometry": { "type": "LineString", "coordinates": [ [ -92.344729051680105, 46.673393440916897 ], [ -92.343973399999896, 46.673643800008399 ] ] } },
{ "type": "Feature", "properties": { "wmUplineSo": "KNIFE FALLS", "wmType": "Underground" }, "geometry": { "type": "LineString", "coordinates": [ [ -92.364133601015894, 46.679983082444103 ], [ -92.364095299999903, 46.679949000008399 ] ] } },
{ "type": "Feature", "properties": { "wmUplineSo": "KNIFE FALLS", "wmType": "Underground" }, "geometry": { "type": "LineString", "coordinates": [ [ -92.348663550745997, 46.682660339067702 ], [ -92.348547099999905, 46.682302800008401 ] ] } },
{ "type": "Feature", "properties": { "wmUplineSo": "KNIFE FALLS", "wmType": "Underground" }, "geometry": { "type": "LineString", "coordinates": [ [ -92.376977578350605, 46.7288702563215 ], [ -92.376632799999896, 46.729451800008498 ] ] } },
{ "type": "Feature", "properties": { "wmUplineSo": "KNIFE FALLS", "wmType": "Underground" }, "geometry": { "type": "LineString", "coordinates": [ [ -92.375330968706393, 46.728110627721499 ], [ -92.375365, 46.7281460000085 ] ] } },
{ "type": "Feature", "properties": { "wmUplineSo": "KNIFE FALLS", "wmType": "Underground" }, "geometry": { "type": "LineString", "coordinates": [ [ -92.366488000011202, 46.728542897563898 ], [ -92.366491751124997, 46.728374784690097 ] ] } },
{ "type": "Feature", "properties": { "wmUplineSo": "KNIFE FALLS", "wmType": "Underground" }, "geometry": { "type": "LineString", "coordinates": [ [ -92.366491751124997, 46.728374784690097 ], [ -92.366373316677894, 46.728365772662301 ] ] } },
{ "type": "Feature", "properties": { "wmUplineSo": "KNIFE FALLS", "wmType": "Underground" }, "geometry": { "type": "LineString", "coordinates": [ [ -92.434577250825797, 46.759643775868497 ], [ -92.434557299999895, 46.759743400008503 ] ] } },
{ "type": "Feature", "properties": { "wmUplineSo": "KNIFE FALLS", "wmType": "Underground" }, "geometry": { "type": "LineString", "coordinates": [ [ -92.438288842405299, 46.7577594473631 ], [ -92.438206499999893, 46.757539800008502 ] ] } },
{ "type": "Feature", "properties": { "wmUplineSo": "KNIFE FALLS", "wmType": "Underground" }, "geometry": { "type": "LineString", "coordinates": [ [ -92.436146781288201, 46.743989055406999 ], [ -92.435806299999896, 46.744183100008499 ] ] } },
{ "type": "Feature", "properties": { "wmUplineSo": "KNIFE FALLS", "wmType": "Underground" }, "geometry": { "type": "LineString", "coordinates": [ [ -92.4137019062468, 46.7428782451248 ], [ -92.413934599999905, 46.742717300008501 ] ] } },
{ "type": "Feature", "properties": { "wmUplineSo": "KNIFE FALLS", "wmType": "Underground" }, "geometry": { "type": "LineString", "coordinates": [ [ -92.409192895885099, 46.739031818080498 ], [ -92.409055899999899, 46.738904500008502 ] ] } },
{ "type": "Feature", "properties": { "wmUplineSo": "KNIFE FALLS", "wmType": "Underground" }, "geometry": { "type": "LineString", "coordinates": [ [ -92.404871899543494, 46.729359299733702 ], [ -92.404777499999895, 46.729636600008497 ] ] } },
{ "type": "Feature", "properties": { "wmUplineSo": "KNIFE FALLS", "wmType": "Underground" }, "geometry": { "type": "LineString", "coordinates": [ [ -92.411675161420504, 46.740874236889901 ], [ -92.411625599999894, 46.740843600008503 ] ] } },
{ "type": "Feature", "properties": { "wmUplineSo": "KNIFE FALLS", "wmType": "Underground" }, "geometry": { "type": "LineString", "coordinates": [ [ -92.437184837414705, 46.762705358828001 ], [ -92.437117599999894, 46.762841300008503 ] ] } },
{ "type": "Feature", "properties": { "wmUplineSo": "KNIFE FALLS", "wmType": "Underground" }, "geometry": { "type": "LineString", "coordinates": [ [ -92.344150593406496, 46.682785047022399 ], [ -92.344580999961806, 46.682808003474399 ] ] } },
{ "type": "Feature", "properties": { "wmUplineSo": "KNIFE FALLS", "wmType": "Underground" }, "geometry": { "type": "LineString", "coordinates": [ [ -92.367223787890396, 46.673152181615102 ], [ -92.367696099999904, 46.673231300008403 ] ] } },
{ "type": "Feature", "properties": { "wmUplineSo": "KNIFE FALLS", "wmType": "Underground" }, "geometry": { "type": "LineString", "coordinates": [ [ -92.366546420278894, 46.673375297593097 ], [ -92.3667575999999, 46.673791500008399 ] ] } },
{ "type": "Feature", "properties": { "wmUplineSo": "KNIFE FALLS", "wmType": "Underground" }, "geometry": { "type": "LineString", "coordinates": [ [ -92.345348091466093, 46.689603407902197 ], [ -92.345313899999894, 46.689606000008403 ] ] } },
{ "type": "Feature", "properties": { "wmUplineSo": "KNIFE FALLS", "wmType": "Underground" }, "geometry": { "type": "LineString", "coordinates": [ [ -92.346651538124505, 46.675788964753202 ], [ -92.346558399999907, 46.675931100008398 ] ] } },
{ "type": "Feature", "properties": { "wmUplineSo": "KNIFE FALLS", "wmType": "Underground" }, "geometry": { "type": "LineString", "coordinates": [ [ -92.342833772521203, 46.672547300977001 ], [ -92.342450399999905, 46.672684300008399 ] ] } },
{ "type": "Feature", "properties": { "wmUplineSo": "KNIFE FALLS", "wmType": "Underground" }, "geometry": { "type": "LineString", "coordinates": [ [ -92.343245326365604, 46.677729779061103 ], [ -92.343203099999897, 46.677727800008398 ] ] } },
{ "type": "Feature", "properties": { "wmUplineSo": "KNIFE FALLS", "wmType": "Underground" }, "geometry": { "type": "LineString", "coordinates": [ [ -92.339207311747899, 46.680338035222398 ], [ -92.339262, 46.680332000008399 ] ] } },
{ "type": "Feature", "properties": { "wmUplineSo": "KNIFE FALLS", "wmType": "Underground" }, "geometry": { "type": "LineString", "coordinates": [ [ -92.372825983244695, 46.665669799548702 ], [ -92.372847099999902, 46.665645400008401 ] ] } },
{ "type": "Feature", "properties": { "wmUplineSo": "KNIFE FALLS", "wmType": "Underground" }, "geometry": { "type": "LineString", "coordinates": [ [ -92.348783007152505, 46.677200003449002 ], [ -92.348796007650193, 46.676781003440603 ] ] } },
{ "type": "Feature", "properties": { "wmUplineSo": "KNIFE FALLS", "wmType": "Underground" }, "geometry": { "type": "LineString", "coordinates": [ [ -92.348783007152505, 46.677200003449002 ], [ -92.348808005482994, 46.677195610477398 ] ] } },
{ "type": "Feature", "properties": { "wmUplineSo": "KNIFE FALLS", "wmType": "Underground" }, "geometry": { "type": "LineString", "coordinates": [ [ -92.358318311900504, 46.673019289423202 ], [ -92.358318899999901, 46.673036000008402 ] ] } },
{ "type": "Feature", "properties": { "wmUplineSo": "KNIFE FALLS", "wmType": "Underground" }, "geometry": { "type": "LineString", "coordinates": [ [ -92.366373316677894, 46.728365772662301 ], [ -92.366355046851993, 46.728052422078001 ] ] } },
{ "type": "Feature", "properties": { "wmUplineSo": "KNIFE FALLS", "wmType": "Underground" }, "geometry": { "type": "LineString", "coordinates": [ [ -92.343610723985805, 46.687999299813598 ], [ -92.343574298249194, 46.687941788098001 ] ] } },
{ "type": "Feature", "properties": { "wmUplineSo": "KNIFE FALLS", "wmType": "Underground" }, "geometry": { "type": "LineString", "coordinates": [ [ -92.364432400183404, 46.673030176545197 ], [ -92.3644323979875, 46.6730300034286 ] ] } },
{ "type": "Feature", "properties": { "wmUplineSo": "KNIFE FALLS", "wmType": "Underground" }, "geometry": { "type": "LineString", "coordinates": [ [ -92.430990739986598, 46.764147139672602 ], [ -92.431030654637794, 46.764147330083098 ] ] } },
{ "type": "Feature", "properties": { "wmUplineSo": "KNIFE FALLS", "wmType": "Underground" }, "geometry": { "type": "LineString", "coordinates": [ [ -92.365572130223299, 46.672234642714798 ], [ -92.365436145255202, 46.671962902039397 ] ] } },
{ "type": "Feature", "properties": { "wmUplineSo": "KNIFE FALLS", "wmType": "Underground" }, "geometry": { "type": "LineString", "coordinates": [ [ -92.343574298249194, 46.687941788098001 ], [ -92.342823450539697, 46.687943939372197 ] ] } },
{ "type": "Feature", "properties": { "wmUplineSo": "KNIFE FALLS", "wmType": "Underground" }, "geometry": { "type": "LineString", "coordinates": [ [ -92.342823450539697, 46.687943939372197 ], [ -92.3426886952074, 46.687993727146001 ] ] } },
{ "type": "Feature", "properties": { "wmUplineSo": "KNIFE FALLS", "wmType": "Underground" }, "geometry": { "type": "LineString", "coordinates": [ [ -92.3426886952074, 46.687993727146001 ], [ -92.342590368020097, 46.688045267845801 ] ] } },
{ "type": "Feature", "properties": { "wmUplineSo": "KNIFE FALLS", "wmType": "Underground" }, "geometry": { "type": "LineString", "coordinates": [ [ -92.374614703364202, 46.676944808703198 ], [ -92.374599099999898, 46.676937000008401 ] ] } },
{ "type": "Feature", "properties": { "wmUplineSo": "KNIFE FALLS", "wmType": "Underground" }, "geometry": { "type": "LineString", "coordinates": [ [ -92.357594762542703, 46.675904363037702 ], [ -92.357620169708298, 46.675913313256899 ] ] } },
{ "type": "Feature", "properties": { "wmUplineSo": "KNIFE FALLS", "wmType": "Underground" }, "geometry": { "type": "LineString", "coordinates": [ [ -92.344580999961806, 46.682808003474399 ], [ -92.344602999961793, 46.682817003474597 ] ] } },
{ "type": "Feature", "properties": { "wmUplineSo": "KNIFE FALLS", "wmType": "Underground" }, "geometry": { "type": "LineString", "coordinates": [ [ -92.343661985776507, 46.691598099929301 ], [ -92.343543248233601, 46.691481225248502 ] ] } },
{ "type": "Feature", "properties": { "wmUplineSo": "KNIFE FALLS", "wmType": "Underground" }, "geometry": { "type": "LineString", "coordinates": [ [ -92.377149378803693, 46.727993647817698 ], [ -92.377161299999898, 46.727897600008397 ] ] } },
{ "type": "Feature", "properties": { "wmUplineSo": "KNIFE FALLS", "wmType": "Underground" }, "geometry": { "type": "LineString", "coordinates": [ [ -92.358263599080004, 46.672973892101197 ], [ -92.358318311900504, 46.673019289423202 ] ] } },
{ "type": "Feature", "properties": { "wmUplineSo": "KNIFE FALLS", "wmType": "Underground" }, "geometry": { "type": "LineString", "coordinates": [ [ -92.342590368020097, 46.688045267845801 ], [ -92.342493032756195, 46.6880611925396 ] ] } },
{ "type": "Feature", "properties": { "wmUplineSo": "KNIFE FALLS", "wmType": "Underground" }, "geometry": { "type": "LineString", "coordinates": [ [ -92.343543248233601, 46.691481225248502 ], [ -92.343517207325405, 46.691486832507699 ] ] } },
{ "type": "Feature", "properties": { "wmUplineSo": "KNIFE FALLS", "wmType": "Underground" }, "geometry": { "type": "LineString", "coordinates": [ [ -92.3554846388394, 46.677461284887301 ], [ -92.355497344212694, 46.6774561424401 ] ] } },
{ "type": "Feature", "properties": { "wmUplineSo": "KNIFE FALLS", "wmType": "Underground" }, "geometry": { "type": "LineString", "coordinates": [ [ -92.348783002592896, 46.677341559100199 ], [ -92.348785237296894, 46.677253786071098 ] ] } },
{ "type": "Feature", "properties": { "wmUplineSo": "KNIFE FALLS", "wmType": "Underground" }, "geometry": { "type": "LineString", "coordinates": [ [ -92.340195295775501, 46.680361841262197 ], [ -92.340182184827697, 46.6803588950307 ], [ -92.339207311747899, 46.680338035222398 ] ] } },
{ "type": "Feature", "properties": { "wmUplineSo": "KNIFE FALLS", "wmType": "Underground" }, "geometry": { "type": "LineString", "coordinates": [ [ -92.343373431433605, 46.680496758301501 ], [ -92.342084887216004, 46.680455105750099 ] ] } },
{ "type": "Feature", "properties": { "wmUplineSo": "KNIFE FALLS", "wmType": "Underground" }, "geometry": { "type": "LineString", "coordinates": [ [ -92.366355046851993, 46.728052422078001 ], [ -92.366354095672804, 46.727591059807303 ] ] } },
{ "type": "Feature", "properties": { "wmUplineSo": "KNIFE FALLS", "wmType": "Underground" }, "geometry": { "type": "LineString", "coordinates": [ [ -92.424638677239898, 46.742541352477097 ], [ -92.423380508567604, 46.7426486239968 ] ] } },
{ "type": "Feature", "properties": { "wmUplineSo": "KNIFE FALLS", "wmType": "Underground" }, "geometry": { "type": "LineString", "coordinates": [ [ -92.344530684221596, 46.681301488808103 ], [ -92.344606330810095, 46.681409101960199 ] ] } },
{ "type": "Feature", "properties": { "wmUplineSo": "KNIFE FALLS", "wmType": "Underground" }, "geometry": { "type": "LineString", "coordinates": [ [ -92.346017575236104, 46.672937084461303 ], [ -92.346009142471999, 46.672909171182098 ] ] } },
{ "type": "Feature", "properties": { "wmUplineSo": "KNIFE FALLS", "wmType": "Underground" }, "geometry": { "type": "LineString", "coordinates": [ [ -92.364497052640303, 46.676792565116898 ], [ -92.365289004281905, 46.676676165651301 ], [ -92.365926096098093, 46.676658036274802 ], [ -92.366246971263905, 46.676764860839803 ] ] } },
{ "type": "Feature", "properties": { "wmUplineSo": "KNIFE FALLS", "wmType": "Underground" }, "geometry": { "type": "LineString", "coordinates": [ [ -92.364452870334105, 46.672299236702997 ], [ -92.364932754882901, 46.672266077040902 ] ] } },
{ "type": "Feature", "properties": { "wmUplineSo": "KNIFE FALLS", "wmType": "Underground" }, "geometry": { "type": "LineString", "coordinates": [ [ -92.364932754882901, 46.672266077040902 ], [ -92.365572130223299, 46.672234642714798 ] ] } },
{ "type": "Feature", "properties": { "wmUplineSo": "KNIFE FALLS", "wmType": "Underground" }, "geometry": { "type": "LineString", "coordinates": [ [ -92.366252104854595, 46.672280234055698 ], [ -92.366449557388606, 46.6716756458923 ], [ -92.366507430654195, 46.671459288661701 ] ] } },
{ "type": "Feature", "properties": { "wmUplineSo": "KNIFE FALLS", "wmType": "Underground" }, "geometry": { "type": "LineString", "coordinates": [ [ -92.373030197512506, 46.666568367578897 ], [ -92.373846119377305, 46.666213041491297 ] ] } },
{ "type": "Feature", "properties": { "wmUplineSo": "KNIFE FALLS", "wmType": "Underground" }, "geometry": { "type": "LineString", "coordinates": [ [ -92.372379399082803, 46.666586310315999 ], [ -92.371757284921301, 46.6659786957362 ], [ -92.371682267461907, 46.665894042812901 ], [ -92.371596815422294, 46.665814213663097 ] ] } },
{ "type": "Feature", "properties": { "wmUplineSo": "KNIFE FALLS", "wmType": "Underground" }, "geometry": { "type": "LineString", "coordinates": [ [ -92.368078128625697, 46.672214778015999 ], [ -92.369005269631302, 46.672247957133798 ] ] } },
{ "type": "Feature", "properties": { "wmUplineSo": "KNIFE FALLS", "wmType": "Underground" }, "geometry": { "type": "LineString", "coordinates": [ [ -92.367098433685896, 46.672241350278298 ], [ -92.368078128625697, 46.672214778015999 ] ] } },
{ "type": "Feature", "properties": { "wmUplineSo": "KNIFE FALLS", "wmType": "Underground" }, "geometry": { "type": "LineString", "coordinates": [ [ -92.369310698202, 46.671641833352901 ], [ -92.369505360581201, 46.668658003510401 ], [ -92.3705326296744, 46.6672233668789 ], [ -92.372379399082803, 46.666586310315999 ] ] } },
{ "type": "Feature", "properties": { "wmUplineSo": "KNIFE FALLS", "wmType": "Underground" }, "geometry": { "type": "LineString", "coordinates": [ [ -92.369005269631302, 46.672247957133798 ], [ -92.369311454314797, 46.672062550788198 ], [ -92.369310698202, 46.671641833352901 ], [ -92.369310698202, 46.671641833352901 ] ] } },
{ "type": "Feature", "properties": { "wmUplineSo": "KNIFE FALLS", "wmType": "Underground" }, "geometry": { "type": "LineString", "coordinates": [ [ -92.369310698202, 46.671641833352901 ], [ -92.369680606046401, 46.671319360271099 ] ] } },
{ "type": "Feature", "properties": { "wmUplineSo": "KNIFE FALLS", "wmType": "Underground" }, "geometry": { "type": "LineString", "coordinates": [ [ -92.353824529812599, 46.674738591412101 ], [ -92.3527790894899, 46.674462940942 ], [ -92.3527790894899, 46.674462940942099 ] ] } },
{ "type": "Feature", "properties": { "wmUplineSo": "KNIFE FALLS", "wmType": "Underground" }, "geometry": { "type": "LineString", "coordinates": [ [ -92.412389386288496, 46.742669280731299 ], [ -92.412717877118297, 46.742718365959 ] ] } },
{ "type": "Feature", "properties": { "wmUplineSo": "KNIFE FALLS", "wmType": "Underground" }, "geometry": { "type": "LineString", "coordinates": [ [ -92.412717877118297, 46.742718365959 ], [ -92.4137019062468, 46.7428782451248 ] ] } },
{ "type": "Feature", "properties": { "wmUplineSo": "KNIFE FALLS", "wmType": "Underground" }, "geometry": { "type": "LineString", "coordinates": [ [ -92.412233290465394, 46.743470606713998 ], [ -92.411946032550901, 46.743588018304401 ] ] } },
{ "type": "Feature", "properties": { "wmUplineSo": "KNIFE FALLS", "wmType": "Underground" }, "geometry": { "type": "LineString", "coordinates": [ [ -92.411946032550901, 46.743588018304401 ], [ -92.411218469903602, 46.743868410575303 ] ] } },
{ "type": "Feature", "properties": { "wmUplineSo": "KNIFE FALLS", "wmType": "Underground" }, "geometry": { "type": "LineString", "coordinates": [ [ -92.412389386288496, 46.742669280731299 ], [ -92.412175793333603, 46.742682937982202 ] ] } },
{ "type": "Feature", "properties": { "wmUplineSo": "KNIFE FALLS", "wmType": "Underground" }, "geometry": { "type": "LineString", "coordinates": [ [ -92.438569075084899, 46.759189055168697 ], [ -92.438287382307706, 46.7592258477016 ], [ -92.437963612204499, 46.759377886508901 ], [ -92.437681438657407, 46.7593210685366 ], [ -92.437490944417306, 46.759148564494602 ], [ -92.436982082018702, 46.759100551218303 ], [ -92.434836669650906, 46.759028664122397 ], [ -92.434577250825797, 46.759643775868497 ] ] } },
{ "type": "Feature", "properties": { "wmUplineSo": "KNIFE FALLS", "wmType": "Underground" }, "geometry": { "type": "LineString", "coordinates": [ [ -92.438906172928597, 46.759254822477999 ], [ -92.438569075084899, 46.759189055168697 ] ] } },
{ "type": "Feature", "properties": { "wmUplineSo": "KNIFE FALLS", "wmType": "Underground" }, "geometry": { "type": "LineString", "coordinates": [ [ -92.438859993115003, 46.744429436264497 ], [ -92.438367218270898, 46.744019732574699 ] ] } },
{ "type": "Feature", "properties": { "wmUplineSo": "KNIFE FALLS", "wmType": "Underground" }, "geometry": { "type": "LineString", "coordinates": [ [ -92.438367218270898, 46.744019732574699 ], [ -92.436146781288201, 46.743989055406999 ] ] } },
{ "type": "Feature", "properties": { "wmUplineSo": "KNIFE FALLS", "wmType": "Underground" }, "geometry": { "type": "LineString", "coordinates": [ [ -92.421065098745203, 46.742813202571803 ], [ -92.4198088065382, 46.7428980286493 ] ] } },
{ "type": "Feature", "properties": { "wmUplineSo": "KNIFE FALLS", "wmType": "Underground" }, "geometry": { "type": "LineString", "coordinates": [ [ -92.409120856164506, 46.739311019691499 ], [ -92.409020321904904, 46.739219526391999 ], [ -92.409192895885099, 46.739031818080498 ] ] } },
{ "type": "Feature", "properties": { "wmUplineSo": "KNIFE FALLS", "wmType": "Underground" }, "geometry": { "type": "LineString", "coordinates": [ [ -92.409172392674506, 46.739504587508897 ], [ -92.409120856164506, 46.739311019691499 ] ] } },
{ "type": "Feature", "properties": { "wmUplineSo": "KNIFE FALLS", "wmType": "Underground" }, "geometry": { "type": "LineString", "coordinates": [ [ -92.412822865865905, 46.740274940153199 ], [ -92.412636269993598, 46.740453580353602 ] ] } },
{ "type": "Feature", "properties": { "wmUplineSo": "KNIFE FALLS", "wmType": "Underground" }, "geometry": { "type": "LineString", "coordinates": [ [ -92.412175793333603, 46.742682937982202 ], [ -92.411576060638097, 46.7428020267348 ] ] } },
{ "type": "Feature", "properties": { "wmUplineSo": "KNIFE FALLS", "wmType": "Underground" }, "geometry": { "type": "LineString", "coordinates": [ [ -92.348501931391297, 46.674070812903999 ], [ -92.347652056906199, 46.674097075270701 ] ] } },
{ "type": "Feature", "properties": { "wmUplineSo": "KNIFE FALLS", "wmType": "Underground" }, "geometry": { "type": "LineString", "coordinates": [ [ -92.347652056906199, 46.674097075270701 ], [ -92.346778013745094, 46.674059706097502 ], [ -92.346175707798196, 46.673978166752903 ] ] } },
{ "type": "Feature", "properties": { "wmUplineSo": "KNIFE FALLS", "wmType": "Underground" }, "geometry": { "type": "LineString", "coordinates": [ [ -92.346175707798196, 46.673978166752903 ], [ -92.344729051680105, 46.673393440916897 ] ] } },
{ "type": "Feature", "properties": { "wmUplineSo": "KNIFE FALLS", "wmType": "Underground" }, "geometry": { "type": "LineString", "coordinates": [ [ -92.346175707798196, 46.673978166752903 ], [ -92.346017575236104, 46.672937084461303 ] ] } },
{ "type": "Feature", "properties": { "wmUplineSo": "KNIFE FALLS", "wmType": "Underground" }, "geometry": { "type": "LineString", "coordinates": [ [ -92.356866898917602, 46.665380222964998 ], [ -92.357372902628001, 46.6658259889902 ] ] } },
{ "type": "Feature", "properties": { "wmUplineSo": "KNIFE FALLS", "wmType": "Underground" }, "geometry": { "type": "LineString", "coordinates": [ [ -92.362842574332404, 46.679655386587399 ], [ -92.363422587825397, 46.679633427901997 ], [ -92.363793663698402, 46.6797024669984 ], [ -92.363897404373603, 46.679788104219199 ], [ -92.364077418063204, 46.679936703490398 ], [ -92.364133601015894, 46.679983082444103 ] ] } },
{ "type": "Feature", "properties": { "wmUplineSo": "KNIFE FALLS", "wmType": "Underground" }, "geometry": { "type": "LineString", "coordinates": [ [ -92.343586560241306, 46.685172300077198 ], [ -92.347641332304605, 46.685173275293501 ], [ -92.347559130861796, 46.683239772494403 ], [ -92.348180319066898, 46.683244895383702 ], [ -92.348663550745997, 46.682660339067702 ] ] } },
{ "type": "Feature", "properties": { "wmUplineSo": "KNIFE FALLS", "wmType": "Underground" }, "geometry": { "type": "LineString", "coordinates": [ [ -92.357776803519599, 46.675553741390203 ], [ -92.3575637425796, 46.675719256016599 ], [ -92.3575637425796, 46.675719256016599 ] ] } },
{ "type": "Feature", "properties": { "wmUplineSo": "KNIFE FALLS", "wmType": "Underground" }, "geometry": { "type": "LineString", "coordinates": [ [ -92.412636269993598, 46.740453580353602 ], [ -92.412261948958502, 46.740726469115302 ], [ -92.411897000646206, 46.740868255983202 ], [ -92.411675161420504, 46.740874236889901 ] ] } },
{ "type": "Feature", "properties": { "wmUplineSo": "KNIFE FALLS", "wmType": "Underground" }, "geometry": { "type": "LineString", "coordinates": [ [ -92.438932329736204, 46.762582960303398 ], [ -92.437184837414705, 46.762705358828001 ] ] } },
{ "type": "Feature", "properties": { "wmUplineSo": "KNIFE FALLS", "wmType": "Underground" }, "geometry": { "type": "LineString", "coordinates": [ [ -92.407499399476905, 46.739166021411002 ], [ -92.407118204952994, 46.739142558817797 ] ] } },
{ "type": "Feature", "properties": { "wmUplineSo": "KNIFE FALLS", "wmType": "Underground" }, "geometry": { "type": "LineString", "coordinates": [ [ -92.4076827350748, 46.739207861016801 ], [ -92.407499399476905, 46.739166021411002 ] ] } },
{ "type": "Feature", "properties": { "wmUplineSo": "KNIFE FALLS", "wmType": "Underground" }, "geometry": { "type": "LineString", "coordinates": [ [ -92.404811314920494, 46.728934714826799 ], [ -92.404871899543494, 46.729359299733702 ] ] } },
{ "type": "Feature", "properties": { "wmUplineSo": "KNIFE FALLS", "wmType": "Underground" }, "geometry": { "type": "LineString", "coordinates": [ [ -92.374784023838998, 46.7287864057351 ], [ -92.375330968706393, 46.728110627721499 ] ] } },
{ "type": "Feature", "properties": { "wmUplineSo": "KNIFE FALLS", "wmType": "Underground" }, "geometry": { "type": "LineString", "coordinates": [ [ -92.377044809700195, 46.728852692495401 ], [ -92.377149378803693, 46.727993647817698 ] ] } },
{ "type": "Feature", "properties": { "wmUplineSo": "KNIFE FALLS", "wmType": "Underground" }, "geometry": { "type": "LineString", "coordinates": [ [ -92.377015730402604, 46.728851689940697 ], [ -92.376977578350605, 46.7288702563215 ] ] } },
{ "type": "Feature", "properties": { "wmUplineSo": "KNIFE FALLS", "wmType": "Underground" }, "geometry": { "type": "LineString", "coordinates": [ [ -92.366252104854595, 46.672280234055698 ], [ -92.367098433685896, 46.672241350278298 ] ] } },
{ "type": "Feature", "properties": { "wmUplineSo": "KNIFE FALLS", "wmType": "Underground" }, "geometry": { "type": "LineString", "coordinates": [ [ -92.365572130223299, 46.672234642714798 ], [ -92.366252104854595, 46.672280234055698 ] ] } },
{ "type": "Feature", "properties": { "wmUplineSo": "KNIFE FALLS", "wmType": "Underground" }, "geometry": { "type": "LineString", "coordinates": [ [ -92.366252104854595, 46.672280234055698 ], [ -92.366403119059299, 46.672865873008099 ], [ -92.366669819094497, 46.673175932027299 ] ] } },
{ "type": "Feature", "properties": { "wmUplineSo": "KNIFE FALLS", "wmType": "Underground" }, "geometry": { "type": "LineString", "coordinates": [ [ -92.366669819094497, 46.673175932027299 ], [ -92.366546420278894, 46.673375297593097 ] ] } },
{ "type": "Feature", "properties": { "wmUplineSo": "KNIFE FALLS", "wmType": "Underground" }, "geometry": { "type": "LineString", "coordinates": [ [ -92.366669819094497, 46.673175932027299 ], [ -92.367223787890396, 46.673152181615102 ] ] } },
{ "type": "Feature", "properties": { "wmUplineSo": "KNIFE FALLS", "wmType": "Underground" }, "geometry": { "type": "LineString", "coordinates": [ [ -92.343895084182805, 46.689797956074301 ], [ -92.343895367671394, 46.6897973172862 ], [ -92.343927199355505, 46.689725590499201 ], [ -92.344345575416497, 46.689679622111598 ], [ -92.345032619202499, 46.6896838810611 ], [ -92.345645994573403, 46.689691699928701 ] ] } },
{ "type": "Feature", "properties": { "wmUplineSo": "KNIFE FALLS", "wmType": "Underground" }, "geometry": { "type": "LineString", "coordinates": [ [ -92.345648701811399, 46.689600051148901 ], [ -92.345348091466093, 46.689603407902197 ] ] } },
{ "type": "Feature", "properties": { "wmUplineSo": "KNIFE FALLS", "wmType": "Underground" }, "geometry": { "type": "LineString", "coordinates": [ [ -92.345648701811399, 46.689600051148901 ], [ -92.346120755748601, 46.6896010044034 ] ] } },
{ "type": "Feature", "properties": { "wmUplineSo": "KNIFE FALLS", "wmType": "Underground" }, "geometry": { "type": "LineString", "coordinates": [ [ -92.345645994573403, 46.689691699928701 ], [ -92.345648701811399, 46.689600051148901 ] ] } },
{ "type": "Feature", "properties": { "wmUplineSo": "KNIFE FALLS", "wmType": "Underground" }, "geometry": { "type": "LineString", "coordinates": [ [ -92.438735798251301, 46.757626190871399 ], [ -92.438288842405299, 46.7577594473631 ] ] } },
{ "type": "Feature", "properties": { "wmUplineSo": "KNIFE FALLS", "wmType": "Underground" }, "geometry": { "type": "LineString", "coordinates": [ [ -92.438893125686903, 46.757572798109202 ], [ -92.438735798251301, 46.757626190871399 ] ] } },
{ "type": "Feature", "properties": { "wmUplineSo": "KNIFE FALLS", "wmType": "Underground" }, "geometry": { "type": "LineString", "coordinates": [ [ -92.354051772977698, 46.673376710484703 ], [ -92.354874804054106, 46.673232504608798 ], [ -92.355288791626407, 46.673198088951402 ], [ -92.355288791626407, 46.673198088951402 ] ] } },
{ "type": "Feature", "properties": { "wmUplineSo": "KNIFE FALLS", "wmType": "Underground" }, "geometry": { "type": "LineString", "coordinates": [ [ -92.343274468839894, 46.677739018102599 ], [ -92.343245326365604, 46.677729779061103 ] ] } },
{ "type": "Feature", "properties": { "wmUplineSo": "KNIFE FALLS", "wmType": "Underground" }, "geometry": { "type": "LineString", "coordinates": [ [ -92.348785042931894, 46.676122530965898 ], [ -92.3488078441748, 46.675843424552298 ] ] } },
{ "type": "Feature", "properties": { "wmUplineSo": "KNIFE FALLS", "wmType": "Underground" }, "geometry": { "type": "LineString", "coordinates": [ [ -92.346121926290607, 46.677077980888001 ], [ -92.346322594271399, 46.676912859008503 ] ] } },
{ "type": "Feature", "properties": { "wmUplineSo": "KNIFE FALLS", "wmType": "Underground" }, "geometry": { "type": "LineString", "coordinates": [ [ -92.346322594271399, 46.676912859008503 ], [ -92.346397003674099, 46.676880591848501 ], [ -92.346549888366994, 46.676707575920098 ], [ -92.346651538124505, 46.675788964753202 ] ] } },
{ "type": "Feature", "properties": { "wmUplineSo": "KNIFE FALLS", "wmType": "Underground" }, "geometry": { "type": "LineString", "coordinates": [ [ -92.344729051680105, 46.673393440916897 ], [ -92.343250659229497, 46.672527357097202 ], [ -92.342833772521203, 46.672547300977001 ] ] } },
{ "type": "Feature", "properties": { "wmUplineSo": "KNIFE FALLS", "wmType": "Underground" }, "geometry": { "type": "LineString", "coordinates": [ [ -92.340850806854903, 46.680415200098501 ], [ -92.340383847700494, 46.680404211576302 ], [ -92.340195295775501, 46.680361841262197 ] ] } },
{ "type": "Feature", "properties": { "wmUplineSo": "KNIFE FALLS", "wmType": "Underground" }, "geometry": { "type": "LineString", "coordinates": [ [ -92.348796007650193, 46.676781003440603 ], [ -92.348785042931894, 46.676122530965898 ] ] } },
{ "type": "Feature", "properties": { "wmUplineSo": "KNIFE FALLS", "wmType": "Underground" }, "geometry": { "type": "LineString", "coordinates": [ [ -92.372379399082803, 46.666586310315999 ], [ -92.373030197512506, 46.666568367578897 ] ] } },
{ "type": "Feature", "properties": { "wmUplineSo": "KNIFE FALLS", "wmType": "Underground" }, "geometry": { "type": "LineString", "coordinates": [ [ -92.373030197512506, 46.666568367578897 ], [ -92.372825983244695, 46.665669799548702 ] ] } },
{ "type": "Feature", "properties": { "wmUplineSo": "KNIFE FALLS", "wmType": "Underground" }, "geometry": { "type": "LineString", "coordinates": [ [ -92.346120755748601, 46.6896010044034 ], [ -92.346280000027903, 46.689601355618699 ] ] } },
{ "type": "Feature", "properties": { "wmUplineSo": "KNIFE FALLS", "wmType": "Underground" }, "geometry": { "type": "LineString", "coordinates": [ [ -92.346280000027903, 46.689601355618699 ], [ -92.346295914141905, 46.689583479907697 ] ] } },
{ "type": "Feature", "properties": { "wmUplineSo": "KNIFE FALLS", "wmType": "Underground" }, "geometry": { "type": "LineString", "coordinates": [ [ -92.344606330810095, 46.681409101960199 ], [ -92.344566099999895, 46.681446300008403 ] ] } },
{ "type": "Feature", "properties": { "wmUplineSo": "KNIFE FALLS", "wmType": "Underground" }, "geometry": { "type": "LineString", "coordinates": [ [ -92.348785237296894, 46.677253786071098 ], [ -92.348783007152505, 46.677200003449002 ] ] } },
{ "type": "Feature", "properties": { "wmUplineSo": "KNIFE FALLS", "wmType": "Underground" }, "geometry": { "type": "LineString", "coordinates": [ [ -92.348849062666403, 46.677703267177897 ], [ -92.348783002592896, 46.677341559100199 ] ] } },
{ "type": "Feature", "properties": { "wmUplineSo": "KNIFE FALLS", "wmType": "Underground" }, "geometry": { "type": "LineString", "coordinates": [ [ -92.349233125483707, 46.677738719924797 ], [ -92.348849062666403, 46.677703267177897 ] ] } },
{ "type": "Feature", "properties": { "wmUplineSo": "KNIFE FALLS", "wmType": "Underground" }, "geometry": { "type": "LineString", "coordinates": [ [ -92.348501931391297, 46.674070812903999 ], [ -92.348501646120198, 46.674066637927098 ], [ -92.348623562857597, 46.6741278826564 ], [ -92.348835099664598, 46.674177181195901 ], [ -92.348829719244904, 46.674181587737003 ] ] } },
{ "type": "Feature", "properties": { "wmUplineSo": "KNIFE FALLS", "wmType": "Underground" }, "geometry": { "type": "LineString", "coordinates": [ [ -92.348963514728894, 46.673429272613497 ], [ -92.348501931391297, 46.674070812903999 ] ] } },
{ "type": "Feature", "properties": { "wmUplineSo": "KNIFE FALLS", "wmType": "Underground" }, "geometry": { "type": "LineString", "coordinates": [ [ -92.354150568578802, 46.665798664409003 ], [ -92.354442965754998, 46.665831151347902 ], [ -92.356866898917602, 46.665380222964998 ] ] } },
{ "type": "Feature", "properties": { "wmUplineSo": "KNIFE FALLS", "wmType": "Underground" }, "geometry": { "type": "LineString", "coordinates": [ [ -92.3575637425796, 46.675719256016599 ], [ -92.357594762542703, 46.675904363037702 ] ] } },
{ "type": "Feature", "properties": { "wmUplineSo": "KNIFE FALLS", "wmType": "Underground" }, "geometry": { "type": "LineString", "coordinates": [ [ -92.364439802282305, 46.6736137110491 ], [ -92.364432400183404, 46.673030176545197 ] ] } },
{ "type": "Feature", "properties": { "wmUplineSo": "KNIFE FALLS", "wmType": "Underground" }, "geometry": { "type": "LineString", "coordinates": [ [ -92.342493032756195, 46.6880611925396 ], [ -92.3424785537253, 46.688072512484801 ] ] } },
{ "type": "Feature", "properties": { "wmUplineSo": "KNIFE FALLS", "wmType": "Underground" }, "geometry": { "type": "LineString", "coordinates": [ [ -92.343751753244206, 46.681442222862998 ], [ -92.344141501579799, 46.681291311446799 ] ] } },
{ "type": "Feature", "properties": { "wmUplineSo": "KNIFE FALLS", "wmType": "Underground" }, "geometry": { "type": "LineString", "coordinates": [ [ -92.357372902628001, 46.6658259889902 ], [ -92.357693789802894, 46.666097828592399 ] ] } },
{ "type": "Feature", "properties": { "wmUplineSo": "KNIFE FALLS", "wmType": "Underground" }, "geometry": { "type": "LineString", "coordinates": [ [ -92.357693789802894, 46.666097828592399 ], [ -92.357707463840697, 46.666110260426699 ] ] } }
]
}
