{
"type": "FeatureCollection",
"crs": { "type": "name", "properties": { "name": "urn:ogc:def:crs:OGC:1.3:CRS84" } },
"features": [
{ "type": "Feature", "properties": { "wmUplineSo": "LAKELAND B", "wmType": "Underground" }, "geometry": { "type": "LineString", "coordinates": [ [ -92.257467638378301, 47.430134914702201 ], [ -92.2569873999999, 47.430428400009198 ] ] } },
{ "type": "Feature", "properties": { "wmUplineSo": "LAKELAND B", "wmType": "Underground" }, "geometry": { "type": "LineString", "coordinates": [ [ -92.215633528499694, 47.441869664260501 ], [ -92.215495679411006, 47.441880640620603 ] ] } },
{ "type": "Feature", "properties": { "wmUplineSo": "LAKELAND B", "wmType": "Underground" }, "geometry": { "type": "LineString", "coordinates": [ [ -92.225829462381597, 47.459666590394299 ], [ -92.226472899999806, 47.459751700009299 ] ] } },
{ "type": "Feature", "properties": { "wmUplineSo": "LAKELAND B", "wmType": "Underground" }, "geometry": { "type": "LineString", "coordinates": [ [ -92.222544704232604, 47.463925574281802 ], [ -92.218735199999799, 47.464432400009301 ] ] } },
{ "type": "Feature", "properties": { "wmUplineSo": "LAKELAND B", "wmType": "Underground" }, "geometry": { "type": "LineString", "coordinates": [ [ -92.271417940077001, 47.496769695289899 ], [ -92.271327199999902, 47.4967275000093 ] ] } },
{ "type": "Feature", "properties": { "wmUplineSo": "LAKELAND B", "wmType": "Underground" }, "geometry": { "type": "LineString", "coordinates": [ [ -92.263233430914298, 47.491709328581301 ], [ -92.263028599999899, 47.491760700009301 ] ] } },
{ "type": "Feature", "properties": { "wmUplineSo": "LAKELAND B", "wmType": "Underground" }, "geometry": { "type": "LineString", "coordinates": [ [ -92.2507403235754, 47.509606330330598 ], [ -92.251590199999796, 47.509792000009298 ] ] } },
{ "type": "Feature", "properties": { "wmUplineSo": "LAKELAND B", "wmType": "Underground" }, "geometry": { "type": "LineString", "coordinates": [ [ -92.216354, 47.50359 ], [ -92.216506299999807, 47.503697700009297 ] ] } },
{ "type": "Feature", "properties": { "wmUplineSo": "LAKELAND B", "wmType": "Underground" }, "geometry": { "type": "LineString", "coordinates": [ [ -92.216354, 47.50359 ], [ -92.216449999999796, 47.503698700009302 ] ] } },
{ "type": "Feature", "properties": { "wmUplineSo": "LAKELAND B", "wmType": "Underground" }, "geometry": { "type": "LineString", "coordinates": [ [ -92.228763650181605, 47.503988678381397 ], [ -92.228118699999897, 47.504056500009298 ] ] } },
{ "type": "Feature", "properties": { "wmUplineSo": "LAKELAND B", "wmType": "Underground" }, "geometry": { "type": "LineString", "coordinates": [ [ -92.216938327556093, 47.502324546725099 ], [ -92.216952899999797, 47.502367100009302 ] ] } },
{ "type": "Feature", "properties": { "wmUplineSo": "LAKELAND B", "wmType": "Underground" }, "geometry": { "type": "LineString", "coordinates": [ [ -92.210989999949604, 47.444440003682899 ], [ -92.210592999949597, 47.444248003683001 ] ] } },
{ "type": "Feature", "properties": { "wmUplineSo": "LAKELAND B", "wmType": "Underground" }, "geometry": { "type": "LineString", "coordinates": [ [ -92.3259446953885, 47.459192026967997 ], [ -92.325577299999907, 47.459218300009297 ] ] } },
{ "type": "Feature", "properties": { "wmUplineSo": "LAKELAND B", "wmType": "Underground" }, "geometry": { "type": "LineString", "coordinates": [ [ -92.260792424700895, 47.504881536502502 ], [ -92.260720499999906, 47.504844100009301 ] ] } },
{ "type": "Feature", "properties": { "wmUplineSo": "LAKELAND B", "wmType": "Underground" }, "geometry": { "type": "LineString", "coordinates": [ [ -92.232896080689201, 47.458945301537199 ], [ -92.232906892595196, 47.459031176872003 ] ] } },
{ "type": "Feature", "properties": { "wmUplineSo": "LAKELAND B", "wmType": "Underground" }, "geometry": { "type": "LineString", "coordinates": [ [ -92.291462, 47.4441500000001 ], [ -92.291411461179806, 47.443909214989901 ] ] } },
{ "type": "Feature", "properties": { "wmUplineSo": "LAKELAND B", "wmType": "Underground" }, "geometry": { "type": "LineString", "coordinates": [ [ -92.300950736748803, 47.458547438185299 ], [ -92.300875799999901, 47.4585971000093 ] ] } },
{ "type": "Feature", "properties": { "wmUplineSo": "LAKELAND B", "wmType": "Underground" }, "geometry": { "type": "LineString", "coordinates": [ [ -92.210540999949501, 47.444102003683 ], [ -92.210446999949596, 47.443888003682801 ] ] } },
{ "type": "Feature", "properties": { "wmUplineSo": "LAKELAND B", "wmType": "Underground" }, "geometry": { "type": "LineString", "coordinates": [ [ -92.210446999949596, 47.443888003682801 ], [ -92.210519799999801, 47.443925200009303 ] ] } },
{ "type": "Feature", "properties": { "wmUplineSo": "LAKELAND B", "wmType": "Underground" }, "geometry": { "type": "LineString", "coordinates": [ [ -92.239392, 47.506106 ], [ -92.239484, 47.505689 ] ] } },
{ "type": "Feature", "properties": { "wmUplineSo": "LAKELAND B", "wmType": "Underground" }, "geometry": { "type": "LineString", "coordinates": [ [ -92.291411461179806, 47.443909214989901 ], [ -92.291363897035097, 47.443912627929301 ] ] } },
{ "type": "Feature", "properties": { "wmUplineSo": "LAKELAND B", "wmType": "Underground" }, "geometry": { "type": "LineString", "coordinates": [ [ -92.218139094912004, 47.504084191462802 ], [ -92.216354, 47.50359 ] ] } },
{ "type": "Feature", "properties": { "wmUplineSo": "LAKELAND B", "wmType": "Underground" }, "geometry": { "type": "LineString", "coordinates": [ [ -92.257416999952596, 47.437808003680999 ], [ -92.257215299999899, 47.437734900009303 ] ] } },
{ "type": "Feature", "properties": { "wmUplineSo": "LAKELAND B", "wmType": "Underground" }, "geometry": { "type": "LineString", "coordinates": [ [ -92.271364440079196, 47.494942237424802 ], [ -92.270918067736403, 47.495273626704702 ], [ -92.270820599880693, 47.495616808708199 ], [ -92.270932884139896, 47.496334500690502 ], [ -92.271091016687393, 47.496645440065798 ], [ -92.271417940077001, 47.496769695289899 ] ] } },
{ "type": "Feature", "properties": { "wmUplineSo": "LAKELAND B", "wmType": "Underground" }, "geometry": { "type": "LineString", "coordinates": [ [ -92.263079357047403, 47.493245221651399 ], [ -92.263083753602899, 47.493201394618502 ] ] } },
{ "type": "Feature", "properties": { "wmUplineSo": "LAKELAND B", "wmType": "Underground" }, "geometry": { "type": "LineString", "coordinates": [ [ -92.263083753602899, 47.493201394618502 ], [ -92.263233430914298, 47.491709328581301 ] ] } },
{ "type": "Feature", "properties": { "wmUplineSo": "LAKELAND B", "wmType": "Underground" }, "geometry": { "type": "LineString", "coordinates": [ [ -92.286884002430099, 47.444211200036001 ], [ -92.286619938138998, 47.444638093651697 ] ] } },
{ "type": "Feature", "properties": { "wmUplineSo": "LAKELAND B", "wmType": "Underground" }, "geometry": { "type": "LineString", "coordinates": [ [ -92.257804869999902, 47.430072780009297 ], [ -92.257653442070406, 47.430069940907202 ], [ -92.2576554991725, 47.430132197500498 ], [ -92.257467638378301, 47.430134914702201 ] ] } },
{ "type": "Feature", "properties": { "wmUplineSo": "LAKELAND B", "wmType": "Underground" }, "geometry": { "type": "LineString", "coordinates": [ [ -92.215843224310007, 47.440815785485597 ], [ -92.215835917154294, 47.440852504148097 ] ] } },
{ "type": "Feature", "properties": { "wmUplineSo": "LAKELAND B", "wmType": "Underground" }, "geometry": { "type": "LineString", "coordinates": [ [ -92.215835917154294, 47.440852504148097 ], [ -92.215633528499694, 47.441869664260501 ] ] } },
{ "type": "Feature", "properties": { "wmUplineSo": "LAKELAND B", "wmType": "Underground" }, "geometry": { "type": "LineString", "coordinates": [ [ -92.225525295131106, 47.459036294133703 ], [ -92.225829462381597, 47.459666590394299 ] ] } },
{ "type": "Feature", "properties": { "wmUplineSo": "LAKELAND B", "wmType": "Underground" }, "geometry": { "type": "LineString", "coordinates": [ [ -92.225829462381597, 47.459666590394299 ], [ -92.224232602224205, 47.461106058469603 ], [ -92.224440702504296, 47.461504428598303 ], [ -92.223336769602, 47.463761693045498 ], [ -92.222544704232604, 47.463925574281802 ] ] } },
{ "type": "Feature", "properties": { "wmUplineSo": "LAKELAND B", "wmType": "Underground" }, "geometry": { "type": "LineString", "coordinates": [ [ -92.255823769960003, 47.509183990943697 ], [ -92.250758670376399, 47.509359276886499 ], [ -92.2507403235754, 47.509606330330598 ] ] } },
{ "type": "Feature", "properties": { "wmUplineSo": "LAKELAND B", "wmType": "Underground" }, "geometry": { "type": "LineString", "coordinates": [ [ -92.345131929118693, 47.455491931348902 ], [ -92.345026320741795, 47.455590670787799 ] ] } },
{ "type": "Feature", "properties": { "wmUplineSo": "LAKELAND B", "wmType": "Underground" }, "geometry": { "type": "LineString", "coordinates": [ [ -92.326410947598404, 47.4588072070434 ], [ -92.326446407541496, 47.458746515623702 ], [ -92.3260976556234, 47.459189612148798 ], [ -92.3259446953885, 47.459192026967997 ] ] } },
{ "type": "Feature", "properties": { "wmUplineSo": "LAKELAND B", "wmType": "Underground" }, "geometry": { "type": "LineString", "coordinates": [ [ -92.260811899888196, 47.504617815397999 ], [ -92.260792424700895, 47.504881536502502 ] ] } },
{ "type": "Feature", "properties": { "wmUplineSo": "LAKELAND B", "wmType": "Underground" }, "geometry": { "type": "LineString", "coordinates": [ [ -92.227429567235802, 47.505059865656897 ], [ -92.227567321109106, 47.505063720511401 ] ] } },
{ "type": "Feature", "properties": { "wmUplineSo": "LAKELAND B", "wmType": "Underground" }, "geometry": { "type": "LineString", "coordinates": [ [ -92.227567321109106, 47.505063720511401 ], [ -92.228763650181506, 47.503988678381504 ], [ -92.228763650181605, 47.503988678381397 ] ] } },
{ "type": "Feature", "properties": { "wmUplineSo": "LAKELAND B", "wmType": "Underground" }, "geometry": { "type": "LineString", "coordinates": [ [ -92.232716393342699, 47.458317479977403 ], [ -92.232896080689201, 47.458945301537199 ] ] } },
{ "type": "Feature", "properties": { "wmUplineSo": "LAKELAND B", "wmType": "Underground" }, "geometry": { "type": "LineString", "coordinates": [ [ -92.232694024639102, 47.458239321515002 ], [ -92.232716393342699, 47.458317479977403 ] ] } },
{ "type": "Feature", "properties": { "wmUplineSo": "LAKELAND B", "wmType": "Underground" }, "geometry": { "type": "LineString", "coordinates": [ [ -92.210592999949597, 47.444248003683001 ], [ -92.210540999949501, 47.444102003683 ] ] } },
{ "type": "Feature", "properties": { "wmUplineSo": "LAKELAND B", "wmType": "Underground" }, "geometry": { "type": "LineString", "coordinates": [ [ -92.344928076149799, 47.455581770912097 ], [ -92.344911362317504, 47.455541650100102 ] ] } },
{ "type": "Feature", "properties": { "wmUplineSo": "LAKELAND B", "wmType": "Underground" }, "geometry": { "type": "LineString", "coordinates": [ [ -92.344911362317504, 47.455541650100102 ], [ -92.344850075822194, 47.455522978598502 ] ] } },
{ "type": "Feature", "properties": { "wmUplineSo": "LAKELAND B", "wmType": "Underground" }, "geometry": { "type": "LineString", "coordinates": [ [ -92.302695190706103, 47.458439847211402 ], [ -92.300950736748803, 47.458547438185299 ] ] } },
{ "type": "Feature", "properties": { "wmUplineSo": "LAKELAND B", "wmType": "Underground" }, "geometry": { "type": "LineString", "coordinates": [ [ -92.257418999952606, 47.437785003681199 ], [ -92.257416999952596, 47.437808003680999 ] ] } },
{ "type": "Feature", "properties": { "wmUplineSo": "LAKELAND B", "wmType": "Underground" }, "geometry": { "type": "LineString", "coordinates": [ [ -92.218273, 47.502411 ], [ -92.216938327556093, 47.502324546725099 ] ] } },
{ "type": "Feature", "properties": { "wmUplineSo": "LAKELAND B", "wmType": "Underground" }, "geometry": { "type": "LineString", "coordinates": [ [ -92.262378605807001, 47.423272413224701 ], [ -92.262379, 47.423274999999897 ] ] } },
{ "type": "Feature", "properties": { "wmUplineSo": "LAKELAND B", "wmType": "Underground" }, "geometry": { "type": "LineString", "coordinates": [ [ -92.255827722809599, 47.508456940861201 ], [ -92.254492, 47.508652 ] ] } },
{ "type": "Feature", "properties": { "wmUplineSo": "LAKELAND B", "wmType": "Underground" }, "geometry": { "type": "LineString", "coordinates": [ [ -92.254492, 47.508652 ], [ -92.254453, 47.508665 ] ] } },
{ "type": "Feature", "properties": { "wmUplineSo": "LAKELAND B", "wmType": "Underground" }, "geometry": { "type": "LineString", "coordinates": [ [ -92.216938327556093, 47.502324546725099 ], [ -92.216933424369998, 47.5023298101273 ], [ -92.216693871696194, 47.502372616732899 ], [ -92.214894494959097, 47.502404753895703 ], [ -92.214590107284295, 47.502248061653503 ], [ -92.215102851835695, 47.501977163981003 ] ] } },
{ "type": "Feature", "properties": { "wmUplineSo": "LAKELAND B", "wmType": "Underground" }, "geometry": { "type": "LineString", "coordinates": [ [ -92.239484, 47.505689 ], [ -92.239449, 47.505671 ] ] } },
{ "type": "Feature", "properties": { "wmUplineSo": "LAKELAND B", "wmType": "Underground" }, "geometry": { "type": "LineString", "coordinates": [ [ -92.239449, 47.505671 ], [ -92.239421, 47.505671 ] ] } },
{ "type": "Feature", "properties": { "wmUplineSo": "LAKELAND B", "wmType": "Underground" }, "geometry": { "type": "LineString", "coordinates": [ [ -92.218221999949705, 47.506455003700303 ], [ -92.217475267217495, 47.5064607988242 ], [ -92.218221999949705, 47.506455003700303 ], [ -92.218139094912004, 47.504084191462802 ] ] } },
{ "type": "Feature", "properties": { "wmUplineSo": "LAKELAND B", "wmType": "Underground" }, "geometry": { "type": "LineString", "coordinates": [ [ -92.2616709999525, 47.504565003699902 ], [ -92.262058999952501, 47.504030003699597 ] ] } },
{ "type": "Feature", "properties": { "wmUplineSo": "LAKELAND B", "wmType": "Underground" }, "geometry": { "type": "LineString", "coordinates": [ [ -92.262058999952501, 47.504030003699597 ], [ -92.262067275082103, 47.504003026775003 ], [ -92.262324678377894, 47.503670856921602 ], [ -92.262364774860501, 47.503560807126703 ], [ -92.262340903917206, 47.503430025998597 ], [ -92.262294883861799, 47.503351353405598 ], [ -92.262672500397798, 47.503041984900698 ], [ -92.262675999952606, 47.503043003699503 ] ] } },
{ "type": "Feature", "properties": { "wmUplineSo": "LAKELAND B", "wmType": "Underground" }, "geometry": { "type": "LineString", "coordinates": [ [ -92.217215999949701, 47.500442003698701 ], [ -92.217246899999907, 47.500409800009301 ] ] } },
{ "type": "Feature", "properties": { "wmUplineSo": "LAKELAND B", "wmType": "Underground" }, "geometry": { "type": "LineString", "coordinates": [ [ -92.262675999952606, 47.503043003699503 ], [ -92.263134518065897, 47.502621236896999 ] ] } },
{ "type": "Feature", "properties": { "wmUplineSo": "LAKELAND B", "wmType": "Underground" }, "geometry": { "type": "LineString", "coordinates": [ [ -92.218139094912004, 47.504084191462802 ], [ -92.218273, 47.502411 ] ] } },
{ "type": "Feature", "properties": { "wmUplineSo": "LAKELAND B", "wmType": "Underground" }, "geometry": { "type": "LineString", "coordinates": [ [ -92.218273, 47.502411 ], [ -92.218515, 47.502407 ] ] } },
{ "type": "Feature", "properties": { "wmUplineSo": "LAKELAND B", "wmType": "Underground" }, "geometry": { "type": "LineString", "coordinates": [ [ -92.218515, 47.502407 ], [ -92.218972, 47.502382 ] ] } },
{ "type": "Feature", "properties": { "wmUplineSo": "LAKELAND B", "wmType": "Underground" }, "geometry": { "type": "LineString", "coordinates": [ [ -92.218972, 47.502382 ], [ -92.219358, 47.502060999999898 ] ] } },
{ "type": "Feature", "properties": { "wmUplineSo": "LAKELAND B", "wmType": "Underground" }, "geometry": { "type": "LineString", "coordinates": [ [ -92.219358, 47.502060999999898 ], [ -92.21963, 47.501596 ] ] } },
{ "type": "Feature", "properties": { "wmUplineSo": "LAKELAND B", "wmType": "Underground" }, "geometry": { "type": "LineString", "coordinates": [ [ -92.21963, 47.501596 ], [ -92.219804116309902, 47.501323467653798 ] ] } },
{ "type": "Feature", "properties": { "wmUplineSo": "LAKELAND B", "wmType": "Underground" }, "geometry": { "type": "LineString", "coordinates": [ [ -92.219804116309902, 47.501323467653798 ], [ -92.220227472084801, 47.501131124714398 ] ] } },
{ "type": "Feature", "properties": { "wmUplineSo": "LAKELAND B", "wmType": "Underground" }, "geometry": { "type": "LineString", "coordinates": [ [ -92.220227472084801, 47.501131124714398 ], [ -92.220631487354098, 47.500980349976103 ] ] } },
{ "type": "Feature", "properties": { "wmUplineSo": "LAKELAND B", "wmType": "Underground" }, "geometry": { "type": "LineString", "coordinates": [ [ -92.220631487354098, 47.500980349976103 ], [ -92.220867147777597, 47.500834288113303 ] ] } },
{ "type": "Feature", "properties": { "wmUplineSo": "LAKELAND B", "wmType": "Underground" }, "geometry": { "type": "LineString", "coordinates": [ [ -92.220867147777597, 47.500834288113303 ], [ -92.220851296911107, 47.500783104049198 ] ] } },
{ "type": "Feature", "properties": { "wmUplineSo": "LAKELAND B", "wmType": "Underground" }, "geometry": { "type": "LineString", "coordinates": [ [ -92.239357, 47.506153 ], [ -92.239392, 47.506106 ] ] } },
{ "type": "Feature", "properties": { "wmUplineSo": "LAKELAND B", "wmType": "Underground" }, "geometry": { "type": "LineString", "coordinates": [ [ -92.200615999948994, 47.434749003680203 ], [ -92.200609141906, 47.434744324096798 ] ] } },
{ "type": "Feature", "properties": { "wmUplineSo": "LAKELAND B", "wmType": "Underground" }, "geometry": { "type": "LineString", "coordinates": [ [ -92.200609141906, 47.434744324096798 ], [ -92.199923999948993, 47.434532003680197 ] ] } },
{ "type": "Feature", "properties": { "wmUplineSo": "LAKELAND B", "wmType": "Underground" }, "geometry": { "type": "LineString", "coordinates": [ [ -92.199923999948993, 47.434532003680197 ], [ -92.199587999948903, 47.434509003680098 ] ] } },
{ "type": "Feature", "properties": { "wmUplineSo": "LAKELAND B", "wmType": "Underground" }, "geometry": { "type": "LineString", "coordinates": [ [ -92.199587999948903, 47.434509003680098 ], [ -92.199249999948904, 47.434495003680198 ] ] } },
{ "type": "Feature", "properties": { "wmUplineSo": "LAKELAND B", "wmType": "Underground" }, "geometry": { "type": "LineString", "coordinates": [ [ -92.199249999948904, 47.434495003680198 ], [ -92.1992146999998, 47.434484300009302 ] ] } },
{ "type": "Feature", "properties": { "wmUplineSo": "LAKELAND B", "wmType": "Underground" }, "geometry": { "type": "LineString", "coordinates": [ [ -92.345026320741795, 47.455590670787799 ], [ -92.344928076149799, 47.455581770912097 ] ] } },
{ "type": "Feature", "properties": { "wmUplineSo": "LAKELAND B", "wmType": "Underground" }, "geometry": { "type": "LineString", "coordinates": [ [ -92.240179017382204, 47.443372139044101 ], [ -92.239100264020095, 47.441300322309701 ] ] } },
{ "type": "Feature", "properties": { "wmUplineSo": "LAKELAND B", "wmType": "Underground" }, "geometry": { "type": "LineString", "coordinates": [ [ -92.239100264020095, 47.441300322309701 ], [ -92.239029699999804, 47.441262600009303 ] ] } },
{ "type": "Feature", "properties": { "wmUplineSo": "LAKELAND B", "wmType": "Underground" }, "geometry": { "type": "LineString", "coordinates": [ [ -92.262369, 47.423556 ], [ -92.262378605807001, 47.423272413224701 ] ] } },
{ "type": "Feature", "properties": { "wmUplineSo": "LAKELAND B", "wmType": "Underground" }, "geometry": { "type": "LineString", "coordinates": [ [ -92.262195018401201, 47.424227304519903 ], [ -92.262257322312493, 47.423846494905497 ] ] } },
{ "type": "Feature", "properties": { "wmUplineSo": "LAKELAND B", "wmType": "Underground" }, "geometry": { "type": "LineString", "coordinates": [ [ -92.262257322312493, 47.423846494905497 ], [ -92.262261, 47.423636 ] ] } },
{ "type": "Feature", "properties": { "wmUplineSo": "LAKELAND B", "wmType": "Underground" }, "geometry": { "type": "LineString", "coordinates": [ [ -92.262261, 47.423636 ], [ -92.262369, 47.423556 ] ] } },
{ "type": "Feature", "properties": { "wmUplineSo": "LAKELAND B", "wmType": "Underground" }, "geometry": { "type": "LineString", "coordinates": [ [ -92.215102851835695, 47.501977163981003 ], [ -92.21603, 47.501416 ] ] } },
{ "type": "Feature", "properties": { "wmUplineSo": "LAKELAND B", "wmType": "Underground" }, "geometry": { "type": "LineString", "coordinates": [ [ -92.21603, 47.501416 ], [ -92.216302, 47.501420000000103 ] ] } },
{ "type": "Feature", "properties": { "wmUplineSo": "LAKELAND B", "wmType": "Underground" }, "geometry": { "type": "LineString", "coordinates": [ [ -92.216302, 47.501420000000103 ], [ -92.216318, 47.501416 ] ] } },
{ "type": "Feature", "properties": { "wmUplineSo": "LAKELAND B", "wmType": "Underground" }, "geometry": { "type": "LineString", "coordinates": [ [ -92.21603, 47.501416 ], [ -92.217065229609901, 47.5007117248499 ], [ -92.217200015048803, 47.500468209980099 ], [ -92.217215999949701, 47.500442003698701 ] ] } },
{ "type": "Feature", "properties": { "wmUplineSo": "LAKELAND B", "wmType": "Underground" }, "geometry": { "type": "LineString", "coordinates": [ [ -92.286619938138998, 47.444638093651697 ], [ -92.286609999999897, 47.444678200009299 ] ] } },
{ "type": "Feature", "properties": { "wmUplineSo": "LAKELAND B", "wmType": "Underground" }, "geometry": { "type": "LineString", "coordinates": [ [ -92.254256883009404, 47.445979899578802 ], [ -92.253661599999901, 47.446108400009301 ] ] } }
]
}
