{
"type": "FeatureCollection",
"crs": { "type": "name", "properties": { "name": "urn:ogc:def:crs:OGC:1.3:CRS84" } },
"features": [
{ "type": "Feature", "properties": { "wmUplineSo": "MEADOWBROOK", "wmType": "Underground" }, "geometry": { "type": "LineString", "coordinates": [ [ -92.819305825238402, 47.8288449790291 ], [ -92.8195761, 47.828835100009698 ] ] } },
{ "type": "Feature", "properties": { "wmUplineSo": "MEADOWBROOK", "wmType": "Underground" }, "geometry": { "type": "LineString", "coordinates": [ [ -92.809486380109206, 47.843825624482001 ], [ -92.8092148, 47.843452300009702 ] ] } },
{ "type": "Feature", "properties": { "wmUplineSo": "MEADOWBROOK", "wmType": "Underground" }, "geometry": { "type": "LineString", "coordinates": [ [ -92.811311865319695, 47.843882196316002 ], [ -92.8116576, 47.842855600009699 ] ] } },
{ "type": "Feature", "properties": { "wmUplineSo": "MEADOWBROOK", "wmType": "Underground" }, "geometry": { "type": "LineString", "coordinates": [ [ -92.879159999991799, 47.8617000038005 ], [ -92.8791936, 47.861727100009801 ] ] } },
{ "type": "Feature", "properties": { "wmUplineSo": "MEADOWBROOK", "wmType": "Underground" }, "geometry": { "type": "LineString", "coordinates": [ [ -93.000791993881407, 47.885523073428701 ], [ -93.0007899, 47.885425500009802 ] ] } },
{ "type": "Feature", "properties": { "wmUplineSo": "MEADOWBROOK", "wmType": "Underground" }, "geometry": { "type": "LineString", "coordinates": [ [ -93.006485375572893, 47.8894881574953 ], [ -93.0064546, 47.889294700009799 ] ] } },
{ "type": "Feature", "properties": { "wmUplineSo": "MEADOWBROOK", "wmType": "Underground" }, "geometry": { "type": "LineString", "coordinates": [ [ -92.866417999990901, 47.856014003798897 ], [ -92.8663355, 47.8559525000097 ] ] } },
{ "type": "Feature", "properties": { "wmUplineSo": "MEADOWBROOK", "wmType": "Underground" }, "geometry": { "type": "LineString", "coordinates": [ [ -92.986955158333302, 47.883311253872598 ], [ -92.9869441, 47.883268600009799 ] ] } },
{ "type": "Feature", "properties": { "wmUplineSo": "MEADOWBROOK", "wmType": "Underground" }, "geometry": { "type": "LineString", "coordinates": [ [ -92.990874729090095, 47.878628881562697 ], [ -92.9909526, 47.878458200009803 ] ] } },
{ "type": "Feature", "properties": { "wmUplineSo": "MEADOWBROOK", "wmType": "Underground" }, "geometry": { "type": "LineString", "coordinates": [ [ -92.866454999990907, 47.856067003798898 ], [ -92.866417999990901, 47.856014003798897 ] ] } },
{ "type": "Feature", "properties": { "wmUplineSo": "MEADOWBROOK", "wmType": "Underground" }, "geometry": { "type": "LineString", "coordinates": [ [ -92.888019999992295, 47.8579340037995 ], [ -92.888040999992299, 47.857878003799399 ] ] } },
{ "type": "Feature", "properties": { "wmUplineSo": "MEADOWBROOK", "wmType": "Underground" }, "geometry": { "type": "LineString", "coordinates": [ [ -92.974189, 47.877000000000102 ], [ -92.974195478055506, 47.876949905495003 ] ] } },
{ "type": "Feature", "properties": { "wmUplineSo": "MEADOWBROOK", "wmType": "Underground" }, "geometry": { "type": "LineString", "coordinates": [ [ -92.8693449999911, 47.856240003799201 ], [ -92.867019999990902, 47.856123003799098 ] ] } },
{ "type": "Feature", "properties": { "wmUplineSo": "MEADOWBROOK", "wmType": "Underground" }, "geometry": { "type": "LineString", "coordinates": [ [ -92.867019999990902, 47.856123003799098 ], [ -92.866454999990907, 47.856067003798898 ] ] } },
{ "type": "Feature", "properties": { "wmUplineSo": "MEADOWBROOK", "wmType": "Underground" }, "geometry": { "type": "LineString", "coordinates": [ [ -92.814770999987502, 47.843820003795599 ], [ -92.8147634, 47.843840600009699 ] ] } },
{ "type": "Feature", "properties": { "wmUplineSo": "MEADOWBROOK", "wmType": "Underground" }, "geometry": { "type": "LineString", "coordinates": [ [ -92.820057140273903, 47.829575844156103 ], [ -92.819305825238402, 47.8288449790291 ] ] } },
{ "type": "Feature", "properties": { "wmUplineSo": "MEADOWBROOK", "wmType": "Underground" }, "geometry": { "type": "LineString", "coordinates": [ [ -92.811311865319695, 47.843882196316002 ], [ -92.809486380109206, 47.843825624482001 ] ] } },
{ "type": "Feature", "properties": { "wmUplineSo": "MEADOWBROOK", "wmType": "Underground" }, "geometry": { "type": "LineString", "coordinates": [ [ -92.826213660506696, 47.845430117607101 ], [ -92.825724277523804, 47.845285313658998 ], [ -92.824937485010196, 47.845244928361801 ], [ -92.824225910752901, 47.845284596381397 ], [ -92.821292934731503, 47.845269468171502 ], [ -92.818732799696306, 47.845638682610399 ], [ -92.816930201279504, 47.845134185937503 ] ] } },
{ "type": "Feature", "properties": { "wmUplineSo": "MEADOWBROOK", "wmType": "Underground" }, "geometry": { "type": "LineString", "coordinates": [ [ -92.826454, 47.845436 ], [ -92.826213660506696, 47.845430117607101 ] ] } },
{ "type": "Feature", "properties": { "wmUplineSo": "MEADOWBROOK", "wmType": "Underground" }, "geometry": { "type": "LineString", "coordinates": [ [ -92.984748528894599, 47.882848496242097 ], [ -92.985259820638902, 47.883212113350801 ] ] } },
{ "type": "Feature", "properties": { "wmUplineSo": "MEADOWBROOK", "wmType": "Underground" }, "geometry": { "type": "LineString", "coordinates": [ [ -92.979696878400205, 47.880091028941798 ], [ -92.979671464735205, 47.8803076712314 ] ] } },
{ "type": "Feature", "properties": { "wmUplineSo": "MEADOWBROOK", "wmType": "Underground" }, "geometry": { "type": "LineString", "coordinates": [ [ -92.979671464735205, 47.8803076712314 ], [ -92.979748961188207, 47.881273676799701 ] ] } },
{ "type": "Feature", "properties": { "wmUplineSo": "MEADOWBROOK", "wmType": "Underground" }, "geometry": { "type": "LineString", "coordinates": [ [ -92.999760900170202, 47.894343797818202 ], [ -92.999923107294094, 47.893501972318703 ], [ -93.003316383545993, 47.892110543377903 ], [ -93.004817687121204, 47.891707139184497 ], [ -93.006485375572893, 47.8894881574953 ] ] } },
{ "type": "Feature", "properties": { "wmUplineSo": "MEADOWBROOK", "wmType": "Underground" }, "geometry": { "type": "LineString", "coordinates": [ [ -93.006485375572893, 47.8894881574953 ], [ -93.0061820425409, 47.889071811875098 ], [ -93.005612594453297, 47.887709658844599 ], [ -93.005245260829298, 47.887086731177398 ], [ -93.004728834326798, 47.8866768896916 ], [ -93.003876713841606, 47.886162392744403 ], [ -93.003490000086799, 47.885829741178803 ], [ -93.002944446464994, 47.8858618597176 ], [ -93.002009885297895, 47.885982227794798 ], [ -93.001348315758307, 47.8858322650416 ], [ -93.001205184358497, 47.885527467416402 ], [ -93.000791993881407, 47.885523073428701 ] ] } },
{ "type": "Feature", "properties": { "wmUplineSo": "MEADOWBROOK", "wmType": "Underground" }, "geometry": { "type": "LineString", "coordinates": [ [ -92.987216218253806, 47.880033605038903 ], [ -92.986955158333302, 47.883311253872598 ] ] } },
{ "type": "Feature", "properties": { "wmUplineSo": "MEADOWBROOK", "wmType": "Underground" }, "geometry": { "type": "LineString", "coordinates": [ [ -92.989980746181999, 47.880026305383502 ], [ -92.990874729090095, 47.878628881562697 ] ] } },
{ "type": "Feature", "properties": { "wmUplineSo": "MEADOWBROOK", "wmType": "Underground" }, "geometry": { "type": "LineString", "coordinates": [ [ -92.878329999991706, 47.862461003800803 ], [ -92.878328505985706, 47.8624475921076 ], [ -92.878699723758402, 47.861900945368703 ], [ -92.879138241901998, 47.861714693711697 ], [ -92.879159999991799, 47.8617000038005 ] ] } },
{ "type": "Feature", "properties": { "wmUplineSo": "MEADOWBROOK", "wmType": "Underground" }, "geometry": { "type": "LineString", "coordinates": [ [ -92.926416999994899, 47.877426003805098 ], [ -92.926570999994894, 47.877241003804897 ] ] } },
{ "type": "Feature", "properties": { "wmUplineSo": "MEADOWBROOK", "wmType": "Underground" }, "geometry": { "type": "LineString", "coordinates": [ [ -92.926570999994894, 47.877241003804897 ], [ -92.926662999994903, 47.877109003804897 ] ] } },
{ "type": "Feature", "properties": { "wmUplineSo": "MEADOWBROOK", "wmType": "Underground" }, "geometry": { "type": "LineString", "coordinates": [ [ -92.926662999994903, 47.877109003804897 ], [ -92.926560999994905, 47.876844003804997 ] ] } },
{ "type": "Feature", "properties": { "wmUplineSo": "MEADOWBROOK", "wmType": "Underground" }, "geometry": { "type": "LineString", "coordinates": [ [ -92.926560999994905, 47.876844003804997 ], [ -92.926768999994906, 47.876803003805001 ] ] } },
{ "type": "Feature", "properties": { "wmUplineSo": "MEADOWBROOK", "wmType": "Underground" }, "geometry": { "type": "LineString", "coordinates": [ [ -92.926768999994906, 47.876803003805001 ], [ -92.926810541163604, 47.8767940940849 ] ] } },
{ "type": "Feature", "properties": { "wmUplineSo": "MEADOWBROOK", "wmType": "Underground" }, "geometry": { "type": "LineString", "coordinates": [ [ -92.872739166070005, 47.8484564733347 ], [ -92.871590598152594, 47.849616632585402 ] ] } },
{ "type": "Feature", "properties": { "wmUplineSo": "MEADOWBROOK", "wmType": "Underground" }, "geometry": { "type": "LineString", "coordinates": [ [ -92.869695, 47.856234999999899 ], [ -92.8693449999911, 47.856240003799201 ] ] } },
{ "type": "Feature", "properties": { "wmUplineSo": "MEADOWBROOK", "wmType": "Underground" }, "geometry": { "type": "LineString", "coordinates": [ [ -92.816930201279504, 47.845134185937503 ], [ -92.814770999987502, 47.843820003795599 ] ] } },
{ "type": "Feature", "properties": { "wmUplineSo": "MEADOWBROOK", "wmType": "Underground" }, "geometry": { "type": "LineString", "coordinates": [ [ -92.804483273681896, 47.840021491045498 ], [ -92.805152999986802, 47.839973003794498 ] ] } },
{ "type": "Feature", "properties": { "wmUplineSo": "MEADOWBROOK", "wmType": "Underground" }, "geometry": { "type": "LineString", "coordinates": [ [ -92.805152999986802, 47.839973003794498 ], [ -92.805982999986895, 47.839909003794503 ] ] } },
{ "type": "Feature", "properties": { "wmUplineSo": "MEADOWBROOK", "wmType": "Underground" }, "geometry": { "type": "LineString", "coordinates": [ [ -92.805982999986895, 47.839909003794503 ], [ -92.806638999986902, 47.839915003794403 ] ] } },
{ "type": "Feature", "properties": { "wmUplineSo": "MEADOWBROOK", "wmType": "Underground" }, "geometry": { "type": "LineString", "coordinates": [ [ -92.806638999986902, 47.839915003794403 ], [ -92.807111999987001, 47.839752003794302 ] ] } },
{ "type": "Feature", "properties": { "wmUplineSo": "MEADOWBROOK", "wmType": "Underground" }, "geometry": { "type": "LineString", "coordinates": [ [ -92.807111999987001, 47.839752003794302 ], [ -92.8071181, 47.8397475000097 ] ] } },
{ "type": "Feature", "properties": { "wmUplineSo": "MEADOWBROOK", "wmType": "Underground" }, "geometry": { "type": "LineString", "coordinates": [ [ -92.797172, 47.837128 ], [ -92.797141, 47.837133 ] ] } },
{ "type": "Feature", "properties": { "wmUplineSo": "MEADOWBROOK", "wmType": "Underground" }, "geometry": { "type": "LineString", "coordinates": [ [ -92.814770999987502, 47.843820003795599 ], [ -92.814733000539107, 47.843816001933 ], [ -92.813459897649295, 47.843906570023599 ], [ -92.812366802621, 47.843682477877003 ], [ -92.8118570676329, 47.843855324081801 ], [ -92.811344502281102, 47.8438591144537 ], [ -92.811311865319695, 47.843882196316002 ] ] } },
{ "type": "Feature", "properties": { "wmUplineSo": "MEADOWBROOK", "wmType": "Underground" }, "geometry": { "type": "LineString", "coordinates": [ [ -92.974234, 47.879494 ], [ -92.974257, 47.879349 ] ] } },
{ "type": "Feature", "properties": { "wmUplineSo": "MEADOWBROOK", "wmType": "Underground" }, "geometry": { "type": "LineString", "coordinates": [ [ -92.974257, 47.879349 ], [ -92.974239, 47.87885 ] ] } },
{ "type": "Feature", "properties": { "wmUplineSo": "MEADOWBROOK", "wmType": "Underground" }, "geometry": { "type": "LineString", "coordinates": [ [ -92.974239, 47.87885 ], [ -92.974223, 47.87833 ] ] } },
{ "type": "Feature", "properties": { "wmUplineSo": "MEADOWBROOK", "wmType": "Underground" }, "geometry": { "type": "LineString", "coordinates": [ [ -92.974223, 47.87833 ], [ -92.974351, 47.877558999999899 ] ] } },
{ "type": "Feature", "properties": { "wmUplineSo": "MEADOWBROOK", "wmType": "Underground" }, "geometry": { "type": "LineString", "coordinates": [ [ -92.974351, 47.877558999999899 ], [ -92.974246, 47.8771780000001 ] ] } },
{ "type": "Feature", "properties": { "wmUplineSo": "MEADOWBROOK", "wmType": "Underground" }, "geometry": { "type": "LineString", "coordinates": [ [ -92.974246, 47.8771780000001 ], [ -92.974189, 47.877000000000102 ] ] } },
{ "type": "Feature", "properties": { "wmUplineSo": "MEADOWBROOK", "wmType": "Underground" }, "geometry": { "type": "LineString", "coordinates": [ [ -92.798972, 47.833379999999899 ], [ -92.79902, 47.833786 ] ] } },
{ "type": "Feature", "properties": { "wmUplineSo": "MEADOWBROOK", "wmType": "Underground" }, "geometry": { "type": "LineString", "coordinates": [ [ -92.79902, 47.833786 ], [ -92.798996, 47.834373 ] ] } },
{ "type": "Feature", "properties": { "wmUplineSo": "MEADOWBROOK", "wmType": "Underground" }, "geometry": { "type": "LineString", "coordinates": [ [ -92.798996, 47.834373 ], [ -92.799033, 47.834656000000102 ] ] } },
{ "type": "Feature", "properties": { "wmUplineSo": "MEADOWBROOK", "wmType": "Underground" }, "geometry": { "type": "LineString", "coordinates": [ [ -92.799033, 47.834656000000102 ], [ -92.799047, 47.835967000000103 ] ] } },
{ "type": "Feature", "properties": { "wmUplineSo": "MEADOWBROOK", "wmType": "Underground" }, "geometry": { "type": "LineString", "coordinates": [ [ -92.799047, 47.835967000000103 ], [ -92.798904, 47.836084 ] ] } },
{ "type": "Feature", "properties": { "wmUplineSo": "MEADOWBROOK", "wmType": "Underground" }, "geometry": { "type": "LineString", "coordinates": [ [ -92.798904, 47.836084 ], [ -92.798364, 47.836116 ] ] } },
{ "type": "Feature", "properties": { "wmUplineSo": "MEADOWBROOK", "wmType": "Underground" }, "geometry": { "type": "LineString", "coordinates": [ [ -92.798364, 47.836116 ], [ -92.798042, 47.836185999999898 ] ] } },
{ "type": "Feature", "properties": { "wmUplineSo": "MEADOWBROOK", "wmType": "Underground" }, "geometry": { "type": "LineString", "coordinates": [ [ -92.798042, 47.836185999999898 ], [ -92.797941, 47.836359 ] ] } },
{ "type": "Feature", "properties": { "wmUplineSo": "MEADOWBROOK", "wmType": "Underground" }, "geometry": { "type": "LineString", "coordinates": [ [ -92.797941, 47.836359 ], [ -92.797699, 47.836648 ] ] } },
{ "type": "Feature", "properties": { "wmUplineSo": "MEADOWBROOK", "wmType": "Underground" }, "geometry": { "type": "LineString", "coordinates": [ [ -92.797699, 47.836648 ], [ -92.797297, 47.837062 ] ] } },
{ "type": "Feature", "properties": { "wmUplineSo": "MEADOWBROOK", "wmType": "Underground" }, "geometry": { "type": "LineString", "coordinates": [ [ -92.797297, 47.837062 ], [ -92.797172, 47.837128 ] ] } }
]
}
