{
"type": "FeatureCollection",
"crs": { "type": "name", "properties": { "name": "urn:ogc:def:crs:OGC:1.3:CRS84" } },
"features": [
{ "type": "Feature", "properties": { "wmUplineSo": "MEADOWBROOK", "wmType": "Underground" }, "geometry": { "type": "LineString", "coordinates": [ [ -93.065485513374497, 47.8132279678589 ], [ -93.0654986, 47.8133647000097 ] ] } },
{ "type": "Feature", "properties": { "wmUplineSo": "MEADOWBROOK", "wmType": "Underground" }, "geometry": { "type": "LineString", "coordinates": [ [ -92.777196665489299, 47.703349064964002 ], [ -92.7770103, 47.703430800009599 ] ] } },
{ "type": "Feature", "properties": { "wmUplineSo": "MEADOWBROOK", "wmType": "Underground" }, "geometry": { "type": "LineString", "coordinates": [ [ -92.821616107795805, 47.715256614852002 ], [ -92.8215553, 47.715468100009602 ] ] } },
{ "type": "Feature", "properties": { "wmUplineSo": "MEADOWBROOK", "wmType": "Underground" }, "geometry": { "type": "LineString", "coordinates": [ [ -92.822347340422894, 47.709323635402498 ], [ -92.8223806, 47.709320100009599 ] ] } },
{ "type": "Feature", "properties": { "wmUplineSo": "MEADOWBROOK", "wmType": "Underground" }, "geometry": { "type": "LineString", "coordinates": [ [ -93.093820713322799, 47.779675555562797 ], [ -93.093768853684907, 47.779797161969903 ] ] } },
{ "type": "Feature", "properties": { "wmUplineSo": "MEADOWBROOK", "wmType": "Underground" }, "geometry": { "type": "LineString", "coordinates": [ [ -92.950467913100994, 47.814810924781398 ], [ -92.9496979, 47.814929800009701 ] ] } },
{ "type": "Feature", "properties": { "wmUplineSo": "MEADOWBROOK", "wmType": "Underground" }, "geometry": { "type": "LineString", "coordinates": [ [ -93.061282113644594, 47.791339315870601 ], [ -93.0613073, 47.791358900009698 ] ] } },
{ "type": "Feature", "properties": { "wmUplineSo": "MEADOWBROOK", "wmType": "Underground" }, "geometry": { "type": "LineString", "coordinates": [ [ -93.064009344807602, 47.792771542238299 ], [ -93.0641101, 47.792715300009696 ] ] } },
{ "type": "Feature", "properties": { "wmUplineSo": "MEADOWBROOK", "wmType": "Underground" }, "geometry": { "type": "LineString", "coordinates": [ [ -92.792870976608796, 47.773259956799102 ], [ -92.792875302476702, 47.7730863463361 ] ] } },
{ "type": "Feature", "properties": { "wmUplineSo": "MEADOWBROOK", "wmType": "Underground" }, "geometry": { "type": "LineString", "coordinates": [ [ -92.821811126946201, 47.7747378838692 ], [ -92.8217104, 47.774778800009599 ] ] } },
{ "type": "Feature", "properties": { "wmUplineSo": "MEADOWBROOK", "wmType": "Underground" }, "geometry": { "type": "LineString", "coordinates": [ [ -92.851545077857097, 47.689439469242799 ], [ -92.851918017591501, 47.689401681995001 ] ] } },
{ "type": "Feature", "properties": { "wmUplineSo": "MEADOWBROOK", "wmType": "Underground" }, "geometry": { "type": "LineString", "coordinates": [ [ -92.793812999986201, 47.775267003776001 ], [ -92.7937881, 47.775256600009698 ] ] } },
{ "type": "Feature", "properties": { "wmUplineSo": "MEADOWBROOK", "wmType": "Underground" }, "geometry": { "type": "LineString", "coordinates": [ [ -92.856591906103603, 47.778727766060399 ], [ -92.8565061, 47.778654300009698 ] ] } },
{ "type": "Feature", "properties": { "wmUplineSo": "MEADOWBROOK", "wmType": "Underground" }, "geometry": { "type": "LineString", "coordinates": [ [ -93.001385795712693, 47.821753658731303 ], [ -93.0011658, 47.821439100009698 ] ] } },
{ "type": "Feature", "properties": { "wmUplineSo": "MEADOWBROOK", "wmType": "Underground" }, "geometry": { "type": "LineString", "coordinates": [ [ -92.857766032860994, 47.688044224381002 ], [ -92.857962595034095, 47.687940872229198 ] ] } },
{ "type": "Feature", "properties": { "wmUplineSo": "MEADOWBROOK", "wmType": "Underground" }, "geometry": { "type": "LineString", "coordinates": [ [ -93.060161638585697, 47.817408434890197 ], [ -93.0601103, 47.817653800009701 ] ] } },
{ "type": "Feature", "properties": { "wmUplineSo": "MEADOWBROOK", "wmType": "Underground" }, "geometry": { "type": "LineString", "coordinates": [ [ -93.055146450594293, 47.776414321032803 ], [ -93.0551044, 47.776369450009703 ] ] } },
{ "type": "Feature", "properties": { "wmUplineSo": "MEADOWBROOK", "wmType": "Underground" }, "geometry": { "type": "LineString", "coordinates": [ [ -92.983490942254605, 47.778283603123903 ], [ -92.9831044, 47.778313400009701 ] ] } },
{ "type": "Feature", "properties": { "wmUplineSo": "MEADOWBROOK", "wmType": "Underground" }, "geometry": { "type": "LineString", "coordinates": [ [ -92.901753536782905, 47.778333830708497 ], [ -92.901751129497598, 47.778428978262198 ] ] } },
{ "type": "Feature", "properties": { "wmUplineSo": "MEADOWBROOK", "wmType": "Underground" }, "geometry": { "type": "LineString", "coordinates": [ [ -93.082082799337797, 47.772634943230202 ], [ -93.082052100112307, 47.772798980581399 ] ] } },
{ "type": "Feature", "properties": { "wmUplineSo": "MEADOWBROOK", "wmType": "Underground" }, "geometry": { "type": "LineString", "coordinates": [ [ -93.082052100112307, 47.772798980581399 ], [ -93.082030529913197, 47.773032929242198 ] ] } },
{ "type": "Feature", "properties": { "wmUplineSo": "MEADOWBROOK", "wmType": "Underground" }, "geometry": { "type": "LineString", "coordinates": [ [ -93.064076, 47.814107 ], [ -93.064492, 47.814323000000101 ] ] } },
{ "type": "Feature", "properties": { "wmUplineSo": "MEADOWBROOK", "wmType": "Underground" }, "geometry": { "type": "LineString", "coordinates": [ [ -92.863341360023298, 47.6849666139912 ], [ -92.863669162352394, 47.684786285491697 ] ] } },
{ "type": "Feature", "properties": { "wmUplineSo": "MEADOWBROOK", "wmType": "Underground" }, "geometry": { "type": "LineString", "coordinates": [ [ -93.084642323906493, 47.790564746500202 ], [ -93.084969323895294, 47.7903917464172 ] ] } },
{ "type": "Feature", "properties": { "wmUplineSo": "MEADOWBROOK", "wmType": "Underground" }, "geometry": { "type": "LineString", "coordinates": [ [ -93.084969323895294, 47.7903917464172 ], [ -93.085019562694399, 47.790367218393598 ] ] } },
{ "type": "Feature", "properties": { "wmUplineSo": "MEADOWBROOK", "wmType": "Underground" }, "geometry": { "type": "LineString", "coordinates": [ [ -93.082030529913197, 47.773032929242198 ], [ -93.081913135889593, 47.773207790784198 ] ] } },
{ "type": "Feature", "properties": { "wmUplineSo": "MEADOWBROOK", "wmType": "Underground" }, "geometry": { "type": "LineString", "coordinates": [ [ -93.061451004341194, 47.770756928408403 ], [ -93.061511241386, 47.770741378253803 ] ] } },
{ "type": "Feature", "properties": { "wmUplineSo": "MEADOWBROOK", "wmType": "Underground" }, "geometry": { "type": "LineString", "coordinates": [ [ -93.081913135889593, 47.773207790784198 ], [ -93.081707863454596, 47.773303392605797 ] ] } },
{ "type": "Feature", "properties": { "wmUplineSo": "MEADOWBROOK", "wmType": "Underground" }, "geometry": { "type": "LineString", "coordinates": [ [ -93.081707863454596, 47.773303392605797 ], [ -93.081654016984103, 47.773304775368103 ] ] } },
{ "type": "Feature", "properties": { "wmUplineSo": "MEADOWBROOK", "wmType": "Underground" }, "geometry": { "type": "LineString", "coordinates": [ [ -93.064492, 47.814323000000101 ], [ -93.064453969588499, 47.814353936424297 ] ] } },
{ "type": "Feature", "properties": { "wmUplineSo": "MEADOWBROOK", "wmType": "Underground" }, "geometry": { "type": "LineString", "coordinates": [ [ -92.825222588736594, 47.740280768844102 ], [ -92.825758955856003, 47.7400842125681 ] ] } },
{ "type": "Feature", "properties": { "wmUplineSo": "MEADOWBROOK", "wmType": "Underground" }, "geometry": { "type": "LineString", "coordinates": [ [ -93.062162683929301, 47.825164902285401 ], [ -93.062526574997705, 47.8252313526013 ] ] } },
{ "type": "Feature", "properties": { "wmUplineSo": "MEADOWBROOK", "wmType": "Underground" }, "geometry": { "type": "LineString", "coordinates": [ [ -93.062526574997705, 47.8252313526013 ], [ -93.0625792, 47.825272600009697 ] ] } },
{ "type": "Feature", "properties": { "wmUplineSo": "MEADOWBROOK", "wmType": "Underground" }, "geometry": { "type": "LineString", "coordinates": [ [ -92.825758955856003, 47.7400842125681 ], [ -92.825994, 47.739995999999898 ] ] } },
{ "type": "Feature", "properties": { "wmUplineSo": "MEADOWBROOK", "wmType": "Underground" }, "geometry": { "type": "LineString", "coordinates": [ [ -92.971622191632704, 47.8070251671924 ], [ -92.971625399180098, 47.8086102985623 ] ] } },
{ "type": "Feature", "properties": { "wmUplineSo": "MEADOWBROOK", "wmType": "Underground" }, "geometry": { "type": "LineString", "coordinates": [ [ -92.98086480565, 47.806616952374497 ], [ -92.989543420091593, 47.806465288186203 ] ] } },
{ "type": "Feature", "properties": { "wmUplineSo": "MEADOWBROOK", "wmType": "Underground" }, "geometry": { "type": "LineString", "coordinates": [ [ -92.989820013433601, 47.806461441782197 ], [ -92.9941041227044, 47.806401779578202 ] ] } },
{ "type": "Feature", "properties": { "wmUplineSo": "MEADOWBROOK", "wmType": "Underground" }, "geometry": { "type": "LineString", "coordinates": [ [ -92.9941041227044, 47.806401779578202 ], [ -92.998825208774406, 47.806430066149801 ] ] } },
{ "type": "Feature", "properties": { "wmUplineSo": "MEADOWBROOK", "wmType": "Underground" }, "geometry": { "type": "LineString", "coordinates": [ [ -92.955417680627505, 47.793219915367096 ], [ -92.968669671056801, 47.792732997236797 ] ] } },
{ "type": "Feature", "properties": { "wmUplineSo": "MEADOWBROOK", "wmType": "Underground" }, "geometry": { "type": "LineString", "coordinates": [ [ -92.968669671056801, 47.792732997236797 ], [ -92.968966354026804, 47.793778536715202 ] ] } },
{ "type": "Feature", "properties": { "wmUplineSo": "MEADOWBROOK", "wmType": "Underground" }, "geometry": { "type": "LineString", "coordinates": [ [ -92.955417680627505, 47.793219915367096 ], [ -92.953852741985799, 47.793915523266897 ] ] } },
{ "type": "Feature", "properties": { "wmUplineSo": "MEADOWBROOK", "wmType": "Underground" }, "geometry": { "type": "LineString", "coordinates": [ [ -92.955165132027702, 47.791629072897599 ], [ -92.954314123052001, 47.791460029974097 ] ] } },
{ "type": "Feature", "properties": { "wmUplineSo": "MEADOWBROOK", "wmType": "Underground" }, "geometry": { "type": "LineString", "coordinates": [ [ -92.9551288010598, 47.789035681126798 ], [ -92.952229375246006, 47.7889349166757 ] ] } },
{ "type": "Feature", "properties": { "wmUplineSo": "MEADOWBROOK", "wmType": "Underground" }, "geometry": { "type": "LineString", "coordinates": [ [ -92.997918023579999, 47.836128286290702 ], [ -92.997918023579899, 47.836128286307698 ], [ -92.996086754967905, 47.837246491192602 ] ] } },
{ "type": "Feature", "properties": { "wmUplineSo": "MEADOWBROOK", "wmType": "Underground" }, "geometry": { "type": "LineString", "coordinates": [ [ -93.059127776342095, 47.838666797418298 ], [ -93.056702810700202, 47.839540124635697 ], [ -93.056305528889993, 47.840542452680403 ] ] } },
{ "type": "Feature", "properties": { "wmUplineSo": "MEADOWBROOK", "wmType": "Underground" }, "geometry": { "type": "LineString", "coordinates": [ [ -93.056305528889993, 47.840542452680403 ], [ -93.056386087879801, 47.845490248817498 ] ] } },
{ "type": "Feature", "properties": { "wmUplineSo": "MEADOWBROOK", "wmType": "Underground" }, "geometry": { "type": "LineString", "coordinates": [ [ -93.059246110638, 47.838620947484998 ], [ -93.059127776342095, 47.838666797418298 ] ] } },
{ "type": "Feature", "properties": { "wmUplineSo": "MEADOWBROOK", "wmType": "Underground" }, "geometry": { "type": "LineString", "coordinates": [ [ -93.090518340468407, 47.778463236412499 ], [ -93.090380169511207, 47.780127158505501 ] ] } },
{ "type": "Feature", "properties": { "wmUplineSo": "MEADOWBROOK", "wmType": "Underground" }, "geometry": { "type": "LineString", "coordinates": [ [ -92.992447514211094, 47.8220290662275 ], [ -92.993620936343603, 47.816795107676597 ] ] } },
{ "type": "Feature", "properties": { "wmUplineSo": "MEADOWBROOK", "wmType": "Underground" }, "geometry": { "type": "LineString", "coordinates": [ [ -92.955040462824599, 47.811792549201698 ], [ -92.955812235675893, 47.8117869432715 ] ] } },
{ "type": "Feature", "properties": { "wmUplineSo": "MEADOWBROOK", "wmType": "Underground" }, "geometry": { "type": "LineString", "coordinates": [ [ -92.955065025412907, 47.8075699558145 ], [ -92.958992488652896, 47.807448503887798 ] ] } },
{ "type": "Feature", "properties": { "wmUplineSo": "MEADOWBROOK", "wmType": "Underground" }, "geometry": { "type": "LineString", "coordinates": [ [ -92.958992488652896, 47.807448503887798 ], [ -92.964850865976601, 47.807123698299499 ] ] } },
{ "type": "Feature", "properties": { "wmUplineSo": "MEADOWBROOK", "wmType": "Underground" }, "geometry": { "type": "LineString", "coordinates": [ [ -92.964850865976601, 47.807123698299499 ], [ -92.9639169609069, 47.812783103136397 ] ] } },
{ "type": "Feature", "properties": { "wmUplineSo": "MEADOWBROOK", "wmType": "Underground" }, "geometry": { "type": "LineString", "coordinates": [ [ -92.964850865976601, 47.807123698299499 ], [ -92.968283275586998, 47.806991097087 ] ] } },
{ "type": "Feature", "properties": { "wmUplineSo": "MEADOWBROOK", "wmType": "Underground" }, "geometry": { "type": "LineString", "coordinates": [ [ -92.968283275586998, 47.806991097087 ], [ -92.968219419341906, 47.807522286865897 ] ] } },
{ "type": "Feature", "properties": { "wmUplineSo": "MEADOWBROOK", "wmType": "Underground" }, "geometry": { "type": "LineString", "coordinates": [ [ -92.968283275586998, 47.806991097087 ], [ -92.971622191632704, 47.8070251671924 ] ] } },
{ "type": "Feature", "properties": { "wmUplineSo": "MEADOWBROOK", "wmType": "Underground" }, "geometry": { "type": "LineString", "coordinates": [ [ -92.971622191632704, 47.8070251671924 ], [ -92.978944730107699, 47.806650426133302 ] ] } },
{ "type": "Feature", "properties": { "wmUplineSo": "MEADOWBROOK", "wmType": "Underground" }, "geometry": { "type": "LineString", "coordinates": [ [ -93.022682657948394, 47.7779248546302 ], [ -93.022940400459007, 47.778687401102701 ], [ -93.023415606611806, 47.779034839972503 ] ] } },
{ "type": "Feature", "properties": { "wmUplineSo": "MEADOWBROOK", "wmType": "Underground" }, "geometry": { "type": "LineString", "coordinates": [ [ -93.061196123895201, 47.780700606829598 ], [ -93.061111877989404, 47.780983479402501 ], [ -93.060081115092501, 47.781114950118003 ], [ -93.060081115092501, 47.781114950117903 ] ] } },
{ "type": "Feature", "properties": { "wmUplineSo": "MEADOWBROOK", "wmType": "Underground" }, "geometry": { "type": "LineString", "coordinates": [ [ -93.084806183615299, 47.781342900246301 ], [ -93.086260296558706, 47.7804359057181 ] ] } },
{ "type": "Feature", "properties": { "wmUplineSo": "MEADOWBROOK", "wmType": "Underground" }, "geometry": { "type": "LineString", "coordinates": [ [ -93.083539961266297, 47.801121605432101 ], [ -93.083888409109804, 47.801916608506701 ] ] } },
{ "type": "Feature", "properties": { "wmUplineSo": "MEADOWBROOK", "wmType": "Underground" }, "geometry": { "type": "LineString", "coordinates": [ [ -92.9301799854058, 47.793871928109397 ], [ -92.930159155828804, 47.793875855633601 ] ] } },
{ "type": "Feature", "properties": { "wmUplineSo": "MEADOWBROOK", "wmType": "Underground" }, "geometry": { "type": "LineString", "coordinates": [ [ -92.930159155828804, 47.793875855633601 ], [ -92.929272735434097, 47.794055617052599 ] ] } },
{ "type": "Feature", "properties": { "wmUplineSo": "MEADOWBROOK", "wmType": "Underground" }, "geometry": { "type": "LineString", "coordinates": [ [ -92.870567065999296, 47.762489584047799 ], [ -92.870755545650695, 47.762892632107402 ] ] } },
{ "type": "Feature", "properties": { "wmUplineSo": "MEADOWBROOK", "wmType": "Underground" }, "geometry": { "type": "LineString", "coordinates": [ [ -92.833465942536407, 47.747287436281397 ], [ -92.833469361878301, 47.747300741927504 ] ] } },
{ "type": "Feature", "properties": { "wmUplineSo": "MEADOWBROOK", "wmType": "Underground" }, "geometry": { "type": "LineString", "coordinates": [ [ -92.833469361878301, 47.747300741927504 ], [ -92.833581309782303, 47.747610531867501 ] ] } },
{ "type": "Feature", "properties": { "wmUplineSo": "MEADOWBROOK", "wmType": "Underground" }, "geometry": { "type": "LineString", "coordinates": [ [ -93.063448, 47.813988 ], [ -93.065485513374497, 47.8132279678589 ] ] } },
{ "type": "Feature", "properties": { "wmUplineSo": "MEADOWBROOK", "wmType": "Underground" }, "geometry": { "type": "LineString", "coordinates": [ [ -92.823272140650502, 47.715311935200702 ], [ -92.821992880626098, 47.715011361572401 ], [ -92.821616107795805, 47.715256614852002 ] ] } },
{ "type": "Feature", "properties": { "wmUplineSo": "MEADOWBROOK", "wmType": "Underground" }, "geometry": { "type": "LineString", "coordinates": [ [ -92.955065897681294, 47.8168006895622 ], [ -92.956107941264193, 47.816723528687703 ] ] } },
{ "type": "Feature", "properties": { "wmUplineSo": "MEADOWBROOK", "wmType": "Underground" }, "geometry": { "type": "LineString", "coordinates": [ [ -92.955065897681294, 47.8168006895622 ], [ -92.950467913100994, 47.814810924781398 ] ] } },
{ "type": "Feature", "properties": { "wmUplineSo": "MEADOWBROOK", "wmType": "Underground" }, "geometry": { "type": "LineString", "coordinates": [ [ -93.094003200531006, 47.778661729934399 ], [ -93.093820713322799, 47.779675555562797 ] ] } },
{ "type": "Feature", "properties": { "wmUplineSo": "MEADOWBROOK", "wmType": "Underground" }, "geometry": { "type": "LineString", "coordinates": [ [ -93.061226260059698, 47.789658957037801 ], [ -93.061256998745804, 47.791010806792997 ] ] } },
{ "type": "Feature", "properties": { "wmUplineSo": "MEADOWBROOK", "wmType": "Underground" }, "geometry": { "type": "LineString", "coordinates": [ [ -92.821848849794193, 47.776113882404601 ], [ -92.821811126946201, 47.7747378838692 ] ] } },
{ "type": "Feature", "properties": { "wmUplineSo": "MEADOWBROOK", "wmType": "Underground" }, "geometry": { "type": "LineString", "coordinates": [ [ -92.853305031858696, 47.688223382563699 ], [ -92.851696084196604, 47.6885607201271 ], [ -92.851545077857097, 47.689439469242799 ] ] } },
{ "type": "Feature", "properties": { "wmUplineSo": "MEADOWBROOK", "wmType": "Underground" }, "geometry": { "type": "LineString", "coordinates": [ [ -93.053238365635906, 47.822218580793802 ], [ -93.053193035907697, 47.822616139828298 ] ] } },
{ "type": "Feature", "properties": { "wmUplineSo": "MEADOWBROOK", "wmType": "Underground" }, "geometry": { "type": "LineString", "coordinates": [ [ -92.856286827168603, 47.776516822224202 ], [ -92.856591906103603, 47.778727766060399 ] ] } },
{ "type": "Feature", "properties": { "wmUplineSo": "MEADOWBROOK", "wmType": "Underground" }, "geometry": { "type": "LineString", "coordinates": [ [ -93.001430289480098, 47.822373718038499 ], [ -93.001360526926902, 47.821892502541999 ], [ -93.001385795712693, 47.821753658731303 ] ] } },
{ "type": "Feature", "properties": { "wmUplineSo": "MEADOWBROOK", "wmType": "Underground" }, "geometry": { "type": "LineString", "coordinates": [ [ -92.863080430433399, 47.688561436810303 ], [ -92.857766032860994, 47.688044224381002 ] ] } },
{ "type": "Feature", "properties": { "wmUplineSo": "MEADOWBROOK", "wmType": "Underground" }, "geometry": { "type": "LineString", "coordinates": [ [ -92.857766032860994, 47.688044224381002 ], [ -92.855195158853704, 47.687840753765897 ], [ -92.853305031858696, 47.688223382563699 ] ] } },
{ "type": "Feature", "properties": { "wmUplineSo": "MEADOWBROOK", "wmType": "Underground" }, "geometry": { "type": "LineString", "coordinates": [ [ -93.061823806034994, 47.817172596161001 ], [ -93.061645263148407, 47.817413977483703 ], [ -93.061348923519702, 47.817396700704997 ], [ -93.0607601761171, 47.8171861176519 ], [ -93.060050344315897, 47.817444201962601 ], [ -93.060161638585697, 47.817408434890197 ] ] } },
{ "type": "Feature", "properties": { "wmUplineSo": "MEADOWBROOK", "wmType": "Underground" }, "geometry": { "type": "LineString", "coordinates": [ [ -93.054734595356607, 47.777133177430997 ], [ -93.055146450594293, 47.776414321032803 ], [ -93.055146450594293, 47.776414321032803 ] ] } },
{ "type": "Feature", "properties": { "wmUplineSo": "MEADOWBROOK", "wmType": "Underground" }, "geometry": { "type": "LineString", "coordinates": [ [ -93.056305528889993, 47.840542452680403 ], [ -93.053761061048306, 47.840601392553403 ] ] } },
{ "type": "Feature", "properties": { "wmUplineSo": "MEADOWBROOK", "wmType": "Underground" }, "geometry": { "type": "LineString", "coordinates": [ [ -93.0838480618727, 47.8010675643946 ], [ -93.083539961266297, 47.801121605432101 ] ] } },
{ "type": "Feature", "properties": { "wmUplineSo": "MEADOWBROOK", "wmType": "Underground" }, "geometry": { "type": "LineString", "coordinates": [ [ -92.901781686615493, 47.778132160875103 ], [ -92.901753536782905, 47.778333830708497 ] ] } },
{ "type": "Feature", "properties": { "wmUplineSo": "MEADOWBROOK", "wmType": "Underground" }, "geometry": { "type": "LineString", "coordinates": [ [ -92.901785864452094, 47.778102230110001 ], [ -92.901781686615493, 47.778132160875103 ] ] } },
{ "type": "Feature", "properties": { "wmUplineSo": "MEADOWBROOK", "wmType": "Underground" }, "geometry": { "type": "LineString", "coordinates": [ [ -92.989543420091593, 47.806465288186203 ], [ -92.989820013433601, 47.806461441782197 ] ] } },
{ "type": "Feature", "properties": { "wmUplineSo": "MEADOWBROOK", "wmType": "Underground" }, "geometry": { "type": "LineString", "coordinates": [ [ -92.989820013433601, 47.806461441782197 ], [ -92.989851165036697, 47.806943073802003 ], [ -92.989912694946995, 47.807029389287599 ], [ -92.9899278019208, 47.807286515407498 ] ] } },
{ "type": "Feature", "properties": { "wmUplineSo": "MEADOWBROOK", "wmType": "Underground" }, "geometry": { "type": "LineString", "coordinates": [ [ -92.983270777620305, 47.778583542090601 ], [ -92.983292889188505, 47.778448016796503 ], [ -92.983348368082005, 47.778341545953403 ], [ -92.983490942254605, 47.778283603123903 ] ] } },
{ "type": "Feature", "properties": { "wmUplineSo": "MEADOWBROOK", "wmType": "Underground" }, "geometry": { "type": "LineString", "coordinates": [ [ -92.9562160229586, 47.796062097244899 ], [ -92.956938125994995, 47.796029014776302 ] ] } },
{ "type": "Feature", "properties": { "wmUplineSo": "MEADOWBROOK", "wmType": "Underground" }, "geometry": { "type": "LineString", "coordinates": [ [ -92.825994, 47.739995999999898 ], [ -92.825994932479105, 47.740024214563199 ] ] } },
{ "type": "Feature", "properties": { "wmUplineSo": "MEADOWBROOK", "wmType": "Underground" }, "geometry": { "type": "LineString", "coordinates": [ [ -93.0404863214534, 47.822234963209702 ], [ -93.040322248570305, 47.822217317917698 ], [ -93.0403362946154, 47.828780334156598 ] ] } },
{ "type": "Feature", "properties": { "wmUplineSo": "MEADOWBROOK", "wmType": "Underground" }, "geometry": { "type": "LineString", "coordinates": [ [ -92.869153999991198, 47.760588003772099 ], [ -92.869161999991206, 47.760556003772102 ] ] } },
{ "type": "Feature", "properties": { "wmUplineSo": "MEADOWBROOK", "wmType": "Underground" }, "geometry": { "type": "LineString", "coordinates": [ [ -92.866773903289797, 47.747507645025401 ], [ -92.866796999990996, 47.747439003768399 ] ] } },
{ "type": "Feature", "properties": { "wmUplineSo": "MEADOWBROOK", "wmType": "Underground" }, "geometry": { "type": "LineString", "coordinates": [ [ -92.866796999990996, 47.747439003768399 ], [ -92.866799999991002, 47.746948003768203 ] ] } },
{ "type": "Feature", "properties": { "wmUplineSo": "MEADOWBROOK", "wmType": "Underground" }, "geometry": { "type": "LineString", "coordinates": [ [ -92.866799999991002, 47.746948003768203 ], [ -92.866700999990996, 47.745339003767803 ] ] } },
{ "type": "Feature", "properties": { "wmUplineSo": "MEADOWBROOK", "wmType": "Underground" }, "geometry": { "type": "LineString", "coordinates": [ [ -92.866700999990996, 47.745339003767803 ], [ -92.867648999991104, 47.745280003767803 ] ] } },
{ "type": "Feature", "properties": { "wmUplineSo": "MEADOWBROOK", "wmType": "Underground" }, "geometry": { "type": "LineString", "coordinates": [ [ -92.867648999991104, 47.745280003767803 ], [ -92.867648999991104, 47.745317003767603 ] ] } },
{ "type": "Feature", "properties": { "wmUplineSo": "MEADOWBROOK", "wmType": "Underground" }, "geometry": { "type": "LineString", "coordinates": [ [ -92.867648999991104, 47.745317003767603 ], [ -92.867693999991104, 47.745322003767697 ] ] } },
{ "type": "Feature", "properties": { "wmUplineSo": "MEADOWBROOK", "wmType": "Underground" }, "geometry": { "type": "LineString", "coordinates": [ [ -92.9977301010926, 47.823200174148703 ], [ -92.997430179582494, 47.8231956333235 ], [ -92.997435230777597, 47.822437793433998 ] ] } },
{ "type": "Feature", "properties": { "wmUplineSo": "MEADOWBROOK", "wmType": "Underground" }, "geometry": { "type": "LineString", "coordinates": [ [ -92.925619451013702, 47.778303212097804 ], [ -92.925620009874095, 47.778302360324702 ], [ -92.926029, 47.777679 ] ] } },
{ "type": "Feature", "properties": { "wmUplineSo": "MEADOWBROOK", "wmType": "Underground" }, "geometry": { "type": "LineString", "coordinates": [ [ -92.926029, 47.777679 ], [ -92.926064, 47.777676999999898 ] ] } },
{ "type": "Feature", "properties": { "wmUplineSo": "MEADOWBROOK", "wmType": "Underground" }, "geometry": { "type": "LineString", "coordinates": [ [ -93.061176139309694, 47.777072572478502 ], [ -93.061258859667603, 47.776165125071401 ] ] } },
{ "type": "Feature", "properties": { "wmUplineSo": "MEADOWBROOK", "wmType": "Underground" }, "geometry": { "type": "LineString", "coordinates": [ [ -93.061258859667603, 47.776165125071401 ], [ -93.061256458829106, 47.775744280742003 ] ] } },
{ "type": "Feature", "properties": { "wmUplineSo": "MEADOWBROOK", "wmType": "Underground" }, "geometry": { "type": "LineString", "coordinates": [ [ -93.061256458829106, 47.775744280742003 ], [ -93.061289953786996, 47.7749783290989 ] ] } },
{ "type": "Feature", "properties": { "wmUplineSo": "MEADOWBROOK", "wmType": "Underground" }, "geometry": { "type": "LineString", "coordinates": [ [ -93.061289953786996, 47.7749783290989 ], [ -93.061321195150001, 47.773780491897 ] ] } },
{ "type": "Feature", "properties": { "wmUplineSo": "MEADOWBROOK", "wmType": "Underground" }, "geometry": { "type": "LineString", "coordinates": [ [ -93.061321195150001, 47.773780491897 ], [ -93.061312135645807, 47.773091095366901 ] ] } },
{ "type": "Feature", "properties": { "wmUplineSo": "MEADOWBROOK", "wmType": "Underground" }, "geometry": { "type": "LineString", "coordinates": [ [ -93.061312135645807, 47.773091095366901 ], [ -93.061300999957894, 47.772267522215202 ] ] } },
{ "type": "Feature", "properties": { "wmUplineSo": "MEADOWBROOK", "wmType": "Underground" }, "geometry": { "type": "LineString", "coordinates": [ [ -93.061300999957894, 47.772267522215202 ], [ -93.061309877348293, 47.77159435846 ] ] } },
{ "type": "Feature", "properties": { "wmUplineSo": "MEADOWBROOK", "wmType": "Underground" }, "geometry": { "type": "LineString", "coordinates": [ [ -93.061309877348293, 47.77159435846 ], [ -93.061309135118904, 47.770818638964101 ] ] } },
{ "type": "Feature", "properties": { "wmUplineSo": "MEADOWBROOK", "wmType": "Underground" }, "geometry": { "type": "LineString", "coordinates": [ [ -92.910658789863405, 47.7781042844707 ], [ -92.910971, 47.778449 ] ] } },
{ "type": "Feature", "properties": { "wmUplineSo": "MEADOWBROOK", "wmType": "Underground" }, "geometry": { "type": "LineString", "coordinates": [ [ -92.910971, 47.778449 ], [ -92.911007, 47.778615 ] ] } },
{ "type": "Feature", "properties": { "wmUplineSo": "MEADOWBROOK", "wmType": "Underground" }, "geometry": { "type": "LineString", "coordinates": [ [ -92.911007, 47.778615 ], [ -92.911175, 47.778836 ] ] } },
{ "type": "Feature", "properties": { "wmUplineSo": "MEADOWBROOK", "wmType": "Underground" }, "geometry": { "type": "LineString", "coordinates": [ [ -92.911175, 47.778836 ], [ -92.911197, 47.778828 ] ] } },
{ "type": "Feature", "properties": { "wmUplineSo": "MEADOWBROOK", "wmType": "Underground" }, "geometry": { "type": "LineString", "coordinates": [ [ -93.019644, 47.776526 ], [ -93.019288, 47.776395 ] ] } },
{ "type": "Feature", "properties": { "wmUplineSo": "MEADOWBROOK", "wmType": "Underground" }, "geometry": { "type": "LineString", "coordinates": [ [ -93.019288, 47.776395 ], [ -93.018844, 47.776288 ] ] } },
{ "type": "Feature", "properties": { "wmUplineSo": "MEADOWBROOK", "wmType": "Underground" }, "geometry": { "type": "LineString", "coordinates": [ [ -93.018844, 47.776288 ], [ -93.018767, 47.776221999999898 ] ] } },
{ "type": "Feature", "properties": { "wmUplineSo": "MEADOWBROOK", "wmType": "Underground" }, "geometry": { "type": "LineString", "coordinates": [ [ -93.018767, 47.776221999999898 ], [ -93.018763, 47.776196 ] ] } },
{ "type": "Feature", "properties": { "wmUplineSo": "MEADOWBROOK", "wmType": "Underground" }, "geometry": { "type": "LineString", "coordinates": [ [ -92.998825208774406, 47.806430066149801 ], [ -92.999052418259893, 47.807357921850397 ] ] } },
{ "type": "Feature", "properties": { "wmUplineSo": "MEADOWBROOK", "wmType": "Underground" }, "geometry": { "type": "LineString", "coordinates": [ [ -93.061309135118904, 47.770818638964101 ], [ -93.061451004341194, 47.770756928408403 ] ] } },
{ "type": "Feature", "properties": { "wmUplineSo": "MEADOWBROOK", "wmType": "Underground" }, "geometry": { "type": "LineString", "coordinates": [ [ -92.890249716779806, 47.763682167266303 ], [ -92.890372999992593, 47.763526003772803 ] ] } },
{ "type": "Feature", "properties": { "wmUplineSo": "MEADOWBROOK", "wmType": "Underground" }, "geometry": { "type": "LineString", "coordinates": [ [ -92.890372999992593, 47.763526003772803 ], [ -92.890625627733797, 47.7633105169703 ] ] } },
{ "type": "Feature", "properties": { "wmUplineSo": "MEADOWBROOK", "wmType": "Underground" }, "geometry": { "type": "LineString", "coordinates": [ [ -92.890625627733797, 47.7633105169703 ], [ -92.890990999992596, 47.762966003772597 ] ] } },
{ "type": "Feature", "properties": { "wmUplineSo": "MEADOWBROOK", "wmType": "Underground" }, "geometry": { "type": "LineString", "coordinates": [ [ -92.890990999992596, 47.762966003772597 ], [ -92.890932299068893, 47.762953397306099 ] ] } },
{ "type": "Feature", "properties": { "wmUplineSo": "MEADOWBROOK", "wmType": "Underground" }, "geometry": { "type": "LineString", "coordinates": [ [ -93.083545324035796, 47.791307746778699 ], [ -93.083582324001597, 47.791229746769503 ] ] } },
{ "type": "Feature", "properties": { "wmUplineSo": "MEADOWBROOK", "wmType": "Underground" }, "geometry": { "type": "LineString", "coordinates": [ [ -93.083582324001597, 47.791229746769503 ], [ -93.083728323974796, 47.791113746732499 ] ] } },
{ "type": "Feature", "properties": { "wmUplineSo": "MEADOWBROOK", "wmType": "Underground" }, "geometry": { "type": "LineString", "coordinates": [ [ -93.083728323974796, 47.791113746732499 ], [ -93.084164323893205, 47.790764746621903 ] ] } },
{ "type": "Feature", "properties": { "wmUplineSo": "MEADOWBROOK", "wmType": "Underground" }, "geometry": { "type": "LineString", "coordinates": [ [ -93.084164323893205, 47.790764746621903 ], [ -93.084642323906493, 47.790564746500202 ] ] } },
{ "type": "Feature", "properties": { "wmUplineSo": "MEADOWBROOK", "wmType": "Underground" }, "geometry": { "type": "LineString", "coordinates": [ [ -92.869161999991206, 47.760556003772102 ], [ -92.8691687, 47.760468200009598 ] ] } },
{ "type": "Feature", "properties": { "wmUplineSo": "MEADOWBROOK", "wmType": "Underground" }, "geometry": { "type": "LineString", "coordinates": [ [ -92.865168343505999, 47.6888806174602 ], [ -92.865228343789099, 47.688811617574899 ] ] } },
{ "type": "Feature", "properties": { "wmUplineSo": "MEADOWBROOK", "wmType": "Underground" }, "geometry": { "type": "LineString", "coordinates": [ [ -92.865228343789099, 47.688811617574899 ], [ -92.865231344361405, 47.688674617580901 ] ] } },
{ "type": "Feature", "properties": { "wmUplineSo": "MEADOWBROOK", "wmType": "Underground" }, "geometry": { "type": "LineString", "coordinates": [ [ -92.865231344361405, 47.688674617580901 ], [ -92.865215345842302, 47.688320617551497 ] ] } },
{ "type": "Feature", "properties": { "wmUplineSo": "MEADOWBROOK", "wmType": "Underground" }, "geometry": { "type": "LineString", "coordinates": [ [ -92.865215345842302, 47.688320617551497 ], [ -92.865227347742803, 47.687865617575703 ] ] } },
{ "type": "Feature", "properties": { "wmUplineSo": "MEADOWBROOK", "wmType": "Underground" }, "geometry": { "type": "LineString", "coordinates": [ [ -92.865227347742803, 47.687865617575703 ], [ -92.865191350057103, 47.687312617509001 ] ] } },
{ "type": "Feature", "properties": { "wmUplineSo": "MEADOWBROOK", "wmType": "Underground" }, "geometry": { "type": "LineString", "coordinates": [ [ -92.865191350057103, 47.687312617509001 ], [ -92.865210351660195, 47.686928617546201 ] ] } },
{ "type": "Feature", "properties": { "wmUplineSo": "MEADOWBROOK", "wmType": "Underground" }, "geometry": { "type": "LineString", "coordinates": [ [ -92.865210351660195, 47.686928617546201 ], [ -92.865247353704603, 47.686438617618101 ] ] } },
{ "type": "Feature", "properties": { "wmUplineSo": "MEADOWBROOK", "wmType": "Underground" }, "geometry": { "type": "LineString", "coordinates": [ [ -92.865247353704603, 47.686438617618101 ], [ -92.865260355638299, 47.685975617644502 ] ] } },
{ "type": "Feature", "properties": { "wmUplineSo": "MEADOWBROOK", "wmType": "Underground" }, "geometry": { "type": "LineString", "coordinates": [ [ -92.865260355638299, 47.685975617644502 ], [ -92.865238357976196, 47.685416617604297 ] ] } },
{ "type": "Feature", "properties": { "wmUplineSo": "MEADOWBROOK", "wmType": "Underground" }, "geometry": { "type": "LineString", "coordinates": [ [ -92.865238357976196, 47.685416617604297 ], [ -92.865233359284503, 47.685103617595502 ] ] } },
{ "type": "Feature", "properties": { "wmUplineSo": "MEADOWBROOK", "wmType": "Underground" }, "geometry": { "type": "LineString", "coordinates": [ [ -92.865233359284503, 47.685103617595502 ], [ -92.865020359804603, 47.684983617190198 ] ] } },
{ "type": "Feature", "properties": { "wmUplineSo": "MEADOWBROOK", "wmType": "Underground" }, "geometry": { "type": "LineString", "coordinates": [ [ -92.865020359804603, 47.684983617190198 ], [ -92.864792359975098, 47.6849476167557 ] ] } },
{ "type": "Feature", "properties": { "wmUplineSo": "MEADOWBROOK", "wmType": "Underground" }, "geometry": { "type": "LineString", "coordinates": [ [ -92.864792359975098, 47.6849476167557 ], [ -92.864349359968102, 47.684958615911803 ] ] } },
{ "type": "Feature", "properties": { "wmUplineSo": "MEADOWBROOK", "wmType": "Underground" }, "geometry": { "type": "LineString", "coordinates": [ [ -92.864349359968102, 47.684958615911803 ], [ -92.864168359574506, 47.685056615566502 ] ] } },
{ "type": "Feature", "properties": { "wmUplineSo": "MEADOWBROOK", "wmType": "Underground" }, "geometry": { "type": "LineString", "coordinates": [ [ -92.864168359574506, 47.685056615566502 ], [ -92.863801359548305, 47.6850706148672 ] ] } },
{ "type": "Feature", "properties": { "wmUplineSo": "MEADOWBROOK", "wmType": "Underground" }, "geometry": { "type": "LineString", "coordinates": [ [ -92.863801359548305, 47.6850706148672 ], [ -92.863560359853594, 47.685002614408198 ] ] } },
{ "type": "Feature", "properties": { "wmUplineSo": "MEADOWBROOK", "wmType": "Underground" }, "geometry": { "type": "LineString", "coordinates": [ [ -93.040594057680593, 47.822246549616601 ], [ -93.0404863214534, 47.822234963209702 ] ] } },
{ "type": "Feature", "properties": { "wmUplineSo": "MEADOWBROOK", "wmType": "Underground" }, "geometry": { "type": "LineString", "coordinates": [ [ -93.039130683714006, 47.830964812719898 ], [ -93.03914, 47.830866500009698 ] ] } },
{ "type": "Feature", "properties": { "wmUplineSo": "MEADOWBROOK", "wmType": "Underground" }, "geometry": { "type": "LineString", "coordinates": [ [ -93.0403362946154, 47.828780334156598 ], [ -93.040338740598003, 47.829923024691297 ], [ -93.039664225160806, 47.830200357949202 ], [ -93.039130683714006, 47.830964812719898 ] ] } },
{ "type": "Feature", "properties": { "wmUplineSo": "MEADOWBROOK", "wmType": "Underground" }, "geometry": { "type": "LineString", "coordinates": [ [ -93.062752380374206, 47.814305041292897 ], [ -93.063448, 47.813988 ] ] } },
{ "type": "Feature", "properties": { "wmUplineSo": "MEADOWBROOK", "wmType": "Underground" }, "geometry": { "type": "LineString", "coordinates": [ [ -93.063448, 47.813988 ], [ -93.064076, 47.814107 ] ] } },
{ "type": "Feature", "properties": { "wmUplineSo": "MEADOWBROOK", "wmType": "Underground" }, "geometry": { "type": "LineString", "coordinates": [ [ -93.019687588666301, 47.7778035146845 ], [ -93.021296, 47.777785 ] ] } },
{ "type": "Feature", "properties": { "wmUplineSo": "MEADOWBROOK", "wmType": "Underground" }, "geometry": { "type": "LineString", "coordinates": [ [ -93.021296, 47.777785 ], [ -93.021368718113195, 47.777789238507701 ] ] } },
{ "type": "Feature", "properties": { "wmUplineSo": "MEADOWBROOK", "wmType": "Underground" }, "geometry": { "type": "LineString", "coordinates": [ [ -92.951816861124499, 47.807751822464098 ], [ -92.951746, 47.808248 ] ] } },
{ "type": "Feature", "properties": { "wmUplineSo": "MEADOWBROOK", "wmType": "Underground" }, "geometry": { "type": "LineString", "coordinates": [ [ -92.951746, 47.808248 ], [ -92.951754531762205, 47.808273693596703 ] ] } },
{ "type": "Feature", "properties": { "wmUplineSo": "MEADOWBROOK", "wmType": "Underground" }, "geometry": { "type": "LineString", "coordinates": [ [ -92.958992488652896, 47.807448503887798 ], [ -92.959177836350193, 47.807647570859203 ] ] } },
{ "type": "Feature", "properties": { "wmUplineSo": "MEADOWBROOK", "wmType": "Underground" }, "geometry": { "type": "LineString", "coordinates": [ [ -92.863560359853594, 47.685002614408198 ], [ -92.863341360023298, 47.6849666139912 ] ] } },
{ "type": "Feature", "properties": { "wmUplineSo": "MEADOWBROOK", "wmType": "Underground" }, "geometry": { "type": "LineString", "coordinates": [ [ -93.083109436471204, 47.775107041154001 ], [ -93.083114635288695, 47.775108584690301 ], [ -93.083145, 47.7751176000097 ] ] } },
{ "type": "Feature", "properties": { "wmUplineSo": "MEADOWBROOK", "wmType": "Underground" }, "geometry": { "type": "LineString", "coordinates": [ [ -92.791748920730001, 47.758836734681203 ], [ -92.791745256877604, 47.7588351626679 ], [ -92.7916379, 47.758789100009601 ] ] } },
{ "type": "Feature", "properties": { "wmUplineSo": "MEADOWBROOK", "wmType": "Underground" }, "geometry": { "type": "LineString", "coordinates": [ [ -92.790027178175393, 47.777070688652202 ], [ -92.7900041, 47.7772626000096 ] ] } },
{ "type": "Feature", "properties": { "wmUplineSo": "MEADOWBROOK", "wmType": "Underground" }, "geometry": { "type": "LineString", "coordinates": [ [ -92.789501115245301, 47.774331225182799 ], [ -92.7892966, 47.774413900009598 ] ] } },
{ "type": "Feature", "properties": { "wmUplineSo": "MEADOWBROOK", "wmType": "Underground" }, "geometry": { "type": "LineString", "coordinates": [ [ -92.7851334158577, 47.775621279274098 ], [ -92.7852088, 47.775831600009603 ] ] } },
{ "type": "Feature", "properties": { "wmUplineSo": "MEADOWBROOK", "wmType": "Underground" }, "geometry": { "type": "LineString", "coordinates": [ [ -92.770773032411398, 47.777215133176099 ], [ -92.7706308, 47.777250600009701 ] ] } },
{ "type": "Feature", "properties": { "wmUplineSo": "MEADOWBROOK", "wmType": "Underground" }, "geometry": { "type": "LineString", "coordinates": [ [ -92.792663617596901, 47.750511962250499 ], [ -92.7925066, 47.750537600009601 ] ] } },
{ "type": "Feature", "properties": { "wmUplineSo": "MEADOWBROOK", "wmType": "Underground" }, "geometry": { "type": "LineString", "coordinates": [ [ -92.811919441260898, 47.747953110325099 ], [ -92.8117485, 47.7482216000096 ] ] } },
{ "type": "Feature", "properties": { "wmUplineSo": "MEADOWBROOK", "wmType": "Underground" }, "geometry": { "type": "LineString", "coordinates": [ [ -92.797866145325798, 47.747065199197799 ], [ -92.7978618, 47.747101100009601 ] ] } },
{ "type": "Feature", "properties": { "wmUplineSo": "MEADOWBROOK", "wmType": "Underground" }, "geometry": { "type": "LineString", "coordinates": [ [ -92.793813099158498, 47.717288438582202 ], [ -92.7936488, 47.717267600009599 ] ] } },
{ "type": "Feature", "properties": { "wmUplineSo": "MEADOWBROOK", "wmType": "Underground" }, "geometry": { "type": "LineString", "coordinates": [ [ -92.787385965245505, 47.724103826890499 ], [ -92.7872409, 47.724176100009601 ] ] } },
{ "type": "Feature", "properties": { "wmUplineSo": "MEADOWBROOK", "wmType": "Underground" }, "geometry": { "type": "LineString", "coordinates": [ [ -92.775931204525506, 47.725522042765498 ], [ -92.7757998, 47.725586600009599 ] ] } },
{ "type": "Feature", "properties": { "wmUplineSo": "MEADOWBROOK", "wmType": "Underground" }, "geometry": { "type": "LineString", "coordinates": [ [ -92.771777684663803, 47.722656788564301 ], [ -92.7716661, 47.722742600009603 ] ] } },
{ "type": "Feature", "properties": { "wmUplineSo": "MEADOWBROOK", "wmType": "Underground" }, "geometry": { "type": "LineString", "coordinates": [ [ -92.759309119706003, 47.725297737700899 ], [ -92.759262732331905, 47.725236737181 ] ] } },
{ "type": "Feature", "properties": { "wmUplineSo": "MEADOWBROOK", "wmType": "Underground" }, "geometry": { "type": "LineString", "coordinates": [ [ -92.758297013286906, 47.723985454431499 ], [ -92.7581743, 47.724051300009599 ] ] } },
{ "type": "Feature", "properties": { "wmUplineSo": "MEADOWBROOK", "wmType": "Underground" }, "geometry": { "type": "LineString", "coordinates": [ [ -92.7854286704559, 47.701572338101798 ], [ -92.7854166, 47.701582300009598 ] ] } },
{ "type": "Feature", "properties": { "wmUplineSo": "MEADOWBROOK", "wmType": "Underground" }, "geometry": { "type": "LineString", "coordinates": [ [ -92.788782255097004, 47.710231627227202 ], [ -92.7885838, 47.710288600009598 ] ] } },
{ "type": "Feature", "properties": { "wmUplineSo": "MEADOWBROOK", "wmType": "Underground" }, "geometry": { "type": "LineString", "coordinates": [ [ -92.801464469542395, 47.715261112792703 ], [ -92.8012678, 47.715371500009603 ] ] } },
{ "type": "Feature", "properties": { "wmUplineSo": "MEADOWBROOK", "wmType": "Underground" }, "geometry": { "type": "LineString", "coordinates": [ [ -92.810960014854004, 47.7173551134169 ], [ -92.811123307430705, 47.717301253256402 ] ] } },
{ "type": "Feature", "properties": { "wmUplineSo": "MEADOWBROOK", "wmType": "Underground" }, "geometry": { "type": "LineString", "coordinates": [ [ -92.812192513863494, 47.717422756748498 ], [ -92.812194101479406, 47.717306445835803 ] ] } },
{ "type": "Feature", "properties": { "wmUplineSo": "MEADOWBROOK", "wmType": "Underground" }, "geometry": { "type": "LineString", "coordinates": [ [ -92.819794, 47.717537 ], [ -92.8197495, 47.717525600009601 ] ] } },
{ "type": "Feature", "properties": { "wmUplineSo": "MEADOWBROOK", "wmType": "Underground" }, "geometry": { "type": "LineString", "coordinates": [ [ -92.788903801702503, 47.706143831353103 ], [ -92.7887901, 47.706215900009603 ] ] } },
{ "type": "Feature", "properties": { "wmUplineSo": "MEADOWBROOK", "wmType": "Underground" }, "geometry": { "type": "LineString", "coordinates": [ [ -92.789360910460303, 47.703115007249203 ], [ -92.7891575032953, 47.702925442166098 ] ] } },
{ "type": "Feature", "properties": { "wmUplineSo": "MEADOWBROOK", "wmType": "Underground" }, "geometry": { "type": "LineString", "coordinates": [ [ -92.779105297342795, 47.702142593460202 ], [ -92.7789298, 47.702221100009602 ] ] } },
{ "type": "Feature", "properties": { "wmUplineSo": "MEADOWBROOK", "wmType": "Underground" }, "geometry": { "type": "LineString", "coordinates": [ [ -93.020667733439097, 47.787212785623304 ], [ -93.0203439, 47.7873808000097 ] ] } },
{ "type": "Feature", "properties": { "wmUplineSo": "MEADOWBROOK", "wmType": "Underground" }, "geometry": { "type": "LineString", "coordinates": [ [ -93.021343909024793, 47.784245488678202 ], [ -93.0209891, 47.784383600009697 ] ] } },
{ "type": "Feature", "properties": { "wmUplineSo": "MEADOWBROOK", "wmType": "Underground" }, "geometry": { "type": "LineString", "coordinates": [ [ -93.023415606611806, 47.779034839972503 ], [ -93.0240028, 47.778977500009702 ] ] } },
{ "type": "Feature", "properties": { "wmUplineSo": "MEADOWBROOK", "wmType": "Underground" }, "geometry": { "type": "LineString", "coordinates": [ [ -93.0221685047579, 47.778100167468402 ], [ -93.021946661200801, 47.778348656131698 ] ] } },
{ "type": "Feature", "properties": { "wmUplineSo": "MEADOWBROOK", "wmType": "Underground" }, "geometry": { "type": "LineString", "coordinates": [ [ -93.020868878756005, 47.778287050387704 ], [ -93.0207819, 47.778274600009702 ] ] } },
{ "type": "Feature", "properties": { "wmUplineSo": "MEADOWBROOK", "wmType": "Underground" }, "geometry": { "type": "LineString", "coordinates": [ [ -93.014050508879095, 47.778831710235799 ], [ -93.0138324, 47.778689000009699 ] ] } },
{ "type": "Feature", "properties": { "wmUplineSo": "MEADOWBROOK", "wmType": "Underground" }, "geometry": { "type": "LineString", "coordinates": [ [ -93.036568275875496, 47.776488781340802 ], [ -93.0362016, 47.776662900009697 ] ] } },
{ "type": "Feature", "properties": { "wmUplineSo": "MEADOWBROOK", "wmType": "Underground" }, "geometry": { "type": "LineString", "coordinates": [ [ -93.007904777973195, 47.777706606323399 ], [ -93.0076426, 47.777524300009702 ] ] } },
{ "type": "Feature", "properties": { "wmUplineSo": "MEADOWBROOK", "wmType": "Underground" }, "geometry": { "type": "LineString", "coordinates": [ [ -93.005925127445494, 47.779005607489502 ], [ -93.0057215, 47.778802400009702 ] ] } },
{ "type": "Feature", "properties": { "wmUplineSo": "MEADOWBROOK", "wmType": "Underground" }, "geometry": { "type": "LineString", "coordinates": [ [ -93.0523773411946, 47.777218882875303 ], [ -93.0523928, 47.777113600009699 ] ] } },
{ "type": "Feature", "properties": { "wmUplineSo": "MEADOWBROOK", "wmType": "Underground" }, "geometry": { "type": "LineString", "coordinates": [ [ -93.060783886373201, 47.778253501540398 ], [ -93.0604191, 47.778400800009699 ] ] } },
{ "type": "Feature", "properties": { "wmUplineSo": "MEADOWBROOK", "wmType": "Underground" }, "geometry": { "type": "LineString", "coordinates": [ [ -93.060081115092501, 47.781114950117903 ], [ -93.059896401715804, 47.7810931405361 ] ] } },
{ "type": "Feature", "properties": { "wmUplineSo": "MEADOWBROOK", "wmType": "Underground" }, "geometry": { "type": "LineString", "coordinates": [ [ -93.0674063393746, 47.777187794808199 ], [ -93.0674418, 47.777178500009597 ] ] } },
{ "type": "Feature", "properties": { "wmUplineSo": "MEADOWBROOK", "wmType": "Underground" }, "geometry": { "type": "LineString", "coordinates": [ [ -93.071234398757596, 47.776656738208501 ], [ -93.0708841, 47.776786300009697 ] ] } },
{ "type": "Feature", "properties": { "wmUplineSo": "MEADOWBROOK", "wmType": "Underground" }, "geometry": { "type": "LineString", "coordinates": [ [ -93.070984, 47.77792 ], [ -93.070971921948598, 47.777988076269999 ] ] } },
{ "type": "Feature", "properties": { "wmUplineSo": "MEADOWBROOK", "wmType": "Underground" }, "geometry": { "type": "LineString", "coordinates": [ [ -93.077900222329902, 47.777276233612902 ], [ -93.0779073, 47.777246600009697 ] ] } },
{ "type": "Feature", "properties": { "wmUplineSo": "MEADOWBROOK", "wmType": "Underground" }, "geometry": { "type": "LineString", "coordinates": [ [ -93.086260296558706, 47.7804359057181 ], [ -93.0858725, 47.780564800009699 ] ] } },
{ "type": "Feature", "properties": { "wmUplineSo": "MEADOWBROOK", "wmType": "Underground" }, "geometry": { "type": "LineString", "coordinates": [ [ -93.087796096045807, 47.7787653456393 ], [ -93.0878169, 47.778759300009597 ] ] } },
{ "type": "Feature", "properties": { "wmUplineSo": "MEADOWBROOK", "wmType": "Underground" }, "geometry": { "type": "LineString", "coordinates": [ [ -93.085502984874196, 47.778376946860902 ], [ -93.0854228, 47.7784216000097 ] ] } },
{ "type": "Feature", "properties": { "wmUplineSo": "MEADOWBROOK", "wmType": "Underground" }, "geometry": { "type": "LineString", "coordinates": [ [ -93.084617694553899, 47.774975643651899 ], [ -93.0846578, 47.774985800009702 ] ] } },
{ "type": "Feature", "properties": { "wmUplineSo": "MEADOWBROOK", "wmType": "Underground" }, "geometry": { "type": "LineString", "coordinates": [ [ -93.083888409109804, 47.801916608506701 ], [ -93.084005679781995, 47.802144933438001 ] ] } },
{ "type": "Feature", "properties": { "wmUplineSo": "MEADOWBROOK", "wmType": "Underground" }, "geometry": { "type": "LineString", "coordinates": [ [ -92.902803380898504, 47.794733205276998 ], [ -92.9026766, 47.794834800009703 ] ] } },
{ "type": "Feature", "properties": { "wmUplineSo": "MEADOWBROOK", "wmType": "Underground" }, "geometry": { "type": "LineString", "coordinates": [ [ -92.929272735434097, 47.794055617052599 ], [ -92.9290326, 47.794185300009701 ] ] } },
{ "type": "Feature", "properties": { "wmUplineSo": "MEADOWBROOK", "wmType": "Underground" }, "geometry": { "type": "LineString", "coordinates": [ [ -92.8883131618161, 47.786219884263197 ], [ -92.8883549, 47.786228800009702 ] ] } },
{ "type": "Feature", "properties": { "wmUplineSo": "MEADOWBROOK", "wmType": "Underground" }, "geometry": { "type": "LineString", "coordinates": [ [ -92.8872257762998, 47.776620943138198 ], [ -92.8869276, 47.776807600009597 ] ] } },
{ "type": "Feature", "properties": { "wmUplineSo": "MEADOWBROOK", "wmType": "Underground" }, "geometry": { "type": "LineString", "coordinates": [ [ -92.882733425502593, 47.7758396078545 ], [ -92.8824611, 47.7759931000097 ] ] } },
{ "type": "Feature", "properties": { "wmUplineSo": "MEADOWBROOK", "wmType": "Underground" }, "geometry": { "type": "LineString", "coordinates": [ [ -92.868677739876105, 47.781426442529401 ], [ -92.8684729, 47.781610100009701 ] ] } },
{ "type": "Feature", "properties": { "wmUplineSo": "MEADOWBROOK", "wmType": "Underground" }, "geometry": { "type": "LineString", "coordinates": [ [ -92.870522456743998, 47.778372038788703 ], [ -92.8703011, 47.778540400009703 ] ] } },
{ "type": "Feature", "properties": { "wmUplineSo": "MEADOWBROOK", "wmType": "Underground" }, "geometry": { "type": "LineString", "coordinates": [ [ -92.875888984564298, 47.777753152639399 ], [ -92.8756613, 47.777880300009599 ] ] } },
{ "type": "Feature", "properties": { "wmUplineSo": "MEADOWBROOK", "wmType": "Underground" }, "geometry": { "type": "LineString", "coordinates": [ [ -92.876626071616002, 47.776410861235398 ], [ -92.8763883, 47.776596500009603 ] ] } },
{ "type": "Feature", "properties": { "wmUplineSo": "MEADOWBROOK", "wmType": "Underground" }, "geometry": { "type": "LineString", "coordinates": [ [ -92.868922074938894, 47.774756723322199 ], [ -92.868892124764201, 47.774755615566697 ] ] } },
{ "type": "Feature", "properties": { "wmUplineSo": "MEADOWBROOK", "wmType": "Underground" }, "geometry": { "type": "LineString", "coordinates": [ [ -92.868119430998405, 47.775951479449198 ], [ -92.867853, 47.776019400009702 ] ] } },
{ "type": "Feature", "properties": { "wmUplineSo": "MEADOWBROOK", "wmType": "Underground" }, "geometry": { "type": "LineString", "coordinates": [ [ -92.868320225387194, 47.773994373414801 ], [ -92.8679801, 47.774017800009602 ] ] } },
{ "type": "Feature", "properties": { "wmUplineSo": "MEADOWBROOK", "wmType": "Underground" }, "geometry": { "type": "LineString", "coordinates": [ [ -92.867529, 47.771645 ], [ -92.867628537610102, 47.7716590725583 ] ] } },
{ "type": "Feature", "properties": { "wmUplineSo": "MEADOWBROOK", "wmType": "Underground" }, "geometry": { "type": "LineString", "coordinates": [ [ -92.867396009204697, 47.761739516434098 ], [ -92.8670941, 47.761788300009599 ] ] } },
{ "type": "Feature", "properties": { "wmUplineSo": "MEADOWBROOK", "wmType": "Underground" }, "geometry": { "type": "LineString", "coordinates": [ [ -92.870755545650695, 47.762892632107402 ], [ -92.870918085018104, 47.762972360396503 ] ] } },
{ "type": "Feature", "properties": { "wmUplineSo": "MEADOWBROOK", "wmType": "Underground" }, "geometry": { "type": "LineString", "coordinates": [ [ -92.879471741616697, 47.761276592653601 ], [ -92.879024522642794, 47.7612702721771 ] ] } },
{ "type": "Feature", "properties": { "wmUplineSo": "MEADOWBROOK", "wmType": "Underground" }, "geometry": { "type": "LineString", "coordinates": [ [ -92.890042040945005, 47.7641522950005 ], [ -92.8899325, 47.764332500009601 ] ] } },
{ "type": "Feature", "properties": { "wmUplineSo": "MEADOWBROOK", "wmType": "Underground" }, "geometry": { "type": "LineString", "coordinates": [ [ -92.883527964881907, 47.762145945213 ], [ -92.8835723, 47.762017900009603 ] ] } },
{ "type": "Feature", "properties": { "wmUplineSo": "MEADOWBROOK", "wmType": "Underground" }, "geometry": { "type": "LineString", "coordinates": [ [ -92.866909909295401, 47.753127144692002 ], [ -92.8666015, 47.753183000009599 ] ] } },
{ "type": "Feature", "properties": { "wmUplineSo": "MEADOWBROOK", "wmType": "Underground" }, "geometry": { "type": "LineString", "coordinates": [ [ -92.996086754967905, 47.837246491192602 ], [ -92.9957225, 47.837370800009701 ] ] } },
{ "type": "Feature", "properties": { "wmUplineSo": "MEADOWBROOK", "wmType": "Underground" }, "geometry": { "type": "LineString", "coordinates": [ [ -93.011103125094806, 47.823556114313099 ], [ -93.011103061415696, 47.823556125242099 ], [ -93.0107991, 47.823449300009699 ] ] } },
{ "type": "Feature", "properties": { "wmUplineSo": "MEADOWBROOK", "wmType": "Underground" }, "geometry": { "type": "LineString", "coordinates": [ [ -93.017469656530693, 47.821117055683501 ], [ -93.0172783, 47.821102600009702 ] ] } },
{ "type": "Feature", "properties": { "wmUplineSo": "MEADOWBROOK", "wmType": "Underground" }, "geometry": { "type": "LineString", "coordinates": [ [ -93.020414000001196, 47.822363003789498 ], [ -93.0204098, 47.822337800009699 ] ] } },
{ "type": "Feature", "properties": { "wmUplineSo": "MEADOWBROOK", "wmType": "Underground" }, "geometry": { "type": "LineString", "coordinates": [ [ -93.044224280240499, 47.822934618755802 ], [ -93.0442814, 47.822944800009701 ] ] } },
{ "type": "Feature", "properties": { "wmUplineSo": "MEADOWBROOK", "wmType": "Underground" }, "geometry": { "type": "LineString", "coordinates": [ [ -93.049659341016493, 47.821686184780603 ], [ -93.049653462947205, 47.821698049003402 ], [ -93.0498196, 47.821478600009698 ] ] } },
{ "type": "Feature", "properties": { "wmUplineSo": "MEADOWBROOK", "wmType": "Underground" }, "geometry": { "type": "LineString", "coordinates": [ [ -93.057058000003593, 47.8215690037892 ], [ -93.057140008025698, 47.821528381974403 ] ] } },
{ "type": "Feature", "properties": { "wmUplineSo": "MEADOWBROOK", "wmType": "Underground" }, "geometry": { "type": "LineString", "coordinates": [ [ -93.063169760688595, 47.817276714130799 ], [ -93.0630823, 47.817315900009703 ] ] } },
{ "type": "Feature", "properties": { "wmUplineSo": "MEADOWBROOK", "wmType": "Underground" }, "geometry": { "type": "LineString", "coordinates": [ [ -93.079081704947995, 47.820973537277702 ], [ -93.0791209, 47.820844200009702 ] ] } },
{ "type": "Feature", "properties": { "wmUplineSo": "MEADOWBROOK", "wmType": "Underground" }, "geometry": { "type": "LineString", "coordinates": [ [ -93.053761061048306, 47.840601392553403 ], [ -93.0523744, 47.840799800009698 ] ] } },
{ "type": "Feature", "properties": { "wmUplineSo": "MEADOWBROOK", "wmType": "Underground" }, "geometry": { "type": "LineString", "coordinates": [ [ -93.056386087879801, 47.845490248817498 ], [ -93.0537573, 47.843973000009697 ] ] } },
{ "type": "Feature", "properties": { "wmUplineSo": "MEADOWBROOK", "wmType": "Underground" }, "geometry": { "type": "LineString", "coordinates": [ [ -93.064847429017703, 47.838362090002498 ], [ -93.064719252627597, 47.838377124430401 ] ] } },
{ "type": "Feature", "properties": { "wmUplineSo": "MEADOWBROOK", "wmType": "Underground" }, "geometry": { "type": "LineString", "coordinates": [ [ -93.063454407935694, 47.8384580915002 ], [ -93.0634898, 47.838461800009703 ] ] } },
{ "type": "Feature", "properties": { "wmUplineSo": "MEADOWBROOK", "wmType": "Underground" }, "geometry": { "type": "LineString", "coordinates": [ [ -93.059246110638, 47.838620947484998 ], [ -93.0592539, 47.838623100009698 ] ] } },
{ "type": "Feature", "properties": { "wmUplineSo": "MEADOWBROOK", "wmType": "Underground" }, "geometry": { "type": "LineString", "coordinates": [ [ -93.061016438498001, 47.836068929670901 ], [ -93.060915, 47.8361230000097 ] ] } },
{ "type": "Feature", "properties": { "wmUplineSo": "MEADOWBROOK", "wmType": "Underground" }, "geometry": { "type": "LineString", "coordinates": [ [ -93.020279483595502, 47.815010984539803 ], [ -93.0200171, 47.814877300009698 ] ] } },
{ "type": "Feature", "properties": { "wmUplineSo": "MEADOWBROOK", "wmType": "Underground" }, "geometry": { "type": "LineString", "coordinates": [ [ -93.020022460051095, 47.812841087854103 ], [ -93.0200256, 47.812832600009699 ] ] } },
{ "type": "Feature", "properties": { "wmUplineSo": "MEADOWBROOK", "wmType": "Underground" }, "geometry": { "type": "LineString", "coordinates": [ [ -93.018624359231396, 47.812725756548502 ], [ -93.0183473, 47.812573600009699 ] ] } },
{ "type": "Feature", "properties": { "wmUplineSo": "MEADOWBROOK", "wmType": "Underground" }, "geometry": { "type": "LineString", "coordinates": [ [ -93.016291546693907, 47.8104859977636 ], [ -93.0165083, 47.810197800009703 ] ] } },
{ "type": "Feature", "properties": { "wmUplineSo": "MEADOWBROOK", "wmType": "Underground" }, "geometry": { "type": "LineString", "coordinates": [ [ -93.090380169511207, 47.780127158505501 ], [ -93.0903796, 47.780241800009598 ] ] } },
{ "type": "Feature", "properties": { "wmUplineSo": "MEADOWBROOK", "wmType": "Underground" }, "geometry": { "type": "LineString", "coordinates": [ [ -93.104399422790607, 47.782620708097802 ], [ -93.104370086832304, 47.7825273762612 ] ] } },
{ "type": "Feature", "properties": { "wmUplineSo": "MEADOWBROOK", "wmType": "Underground" }, "geometry": { "type": "LineString", "coordinates": [ [ -93.112819565493396, 47.762936864342997 ], [ -93.112054550634397, 47.763150872606403 ] ] } },
{ "type": "Feature", "properties": { "wmUplineSo": "MEADOWBROOK", "wmType": "Underground" }, "geometry": { "type": "LineString", "coordinates": [ [ -92.993620936343603, 47.816795107676597 ], [ -92.9936286, 47.816692300009699 ] ] } },
{ "type": "Feature", "properties": { "wmUplineSo": "MEADOWBROOK", "wmType": "Underground" }, "geometry": { "type": "LineString", "coordinates": [ [ -92.955010461226905, 47.809373231696902 ], [ -92.95555828, 47.809523760009697 ] ] } },
{ "type": "Feature", "properties": { "wmUplineSo": "MEADOWBROOK", "wmType": "Underground" }, "geometry": { "type": "LineString", "coordinates": [ [ -92.956107941264193, 47.816723528687703 ], [ -92.956310080335896, 47.816901051391703 ] ] } },
{ "type": "Feature", "properties": { "wmUplineSo": "MEADOWBROOK", "wmType": "Underground" }, "geometry": { "type": "LineString", "coordinates": [ [ -92.955812235675893, 47.8117869432715 ], [ -92.9555508, 47.8118988000097 ] ] } },
{ "type": "Feature", "properties": { "wmUplineSo": "MEADOWBROOK", "wmType": "Underground" }, "geometry": { "type": "LineString", "coordinates": [ [ -92.958992488652896, 47.807448503887798 ], [ -92.9590418, 47.807268500009698 ] ] } },
{ "type": "Feature", "properties": { "wmUplineSo": "MEADOWBROOK", "wmType": "Underground" }, "geometry": { "type": "LineString", "coordinates": [ [ -92.9639169609069, 47.812783103136397 ], [ -92.9636611, 47.8128035000097 ] ] } },
{ "type": "Feature", "properties": { "wmUplineSo": "MEADOWBROOK", "wmType": "Underground" }, "geometry": { "type": "LineString", "coordinates": [ [ -92.968219419341906, 47.807522286865897 ], [ -92.9678643, 47.807738300009703 ] ] } },
{ "type": "Feature", "properties": { "wmUplineSo": "MEADOWBROOK", "wmType": "Underground" }, "geometry": { "type": "LineString", "coordinates": [ [ -92.971625399180098, 47.8086102985623 ], [ -92.9718072, 47.8086361000097 ] ] } },
{ "type": "Feature", "properties": { "wmUplineSo": "MEADOWBROOK", "wmType": "Underground" }, "geometry": { "type": "LineString", "coordinates": [ [ -92.979333623073401, 47.807875525270603 ], [ -92.979196059231995, 47.808054000726301 ] ] } },
{ "type": "Feature", "properties": { "wmUplineSo": "MEADOWBROOK", "wmType": "Underground" }, "geometry": { "type": "LineString", "coordinates": [ [ -92.9899278019208, 47.807286515407498 ], [ -92.9894624, 47.8074243000097 ] ] } },
{ "type": "Feature", "properties": { "wmUplineSo": "MEADOWBROOK", "wmType": "Underground" }, "geometry": { "type": "LineString", "coordinates": [ [ -92.989543420091593, 47.806465288186203 ], [ -92.9891181, 47.806509600009697 ] ] } },
{ "type": "Feature", "properties": { "wmUplineSo": "MEADOWBROOK", "wmType": "Underground" }, "geometry": { "type": "LineString", "coordinates": [ [ -92.9941041227044, 47.806401779578202 ], [ -92.9937663, 47.806012100009703 ] ] } },
{ "type": "Feature", "properties": { "wmUplineSo": "MEADOWBROOK", "wmType": "Underground" }, "geometry": { "type": "LineString", "coordinates": [ [ -92.999052418259893, 47.807357921850397 ], [ -92.9990833, 47.807362800009699 ] ] } },
{ "type": "Feature", "properties": { "wmUplineSo": "MEADOWBROOK", "wmType": "Underground" }, "geometry": { "type": "LineString", "coordinates": [ [ -92.940358247702704, 47.807029323293797 ], [ -92.9401106, 47.8070388000097 ] ] } },
{ "type": "Feature", "properties": { "wmUplineSo": "MEADOWBROOK", "wmType": "Underground" }, "geometry": { "type": "LineString", "coordinates": [ [ -92.968966354026804, 47.793778536715202 ], [ -92.968654, 47.794052800009702 ] ] } },
{ "type": "Feature", "properties": { "wmUplineSo": "MEADOWBROOK", "wmType": "Underground" }, "geometry": { "type": "LineString", "coordinates": [ [ -92.956938125994995, 47.796029014776302 ], [ -92.9566411, 47.795897000009703 ] ] } },
{ "type": "Feature", "properties": { "wmUplineSo": "MEADOWBROOK", "wmType": "Underground" }, "geometry": { "type": "LineString", "coordinates": [ [ -92.953852741985799, 47.793915523266897 ], [ -92.9536611, 47.7939779000097 ] ] } },
{ "type": "Feature", "properties": { "wmUplineSo": "MEADOWBROOK", "wmType": "Underground" }, "geometry": { "type": "LineString", "coordinates": [ [ -92.954314123052001, 47.791460029974097 ], [ -92.953968522460798, 47.791532462364003 ] ] } },
{ "type": "Feature", "properties": { "wmUplineSo": "MEADOWBROOK", "wmType": "Underground" }, "geometry": { "type": "LineString", "coordinates": [ [ -92.955063326827101, 47.7877453661917 ], [ -92.9560181, 47.787874600009701 ] ] } },
{ "type": "Feature", "properties": { "wmUplineSo": "MEADOWBROOK", "wmType": "Underground" }, "geometry": { "type": "LineString", "coordinates": [ [ -92.952229375246006, 47.7889349166757 ], [ -92.9518883, 47.788937800009698 ] ] } },
{ "type": "Feature", "properties": { "wmUplineSo": "MEADOWBROOK", "wmType": "Underground" }, "geometry": { "type": "LineString", "coordinates": [ [ -92.970294528665406, 47.777426625645099 ], [ -92.970440378648405, 47.777331446843803 ] ] } },
{ "type": "Feature", "properties": { "wmUplineSo": "MEADOWBROOK", "wmType": "Underground" }, "geometry": { "type": "LineString", "coordinates": [ [ -92.972127055619794, 47.779779423994803 ], [ -92.9721375, 47.779766100009702 ] ] } },
{ "type": "Feature", "properties": { "wmUplineSo": "MEADOWBROOK", "wmType": "Underground" }, "geometry": { "type": "LineString", "coordinates": [ [ -92.975547533636103, 47.778010034924598 ], [ -92.97528, 47.777998900009699 ] ] } },
{ "type": "Feature", "properties": { "wmUplineSo": "MEADOWBROOK", "wmType": "Underground" }, "geometry": { "type": "LineString", "coordinates": [ [ -92.976423, 47.776945 ], [ -92.976344313596201, 47.7769015551671 ] ] } },
{ "type": "Feature", "properties": { "wmUplineSo": "MEADOWBROOK", "wmType": "Underground" }, "geometry": { "type": "LineString", "coordinates": [ [ -92.979276905880695, 47.7795646585909 ], [ -92.9789681, 47.779424300009701 ] ] } },
{ "type": "Feature", "properties": { "wmUplineSo": "MEADOWBROOK", "wmType": "Underground" }, "geometry": { "type": "LineString", "coordinates": [ [ -92.987188617370506, 47.779241658770097 ], [ -92.9869528, 47.779060300009697 ] ] } },
{ "type": "Feature", "properties": { "wmUplineSo": "MEADOWBROOK", "wmType": "Underground" }, "geometry": { "type": "LineString", "coordinates": [ [ -92.955880168170296, 47.759356925637498 ], [ -92.955964515365807, 47.759265199426899 ] ] } },
{ "type": "Feature", "properties": { "wmUplineSo": "MEADOWBROOK", "wmType": "Underground" }, "geometry": { "type": "LineString", "coordinates": [ [ -92.935705462912594, 47.774186139023101 ], [ -92.9354655, 47.774332100009701 ] ] } },
{ "type": "Feature", "properties": { "wmUplineSo": "MEADOWBROOK", "wmType": "Underground" }, "geometry": { "type": "LineString", "coordinates": [ [ -93.018784274105002, 47.789819466073901 ], [ -93.0183991, 47.7899734000097 ] ] } },
{ "type": "Feature", "properties": { "wmUplineSo": "MEADOWBROOK", "wmType": "Underground" }, "geometry": { "type": "LineString", "coordinates": [ [ -93.020643844399203, 47.792669124640803 ], [ -93.0202646, 47.792850100009701 ] ] } },
{ "type": "Feature", "properties": { "wmUplineSo": "MEADOWBROOK", "wmType": "Underground" }, "geometry": { "type": "LineString", "coordinates": [ [ -92.867134100954104, 47.755323163560597 ], [ -92.866826, 47.755360000009603 ] ] } },
{ "type": "Feature", "properties": { "wmUplineSo": "MEADOWBROOK", "wmType": "Underground" }, "geometry": { "type": "LineString", "coordinates": [ [ -92.856662999990306, 47.775486003776201 ], [ -92.8566536, 47.7754733000097 ] ] } },
{ "type": "Feature", "properties": { "wmUplineSo": "MEADOWBROOK", "wmType": "Underground" }, "geometry": { "type": "LineString", "coordinates": [ [ -92.8511586434457, 47.777140034000297 ], [ -92.8508986, 47.777218800009699 ] ] } },
{ "type": "Feature", "properties": { "wmUplineSo": "MEADOWBROOK", "wmType": "Underground" }, "geometry": { "type": "LineString", "coordinates": [ [ -92.848549166320893, 47.7746420310731 ], [ -92.8482366, 47.774697800009598 ] ] } },
{ "type": "Feature", "properties": { "wmUplineSo": "MEADOWBROOK", "wmType": "Underground" }, "geometry": { "type": "LineString", "coordinates": [ [ -92.846131686034198, 47.7767915094798 ], [ -92.8458514, 47.7768905000096 ] ] } },
{ "type": "Feature", "properties": { "wmUplineSo": "MEADOWBROOK", "wmType": "Underground" }, "geometry": { "type": "LineString", "coordinates": [ [ -92.846057872566703, 47.775423373194798 ], [ -92.8457416, 47.775488300009698 ] ] } },
{ "type": "Feature", "properties": { "wmUplineSo": "MEADOWBROOK", "wmType": "Underground" }, "geometry": { "type": "LineString", "coordinates": [ [ -92.841637633854404, 47.776864342573802 ], [ -92.8413396, 47.776921100009702 ] ] } },
{ "type": "Feature", "properties": { "wmUplineSo": "MEADOWBROOK", "wmType": "Underground" }, "geometry": { "type": "LineString", "coordinates": [ [ -92.838179571922197, 47.776752230482799 ], [ -92.8378488, 47.776781400009703 ] ] } },
{ "type": "Feature", "properties": { "wmUplineSo": "MEADOWBROOK", "wmType": "Underground" }, "geometry": { "type": "LineString", "coordinates": [ [ -92.829500552495901, 47.774826896880903 ], [ -92.8295215, 47.774741300009701 ] ] } },
{ "type": "Feature", "properties": { "wmUplineSo": "MEADOWBROOK", "wmType": "Underground" }, "geometry": { "type": "LineString", "coordinates": [ [ -92.815267453719599, 47.774622352628 ], [ -92.814842914209294, 47.774727701736197 ] ] } },
{ "type": "Feature", "properties": { "wmUplineSo": "MEADOWBROOK", "wmType": "Underground" }, "geometry": { "type": "LineString", "coordinates": [ [ -92.831523304496997, 47.760788908678499 ], [ -92.8314206, 47.760948800009601 ] ] } },
{ "type": "Feature", "properties": { "wmUplineSo": "MEADOWBROOK", "wmType": "Underground" }, "geometry": { "type": "LineString", "coordinates": [ [ -92.8468527287055, 47.761967006645797 ], [ -92.8466833, 47.761910900009603 ] ] } },
{ "type": "Feature", "properties": { "wmUplineSo": "MEADOWBROOK", "wmType": "Underground" }, "geometry": { "type": "LineString", "coordinates": [ [ -92.8349757365702, 47.759058823968303 ], [ -92.8349129, 47.7591648000096 ] ] } },
{ "type": "Feature", "properties": { "wmUplineSo": "MEADOWBROOK", "wmType": "Underground" }, "geometry": { "type": "LineString", "coordinates": [ [ -92.826649701000505, 47.757840903116701 ], [ -92.8263464, 47.757839800009599 ] ] } },
{ "type": "Feature", "properties": { "wmUplineSo": "MEADOWBROOK", "wmType": "Underground" }, "geometry": { "type": "LineString", "coordinates": [ [ -92.81950378, 47.758731840009602 ], [ -92.8193739, 47.758838600009597 ] ] } },
{ "type": "Feature", "properties": { "wmUplineSo": "MEADOWBROOK", "wmType": "Underground" }, "geometry": { "type": "LineString", "coordinates": [ [ -92.815801261459995, 47.756892368448703 ], [ -92.81552887, 47.756706240009599 ] ] } },
{ "type": "Feature", "properties": { "wmUplineSo": "MEADOWBROOK", "wmType": "Underground" }, "geometry": { "type": "LineString", "coordinates": [ [ -92.820801812670297, 47.743623556735997 ], [ -92.8206435, 47.743787000009597 ] ] } },
{ "type": "Feature", "properties": { "wmUplineSo": "MEADOWBROOK", "wmType": "Underground" }, "geometry": { "type": "LineString", "coordinates": [ [ -92.833581309782303, 47.747610531867501 ], [ -92.8335405, 47.747812300009599 ] ] } },
{ "type": "Feature", "properties": { "wmUplineSo": "MEADOWBROOK", "wmType": "Underground" }, "geometry": { "type": "LineString", "coordinates": [ [ -92.834621778370504, 47.746331229409797 ], [ -92.834792234754801, 47.746424849644697 ] ] } },
{ "type": "Feature", "properties": { "wmUplineSo": "MEADOWBROOK", "wmType": "Underground" }, "geometry": { "type": "LineString", "coordinates": [ [ -92.850648745402694, 47.747709201227998 ], [ -92.8505545, 47.747686100009602 ] ] } },
{ "type": "Feature", "properties": { "wmUplineSo": "MEADOWBROOK", "wmType": "Underground" }, "geometry": { "type": "LineString", "coordinates": [ [ -92.850001602091794, 47.746320944493398 ], [ -92.8498599, 47.746440000009599 ] ] } },
{ "type": "Feature", "properties": { "wmUplineSo": "MEADOWBROOK", "wmType": "Underground" }, "geometry": { "type": "LineString", "coordinates": [ [ -92.847080508317006, 47.755713123967801 ], [ -92.8472583, 47.755861000009602 ] ] } },
{ "type": "Feature", "properties": { "wmUplineSo": "MEADOWBROOK", "wmType": "Underground" }, "geometry": { "type": "LineString", "coordinates": [ [ -92.843883254537502, 47.755117840061502 ], [ -92.843974229774801, 47.755216441248102 ] ] } },
{ "type": "Feature", "properties": { "wmUplineSo": "MEADOWBROOK", "wmType": "Underground" }, "geometry": { "type": "LineString", "coordinates": [ [ -92.824049931758296, 47.732115900272902 ], [ -92.823968548869303, 47.732074837242003 ] ] } },
{ "type": "Feature", "properties": { "wmUplineSo": "MEADOWBROOK", "wmType": "Underground" }, "geometry": { "type": "LineString", "coordinates": [ [ -92.822507136438205, 47.7278211571168 ], [ -92.8224103, 47.727830600009597 ] ] } },
{ "type": "Feature", "properties": { "wmUplineSo": "MEADOWBROOK", "wmType": "Underground" }, "geometry": { "type": "LineString", "coordinates": [ [ -92.825634875768401, 47.727884603403403 ], [ -92.825655957165694, 47.727817533214498 ] ] } },
{ "type": "Feature", "properties": { "wmUplineSo": "MEADOWBROOK", "wmType": "Underground" }, "geometry": { "type": "LineString", "coordinates": [ [ -92.825892348903196, 47.718736515347302 ], [ -92.8258841, 47.718741800009603 ] ] } },
{ "type": "Feature", "properties": { "wmUplineSo": "MEADOWBROOK", "wmType": "Underground" }, "geometry": { "type": "LineString", "coordinates": [ [ -92.827086820549098, 47.717000237101097 ], [ -92.8270518, 47.717152100009599 ] ] } },
{ "type": "Feature", "properties": { "wmUplineSo": "MEADOWBROOK", "wmType": "Underground" }, "geometry": { "type": "LineString", "coordinates": [ [ -92.821976866867999, 47.6938214262779 ], [ -92.8217934, 47.693722600009501 ] ] } },
{ "type": "Feature", "properties": { "wmUplineSo": "MEADOWBROOK", "wmType": "Underground" }, "geometry": { "type": "LineString", "coordinates": [ [ -92.822919999988201, 47.709916003757698 ], [ -92.823075534688698, 47.709892541290202 ] ] } },
{ "type": "Feature", "properties": { "wmUplineSo": "MEADOWBROOK", "wmType": "Underground" }, "geometry": { "type": "LineString", "coordinates": [ [ -92.820127879116399, 47.710189122492601 ], [ -92.8201266, 47.710180800009603 ] ] } },
{ "type": "Feature", "properties": { "wmUplineSo": "MEADOWBROOK", "wmType": "Underground" }, "geometry": { "type": "LineString", "coordinates": [ [ -92.866992291037704, 47.696641676921203 ], [ -92.8670873, 47.696495100009599 ] ] } },
{ "type": "Feature", "properties": { "wmUplineSo": "MEADOWBROOK", "wmType": "Underground" }, "geometry": { "type": "LineString", "coordinates": [ [ -92.866278113214193, 47.690954134795 ], [ -92.8663023, 47.690998300009497 ] ] } },
{ "type": "Feature", "properties": { "wmUplineSo": "MEADOWBROOK", "wmType": "Underground" }, "geometry": { "type": "LineString", "coordinates": [ [ -92.866279967129202, 47.690199916928201 ], [ -92.8663598, 47.690213400009597 ] ] } },
{ "type": "Feature", "properties": { "wmUplineSo": "MEADOWBROOK", "wmType": "Underground" }, "geometry": { "type": "LineString", "coordinates": [ [ -92.867443725049, 47.689079386424602 ], [ -92.867641, 47.689093900009603 ] ] } },
{ "type": "Feature", "properties": { "wmUplineSo": "MEADOWBROOK", "wmType": "Underground" }, "geometry": { "type": "LineString", "coordinates": [ [ -92.863090529043603, 47.687900226068997 ], [ -92.863105909247494, 47.687892354132998 ], [ -92.863235872970606, 47.687825835584903 ] ] } },
{ "type": "Feature", "properties": { "wmUplineSo": "MEADOWBROOK", "wmType": "Underground" }, "geometry": { "type": "LineString", "coordinates": [ [ -92.813456542789893, 47.777258290120997 ], [ -92.8134415, 47.777238600009603 ] ] } }
]
}
