{
"type": "FeatureCollection",
"crs": { "type": "name", "properties": { "name": "urn:ogc:def:crs:OGC:1.3:CRS84" } },
"features": [
{ "type": "Feature", "properties": { "wmUplineSo": "MEADOWBROOK", "wmType": "Underground" }, "geometry": { "type": "LineString", "coordinates": [ [ -93.131388196830301, 47.827434137787101 ], [ -93.1319195, 47.8279038000097 ] ] } },
{ "type": "Feature", "properties": { "wmUplineSo": "MEADOWBROOK", "wmType": "Underground" }, "geometry": { "type": "LineString", "coordinates": [ [ -93.165304000010806, 47.827851003790897 ], [ -93.1653291, 47.827883300009702 ] ] } },
{ "type": "Feature", "properties": { "wmUplineSo": "MEADOWBROOK", "wmType": "Underground" }, "geometry": { "type": "LineString", "coordinates": [ [ -93.165304000010806, 47.827851003790897 ], [ -93.1653327, 47.827909800009699 ] ] } },
{ "type": "Feature", "properties": { "wmUplineSo": "MEADOWBROOK", "wmType": "Underground" }, "geometry": { "type": "LineString", "coordinates": [ [ -93.185574560042198, 47.729618976473503 ], [ -93.1858639, 47.728343600009602 ] ] } },
{ "type": "Feature", "properties": { "wmUplineSo": "MEADOWBROOK", "wmType": "Underground" }, "geometry": { "type": "LineString", "coordinates": [ [ -93.191542045066001, 47.720710068023799 ], [ -93.191106, 47.720783100009598 ] ] } },
{ "type": "Feature", "properties": { "wmUplineSo": "MEADOWBROOK", "wmType": "Underground" }, "geometry": { "type": "LineString", "coordinates": [ [ -93.172777473048498, 47.930971097153098 ], [ -93.172922690454797, 47.931014580430102 ] ] } },
{ "type": "Feature", "properties": { "wmUplineSo": "MEADOWBROOK", "wmType": "Underground" }, "geometry": { "type": "LineString", "coordinates": [ [ -93.172922690454797, 47.931014580430102 ], [ -93.175000020435704, 47.932356257628598 ] ] } },
{ "type": "Feature", "properties": { "wmUplineSo": "MEADOWBROOK", "wmType": "Underground" }, "geometry": { "type": "LineString", "coordinates": [ [ -93.201747450031405, 47.927257616996002 ], [ -93.203016947113198, 47.925832685354301 ] ] } },
{ "type": "Feature", "properties": { "wmUplineSo": "MEADOWBROOK", "wmType": "Underground" }, "geometry": { "type": "LineString", "coordinates": [ [ -93.203016947113198, 47.925832685354301 ], [ -93.208256050123097, 47.9217752136326 ] ] } },
{ "type": "Feature", "properties": { "wmUplineSo": "MEADOWBROOK", "wmType": "Underground" }, "geometry": { "type": "LineString", "coordinates": [ [ -93.1031731345781, 47.863644226601998 ], [ -93.105982134067105, 47.862307485084202 ] ] } },
{ "type": "Feature", "properties": { "wmUplineSo": "MEADOWBROOK", "wmType": "Underground" }, "geometry": { "type": "LineString", "coordinates": [ [ -93.268677092011799, 47.806011216098703 ], [ -93.267396463454503, 47.806255163173702 ] ] } },
{ "type": "Feature", "properties": { "wmUplineSo": "MEADOWBROOK", "wmType": "Underground" }, "geometry": { "type": "LineString", "coordinates": [ [ -93.268697285540398, 47.8060096342086 ], [ -93.268677092011799, 47.806011216098703 ] ] } },
{ "type": "Feature", "properties": { "wmUplineSo": "MEADOWBROOK", "wmType": "Underground" }, "geometry": { "type": "LineString", "coordinates": [ [ -93.147102855499, 47.799126094128702 ], [ -93.1421954382281, 47.798988028848903 ] ] } },
{ "type": "Feature", "properties": { "wmUplineSo": "MEADOWBROOK", "wmType": "Underground" }, "geometry": { "type": "LineString", "coordinates": [ [ -93.193675158853296, 47.7651960526793 ], [ -93.195322813899196, 47.7651198589815 ] ] } },
{ "type": "Feature", "properties": { "wmUplineSo": "MEADOWBROOK", "wmType": "Underground" }, "geometry": { "type": "LineString", "coordinates": [ [ -93.195322813899196, 47.7651198589815 ], [ -93.203698409037401, 47.765220297785703 ] ] } },
{ "type": "Feature", "properties": { "wmUplineSo": "MEADOWBROOK", "wmType": "Underground" }, "geometry": { "type": "LineString", "coordinates": [ [ -93.190218692071994, 47.765203031301702 ], [ -93.191424579652207, 47.765329124389403 ] ] } },
{ "type": "Feature", "properties": { "wmUplineSo": "MEADOWBROOK", "wmType": "Underground" }, "geometry": { "type": "LineString", "coordinates": [ [ -93.1901985585814, 47.765200942983697 ], [ -93.190218692071994, 47.765203031301702 ] ] } },
{ "type": "Feature", "properties": { "wmUplineSo": "MEADOWBROOK", "wmType": "Underground" }, "geometry": { "type": "LineString", "coordinates": [ [ -93.191424579652207, 47.765329124389403 ], [ -93.192132486220004, 47.765384664371098 ] ] } },
{ "type": "Feature", "properties": { "wmUplineSo": "MEADOWBROOK", "wmType": "Underground" }, "geometry": { "type": "LineString", "coordinates": [ [ -93.192132486220004, 47.765384664371098 ], [ -93.193675158853296, 47.7651960526793 ] ] } },
{ "type": "Feature", "properties": { "wmUplineSo": "MEADOWBROOK", "wmType": "Underground" }, "geometry": { "type": "LineString", "coordinates": [ [ -93.203698409037401, 47.765220297785703 ], [ -93.204873006866407, 47.765496164362702 ] ] } },
{ "type": "Feature", "properties": { "wmUplineSo": "MEADOWBROOK", "wmType": "Underground" }, "geometry": { "type": "LineString", "coordinates": [ [ -93.204873006866407, 47.765496164362702 ], [ -93.213439327957701, 47.768846654412798 ], [ -93.214130270702199, 47.769669816294197 ], [ -93.214203967851205, 47.7705229676111 ] ] } },
{ "type": "Feature", "properties": { "wmUplineSo": "MEADOWBROOK", "wmType": "Underground" }, "geometry": { "type": "LineString", "coordinates": [ [ -93.193160093059703, 47.704725764179202 ], [ -93.193143715363504, 47.704716527903003 ] ] } },
{ "type": "Feature", "properties": { "wmUplineSo": "MEADOWBROOK", "wmType": "Underground" }, "geometry": { "type": "LineString", "coordinates": [ [ -93.193143715363504, 47.704716527903003 ], [ -93.192116679169501, 47.704086752989099 ] ] } },
{ "type": "Feature", "properties": { "wmUplineSo": "MEADOWBROOK", "wmType": "Underground" }, "geometry": { "type": "LineString", "coordinates": [ [ -93.168454952537999, 47.770524902183602 ], [ -93.167574920341494, 47.770357941907498 ] ] } },
{ "type": "Feature", "properties": { "wmUplineSo": "MEADOWBROOK", "wmType": "Underground" }, "geometry": { "type": "LineString", "coordinates": [ [ -93.125932760641206, 47.827708639571803 ], [ -93.130237517438204, 47.827835561235297 ], [ -93.131388196830301, 47.827434137787101 ] ] } },
{ "type": "Feature", "properties": { "wmUplineSo": "MEADOWBROOK", "wmType": "Underground" }, "geometry": { "type": "LineString", "coordinates": [ [ -93.189551532268496, 47.729558260362303 ], [ -93.189115850146905, 47.7294321239252 ] ] } },
{ "type": "Feature", "properties": { "wmUplineSo": "MEADOWBROOK", "wmType": "Underground" }, "geometry": { "type": "LineString", "coordinates": [ [ -93.189115850146905, 47.7294321239252 ], [ -93.1858632816528, 47.729288492779098 ], [ -93.185574560042198, 47.729618976473503 ] ] } },
{ "type": "Feature", "properties": { "wmUplineSo": "MEADOWBROOK", "wmType": "Underground" }, "geometry": { "type": "LineString", "coordinates": [ [ -93.190759130671694, 47.720717265245298 ], [ -93.191542045066001, 47.720710068023799 ] ] } },
{ "type": "Feature", "properties": { "wmUplineSo": "MEADOWBROOK", "wmType": "Underground" }, "geometry": { "type": "LineString", "coordinates": [ [ -93.190019818974704, 47.720810501672297 ], [ -93.190759130671694, 47.720717265245298 ] ] } },
{ "type": "Feature", "properties": { "wmUplineSo": "MEADOWBROOK", "wmType": "Underground" }, "geometry": { "type": "LineString", "coordinates": [ [ -93.268635, 47.807046 ], [ -93.268609497800398, 47.807101645505398 ] ] } },
{ "type": "Feature", "properties": { "wmUplineSo": "MEADOWBROOK", "wmType": "Underground" }, "geometry": { "type": "LineString", "coordinates": [ [ -93.268609497800398, 47.807101645505398 ], [ -93.2691227202546, 47.806819137736703 ] ] } },
{ "type": "Feature", "properties": { "wmUplineSo": "MEADOWBROOK", "wmType": "Underground" }, "geometry": { "type": "LineString", "coordinates": [ [ -93.2691227202546, 47.806819137736703 ], [ -93.269066536651493, 47.8068093393778 ] ] } },
{ "type": "Feature", "properties": { "wmUplineSo": "MEADOWBROOK", "wmType": "Underground" }, "geometry": { "type": "LineString", "coordinates": [ [ -93.268609497800398, 47.807101645505398 ], [ -93.270617, 47.807084 ] ] } },
{ "type": "Feature", "properties": { "wmUplineSo": "MEADOWBROOK", "wmType": "Underground" }, "geometry": { "type": "LineString", "coordinates": [ [ -93.270617, 47.807084 ], [ -93.270672866893506, 47.8070835927468 ] ] } },
{ "type": "Feature", "properties": { "wmUplineSo": "MEADOWBROOK", "wmType": "Underground" }, "geometry": { "type": "LineString", "coordinates": [ [ -93.167218, 47.954377999999899 ], [ -93.168023, 47.954293 ] ] } },
{ "type": "Feature", "properties": { "wmUplineSo": "MEADOWBROOK", "wmType": "Underground" }, "geometry": { "type": "LineString", "coordinates": [ [ -93.168023, 47.954293 ], [ -93.168041, 47.954316999999897 ] ] } },
{ "type": "Feature", "properties": { "wmUplineSo": "MEADOWBROOK", "wmType": "Underground" }, "geometry": { "type": "LineString", "coordinates": [ [ -93.147689, 47.815754 ], [ -93.147014, 47.815588 ] ] } },
{ "type": "Feature", "properties": { "wmUplineSo": "MEADOWBROOK", "wmType": "Underground" }, "geometry": { "type": "LineString", "coordinates": [ [ -93.147014, 47.815588 ], [ -93.146976, 47.81546 ] ] } },
{ "type": "Feature", "properties": { "wmUplineSo": "MEADOWBROOK", "wmType": "Underground" }, "geometry": { "type": "LineString", "coordinates": [ [ -93.146976, 47.81546 ], [ -93.14697, 47.815444 ] ] } },
{ "type": "Feature", "properties": { "wmUplineSo": "MEADOWBROOK", "wmType": "Underground" }, "geometry": { "type": "LineString", "coordinates": [ [ -93.165304000010806, 47.827851003790897 ], [ -93.165316086136102, 47.827919079642299 ] ] } },
{ "type": "Feature", "properties": { "wmUplineSo": "MEADOWBROOK", "wmType": "Underground" }, "geometry": { "type": "LineString", "coordinates": [ [ -93.189838000012301, 47.734111003764603 ], [ -93.1905980000124, 47.733964003764498 ] ] } },
{ "type": "Feature", "properties": { "wmUplineSo": "MEADOWBROOK", "wmType": "Underground" }, "geometry": { "type": "LineString", "coordinates": [ [ -93.1905980000124, 47.733964003764498 ], [ -93.190871000012393, 47.733889003764503 ] ] } },
{ "type": "Feature", "properties": { "wmUplineSo": "MEADOWBROOK", "wmType": "Underground" }, "geometry": { "type": "LineString", "coordinates": [ [ -93.190871000012393, 47.733889003764503 ], [ -93.190772800000104, 47.733868400009598 ] ] } },
{ "type": "Feature", "properties": { "wmUplineSo": "MEADOWBROOK", "wmType": "Underground" }, "geometry": { "type": "LineString", "coordinates": [ [ -93.165304000010806, 47.827851003790897 ], [ -93.165341531285705, 47.8279147361201 ] ] } },
{ "type": "Feature", "properties": { "wmUplineSo": "MEADOWBROOK", "wmType": "Underground" }, "geometry": { "type": "LineString", "coordinates": [ [ -93.258929000017005, 47.807751003785398 ], [ -93.258933395732896, 47.807665953678999 ] ] } },
{ "type": "Feature", "properties": { "wmUplineSo": "MEADOWBROOK", "wmType": "Underground" }, "geometry": { "type": "LineString", "coordinates": [ [ -93.258933395732896, 47.807665953678999 ], [ -93.258927000016996, 47.807498003785199 ] ] } },
{ "type": "Feature", "properties": { "wmUplineSo": "MEADOWBROOK", "wmType": "Underground" }, "geometry": { "type": "LineString", "coordinates": [ [ -93.258927000016996, 47.807498003785199 ], [ -93.258919413920907, 47.807215135517602 ] ] } },
{ "type": "Feature", "properties": { "wmUplineSo": "MEADOWBROOK", "wmType": "Underground" }, "geometry": { "type": "LineString", "coordinates": [ [ -93.258919413920907, 47.807215135517602 ], [ -93.258856000016905, 47.806368003784897 ] ] } },
{ "type": "Feature", "properties": { "wmUplineSo": "MEADOWBROOK", "wmType": "Underground" }, "geometry": { "type": "LineString", "coordinates": [ [ -93.258856000016905, 47.806368003784897 ], [ -93.258826000016995, 47.805572003784803 ] ] } },
{ "type": "Feature", "properties": { "wmUplineSo": "MEADOWBROOK", "wmType": "Underground" }, "geometry": { "type": "LineString", "coordinates": [ [ -93.258826000016995, 47.805572003784803 ], [ -93.259101000016997, 47.805457003784703 ] ] } },
{ "type": "Feature", "properties": { "wmUplineSo": "MEADOWBROOK", "wmType": "Underground" }, "geometry": { "type": "LineString", "coordinates": [ [ -93.259101000016997, 47.805457003784703 ], [ -93.2586607, 47.805379700009702 ] ] } },
{ "type": "Feature", "properties": { "wmUplineSo": "MEADOWBROOK", "wmType": "Underground" }, "geometry": { "type": "LineString", "coordinates": [ [ -93.015148049385701, 47.865408782267899 ], [ -93.014682000000803, 47.863627003801298 ] ] } },
{ "type": "Feature", "properties": { "wmUplineSo": "MEADOWBROOK", "wmType": "Underground" }, "geometry": { "type": "LineString", "coordinates": [ [ -93.014682000000803, 47.863627003801298 ], [ -93.0144300000008, 47.862709003800902 ] ] } },
{ "type": "Feature", "properties": { "wmUplineSo": "MEADOWBROOK", "wmType": "Underground" }, "geometry": { "type": "LineString", "coordinates": [ [ -93.0144300000008, 47.862709003800902 ], [ -93.014347000000797, 47.862588003800802 ] ] } },
{ "type": "Feature", "properties": { "wmUplineSo": "MEADOWBROOK", "wmType": "Underground" }, "geometry": { "type": "LineString", "coordinates": [ [ -93.166587000010907, 47.828520003791198 ], [ -93.166598527321, 47.828527980001603 ], [ -93.166593082763498, 47.828520686704302 ], [ -93.166593071081195, 47.8285170361222 ], [ -93.166593059398807, 47.828513385540099 ], [ -93.166593047716503, 47.828509734957997 ], [ -93.166587626525597, 47.8285097428246 ], [ -93.166587603161702, 47.828502441660397 ], [ -93.166582158608307, 47.828495148362499 ], [ -93.1665712928679, 47.828487862930302 ], [ -93.166560427130506, 47.828480577496698 ], [ -93.166554970903604, 47.828469633615299 ], [ -93.166549526358295, 47.828462340315902 ], [ -93.166544081814607, 47.828455047016099 ], [ -93.166533216087799, 47.8284477615802 ], [ -93.166527771547806, 47.828440468279702 ], [ -93.166522315332102, 47.828429524396697 ], [ -93.166516870795505, 47.828422231095601 ], [ -93.166505970050906, 47.8284039939102 ], [ -93.1664950576385, 47.828382106141703 ], [ -93.166489566410704, 47.828360210510297 ], [ -93.166484075187498, 47.828338314878302 ], [ -93.166484028488995, 47.828323712549299 ], [ -93.166478537271999, 47.828301816917097 ], [ -93.166473034385902, 47.828276270702098 ], [ -93.166467566525498, 47.828261676233801 ], [ -93.166462122014295, 47.828254382929899 ], [ -93.166456665831902, 47.828243439043398 ], [ -93.166445788489696, 47.828232503016501 ], [ -93.166440332313101, 47.828221559129197 ], [ -93.166429454978896, 47.828210623100503 ], [ -93.166423987137605, 47.828196028629897 ], [ -93.166407676985799, 47.828181449875601 ], [ -93.166402197484999, 47.8281632048216 ], [ -93.1663858990173, 47.828152276646499 ], [ -93.166380454528905, 47.828144983338298 ], [ -93.166375010042103, 47.828137690029997 ], [ -93.166369565556906, 47.828130396721498 ], [ -93.166358699922398, 47.828123111268603 ], [ -93.166347822625994, 47.8281121752321 ], [ -93.166336956998293, 47.828104889777102 ], [ -93.166326079710302, 47.828093953738502 ], [ -93.166315214089494, 47.828086668281401 ], [ -93.166309746293393, 47.828072073804798 ], [ -93.166298845694897, 47.828053836598698 ], [ -93.166287956764805, 47.828039249973898 ], [ -93.166271646700295, 47.828024671199799 ], [ -93.166260746125104, 47.8280064339896 ], [ -93.166249868873706, 47.827995497943597 ], [ -93.166239003284105, 47.827988212479099 ], [ -93.166233570490505, 47.827984569746398 ], [ -93.166222693249296, 47.827973633697802 ], [ -93.166206406533703, 47.827966356079202 ], [ -93.166195540956295, 47.827959070610497 ], [ -93.166184675381999, 47.827951785140797 ], [ -93.166179230942802, 47.827944491822997 ], [ -93.166168365373807, 47.8279372063514 ], [ -93.1661520786772, 47.827929928725098 ], [ -93.166141213114997, 47.827922643251199 ], [ -93.166130347555793, 47.827915357776298 ], [ -93.166119481999701, 47.827908072300303 ], [ -93.166108616446706, 47.827900786823299 ], [ -93.166097750896697, 47.827893501345201 ], [ -93.166086896996305, 47.8278898664487 ], [ -93.166076043097405, 47.827886231551197 ], [ -93.166070598680307, 47.827878938228103 ], [ -93.166054312015604, 47.827871660587498 ], [ -93.166038036998501, 47.827868033527501 ], [ -93.166027171465203, 47.827860748042703 ], [ -93.166016317576606, 47.827857113139601 ], [ -93.166005463689402, 47.827853478235298 ], [ -93.165994609803803, 47.8278498433301 ], [ -93.165994598163707, 47.827846192747401 ], [ -93.165983755919697, 47.8278462084238 ], [ -93.165967480915498, 47.827842581353799 ], [ -93.165951194276502, 47.827835303698699 ], [ -93.165924077036905, 47.827831692294801 ], [ -93.165896959801103, 47.827828080884501 ], [ -93.165886105928294, 47.827824445968901 ], [ -93.165869842568995, 47.8278244694677 ], [ -93.165858988698901, 47.827820834549598 ], [ -93.165831871473202, 47.827817223123901 ], [ -93.165810175369998, 47.827813603862097 ], [ -93.165799333132597, 47.827813619521102 ], [ -93.165761385301906, 47.827813674319302 ], [ -93.165745121945903, 47.827813697800401 ], [ -93.165728858589802, 47.827813721279298 ], [ -93.165723437471101, 47.827813729105003 ], [ -93.1657180163525, 47.827813736930501 ], [ -93.1657125952337, 47.827813744755801 ], [ -93.165701752996398, 47.827813760405498 ], [ -93.165685489640296, 47.827813783878199 ], [ -93.165669226284095, 47.827813807348498 ], [ -93.165652962927894, 47.827813830816602 ], [ -93.165642120690507, 47.8278138464607 ], [ -93.165620436215605, 47.827813877745797 ], [ -93.165604172859403, 47.827813901207001 ], [ -93.165587909503103, 47.827813924665797 ], [ -93.165577067265602, 47.827813940303798 ], [ -93.165566225028101, 47.827813955940698 ], [ -93.1655499616718, 47.8278139793942 ], [ -93.165522867684999, 47.827817669060998 ], [ -93.165506604327504, 47.827817692508297 ], [ -93.165495773694204, 47.827821358721302 ], [ -93.165479510335601, 47.8278213821648 ], [ -93.165474089216005, 47.827821389978801 ], [ -93.165457825857303, 47.827821413419201 ], [ -93.165446983618196, 47.827821429044903 ], [ -93.1654415624986, 47.827821436857398 ], [ -93.165430720259494, 47.827821452481501 ], [ -93.165419878020302, 47.827821468104602 ], [ -93.165414456900706, 47.827821475915798 ], [ -93.165403614661599, 47.8278214915373 ], [ -93.165398193541904, 47.827821499347699 ], [ -93.165387351302797, 47.827821514967802 ], [ -93.165381930183202, 47.827821522777398 ], [ -93.165371099540394, 47.8278251889787 ], [ -93.1653656784204, 47.8278251967876 ], [ -93.165354836180398, 47.827825212404498 ], [ -93.165354847775603, 47.827828862987303 ], [ -93.165349438250104, 47.827832521378198 ], [ -93.165344028723794, 47.827836179768902 ], [ -93.165338607602706, 47.827836187576501 ], [ -93.165338619196802, 47.8278398381592 ], [ -93.165304000010806, 47.827851003790897 ] ] } },
{ "type": "Feature", "properties": { "wmUplineSo": "MEADOWBROOK", "wmType": "Underground" }, "geometry": { "type": "LineString", "coordinates": [ [ -93.014347000000797, 47.862588003800802 ], [ -93.014059000000699, 47.862363003800901 ] ] } },
{ "type": "Feature", "properties": { "wmUplineSo": "MEADOWBROOK", "wmType": "Underground" }, "geometry": { "type": "LineString", "coordinates": [ [ -93.014059000000699, 47.862363003800901 ], [ -93.013904000000693, 47.862059003800603 ] ] } },
{ "type": "Feature", "properties": { "wmUplineSo": "MEADOWBROOK", "wmType": "Underground" }, "geometry": { "type": "LineString", "coordinates": [ [ -93.013904000000693, 47.862059003800603 ], [ -93.013886000000696, 47.8617840038008 ] ] } },
{ "type": "Feature", "properties": { "wmUplineSo": "MEADOWBROOK", "wmType": "Underground" }, "geometry": { "type": "LineString", "coordinates": [ [ -93.013886000000696, 47.8617840038008 ], [ -93.013875000000795, 47.861397003800597 ] ] } },
{ "type": "Feature", "properties": { "wmUplineSo": "MEADOWBROOK", "wmType": "Underground" }, "geometry": { "type": "LineString", "coordinates": [ [ -93.013875000000795, 47.861397003800597 ], [ -93.013927000000706, 47.861347003800603 ] ] } },
{ "type": "Feature", "properties": { "wmUplineSo": "MEADOWBROOK", "wmType": "Underground" }, "geometry": { "type": "LineString", "coordinates": [ [ -93.013927000000706, 47.861347003800603 ], [ -93.014106000000794, 47.861333003800603 ] ] } },
{ "type": "Feature", "properties": { "wmUplineSo": "MEADOWBROOK", "wmType": "Underground" }, "geometry": { "type": "LineString", "coordinates": [ [ -93.014106000000794, 47.861333003800603 ], [ -93.014550000000796, 47.8612920038005 ] ] } },
{ "type": "Feature", "properties": { "wmUplineSo": "MEADOWBROOK", "wmType": "Underground" }, "geometry": { "type": "LineString", "coordinates": [ [ -93.014550000000796, 47.8612920038005 ], [ -93.014740000000799, 47.860987003800503 ] ] } },
{ "type": "Feature", "properties": { "wmUplineSo": "MEADOWBROOK", "wmType": "Underground" }, "geometry": { "type": "LineString", "coordinates": [ [ -93.014740000000799, 47.860987003800503 ], [ -93.014933000000795, 47.860605003800202 ] ] } },
{ "type": "Feature", "properties": { "wmUplineSo": "MEADOWBROOK", "wmType": "Underground" }, "geometry": { "type": "LineString", "coordinates": [ [ -93.014933000000795, 47.860605003800202 ], [ -93.015052000000793, 47.860500003800198 ] ] } },
{ "type": "Feature", "properties": { "wmUplineSo": "MEADOWBROOK", "wmType": "Underground" }, "geometry": { "type": "LineString", "coordinates": [ [ -93.015052000000793, 47.860500003800198 ], [ -93.015210000000806, 47.860483003800198 ] ] } },
{ "type": "Feature", "properties": { "wmUplineSo": "MEADOWBROOK", "wmType": "Underground" }, "geometry": { "type": "LineString", "coordinates": [ [ -93.015210000000806, 47.860483003800198 ], [ -93.0152544, 47.860448000009697 ] ] } },
{ "type": "Feature", "properties": { "wmUplineSo": "MEADOWBROOK", "wmType": "Underground" }, "geometry": { "type": "LineString", "coordinates": [ [ -93.167574920341494, 47.770357941907498 ], [ -93.1673691, 47.770472100009599 ] ] } },
{ "type": "Feature", "properties": { "wmUplineSo": "MEADOWBROOK", "wmType": "Underground" }, "geometry": { "type": "LineString", "coordinates": [ [ -93.088981633752795, 47.866173671929502 ], [ -93.0888748, 47.866362900009698 ] ] } },
{ "type": "Feature", "properties": { "wmUplineSo": "MEADOWBROOK", "wmType": "Underground" }, "geometry": { "type": "LineString", "coordinates": [ [ -93.122679789497795, 47.8812888229129 ], [ -93.122332728919304, 47.8814795972418 ] ] } },
{ "type": "Feature", "properties": { "wmUplineSo": "MEADOWBROOK", "wmType": "Underground" }, "geometry": { "type": "LineString", "coordinates": [ [ -93.1244593777094, 47.878883714925998 ], [ -93.1240414, 47.8790423000098 ] ] } },
{ "type": "Feature", "properties": { "wmUplineSo": "MEADOWBROOK", "wmType": "Underground" }, "geometry": { "type": "LineString", "coordinates": [ [ -93.120694050922907, 47.878770366800602 ], [ -93.1202716, 47.8792022000098 ] ] } },
{ "type": "Feature", "properties": { "wmUplineSo": "MEADOWBROOK", "wmType": "Underground" }, "geometry": { "type": "LineString", "coordinates": [ [ -93.104301760628701, 47.881054956641798 ], [ -93.103472, 47.881327300009801 ] ] } },
{ "type": "Feature", "properties": { "wmUplineSo": "MEADOWBROOK", "wmType": "Underground" }, "geometry": { "type": "LineString", "coordinates": [ [ -93.099069318043306, 47.874453149974798 ], [ -93.098807, 47.874486300009799 ] ] } },
{ "type": "Feature", "properties": { "wmUplineSo": "MEADOWBROOK", "wmType": "Underground" }, "geometry": { "type": "LineString", "coordinates": [ [ -93.105287506464094, 47.873975531482799 ], [ -93.1050576, 47.8740431000098 ] ] } },
{ "type": "Feature", "properties": { "wmUplineSo": "MEADOWBROOK", "wmType": "Underground" }, "geometry": { "type": "LineString", "coordinates": [ [ -93.123917028534194, 47.867511159413802 ], [ -93.1238053, 47.867796500009803 ] ] } },
{ "type": "Feature", "properties": { "wmUplineSo": "MEADOWBROOK", "wmType": "Underground" }, "geometry": { "type": "LineString", "coordinates": [ [ -93.127709045448498, 47.864132732633898 ], [ -93.1274481, 47.864150700009802 ] ] } },
{ "type": "Feature", "properties": { "wmUplineSo": "MEADOWBROOK", "wmType": "Underground" }, "geometry": { "type": "LineString", "coordinates": [ [ -93.136344863091196, 47.870708053834903 ], [ -93.136413057220096, 47.870896980561298 ] ] } },
{ "type": "Feature", "properties": { "wmUplineSo": "MEADOWBROOK", "wmType": "Underground" }, "geometry": { "type": "LineString", "coordinates": [ [ -93.140727504082903, 47.871679294498797 ], [ -93.140411966854799, 47.871796991454602 ] ] } },
{ "type": "Feature", "properties": { "wmUplineSo": "MEADOWBROOK", "wmType": "Underground" }, "geometry": { "type": "LineString", "coordinates": [ [ -93.142859758828294, 47.871716958270397 ], [ -93.142736098164207, 47.871660757994199 ] ] } },
{ "type": "Feature", "properties": { "wmUplineSo": "MEADOWBROOK", "wmType": "Underground" }, "geometry": { "type": "LineString", "coordinates": [ [ -93.144403712552204, 47.900199452339599 ], [ -93.144366008263404, 47.900541701446201 ] ] } },
{ "type": "Feature", "properties": { "wmUplineSo": "MEADOWBROOK", "wmType": "Underground" }, "geometry": { "type": "LineString", "coordinates": [ [ -93.202505542117393, 47.927183945502598 ], [ -93.2028068, 47.927115200009801 ] ] } },
{ "type": "Feature", "properties": { "wmUplineSo": "MEADOWBROOK", "wmType": "Underground" }, "geometry": { "type": "LineString", "coordinates": [ [ -93.168477311385701, 47.927849816047399 ], [ -93.1682345, 47.9279140000098 ] ] } },
{ "type": "Feature", "properties": { "wmUplineSo": "MEADOWBROOK", "wmType": "Underground" }, "geometry": { "type": "LineString", "coordinates": [ [ -93.174184, 47.926975999999897 ], [ -93.1742067, 47.9269740000098 ] ] } },
{ "type": "Feature", "properties": { "wmUplineSo": "MEADOWBROOK", "wmType": "Underground" }, "geometry": { "type": "LineString", "coordinates": [ [ -93.176625778403107, 47.927976706891499 ], [ -93.176345961004898, 47.9280435068098 ] ] } },
{ "type": "Feature", "properties": { "wmUplineSo": "MEADOWBROOK", "wmType": "Underground" }, "geometry": { "type": "LineString", "coordinates": [ [ -93.172777473048498, 47.930971097153098 ], [ -93.1725465, 47.930981400009799 ] ] } },
{ "type": "Feature", "properties": { "wmUplineSo": "MEADOWBROOK", "wmType": "Underground" }, "geometry": { "type": "LineString", "coordinates": [ [ -93.175000020435704, 47.932356257628598 ], [ -93.1746815, 47.9321368000098 ] ] } },
{ "type": "Feature", "properties": { "wmUplineSo": "MEADOWBROOK", "wmType": "Underground" }, "geometry": { "type": "LineString", "coordinates": [ [ -93.1988422768096, 47.926981800759201 ], [ -93.199237800000105, 47.926941900009801 ] ] } },
{ "type": "Feature", "properties": { "wmUplineSo": "MEADOWBROOK", "wmType": "Underground" }, "geometry": { "type": "LineString", "coordinates": [ [ -93.208256050123097, 47.9217752136326 ], [ -93.2090991, 47.921737300009802 ] ] } },
{ "type": "Feature", "properties": { "wmUplineSo": "MEADOWBROOK", "wmType": "Underground" }, "geometry": { "type": "LineString", "coordinates": [ [ -93.166555514180601, 47.957122242655799 ], [ -93.1666209, 47.957179300009898 ] ] } },
{ "type": "Feature", "properties": { "wmUplineSo": "MEADOWBROOK", "wmType": "Underground" }, "geometry": { "type": "LineString", "coordinates": [ [ -93.1672264212052, 47.946858369524897 ], [ -93.1677021, 47.946658600009798 ] ] } },
{ "type": "Feature", "properties": { "wmUplineSo": "MEADOWBROOK", "wmType": "Underground" }, "geometry": { "type": "LineString", "coordinates": [ [ -93.149657270209303, 47.956919448006502 ], [ -93.1495167, 47.956876900009902 ] ] } },
{ "type": "Feature", "properties": { "wmUplineSo": "MEADOWBROOK", "wmType": "Underground" }, "geometry": { "type": "LineString", "coordinates": [ [ -93.145372151801794, 47.956848700083299 ], [ -93.1453574, 47.956794500009899 ] ] } },
{ "type": "Feature", "properties": { "wmUplineSo": "MEADOWBROOK", "wmType": "Underground" }, "geometry": { "type": "LineString", "coordinates": [ [ -93.133072882261203, 47.966002756462203 ], [ -93.133309543731997, 47.965953809319402 ] ] } },
{ "type": "Feature", "properties": { "wmUplineSo": "MEADOWBROOK", "wmType": "Underground" }, "geometry": { "type": "LineString", "coordinates": [ [ -93.105982134067105, 47.862307485084202 ], [ -93.1059, 47.8625271000098 ] ] } },
{ "type": "Feature", "properties": { "wmUplineSo": "MEADOWBROOK", "wmType": "Underground" }, "geometry": { "type": "LineString", "coordinates": [ [ -93.102639404671194, 47.860817989993897 ], [ -93.1025088, 47.861006300009798 ] ] } },
{ "type": "Feature", "properties": { "wmUplineSo": "MEADOWBROOK", "wmType": "Underground" }, "geometry": { "type": "LineString", "coordinates": [ [ -93.1086891915498, 47.858313560272599 ], [ -93.1085764, 47.858490300009699 ] ] } },
{ "type": "Feature", "properties": { "wmUplineSo": "MEADOWBROOK", "wmType": "Underground" }, "geometry": { "type": "LineString", "coordinates": [ [ -93.118128207623897, 47.819869638506901 ], [ -93.1182368, 47.819858200009698 ] ] } },
{ "type": "Feature", "properties": { "wmUplineSo": "MEADOWBROOK", "wmType": "Underground" }, "geometry": { "type": "LineString", "coordinates": [ [ -93.105180288697497, 47.814183129056801 ], [ -93.1051484, 47.8142968000097 ] ] } },
{ "type": "Feature", "properties": { "wmUplineSo": "MEADOWBROOK", "wmType": "Underground" }, "geometry": { "type": "LineString", "coordinates": [ [ -93.140482375098202, 47.821516438771901 ], [ -93.140497000009205, 47.8215660037893 ] ] } },
{ "type": "Feature", "properties": { "wmUplineSo": "MEADOWBROOK", "wmType": "Underground" }, "geometry": { "type": "LineString", "coordinates": [ [ -93.142472540526001, 47.821730552016597 ], [ -93.1424707, 47.821684500009702 ] ] } },
{ "type": "Feature", "properties": { "wmUplineSo": "MEADOWBROOK", "wmType": "Underground" }, "geometry": { "type": "LineString", "coordinates": [ [ -93.152683034162706, 47.820276223226799 ], [ -93.1523393, 47.820454500009703 ] ] } },
{ "type": "Feature", "properties": { "wmUplineSo": "MEADOWBROOK", "wmType": "Underground" }, "geometry": { "type": "LineString", "coordinates": [ [ -93.1695050000111, 47.8219040037893 ], [ -93.1694928, 47.821911000009699 ] ] } },
{ "type": "Feature", "properties": { "wmUplineSo": "MEADOWBROOK", "wmType": "Underground" }, "geometry": { "type": "LineString", "coordinates": [ [ -93.235850204386693, 47.818953808967898 ], [ -93.235628100000099, 47.818900600009698 ] ] } },
{ "type": "Feature", "properties": { "wmUplineSo": "MEADOWBROOK", "wmType": "Underground" }, "geometry": { "type": "LineString", "coordinates": [ [ -93.235850204386693, 47.818953808967898 ], [ -93.235914800000103, 47.818824900009702 ] ] } },
{ "type": "Feature", "properties": { "wmUplineSo": "MEADOWBROOK", "wmType": "Underground" }, "geometry": { "type": "LineString", "coordinates": [ [ -93.233914728617094, 47.818759233134102 ], [ -93.2339325, 47.818618200009702 ] ] } },
{ "type": "Feature", "properties": { "wmUplineSo": "MEADOWBROOK", "wmType": "Underground" }, "geometry": { "type": "LineString", "coordinates": [ [ -93.234214920693802, 47.819268490829401 ], [ -93.234207700000098, 47.8192291000097 ] ] } },
{ "type": "Feature", "properties": { "wmUplineSo": "MEADOWBROOK", "wmType": "Underground" }, "geometry": { "type": "LineString", "coordinates": [ [ -93.235333894552099, 47.819507919073097 ], [ -93.235363800000101, 47.819520900009699 ] ] } },
{ "type": "Feature", "properties": { "wmUplineSo": "MEADOWBROOK", "wmType": "Underground" }, "geometry": { "type": "LineString", "coordinates": [ [ -93.245291188461096, 47.821464829812498 ], [ -93.245273300000093, 47.821401500009699 ] ] } },
{ "type": "Feature", "properties": { "wmUplineSo": "MEADOWBROOK", "wmType": "Underground" }, "geometry": { "type": "LineString", "coordinates": [ [ -93.239142013464104, 47.822067383488701 ], [ -93.239094400000099, 47.822031800009697 ] ] } },
{ "type": "Feature", "properties": { "wmUplineSo": "MEADOWBROOK", "wmType": "Underground" }, "geometry": { "type": "LineString", "coordinates": [ [ -93.234126464591199, 47.821031593394601 ], [ -93.234248937159407, 47.8211458565778 ] ] } },
{ "type": "Feature", "properties": { "wmUplineSo": "MEADOWBROOK", "wmType": "Underground" }, "geometry": { "type": "LineString", "coordinates": [ [ -93.267396463454503, 47.806255163173702 ], [ -93.266639479293403, 47.806191775110399 ], [ -93.266635, 47.806191400009702 ] ] } },
{ "type": "Feature", "properties": { "wmUplineSo": "MEADOWBROOK", "wmType": "Underground" }, "geometry": { "type": "LineString", "coordinates": [ [ -93.270734400000094, 47.802381300009699 ], [ -93.270714100000106, 47.802380600009698 ] ] } },
{ "type": "Feature", "properties": { "wmUplineSo": "MEADOWBROOK", "wmType": "Underground" }, "geometry": { "type": "LineString", "coordinates": [ [ -93.269452455109402, 47.8045497312891 ], [ -93.269814200000098, 47.804733500009696 ] ] } },
{ "type": "Feature", "properties": { "wmUplineSo": "MEADOWBROOK", "wmType": "Underground" }, "geometry": { "type": "LineString", "coordinates": [ [ -93.276061563054, 47.808269006612498 ], [ -93.276111400000104, 47.808325300009699 ] ] } },
{ "type": "Feature", "properties": { "wmUplineSo": "MEADOWBROOK", "wmType": "Underground" }, "geometry": { "type": "LineString", "coordinates": [ [ -93.275502249598603, 47.806919380368299 ], [ -93.275530300000099, 47.806774800009698 ] ] } },
{ "type": "Feature", "properties": { "wmUplineSo": "MEADOWBROOK", "wmType": "Underground" }, "geometry": { "type": "LineString", "coordinates": [ [ -93.148502879753394, 47.810821055453502 ], [ -93.1487404, 47.810875200009697 ] ] } },
{ "type": "Feature", "properties": { "wmUplineSo": "MEADOWBROOK", "wmType": "Underground" }, "geometry": { "type": "LineString", "coordinates": [ [ -93.147490613270406, 47.8064188747598 ], [ -93.1469869, 47.806468800009696 ] ] } },
{ "type": "Feature", "properties": { "wmUplineSo": "MEADOWBROOK", "wmType": "Underground" }, "geometry": { "type": "LineString", "coordinates": [ [ -93.1421954382281, 47.798988028848903 ], [ -93.1418544, 47.799273000009698 ] ] } },
{ "type": "Feature", "properties": { "wmUplineSo": "MEADOWBROOK", "wmType": "Underground" }, "geometry": { "type": "LineString", "coordinates": [ [ -93.1477288242545, 47.796388971690803 ], [ -93.1477533, 47.796358000009697 ] ] } },
{ "type": "Feature", "properties": { "wmUplineSo": "MEADOWBROOK", "wmType": "Underground" }, "geometry": { "type": "LineString", "coordinates": [ [ -93.162578250049705, 47.782327103645002 ], [ -93.1625989, 47.782307800009697 ] ] } },
{ "type": "Feature", "properties": { "wmUplineSo": "MEADOWBROOK", "wmType": "Underground" }, "geometry": { "type": "LineString", "coordinates": [ [ -93.161092800338807, 47.780496269681798 ], [ -93.1607327, 47.780576600009702 ] ] } },
{ "type": "Feature", "properties": { "wmUplineSo": "MEADOWBROOK", "wmType": "Underground" }, "geometry": { "type": "LineString", "coordinates": [ [ -93.152008767679803, 47.780047536717603 ], [ -93.1516449, 47.780193000009596 ] ] } },
{ "type": "Feature", "properties": { "wmUplineSo": "MEADOWBROOK", "wmType": "Underground" }, "geometry": { "type": "LineString", "coordinates": [ [ -93.1465751956096, 47.779397271504699 ], [ -93.1466723, 47.7793664000097 ] ] } },
{ "type": "Feature", "properties": { "wmUplineSo": "MEADOWBROOK", "wmType": "Underground" }, "geometry": { "type": "LineString", "coordinates": [ [ -93.1465751956096, 47.779397271504699 ], [ -93.1465621, 47.7793987000097 ] ] } },
{ "type": "Feature", "properties": { "wmUplineSo": "MEADOWBROOK", "wmType": "Underground" }, "geometry": { "type": "LineString", "coordinates": [ [ -93.147594483342203, 47.776875408564699 ], [ -93.1472461, 47.776939700009699 ] ] } },
{ "type": "Feature", "properties": { "wmUplineSo": "MEADOWBROOK", "wmType": "Underground" }, "geometry": { "type": "LineString", "coordinates": [ [ -93.174606733817697, 47.764526597105203 ], [ -93.1744273, 47.764647700009597 ] ] } },
{ "type": "Feature", "properties": { "wmUplineSo": "MEADOWBROOK", "wmType": "Underground" }, "geometry": { "type": "LineString", "coordinates": [ [ -93.169413842260795, 47.765950306705001 ], [ -93.1692918671, 47.765898116189803 ] ] } },
{ "type": "Feature", "properties": { "wmUplineSo": "MEADOWBROOK", "wmType": "Underground" }, "geometry": { "type": "LineString", "coordinates": [ [ -93.188011046120906, 47.764951024493897 ], [ -93.188060149293904, 47.765000398599597 ] ] } },
{ "type": "Feature", "properties": { "wmUplineSo": "MEADOWBROOK", "wmType": "Underground" }, "geometry": { "type": "LineString", "coordinates": [ [ -93.192118633708702, 47.765403986366998 ], [ -93.191626742871307, 47.766234380699402 ] ] } },
{ "type": "Feature", "properties": { "wmUplineSo": "MEADOWBROOK", "wmType": "Underground" }, "geometry": { "type": "LineString", "coordinates": [ [ -93.193675158853296, 47.7651960526793 ], [ -93.1937019487886, 47.7655588790793 ] ] } },
{ "type": "Feature", "properties": { "wmUplineSo": "MEADOWBROOK", "wmType": "Underground" }, "geometry": { "type": "LineString", "coordinates": [ [ -93.191424579652207, 47.765329124389403 ], [ -93.1913065, 47.765320100009703 ] ] } },
{ "type": "Feature", "properties": { "wmUplineSo": "MEADOWBROOK", "wmType": "Underground" }, "geometry": { "type": "LineString", "coordinates": [ [ -93.197176874786507, 47.770951862646797 ], [ -93.197376270704297, 47.770955986132101 ] ] } },
{ "type": "Feature", "properties": { "wmUplineSo": "MEADOWBROOK", "wmType": "Underground" }, "geometry": { "type": "LineString", "coordinates": [ [ -93.1897610013811, 47.742494829552697 ], [ -93.189802175187296, 47.742467791484799 ] ] } },
{ "type": "Feature", "properties": { "wmUplineSo": "MEADOWBROOK", "wmType": "Underground" }, "geometry": { "type": "LineString", "coordinates": [ [ -93.192116679169501, 47.704086752989099 ], [ -93.1920123, 47.704090500009599 ] ] } },
{ "type": "Feature", "properties": { "wmUplineSo": "MEADOWBROOK", "wmType": "Underground" }, "geometry": { "type": "LineString", "coordinates": [ [ -93.230907222631203, 47.703756675612802 ], [ -93.230959744812907, 47.703884886775199 ] ] } },
{ "type": "Feature", "properties": { "wmUplineSo": "MEADOWBROOK", "wmType": "Underground" }, "geometry": { "type": "LineString", "coordinates": [ [ -93.230132000014905, 47.704284003756001 ], [ -93.2300976, 47.704235800009499 ] ] } },
{ "type": "Feature", "properties": { "wmUplineSo": "MEADOWBROOK", "wmType": "Underground" }, "geometry": { "type": "LineString", "coordinates": [ [ -93.226351343221097, 47.703386417640601 ], [ -93.2262313, 47.703351100009598 ] ] } },
{ "type": "Feature", "properties": { "wmUplineSo": "MEADOWBROOK", "wmType": "Underground" }, "geometry": { "type": "LineString", "coordinates": [ [ -93.219055211116697, 47.704652759731303 ], [ -93.219002200000105, 47.704612700009598 ] ] } }
]
}
