{
"type": "FeatureCollection",
"crs": { "type": "name", "properties": { "name": "urn:ogc:def:crs:OGC:1.3:CRS84" } },
"features": [
{ "type": "Feature", "properties": { "wmUplineSo": "ONIGUM", "wmType": "Underground" }, "geometry": { "type": "LineString", "coordinates": [ [ -94.518871585894999, 47.053586243429599 ], [ -94.519050484252404, 47.053738434775603 ] ] } },
{ "type": "Feature", "properties": { "wmUplineSo": "ONIGUM", "wmType": "Underground" }, "geometry": { "type": "LineString", "coordinates": [ [ -94.543878, 47.083019 ], [ -94.544012, 47.082943 ] ] } },
{ "type": "Feature", "properties": { "wmUplineSo": "ONIGUM", "wmType": "Underground" }, "geometry": { "type": "LineString", "coordinates": [ [ -94.5648414681676, 47.048296529464302 ], [ -94.564856999037303, 47.048298762997099 ] ] } },
{ "type": "Feature", "properties": { "wmUplineSo": "ONIGUM", "wmType": "Underground" }, "geometry": { "type": "LineString", "coordinates": [ [ -94.544377000097697, 47.082970003582197 ], [ -94.544347000097801, 47.082930003582199 ] ] } },
{ "type": "Feature", "properties": { "wmUplineSo": "ONIGUM", "wmType": "Underground" }, "geometry": { "type": "LineString", "coordinates": [ [ -94.5415276124359, 47.079848481529702 ], [ -94.5415140000012, 47.079916800008903 ] ] } },
{ "type": "Feature", "properties": { "wmUplineSo": "ONIGUM", "wmType": "Underground" }, "geometry": { "type": "LineString", "coordinates": [ [ -94.562462362399202, 47.050982479081803 ], [ -94.562557500001205, 47.0510214000088 ] ] } },
{ "type": "Feature", "properties": { "wmUplineSo": "ONIGUM", "wmType": "Underground" }, "geometry": { "type": "LineString", "coordinates": [ [ -94.530826949344402, 47.055685488954403 ], [ -94.530287600001103, 47.055831900008798 ] ] } },
{ "type": "Feature", "properties": { "wmUplineSo": "ONIGUM", "wmType": "Underground" }, "geometry": { "type": "LineString", "coordinates": [ [ -94.531064100001103, 47.055287000008803 ], [ -94.531078000001102, 47.055292100008799 ] ] } },
{ "type": "Feature", "properties": { "wmUplineSo": "ONIGUM", "wmType": "Underground" }, "geometry": { "type": "LineString", "coordinates": [ [ -94.530325600001106, 47.054825500008803 ], [ -94.530312800001099, 47.054812100008803 ] ] } },
{ "type": "Feature", "properties": { "wmUplineSo": "ONIGUM", "wmType": "Underground" }, "geometry": { "type": "LineString", "coordinates": [ [ -94.530826949344402, 47.055685488954403 ], [ -94.530270500001095, 47.0559993000088 ] ] } },
{ "type": "Feature", "properties": { "wmUplineSo": "ONIGUM", "wmType": "Underground" }, "geometry": { "type": "LineString", "coordinates": [ [ -94.530287600001103, 47.055831900008798 ], [ -94.530268700001102, 47.055839700008796 ] ] } },
{ "type": "Feature", "properties": { "wmUplineSo": "ONIGUM", "wmType": "Underground" }, "geometry": { "type": "LineString", "coordinates": [ [ -94.530826949344402, 47.055685488954403 ], [ -94.531064100001103, 47.055287000008803 ] ] } },
{ "type": "Feature", "properties": { "wmUplineSo": "ONIGUM", "wmType": "Underground" }, "geometry": { "type": "LineString", "coordinates": [ [ -94.531064100001103, 47.055287000008803 ], [ -94.531063600001104, 47.055274600008801 ] ] } },
{ "type": "Feature", "properties": { "wmUplineSo": "ONIGUM", "wmType": "Underground" }, "geometry": { "type": "LineString", "coordinates": [ [ -94.530458122358695, 47.055079904725602 ], [ -94.530325600001106, 47.054825500008803 ] ] } },
{ "type": "Feature", "properties": { "wmUplineSo": "ONIGUM", "wmType": "Underground" }, "geometry": { "type": "LineString", "coordinates": [ [ -94.530312800001099, 47.054812100008803 ], [ -94.530311800001101, 47.054815400008799 ] ] } },
{ "type": "Feature", "properties": { "wmUplineSo": "ONIGUM", "wmType": "Underground" }, "geometry": { "type": "LineString", "coordinates": [ [ -94.529477253799698, 47.054226319929597 ], [ -94.529213240001098, 47.053874710008799 ] ] } },
{ "type": "Feature", "properties": { "wmUplineSo": "ONIGUM", "wmType": "Underground" }, "geometry": { "type": "LineString", "coordinates": [ [ -94.529213240001098, 47.053874710008799 ], [ -94.529205100001107, 47.053831800008801 ] ] } },
{ "type": "Feature", "properties": { "wmUplineSo": "ONIGUM", "wmType": "Underground" }, "geometry": { "type": "LineString", "coordinates": [ [ -94.529213240001098, 47.053874710008799 ], [ -94.529143800001094, 47.053820300008802 ] ] } },
{ "type": "Feature", "properties": { "wmUplineSo": "ONIGUM", "wmType": "Underground" }, "geometry": { "type": "LineString", "coordinates": [ [ -94.529589767280797, 47.054969637159701 ], [ -94.529684100001106, 47.055291800008803 ] ] } },
{ "type": "Feature", "properties": { "wmUplineSo": "ONIGUM", "wmType": "Underground" }, "geometry": { "type": "LineString", "coordinates": [ [ -94.528889300001097, 47.054729500008797 ], [ -94.528837800001099, 47.054716300008799 ] ] } },
{ "type": "Feature", "properties": { "wmUplineSo": "ONIGUM", "wmType": "Underground" }, "geometry": { "type": "LineString", "coordinates": [ [ -94.529680800001103, 47.055360100008798 ], [ -94.529715100001098, 47.055423600008801 ] ] } },
{ "type": "Feature", "properties": { "wmUplineSo": "ONIGUM", "wmType": "Underground" }, "geometry": { "type": "LineString", "coordinates": [ [ -94.529684100001106, 47.055291800008803 ], [ -94.529680800001103, 47.055360100008798 ] ] } },
{ "type": "Feature", "properties": { "wmUplineSo": "ONIGUM", "wmType": "Underground" }, "geometry": { "type": "LineString", "coordinates": [ [ -94.528898300001103, 47.054733800008798 ], [ -94.528889300001097, 47.054729500008797 ] ] } },
{ "type": "Feature", "properties": { "wmUplineSo": "ONIGUM", "wmType": "Underground" }, "geometry": { "type": "LineString", "coordinates": [ [ -94.529589767280797, 47.054969637159701 ], [ -94.528898300001103, 47.054733800008798 ] ] } },
{ "type": "Feature", "properties": { "wmUplineSo": "ONIGUM", "wmType": "Underground" }, "geometry": { "type": "LineString", "coordinates": [ [ -94.563605000098903, 47.050278003573197 ], [ -94.563571939841907, 47.050289871367703 ] ] } },
{ "type": "Feature", "properties": { "wmUplineSo": "ONIGUM", "wmType": "Underground" }, "geometry": { "type": "LineString", "coordinates": [ [ -94.535799027554603, 47.038948378937498 ], [ -94.536244150796193, 47.039390272859002 ] ] } },
{ "type": "Feature", "properties": { "wmUplineSo": "ONIGUM", "wmType": "Underground" }, "geometry": { "type": "LineString", "coordinates": [ [ -94.531046000001098, 47.056251100008801 ], [ -94.531032400001095, 47.056259800008803 ] ] } },
{ "type": "Feature", "properties": { "wmUplineSo": "ONIGUM", "wmType": "Underground" }, "geometry": { "type": "LineString", "coordinates": [ [ -94.531569361589504, 47.056086159069302 ], [ -94.531046000001098, 47.056251100008801 ] ] } },
{ "type": "Feature", "properties": { "wmUplineSo": "ONIGUM", "wmType": "Underground" }, "geometry": { "type": "LineString", "coordinates": [ [ -94.531032400001095, 47.056259800008803 ], [ -94.531003400001097, 47.056288300008802 ] ] } },
{ "type": "Feature", "properties": { "wmUplineSo": "ONIGUM", "wmType": "Underground" }, "geometry": { "type": "LineString", "coordinates": [ [ -94.542714658605206, 47.086803547576501 ], [ -94.542760000001195, 47.087060000008897 ] ] } },
{ "type": "Feature", "properties": { "wmUplineSo": "ONIGUM", "wmType": "Underground" }, "geometry": { "type": "LineString", "coordinates": [ [ -94.542773909544394, 47.086549147327297 ], [ -94.542918100001202, 47.0866784000088 ] ] } },
{ "type": "Feature", "properties": { "wmUplineSo": "ONIGUM", "wmType": "Underground" }, "geometry": { "type": "LineString", "coordinates": [ [ -94.540162367991897, 47.088710455303797 ], [ -94.540259800001195, 47.088898100008798 ] ] } },
{ "type": "Feature", "properties": { "wmUplineSo": "ONIGUM", "wmType": "Underground" }, "geometry": { "type": "LineString", "coordinates": [ [ -94.543749779356304, 47.084562952234997 ], [ -94.543886345922104, 47.084627760499302 ], [ -94.544062320570504, 47.084518023321401 ], [ -94.544359900001197, 47.084710600008798 ] ] } },
{ "type": "Feature", "properties": { "wmUplineSo": "ONIGUM", "wmType": "Underground" }, "geometry": { "type": "LineString", "coordinates": [ [ -94.545535251990103, 47.084372025975902 ], [ -94.545536800001202, 47.084327800008801 ] ] } },
{ "type": "Feature", "properties": { "wmUplineSo": "ONIGUM", "wmType": "Underground" }, "geometry": { "type": "LineString", "coordinates": [ [ -94.550951198507406, 47.047293704985002 ], [ -94.551817200001196, 47.047817600008798 ] ] } },
{ "type": "Feature", "properties": { "wmUplineSo": "ONIGUM", "wmType": "Underground" }, "geometry": { "type": "LineString", "coordinates": [ [ -94.552292497354003, 47.048992442685197 ], [ -94.552415700001205, 47.049221000008799 ] ] } },
{ "type": "Feature", "properties": { "wmUplineSo": "ONIGUM", "wmType": "Underground" }, "geometry": { "type": "LineString", "coordinates": [ [ -94.550711773005006, 47.048504602854301 ], [ -94.550628200001199, 47.048583000008797 ] ] } },
{ "type": "Feature", "properties": { "wmUplineSo": "ONIGUM", "wmType": "Underground" }, "geometry": { "type": "LineString", "coordinates": [ [ -94.558288582654797, 47.052708321264902 ], [ -94.5582784000012, 47.052686100008799 ] ] } },
{ "type": "Feature", "properties": { "wmUplineSo": "ONIGUM", "wmType": "Underground" }, "geometry": { "type": "LineString", "coordinates": [ [ -94.563352154884797, 47.051147498882401 ], [ -94.563909000001203, 47.050968800008803 ] ] } },
{ "type": "Feature", "properties": { "wmUplineSo": "ONIGUM", "wmType": "Underground" }, "geometry": { "type": "LineString", "coordinates": [ [ -94.563352154884797, 47.051147498882401 ], [ -94.563683400001295, 47.051196800008803 ] ] } },
{ "type": "Feature", "properties": { "wmUplineSo": "ONIGUM", "wmType": "Underground" }, "geometry": { "type": "LineString", "coordinates": [ [ -94.5623279268451, 47.051716459412702 ], [ -94.562376300001205, 47.0514598000088 ] ] } },
{ "type": "Feature", "properties": { "wmUplineSo": "ONIGUM", "wmType": "Underground" }, "geometry": { "type": "LineString", "coordinates": [ [ -94.5623279268451, 47.051716459412702 ], [ -94.561937300001205, 47.051813600008799 ] ] } },
{ "type": "Feature", "properties": { "wmUplineSo": "ONIGUM", "wmType": "Underground" }, "geometry": { "type": "LineString", "coordinates": [ [ -94.560151108488, 47.0519715165996 ], [ -94.560521400001207, 47.051888600008802 ] ] } },
{ "type": "Feature", "properties": { "wmUplineSo": "ONIGUM", "wmType": "Underground" }, "geometry": { "type": "LineString", "coordinates": [ [ -94.561042143109702, 47.052338421600403 ], [ -94.561206300001203, 47.052008600008797 ] ] } },
{ "type": "Feature", "properties": { "wmUplineSo": "ONIGUM", "wmType": "Underground" }, "geometry": { "type": "LineString", "coordinates": [ [ -94.559914100181999, 47.0532775165956 ], [ -94.559788800001201, 47.053194000008801 ] ] } },
{ "type": "Feature", "properties": { "wmUplineSo": "ONIGUM", "wmType": "Underground" }, "geometry": { "type": "LineString", "coordinates": [ [ -94.567484957523206, 47.0432095026325 ], [ -94.5677016000013, 47.0432436000088 ] ] } },
{ "type": "Feature", "properties": { "wmUplineSo": "ONIGUM", "wmType": "Underground" }, "geometry": { "type": "LineString", "coordinates": [ [ -94.566233021839594, 47.0446224627186 ], [ -94.565968300001202, 47.044552400008797 ] ] } },
{ "type": "Feature", "properties": { "wmUplineSo": "ONIGUM", "wmType": "Underground" }, "geometry": { "type": "LineString", "coordinates": [ [ -94.567009190876504, 47.045635780959202 ], [ -94.567265500001298, 47.045282800008799 ] ] } },
{ "type": "Feature", "properties": { "wmUplineSo": "ONIGUM", "wmType": "Underground" }, "geometry": { "type": "LineString", "coordinates": [ [ -94.566419491037394, 47.046453425098001 ], [ -94.567067600001295, 47.0464223000088 ] ] } },
{ "type": "Feature", "properties": { "wmUplineSo": "ONIGUM", "wmType": "Underground" }, "geometry": { "type": "LineString", "coordinates": [ [ -94.566746898557497, 47.0460011587151 ], [ -94.567287400001305, 47.046035100008801 ] ] } },
{ "type": "Feature", "properties": { "wmUplineSo": "ONIGUM", "wmType": "Underground" }, "geometry": { "type": "LineString", "coordinates": [ [ -94.563058499165905, 47.045177125360802 ], [ -94.563373900001295, 47.045474300008799 ] ] } },
{ "type": "Feature", "properties": { "wmUplineSo": "ONIGUM", "wmType": "Underground" }, "geometry": { "type": "LineString", "coordinates": [ [ -94.565888457674006, 47.042246221111697 ], [ -94.566118000001296, 47.042072600008801 ] ] } },
{ "type": "Feature", "properties": { "wmUplineSo": "ONIGUM", "wmType": "Underground" }, "geometry": { "type": "LineString", "coordinates": [ [ -94.523289954625596, 47.0258740337337 ], [ -94.522708400001093, 47.026410500008801 ] ] } },
{ "type": "Feature", "properties": { "wmUplineSo": "ONIGUM", "wmType": "Underground" }, "geometry": { "type": "LineString", "coordinates": [ [ -94.530465112220099, 47.024269697176599 ], [ -94.530199700001106, 47.024482900008799 ] ] } },
{ "type": "Feature", "properties": { "wmUplineSo": "ONIGUM", "wmType": "Underground" }, "geometry": { "type": "LineString", "coordinates": [ [ -94.521462982041697, 47.037059693877303 ], [ -94.521422900001099, 47.036557300008802 ] ] } },
{ "type": "Feature", "properties": { "wmUplineSo": "ONIGUM", "wmType": "Underground" }, "geometry": { "type": "LineString", "coordinates": [ [ -94.527647476051797, 47.038267712392901 ], [ -94.5285606000011, 47.037894300008801 ] ] } },
{ "type": "Feature", "properties": { "wmUplineSo": "ONIGUM", "wmType": "Underground" }, "geometry": { "type": "LineString", "coordinates": [ [ -94.531074352350103, 47.039558593331002 ], [ -94.531490800001094, 47.039550800008797 ] ] } },
{ "type": "Feature", "properties": { "wmUplineSo": "ONIGUM", "wmType": "Underground" }, "geometry": { "type": "LineString", "coordinates": [ [ -94.567186399977999, 47.044337435599999 ], [ -94.567473300001296, 47.044513900008802 ] ] } },
{ "type": "Feature", "properties": { "wmUplineSo": "ONIGUM", "wmType": "Underground" }, "geometry": { "type": "LineString", "coordinates": [ [ -94.567186399977999, 47.044337435599999 ], [ -94.567199300001207, 47.044339900008801 ] ] } },
{ "type": "Feature", "properties": { "wmUplineSo": "ONIGUM", "wmType": "Underground" }, "geometry": { "type": "LineString", "coordinates": [ [ -94.5311989386514, 47.050550605382099 ], [ -94.530931970001106, 47.050480280008799 ] ] } },
{ "type": "Feature", "properties": { "wmUplineSo": "ONIGUM", "wmType": "Underground" }, "geometry": { "type": "LineString", "coordinates": [ [ -94.528843518093097, 47.039957898820397 ], [ -94.528670600001107, 47.039298300008802 ] ] } },
{ "type": "Feature", "properties": { "wmUplineSo": "ONIGUM", "wmType": "Underground" }, "geometry": { "type": "LineString", "coordinates": [ [ -94.526507466513493, 47.038261532736698 ], [ -94.526342800001103, 47.038577300008797 ] ] } },
{ "type": "Feature", "properties": { "wmUplineSo": "ONIGUM", "wmType": "Underground" }, "geometry": { "type": "LineString", "coordinates": [ [ -94.540603521825204, 47.0394459679422 ], [ -94.541605000001198, 47.0395048000088 ] ] } },
{ "type": "Feature", "properties": { "wmUplineSo": "ONIGUM", "wmType": "Underground" }, "geometry": { "type": "LineString", "coordinates": [ [ -94.540603521825204, 47.0394459679422 ], [ -94.540910600001197, 47.039993800008801 ] ] } },
{ "type": "Feature", "properties": { "wmUplineSo": "ONIGUM", "wmType": "Underground" }, "geometry": { "type": "LineString", "coordinates": [ [ -94.534410495737902, 47.045843102920898 ], [ -94.534779900001197, 47.046297000008799 ] ] } },
{ "type": "Feature", "properties": { "wmUplineSo": "ONIGUM", "wmType": "Underground" }, "geometry": { "type": "LineString", "coordinates": [ [ -94.535571518232601, 47.046714508196899 ], [ -94.5356356000011, 47.046517300008801 ] ] } },
{ "type": "Feature", "properties": { "wmUplineSo": "ONIGUM", "wmType": "Underground" }, "geometry": { "type": "LineString", "coordinates": [ [ -94.533812028742801, 47.049998997258001 ], [ -94.533687430001095, 47.049918170008802 ] ] } },
{ "type": "Feature", "properties": { "wmUplineSo": "ONIGUM", "wmType": "Underground" }, "geometry": { "type": "LineString", "coordinates": [ [ -94.530126202199099, 47.041320443173198 ], [ -94.530019400001095, 47.041230600008802 ] ] } },
{ "type": "Feature", "properties": { "wmUplineSo": "ONIGUM", "wmType": "Underground" }, "geometry": { "type": "LineString", "coordinates": [ [ -94.528549645129999, 47.0416607248196 ], [ -94.528477500001102, 47.041613300008798 ] ] } },
{ "type": "Feature", "properties": { "wmUplineSo": "ONIGUM", "wmType": "Underground" }, "geometry": { "type": "LineString", "coordinates": [ [ -94.528843518093097, 47.039957898820397 ], [ -94.528496300001095, 47.039677600008801 ] ] } },
{ "type": "Feature", "properties": { "wmUplineSo": "ONIGUM", "wmType": "Underground" }, "geometry": { "type": "LineString", "coordinates": [ [ -94.540036597863903, 47.072725719565199 ], [ -94.5400699000012, 47.072742000008802 ] ] } },
{ "type": "Feature", "properties": { "wmUplineSo": "ONIGUM", "wmType": "Underground" }, "geometry": { "type": "LineString", "coordinates": [ [ -94.544347000097801, 47.082930003582199 ], [ -94.544286800001203, 47.082862600008802 ] ] } },
{ "type": "Feature", "properties": { "wmUplineSo": "ONIGUM", "wmType": "Underground" }, "geometry": { "type": "LineString", "coordinates": [ [ -94.543749779356304, 47.084562952234997 ], [ -94.543723100001202, 47.084553000008803 ] ] } },
{ "type": "Feature", "properties": { "wmUplineSo": "ONIGUM", "wmType": "Underground" }, "geometry": { "type": "LineString", "coordinates": [ [ -94.561836879194004, 47.052438447920601 ], [ -94.562293000001205, 47.052089300008802 ] ] } },
{ "type": "Feature", "properties": { "wmUplineSo": "ONIGUM", "wmType": "Underground" }, "geometry": { "type": "LineString", "coordinates": [ [ -94.561836879194004, 47.052438447920601 ], [ -94.562181500001202, 47.052027800008801 ] ] } },
{ "type": "Feature", "properties": { "wmUplineSo": "ONIGUM", "wmType": "Underground" }, "geometry": { "type": "LineString", "coordinates": [ [ -94.564138353017796, 47.0432248644629 ], [ -94.564205300001206, 47.043200800008798 ] ] } },
{ "type": "Feature", "properties": { "wmUplineSo": "ONIGUM", "wmType": "Underground" }, "geometry": { "type": "LineString", "coordinates": [ [ -94.543495125020002, 47.082027536467102 ], [ -94.542985000001195, 47.082285300008898 ] ] } },
{ "type": "Feature", "properties": { "wmUplineSo": "ONIGUM", "wmType": "Underground" }, "geometry": { "type": "LineString", "coordinates": [ [ -94.5446448415926, 47.083840964162398 ], [ -94.544845960001197, 47.084202900008897 ] ] } },
{ "type": "Feature", "properties": { "wmUplineSo": "ONIGUM", "wmType": "Underground" }, "geometry": { "type": "LineString", "coordinates": [ [ -94.534307301453893, 47.049778466718401 ], [ -94.535034600001197, 47.049928100008799 ] ] } },
{ "type": "Feature", "properties": { "wmUplineSo": "ONIGUM", "wmType": "Underground" }, "geometry": { "type": "LineString", "coordinates": [ [ -94.534459565463706, 47.0447135423723 ], [ -94.534782800001196, 47.0445970000088 ] ] } },
{ "type": "Feature", "properties": { "wmUplineSo": "ONIGUM", "wmType": "Underground" }, "geometry": { "type": "LineString", "coordinates": [ [ -94.554203408245897, 47.047144503690099 ], [ -94.554478000001197, 47.047259800008803 ] ] } },
{ "type": "Feature", "properties": { "wmUplineSo": "ONIGUM", "wmType": "Underground" }, "geometry": { "type": "LineString", "coordinates": [ [ -94.5339831959988, 47.041813799677797 ], [ -94.533946900001197, 47.041128400008802 ] ] } },
{ "type": "Feature", "properties": { "wmUplineSo": "ONIGUM", "wmType": "Underground" }, "geometry": { "type": "LineString", "coordinates": [ [ -94.568341712064395, 47.041210424482301 ], [ -94.569385146104906, 47.041573851224598 ] ] } },
{ "type": "Feature", "properties": { "wmUplineSo": "ONIGUM", "wmType": "Underground" }, "geometry": { "type": "LineString", "coordinates": [ [ -94.564856999037303, 47.048298762997099 ], [ -94.565109000099, 47.048335003572603 ] ] } },
{ "type": "Feature", "properties": { "wmUplineSo": "ONIGUM", "wmType": "Underground" }, "geometry": { "type": "LineString", "coordinates": [ [ -94.565832000098993, 47.048631003572801 ], [ -94.565879000099002, 47.048675003572797 ] ] } },
{ "type": "Feature", "properties": { "wmUplineSo": "ONIGUM", "wmType": "Underground" }, "geometry": { "type": "LineString", "coordinates": [ [ -94.565879000099002, 47.048675003572797 ], [ -94.565797000098996, 47.048753003572799 ] ] } },
{ "type": "Feature", "properties": { "wmUplineSo": "ONIGUM", "wmType": "Underground" }, "geometry": { "type": "LineString", "coordinates": [ [ -94.565797000098996, 47.048753003572799 ], [ -94.565696000098995, 47.0488370035728 ] ] } },
{ "type": "Feature", "properties": { "wmUplineSo": "ONIGUM", "wmType": "Underground" }, "geometry": { "type": "LineString", "coordinates": [ [ -94.565696000098995, 47.0488370035728 ], [ -94.565599000098999, 47.049041003572697 ] ] } },
{ "type": "Feature", "properties": { "wmUplineSo": "ONIGUM", "wmType": "Underground" }, "geometry": { "type": "LineString", "coordinates": [ [ -94.565599000098999, 47.049041003572697 ], [ -94.565610000098999, 47.049054003572898 ] ] } },
{ "type": "Feature", "properties": { "wmUplineSo": "ONIGUM", "wmType": "Underground" }, "geometry": { "type": "LineString", "coordinates": [ [ -94.563644995214602, 47.043530678339202 ], [ -94.563603000098794, 47.043568003571202 ] ] } },
{ "type": "Feature", "properties": { "wmUplineSo": "ONIGUM", "wmType": "Underground" }, "geometry": { "type": "LineString", "coordinates": [ [ -94.567902466679001, 47.0418521349578 ], [ -94.568766047271296, 47.0420735781668 ] ] } },
{ "type": "Feature", "properties": { "wmUplineSo": "ONIGUM", "wmType": "Underground" }, "geometry": { "type": "LineString", "coordinates": [ [ -94.542508052189106, 47.087342910765898 ], [ -94.542433100001205, 47.087545800008797 ] ] } },
{ "type": "Feature", "properties": { "wmUplineSo": "ONIGUM", "wmType": "Underground" }, "geometry": { "type": "LineString", "coordinates": [ [ -94.542065, 47.087313 ], [ -94.542508052189106, 47.087342910765898 ] ] } },
{ "type": "Feature", "properties": { "wmUplineSo": "ONIGUM", "wmType": "Underground" }, "geometry": { "type": "LineString", "coordinates": [ [ -94.525034229474798, 47.053211609145499 ], [ -94.525086600001103, 47.053697100008797 ] ] } },
{ "type": "Feature", "properties": { "wmUplineSo": "ONIGUM", "wmType": "Underground" }, "geometry": { "type": "LineString", "coordinates": [ [ -94.525620850730803, 47.025788784170501 ], [ -94.523289954625596, 47.0258740337337 ] ] } },
{ "type": "Feature", "properties": { "wmUplineSo": "ONIGUM", "wmType": "Underground" }, "geometry": { "type": "LineString", "coordinates": [ [ -94.565109000099, 47.048335003572603 ], [ -94.565638000099099, 47.048504003572702 ] ] } },
{ "type": "Feature", "properties": { "wmUplineSo": "ONIGUM", "wmType": "Underground" }, "geometry": { "type": "LineString", "coordinates": [ [ -94.552847820766203, 47.048711652291601 ], [ -94.552607248078303, 47.048937665403301 ], [ -94.552292497354003, 47.048992442685197 ] ] } },
{ "type": "Feature", "properties": { "wmUplineSo": "ONIGUM", "wmType": "Underground" }, "geometry": { "type": "LineString", "coordinates": [ [ -94.527688612036897, 47.050457921212498 ], [ -94.527370858051597, 47.050292102199798 ] ] } },
{ "type": "Feature", "properties": { "wmUplineSo": "ONIGUM", "wmType": "Underground" }, "geometry": { "type": "LineString", "coordinates": [ [ -94.563714000098898, 47.0504400035732 ], [ -94.564211000098894, 47.050679003573201 ] ] } },
{ "type": "Feature", "properties": { "wmUplineSo": "ONIGUM", "wmType": "Underground" }, "geometry": { "type": "LineString", "coordinates": [ [ -94.566961878097004, 47.042303868575502 ], [ -94.565888457674006, 47.042246221111697 ] ] } },
{ "type": "Feature", "properties": { "wmUplineSo": "ONIGUM", "wmType": "Underground" }, "geometry": { "type": "LineString", "coordinates": [ [ -94.563527000098901, 47.050306003572999 ], [ -94.563601000098899, 47.0505440035734 ] ] } },
{ "type": "Feature", "properties": { "wmUplineSo": "ONIGUM", "wmType": "Underground" }, "geometry": { "type": "LineString", "coordinates": [ [ -94.568766047271296, 47.0420735781668 ], [ -94.568754075263101, 47.042102603789502 ] ] } },
{ "type": "Feature", "properties": { "wmUplineSo": "ONIGUM", "wmType": "Underground" }, "geometry": { "type": "LineString", "coordinates": [ [ -94.544012, 47.082943 ], [ -94.544035, 47.082846 ] ] } },
{ "type": "Feature", "properties": { "wmUplineSo": "ONIGUM", "wmType": "Underground" }, "geometry": { "type": "LineString", "coordinates": [ [ -94.564360887771201, 47.042386178109403 ], [ -94.563913116301705, 47.043140915605498 ] ] } },
{ "type": "Feature", "properties": { "wmUplineSo": "ONIGUM", "wmType": "Underground" }, "geometry": { "type": "LineString", "coordinates": [ [ -94.563913116301705, 47.043140915605498 ], [ -94.564138353017796, 47.0432248644629 ] ] } },
{ "type": "Feature", "properties": { "wmUplineSo": "ONIGUM", "wmType": "Underground" }, "geometry": { "type": "LineString", "coordinates": [ [ -94.530212827768594, 47.055370128795097 ], [ -94.530458122358695, 47.055079904725602 ] ] } },
{ "type": "Feature", "properties": { "wmUplineSo": "ONIGUM", "wmType": "Underground" }, "geometry": { "type": "LineString", "coordinates": [ [ -94.563601000098899, 47.0505440035734 ], [ -94.563735000098902, 47.0506030035733 ] ] } },
{ "type": "Feature", "properties": { "wmUplineSo": "ONIGUM", "wmType": "Underground" }, "geometry": { "type": "LineString", "coordinates": [ [ -94.563735000098902, 47.0506030035733 ], [ -94.563831000098901, 47.050653003573203 ] ] } },
{ "type": "Feature", "properties": { "wmUplineSo": "ONIGUM", "wmType": "Underground" }, "geometry": { "type": "LineString", "coordinates": [ [ -94.563831000098901, 47.050653003573203 ], [ -94.563833000098896, 47.050648003573301 ] ] } },
{ "type": "Feature", "properties": { "wmUplineSo": "ONIGUM", "wmType": "Underground" }, "geometry": { "type": "LineString", "coordinates": [ [ -94.563571939841907, 47.050289871367703 ], [ -94.563527000098901, 47.050306003572999 ] ] } },
{ "type": "Feature", "properties": { "wmUplineSo": "ONIGUM", "wmType": "Underground" }, "geometry": { "type": "LineString", "coordinates": [ [ -94.531561154782295, 47.051245442298303 ], [ -94.5311989386514, 47.050550605382099 ] ] } },
{ "type": "Feature", "properties": { "wmUplineSo": "ONIGUM", "wmType": "Underground" }, "geometry": { "type": "LineString", "coordinates": [ [ -94.534272944674299, 47.056623096080898 ], [ -94.532223962539106, 47.056416705247003 ], [ -94.531744600218801, 47.0562231179211 ], [ -94.531569361589504, 47.056086159069302 ], [ -94.531569361589504, 47.056086159069302 ] ] } },
{ "type": "Feature", "properties": { "wmUplineSo": "ONIGUM", "wmType": "Underground" }, "geometry": { "type": "LineString", "coordinates": [ [ -94.542773909544394, 47.086549147327297 ], [ -94.542714658605206, 47.086803547576501 ] ] } },
{ "type": "Feature", "properties": { "wmUplineSo": "ONIGUM", "wmType": "Underground" }, "geometry": { "type": "LineString", "coordinates": [ [ -94.542125644191501, 47.086310926100197 ], [ -94.541537240781594, 47.086985949712599 ], [ -94.540584823124107, 47.087044572937998 ], [ -94.540292994467293, 47.087463036127801 ], [ -94.539884649247696, 47.088090655473799 ], [ -94.540162367991897, 47.088710455303797 ] ] } },
{ "type": "Feature", "properties": { "wmUplineSo": "ONIGUM", "wmType": "Underground" }, "geometry": { "type": "LineString", "coordinates": [ [ -94.542125644191501, 47.086310926100197 ], [ -94.542773909544394, 47.086549147327403 ], [ -94.542773909544394, 47.086549147327297 ] ] } },
{ "type": "Feature", "properties": { "wmUplineSo": "ONIGUM", "wmType": "Underground" }, "geometry": { "type": "LineString", "coordinates": [ [ -94.5446448415926, 47.083840964162398 ], [ -94.545406980175002, 47.084253863246602 ], [ -94.545535251990103, 47.084372025975902 ] ] } },
{ "type": "Feature", "properties": { "wmUplineSo": "ONIGUM", "wmType": "Underground" }, "geometry": { "type": "LineString", "coordinates": [ [ -94.541272938465198, 47.080076017510201 ], [ -94.5415276124359, 47.079848481529702 ] ] } },
{ "type": "Feature", "properties": { "wmUplineSo": "ONIGUM", "wmType": "Underground" }, "geometry": { "type": "LineString", "coordinates": [ [ -94.552409927108798, 47.046628528271199 ], [ -94.550951198507406, 47.047293704985002 ] ] } },
{ "type": "Feature", "properties": { "wmUplineSo": "ONIGUM", "wmType": "Underground" }, "geometry": { "type": "LineString", "coordinates": [ [ -94.553826884368803, 47.048171505852601 ], [ -94.5538519018302, 47.048345438772202 ], [ -94.554359000098103, 47.048647003572697 ] ] } },
{ "type": "Feature", "properties": { "wmUplineSo": "ONIGUM", "wmType": "Underground" }, "geometry": { "type": "LineString", "coordinates": [ [ -94.553826884368803, 47.048171505852601 ], [ -94.553216922461999, 47.0483648841643 ], [ -94.552847820766203, 47.048711652291601 ] ] } },
{ "type": "Feature", "properties": { "wmUplineSo": "ONIGUM", "wmType": "Underground" }, "geometry": { "type": "LineString", "coordinates": [ [ -94.5586090000985, 47.053171003574001 ], [ -94.558481436266902, 47.052812618687099 ], [ -94.558288582654797, 47.052708321264902 ] ] } },
{ "type": "Feature", "properties": { "wmUplineSo": "ONIGUM", "wmType": "Underground" }, "geometry": { "type": "LineString", "coordinates": [ [ -94.563115000098804, 47.0510280035733 ], [ -94.562462362399202, 47.050982479081803 ] ] } },
{ "type": "Feature", "properties": { "wmUplineSo": "ONIGUM", "wmType": "Underground" }, "geometry": { "type": "LineString", "coordinates": [ [ -94.563115000098804, 47.0510280035733 ], [ -94.563352154884797, 47.051147498882401 ] ] } },
{ "type": "Feature", "properties": { "wmUplineSo": "ONIGUM", "wmType": "Underground" }, "geometry": { "type": "LineString", "coordinates": [ [ -94.561627883299707, 47.052253450948903 ], [ -94.561431506398307, 47.0519618718575 ], [ -94.561179024027197, 47.051775705281898 ], [ -94.560479616570206, 47.051786773588603 ], [ -94.560151108488, 47.0519715165996 ] ] } },
{ "type": "Feature", "properties": { "wmUplineSo": "ONIGUM", "wmType": "Underground" }, "geometry": { "type": "LineString", "coordinates": [ [ -94.561627883299707, 47.052253450948903 ], [ -94.561042143109702, 47.052338421600403 ] ] } },
{ "type": "Feature", "properties": { "wmUplineSo": "ONIGUM", "wmType": "Underground" }, "geometry": { "type": "LineString", "coordinates": [ [ -94.561042143109702, 47.052338421600403 ], [ -94.560299554505804, 47.053239780252397 ], [ -94.559914100181999, 47.0532775165956 ] ] } },
{ "type": "Feature", "properties": { "wmUplineSo": "ONIGUM", "wmType": "Underground" }, "geometry": { "type": "LineString", "coordinates": [ [ -94.530465112220099, 47.024269697176599 ], [ -94.528968000095901, 47.024075003565997 ] ] } },
{ "type": "Feature", "properties": { "wmUplineSo": "ONIGUM", "wmType": "Underground" }, "geometry": { "type": "LineString", "coordinates": [ [ -94.526507466513493, 47.038261532736698 ], [ -94.522281166723303, 47.038164355423099 ], [ -94.521970000095493, 47.037744003569898 ] ] } },
{ "type": "Feature", "properties": { "wmUplineSo": "ONIGUM", "wmType": "Underground" }, "geometry": { "type": "LineString", "coordinates": [ [ -94.529798482569106, 47.038326501655298 ], [ -94.527647476051797, 47.038267712392901 ] ] } },
{ "type": "Feature", "properties": { "wmUplineSo": "ONIGUM", "wmType": "Underground" }, "geometry": { "type": "LineString", "coordinates": [ [ -94.527647476051797, 47.038267712392901 ], [ -94.526507466513493, 47.038261532736698 ] ] } },
{ "type": "Feature", "properties": { "wmUplineSo": "ONIGUM", "wmType": "Underground" }, "geometry": { "type": "LineString", "coordinates": [ [ -94.530663878824498, 47.039773001212602 ], [ -94.531074352350103, 47.039558593331002 ] ] } },
{ "type": "Feature", "properties": { "wmUplineSo": "ONIGUM", "wmType": "Underground" }, "geometry": { "type": "LineString", "coordinates": [ [ -94.529848233624193, 47.039603568414002 ], [ -94.530310535975303, 47.039731610881297 ], [ -94.530663878824498, 47.039773001212602 ] ] } },
{ "type": "Feature", "properties": { "wmUplineSo": "ONIGUM", "wmType": "Underground" }, "geometry": { "type": "LineString", "coordinates": [ [ -94.529798482569106, 47.038326501655298 ], [ -94.529848233624193, 47.039603568414002 ] ] } },
{ "type": "Feature", "properties": { "wmUplineSo": "ONIGUM", "wmType": "Underground" }, "geometry": { "type": "LineString", "coordinates": [ [ -94.563913116301705, 47.043140915605498 ], [ -94.563489216181196, 47.043386059785 ] ] } },
{ "type": "Feature", "properties": { "wmUplineSo": "ONIGUM", "wmType": "Underground" }, "geometry": { "type": "LineString", "coordinates": [ [ -94.503941140286997, 47.053523468529598 ], [ -94.504008627700202, 47.053317693733199 ], [ -94.504002791473496, 47.053110150403 ] ] } },
{ "type": "Feature", "properties": { "wmUplineSo": "ONIGUM", "wmType": "Underground" }, "geometry": { "type": "LineString", "coordinates": [ [ -94.527889467596296, 47.0507459856995 ], [ -94.527688612036897, 47.050457921212498 ] ] } },
{ "type": "Feature", "properties": { "wmUplineSo": "ONIGUM", "wmType": "Underground" }, "geometry": { "type": "LineString", "coordinates": [ [ -94.530663878824498, 47.039773001212602 ], [ -94.530465133111605, 47.040612339540999 ], [ -94.530126202199099, 47.041320443173198 ] ] } },
{ "type": "Feature", "properties": { "wmUplineSo": "ONIGUM", "wmType": "Underground" }, "geometry": { "type": "LineString", "coordinates": [ [ -94.530126202199099, 47.041320443173198 ], [ -94.529876452057593, 47.041374455771702 ], [ -94.529588755222505, 47.041647541195402 ], [ -94.529281603346604, 47.041939089289201 ], [ -94.528855697765096, 47.041921698232201 ], [ -94.528565816575096, 47.041767505310602 ], [ -94.528549645129999, 47.0416607248196 ] ] } },
{ "type": "Feature", "properties": { "wmUplineSo": "ONIGUM", "wmType": "Underground" }, "geometry": { "type": "LineString", "coordinates": [ [ -94.529848233624193, 47.039603568414002 ], [ -94.528843518093097, 47.039957898820397 ] ] } },
{ "type": "Feature", "properties": { "wmUplineSo": "ONIGUM", "wmType": "Underground" }, "geometry": { "type": "LineString", "coordinates": [ [ -94.541783068695906, 47.038495640780603 ], [ -94.540462502039304, 47.039159775326397 ], [ -94.540603521825204, 47.0394459679422 ] ] } },
{ "type": "Feature", "properties": { "wmUplineSo": "ONIGUM", "wmType": "Underground" }, "geometry": { "type": "LineString", "coordinates": [ [ -94.5400699000012, 47.072742000008802 ], [ -94.540036597863903, 47.072725719565199 ], [ -94.540036597863903, 47.072725719565199 ] ] } },
{ "type": "Feature", "properties": { "wmUplineSo": "ONIGUM", "wmType": "Underground" }, "geometry": { "type": "LineString", "coordinates": [ [ -94.536482940772103, 47.038395639042498 ], [ -94.535799027554603, 47.038948378937498 ] ] } },
{ "type": "Feature", "properties": { "wmUplineSo": "ONIGUM", "wmType": "Underground" }, "geometry": { "type": "LineString", "coordinates": [ [ -94.561627883299707, 47.052253450948903 ], [ -94.561836879194004, 47.052438447920601 ] ] } },
{ "type": "Feature", "properties": { "wmUplineSo": "ONIGUM", "wmType": "Underground" }, "geometry": { "type": "LineString", "coordinates": [ [ -94.565888457674006, 47.042246221111697 ], [ -94.564856255728401, 47.042236764738099 ], [ -94.564360887771201, 47.042386178109403 ] ] } },
{ "type": "Feature", "properties": { "wmUplineSo": "ONIGUM", "wmType": "Underground" }, "geometry": { "type": "LineString", "coordinates": [ [ -94.534289391105503, 47.048025492465797 ], [ -94.534895177749405, 47.048297749854697 ] ] } },
{ "type": "Feature", "properties": { "wmUplineSo": "ONIGUM", "wmType": "Underground" }, "geometry": { "type": "LineString", "coordinates": [ [ -94.542972674341101, 47.082040265703903 ], [ -94.543334028409603, 47.082123936259698 ], [ -94.543495125020002, 47.082027536467102 ] ] } },
{ "type": "Feature", "properties": { "wmUplineSo": "ONIGUM", "wmType": "Underground" }, "geometry": { "type": "LineString", "coordinates": [ [ -94.554952383416307, 47.047268332001003 ], [ -94.554918453413904, 47.047303030559597 ] ] } },
{ "type": "Feature", "properties": { "wmUplineSo": "ONIGUM", "wmType": "Underground" }, "geometry": { "type": "LineString", "coordinates": [ [ -94.534307301453893, 47.049778466718401 ], [ -94.533812028742801, 47.049998997258001 ] ] } },
{ "type": "Feature", "properties": { "wmUplineSo": "ONIGUM", "wmType": "Underground" }, "geometry": { "type": "LineString", "coordinates": [ [ -94.534370112174798, 47.0470628625229 ], [ -94.535242334505696, 47.046981141982599 ], [ -94.535571518232601, 47.046714508196899 ] ] } },
{ "type": "Feature", "properties": { "wmUplineSo": "ONIGUM", "wmType": "Underground" }, "geometry": { "type": "LineString", "coordinates": [ [ -94.534476886329401, 47.038500635679299 ], [ -94.534160746997998, 47.038488874560699 ] ] } },
{ "type": "Feature", "properties": { "wmUplineSo": "ONIGUM", "wmType": "Underground" }, "geometry": { "type": "LineString", "coordinates": [ [ -94.534160746997998, 47.038488874560699 ], [ -94.529798482569106, 47.038326501655298 ] ] } },
{ "type": "Feature", "properties": { "wmUplineSo": "ONIGUM", "wmType": "Underground" }, "geometry": { "type": "LineString", "coordinates": [ [ -94.535571518232601, 47.046714508196899 ], [ -94.5355933019232, 47.045921415546303 ], [ -94.535686945628996, 47.045859922921601 ] ] } },
{ "type": "Feature", "properties": { "wmUplineSo": "ONIGUM", "wmType": "Underground" }, "geometry": { "type": "LineString", "coordinates": [ [ -94.554918453413904, 47.047303030559597 ], [ -94.554952383416307, 47.047268332001003 ], [ -94.554493696524503, 47.047304455666598 ], [ -94.554203408245897, 47.047144503690099 ] ] } },
{ "type": "Feature", "properties": { "wmUplineSo": "ONIGUM", "wmType": "Underground" }, "geometry": { "type": "LineString", "coordinates": [ [ -94.534483167599802, 47.041716071591701 ], [ -94.534323454483598, 47.041762362706599 ], [ -94.5339831959988, 47.041813799677797 ] ] } },
{ "type": "Feature", "properties": { "wmUplineSo": "ONIGUM", "wmType": "Underground" }, "geometry": { "type": "LineString", "coordinates": [ [ -94.534483167599802, 47.041716071591701 ], [ -94.534467027552694, 47.041720749939202 ] ] } },
{ "type": "Feature", "properties": { "wmUplineSo": "ONIGUM", "wmType": "Underground" }, "geometry": { "type": "LineString", "coordinates": [ [ -94.534467027552694, 47.041720749939202 ], [ -94.534483167599802, 47.041716071591701 ] ] } },
{ "type": "Feature", "properties": { "wmUplineSo": "ONIGUM", "wmType": "Underground" }, "geometry": { "type": "LineString", "coordinates": [ [ -94.564846132549604, 47.048287177173698 ], [ -94.564865440900206, 47.048248463048502 ] ] } },
{ "type": "Feature", "properties": { "wmUplineSo": "ONIGUM", "wmType": "Underground" }, "geometry": { "type": "LineString", "coordinates": [ [ -94.534895177749405, 47.048297749854697 ], [ -94.534909000096604, 47.048302003572601 ] ] } },
{ "type": "Feature", "properties": { "wmUplineSo": "ONIGUM", "wmType": "Underground" }, "geometry": { "type": "LineString", "coordinates": [ [ -94.563489216181196, 47.043386059785 ], [ -94.563644995214602, 47.043530678339202 ] ] } },
{ "type": "Feature", "properties": { "wmUplineSo": "ONIGUM", "wmType": "Underground" }, "geometry": { "type": "LineString", "coordinates": [ [ -94.563489216181196, 47.043386059785 ], [ -94.561506318928707, 47.044426873689901 ] ] } },
{ "type": "Feature", "properties": { "wmUplineSo": "ONIGUM", "wmType": "Underground" }, "geometry": { "type": "LineString", "coordinates": [ [ -94.561506318928707, 47.044426873689901 ], [ -94.561750225111098, 47.044453923732704 ] ] } },
{ "type": "Feature", "properties": { "wmUplineSo": "ONIGUM", "wmType": "Underground" }, "geometry": { "type": "LineString", "coordinates": [ [ -94.561750225111098, 47.044453923732704 ], [ -94.561840328879896, 47.044477173837002 ] ] } },
{ "type": "Feature", "properties": { "wmUplineSo": "ONIGUM", "wmType": "Underground" }, "geometry": { "type": "LineString", "coordinates": [ [ -94.561506318928707, 47.044426873689901 ], [ -94.561395718725294, 47.044709611917902 ] ] } },
{ "type": "Feature", "properties": { "wmUplineSo": "ONIGUM", "wmType": "Underground" }, "geometry": { "type": "LineString", "coordinates": [ [ -94.561395718725294, 47.044709611917902 ], [ -94.560889324234495, 47.044987089954098 ] ] } },
{ "type": "Feature", "properties": { "wmUplineSo": "ONIGUM", "wmType": "Underground" }, "geometry": { "type": "LineString", "coordinates": [ [ -94.560889324234495, 47.044987089954098 ], [ -94.560478919675404, 47.045257183232202 ] ] } },
{ "type": "Feature", "properties": { "wmUplineSo": "ONIGUM", "wmType": "Underground" }, "geometry": { "type": "LineString", "coordinates": [ [ -94.560478919675404, 47.045257183232202 ], [ -94.5603233489404, 47.045450693269501 ] ] } },
{ "type": "Feature", "properties": { "wmUplineSo": "ONIGUM", "wmType": "Underground" }, "geometry": { "type": "LineString", "coordinates": [ [ -94.5603233489404, 47.045450693269501 ], [ -94.560423535514303, 47.045493616821901 ] ] } },
{ "type": "Feature", "properties": { "wmUplineSo": "ONIGUM", "wmType": "Underground" }, "geometry": { "type": "LineString", "coordinates": [ [ -94.560423535514303, 47.045493616821901 ], [ -94.560852212154401, 47.045649248589399 ] ] } },
{ "type": "Feature", "properties": { "wmUplineSo": "ONIGUM", "wmType": "Underground" }, "geometry": { "type": "LineString", "coordinates": [ [ -94.544035, 47.082846 ], [ -94.543961, 47.082795 ] ] } },
{ "type": "Feature", "properties": { "wmUplineSo": "ONIGUM", "wmType": "Underground" }, "geometry": { "type": "LineString", "coordinates": [ [ -94.560852212154401, 47.045649248589399 ], [ -94.561235285282095, 47.0458201806156 ] ] } },
{ "type": "Feature", "properties": { "wmUplineSo": "ONIGUM", "wmType": "Underground" }, "geometry": { "type": "LineString", "coordinates": [ [ -94.541827, 47.087345 ], [ -94.542065, 47.087313 ] ] } },
{ "type": "Feature", "properties": { "wmUplineSo": "ONIGUM", "wmType": "Underground" }, "geometry": { "type": "LineString", "coordinates": [ [ -94.565832000098993, 47.048631003572801 ], [ -94.565839800001299, 47.048627100008801 ] ] } },
{ "type": "Feature", "properties": { "wmUplineSo": "ONIGUM", "wmType": "Underground" }, "geometry": { "type": "LineString", "coordinates": [ [ -94.561235285282095, 47.0458201806156 ], [ -94.561575313920102, 47.045887011073297 ] ] } },
{ "type": "Feature", "properties": { "wmUplineSo": "ONIGUM", "wmType": "Underground" }, "geometry": { "type": "LineString", "coordinates": [ [ -94.519050484252404, 47.053738434775603 ], [ -94.519147211672802, 47.053791384674298 ] ] } },
{ "type": "Feature", "properties": { "wmUplineSo": "ONIGUM", "wmType": "Underground" }, "geometry": { "type": "LineString", "coordinates": [ [ -94.543961, 47.082795 ], [ -94.5439189073237, 47.0827412444836 ] ] } },
{ "type": "Feature", "properties": { "wmUplineSo": "ONIGUM", "wmType": "Underground" }, "geometry": { "type": "LineString", "coordinates": [ [ -94.561575313920102, 47.045887011073297 ], [ -94.562184889374805, 47.045694255434803 ] ] } },
{ "type": "Feature", "properties": { "wmUplineSo": "ONIGUM", "wmType": "Underground" }, "geometry": { "type": "LineString", "coordinates": [ [ -94.562184889374805, 47.045694255434803 ], [ -94.563058499165905, 47.045177125360802 ] ] } },
{ "type": "Feature", "properties": { "wmUplineSo": "ONIGUM", "wmType": "Underground" }, "geometry": { "type": "LineString", "coordinates": [ [ -94.564234998157403, 47.048435502392898 ], [ -94.564519, 47.048329 ] ] } },
{ "type": "Feature", "properties": { "wmUplineSo": "ONIGUM", "wmType": "Underground" }, "geometry": { "type": "LineString", "coordinates": [ [ -94.564519, 47.048329 ], [ -94.564293201793006, 47.0481582474753 ] ] } },
{ "type": "Feature", "properties": { "wmUplineSo": "ONIGUM", "wmType": "Underground" }, "geometry": { "type": "LineString", "coordinates": [ [ -94.564293201793006, 47.0481582474753 ], [ -94.563796066644599, 47.048206762321499 ] ] } },
{ "type": "Feature", "properties": { "wmUplineSo": "ONIGUM", "wmType": "Underground" }, "geometry": { "type": "LineString", "coordinates": [ [ -94.563796066644599, 47.048206762321499 ], [ -94.5637802540233, 47.048192333299703 ] ] } },
{ "type": "Feature", "properties": { "wmUplineSo": "ONIGUM", "wmType": "Underground" }, "geometry": { "type": "LineString", "coordinates": [ [ -94.5648414681676, 47.048296529464302 ], [ -94.564846132549604, 47.048287177173698 ] ] } },
{ "type": "Feature", "properties": { "wmUplineSo": "ONIGUM", "wmType": "Underground" }, "geometry": { "type": "LineString", "coordinates": [ [ -94.564865440900206, 47.048248463048502 ], [ -94.5649777634884, 47.047866731602802 ] ] } },
{ "type": "Feature", "properties": { "wmUplineSo": "ONIGUM", "wmType": "Underground" }, "geometry": { "type": "LineString", "coordinates": [ [ -94.5649777634884, 47.047866731602802 ], [ -94.565397616656895, 47.047586561335102 ] ] } },
{ "type": "Feature", "properties": { "wmUplineSo": "ONIGUM", "wmType": "Underground" }, "geometry": { "type": "LineString", "coordinates": [ [ -94.565397616656895, 47.047586561335102 ], [ -94.565545906702297, 47.047099720027099 ] ] } },
{ "type": "Feature", "properties": { "wmUplineSo": "ONIGUM", "wmType": "Underground" }, "geometry": { "type": "LineString", "coordinates": [ [ -94.565545906702297, 47.047099720027099 ], [ -94.565981379800903, 47.046664311958999 ] ] } },
{ "type": "Feature", "properties": { "wmUplineSo": "ONIGUM", "wmType": "Underground" }, "geometry": { "type": "LineString", "coordinates": [ [ -94.565981379800903, 47.046664311958999 ], [ -94.566294382922806, 47.046541524044699 ] ] } },
{ "type": "Feature", "properties": { "wmUplineSo": "ONIGUM", "wmType": "Underground" }, "geometry": { "type": "LineString", "coordinates": [ [ -94.566294382922806, 47.046541524044699 ], [ -94.566419491037394, 47.046453425098001 ] ] } },
{ "type": "Feature", "properties": { "wmUplineSo": "ONIGUM", "wmType": "Underground" }, "geometry": { "type": "LineString", "coordinates": [ [ -94.566419491037394, 47.046453425098001 ], [ -94.566744176977295, 47.0460541865409 ] ] } },
{ "type": "Feature", "properties": { "wmUplineSo": "ONIGUM", "wmType": "Underground" }, "geometry": { "type": "LineString", "coordinates": [ [ -94.566744176977295, 47.0460541865409 ], [ -94.566746898557497, 47.0460011587151 ] ] } },
{ "type": "Feature", "properties": { "wmUplineSo": "ONIGUM", "wmType": "Underground" }, "geometry": { "type": "LineString", "coordinates": [ [ -94.566744176977295, 47.0460541865409 ], [ -94.5668937134987, 47.045861298032598 ] ] } },
{ "type": "Feature", "properties": { "wmUplineSo": "ONIGUM", "wmType": "Underground" }, "geometry": { "type": "LineString", "coordinates": [ [ -94.5668937134987, 47.045861298032598 ], [ -94.567009190876504, 47.045635780959202 ] ] } },
{ "type": "Feature", "properties": { "wmUplineSo": "ONIGUM", "wmType": "Underground" }, "geometry": { "type": "LineString", "coordinates": [ [ -94.566744176977295, 47.0460541865409 ], [ -94.566504493034898, 47.045912794669398 ] ] } },
{ "type": "Feature", "properties": { "wmUplineSo": "ONIGUM", "wmType": "Underground" }, "geometry": { "type": "LineString", "coordinates": [ [ -94.566504493034898, 47.045912794669398 ], [ -94.566260880419307, 47.0457102205065 ] ] } },
{ "type": "Feature", "properties": { "wmUplineSo": "ONIGUM", "wmType": "Underground" }, "geometry": { "type": "LineString", "coordinates": [ [ -94.566260880419307, 47.0457102205065 ], [ -94.566051, 47.045464 ] ] } },
{ "type": "Feature", "properties": { "wmUplineSo": "ONIGUM", "wmType": "Underground" }, "geometry": { "type": "LineString", "coordinates": [ [ -94.566051, 47.045464 ], [ -94.565813349643093, 47.0452728534069 ] ] } },
{ "type": "Feature", "properties": { "wmUplineSo": "ONIGUM", "wmType": "Underground" }, "geometry": { "type": "LineString", "coordinates": [ [ -94.565813349643093, 47.0452728534069 ], [ -94.566418550189198, 47.044646283877 ] ] } },
{ "type": "Feature", "properties": { "wmUplineSo": "ONIGUM", "wmType": "Underground" }, "geometry": { "type": "LineString", "coordinates": [ [ -94.566418550189198, 47.044646283877 ], [ -94.567186399977999, 47.044337435599999 ] ] } },
{ "type": "Feature", "properties": { "wmUplineSo": "ONIGUM", "wmType": "Underground" }, "geometry": { "type": "LineString", "coordinates": [ [ -94.566418550189198, 47.044646283877 ], [ -94.566233021839594, 47.0446224627186 ] ] } },
{ "type": "Feature", "properties": { "wmUplineSo": "ONIGUM", "wmType": "Underground" }, "geometry": { "type": "LineString", "coordinates": [ [ -94.565813349643093, 47.0452728534069 ], [ -94.565659, 47.045242000000101 ] ] } },
{ "type": "Feature", "properties": { "wmUplineSo": "ONIGUM", "wmType": "Underground" }, "geometry": { "type": "LineString", "coordinates": [ [ -94.565659, 47.045242000000101 ], [ -94.565322, 47.045134 ] ] } },
{ "type": "Feature", "properties": { "wmUplineSo": "ONIGUM", "wmType": "Underground" }, "geometry": { "type": "LineString", "coordinates": [ [ -94.565322, 47.045134 ], [ -94.565327, 47.044621 ] ] } },
{ "type": "Feature", "properties": { "wmUplineSo": "ONIGUM", "wmType": "Underground" }, "geometry": { "type": "LineString", "coordinates": [ [ -94.565327, 47.044621 ], [ -94.565474, 47.043849000000101 ] ] } },
{ "type": "Feature", "properties": { "wmUplineSo": "ONIGUM", "wmType": "Underground" }, "geometry": { "type": "LineString", "coordinates": [ [ -94.528968000095901, 47.024075003565997 ], [ -94.528954000095894, 47.024058003566097 ] ] } },
{ "type": "Feature", "properties": { "wmUplineSo": "ONIGUM", "wmType": "Underground" }, "geometry": { "type": "LineString", "coordinates": [ [ -94.528954000095894, 47.024058003566097 ], [ -94.528956000095903, 47.023915003566103 ] ] } },
{ "type": "Feature", "properties": { "wmUplineSo": "ONIGUM", "wmType": "Underground" }, "geometry": { "type": "LineString", "coordinates": [ [ -94.528956000095903, 47.023915003566103 ], [ -94.528964000095897, 47.023548003565899 ] ] } },
{ "type": "Feature", "properties": { "wmUplineSo": "ONIGUM", "wmType": "Underground" }, "geometry": { "type": "LineString", "coordinates": [ [ -94.528964000095897, 47.023548003565899 ], [ -94.529028000095906, 47.023245003565897 ] ] } },
{ "type": "Feature", "properties": { "wmUplineSo": "ONIGUM", "wmType": "Underground" }, "geometry": { "type": "LineString", "coordinates": [ [ -94.529028000095906, 47.023245003565897 ], [ -94.5292160000959, 47.0229120035657 ] ] } },
{ "type": "Feature", "properties": { "wmUplineSo": "ONIGUM", "wmType": "Underground" }, "geometry": { "type": "LineString", "coordinates": [ [ -94.5292160000959, 47.0229120035657 ], [ -94.529220000095904, 47.022897003565802 ] ] } },
{ "type": "Feature", "properties": { "wmUplineSo": "ONIGUM", "wmType": "Underground" }, "geometry": { "type": "LineString", "coordinates": [ [ -94.528968000095901, 47.024075003565997 ], [ -94.527145797007194, 47.023938445019397 ], [ -94.525884022329606, 47.0251887269132 ], [ -94.525620850730803, 47.025788784170501 ] ] } },
{ "type": "Feature", "properties": { "wmUplineSo": "ONIGUM", "wmType": "Underground" }, "geometry": { "type": "LineString", "coordinates": [ [ -94.521970000095493, 47.037744003569898 ], [ -94.521993000095506, 47.037736003569798 ] ] } },
{ "type": "Feature", "properties": { "wmUplineSo": "ONIGUM", "wmType": "Underground" }, "geometry": { "type": "LineString", "coordinates": [ [ -94.521993000095506, 47.037736003569798 ], [ -94.522003000095594, 47.037743003569901 ] ] } },
{ "type": "Feature", "properties": { "wmUplineSo": "ONIGUM", "wmType": "Underground" }, "geometry": { "type": "LineString", "coordinates": [ [ -94.521970000095493, 47.037744003569898 ], [ -94.521462982041697, 47.037059693877303 ] ] } },
{ "type": "Feature", "properties": { "wmUplineSo": "ONIGUM", "wmType": "Underground" }, "geometry": { "type": "LineString", "coordinates": [ [ -94.554359000098103, 47.048647003572697 ], [ -94.554448000098105, 47.048729003572703 ] ] } },
{ "type": "Feature", "properties": { "wmUplineSo": "ONIGUM", "wmType": "Underground" }, "geometry": { "type": "LineString", "coordinates": [ [ -94.554448000098105, 47.048729003572703 ], [ -94.554480400001196, 47.048776300008797 ] ] } },
{ "type": "Feature", "properties": { "wmUplineSo": "ONIGUM", "wmType": "Underground" }, "geometry": { "type": "LineString", "coordinates": [ [ -94.552847820766203, 47.048711652291601 ], [ -94.552506172170894, 47.048399333422999 ], [ -94.551958136872003, 47.048240095196597 ], [ -94.551471400980105, 47.048032404370403 ], [ -94.551095553813596, 47.048285117293702 ], [ -94.550711773005006, 47.048504602854301 ] ] } },
{ "type": "Feature", "properties": { "wmUplineSo": "ONIGUM", "wmType": "Underground" }, "geometry": { "type": "LineString", "coordinates": [ [ -94.519147211672802, 47.053791384674298 ], [ -94.519228300001103, 47.053904400008797 ] ] } },
{ "type": "Feature", "properties": { "wmUplineSo": "ONIGUM", "wmType": "Underground" }, "geometry": { "type": "LineString", "coordinates": [ [ -94.518576675285402, 47.053189472940097 ], [ -94.518733769403298, 47.053358434270798 ] ] } },
{ "type": "Feature", "properties": { "wmUplineSo": "ONIGUM", "wmType": "Underground" }, "geometry": { "type": "LineString", "coordinates": [ [ -94.518733769403298, 47.053358434270798 ], [ -94.518871585894999, 47.053586243429599 ] ] } },
{ "type": "Feature", "properties": { "wmUplineSo": "ONIGUM", "wmType": "Underground" }, "geometry": { "type": "LineString", "coordinates": [ [ -94.528101671782295, 47.0508693260022 ], [ -94.527889467596296, 47.0507459856995 ] ] } },
{ "type": "Feature", "properties": { "wmUplineSo": "ONIGUM", "wmType": "Underground" }, "geometry": { "type": "LineString", "coordinates": [ [ -94.526963120086705, 47.0504010791987 ], [ -94.526921000001096, 47.050293100008801 ] ] } },
{ "type": "Feature", "properties": { "wmUplineSo": "ONIGUM", "wmType": "Underground" }, "geometry": { "type": "LineString", "coordinates": [ [ -94.526801405412598, 47.054304782474603 ], [ -94.526820100001103, 47.054225400008796 ] ] } },
{ "type": "Feature", "properties": { "wmUplineSo": "ONIGUM", "wmType": "Underground" }, "geometry": { "type": "LineString", "coordinates": [ [ -94.526278914735698, 47.053213408066497 ], [ -94.526270165813301, 47.0532237451553 ], [ -94.526212204499203, 47.053288091131101 ], [ -94.526207635349493, 47.0533608073249 ], [ -94.526212233731698, 47.053521949955503 ], [ -94.526192541517204, 47.053690788805703 ], [ -94.526196380493303, 47.053708901457298 ] ] } },
{ "type": "Feature", "properties": { "wmUplineSo": "ONIGUM", "wmType": "Underground" }, "geometry": { "type": "LineString", "coordinates": [ [ -94.526196380493303, 47.053708901457298 ], [ -94.526195791267199, 47.054153922923 ] ] } },
{ "type": "Feature", "properties": { "wmUplineSo": "ONIGUM", "wmType": "Underground" }, "geometry": { "type": "LineString", "coordinates": [ [ -94.526195791267199, 47.054153922923 ], [ -94.526303013383, 47.054302345217401 ] ] } },
{ "type": "Feature", "properties": { "wmUplineSo": "ONIGUM", "wmType": "Underground" }, "geometry": { "type": "LineString", "coordinates": [ [ -94.526303013383, 47.054302345217401 ], [ -94.526801405412598, 47.054304782474603 ] ] } },
{ "type": "Feature", "properties": { "wmUplineSo": "ONIGUM", "wmType": "Underground" }, "geometry": { "type": "LineString", "coordinates": [ [ -94.544521000097802, 47.0830730035822 ], [ -94.544452000097706, 47.083021003582303 ] ] } },
{ "type": "Feature", "properties": { "wmUplineSo": "ONIGUM", "wmType": "Underground" }, "geometry": { "type": "LineString", "coordinates": [ [ -94.544452000097706, 47.083021003582303 ], [ -94.544377000097697, 47.082970003582197 ] ] } },
{ "type": "Feature", "properties": { "wmUplineSo": "ONIGUM", "wmType": "Underground" }, "geometry": { "type": "LineString", "coordinates": [ [ -94.544361867282603, 47.083366054927303 ], [ -94.544848486819802, 47.083340710286002 ] ] } },
{ "type": "Feature", "properties": { "wmUplineSo": "ONIGUM", "wmType": "Underground" }, "geometry": { "type": "LineString", "coordinates": [ [ -94.544848486819802, 47.083340710286002 ], [ -94.545035400001197, 47.083021100008899 ] ] } },
{ "type": "Feature", "properties": { "wmUplineSo": "ONIGUM", "wmType": "Underground" }, "geometry": { "type": "LineString", "coordinates": [ [ -94.565474, 47.043849000000101 ], [ -94.565755, 47.043515 ] ] } },
{ "type": "Feature", "properties": { "wmUplineSo": "ONIGUM", "wmType": "Underground" }, "geometry": { "type": "LineString", "coordinates": [ [ -94.565755, 47.043515 ], [ -94.566231, 47.043419 ] ] } },
{ "type": "Feature", "properties": { "wmUplineSo": "ONIGUM", "wmType": "Underground" }, "geometry": { "type": "LineString", "coordinates": [ [ -94.566231, 47.043419 ], [ -94.566867, 47.0433230000001 ] ] } },
{ "type": "Feature", "properties": { "wmUplineSo": "ONIGUM", "wmType": "Underground" }, "geometry": { "type": "LineString", "coordinates": [ [ -94.566867, 47.0433230000001 ], [ -94.567484957523206, 47.0432095026325 ] ] } },
{ "type": "Feature", "properties": { "wmUplineSo": "ONIGUM", "wmType": "Underground" }, "geometry": { "type": "LineString", "coordinates": [ [ -94.567484957523206, 47.0432095026325 ], [ -94.568457219689606, 47.042781401584101 ] ] } },
{ "type": "Feature", "properties": { "wmUplineSo": "ONIGUM", "wmType": "Underground" }, "geometry": { "type": "LineString", "coordinates": [ [ -94.568457219689606, 47.042781401584101 ], [ -94.5675919295293, 47.042184086451499 ] ] } },
{ "type": "Feature", "properties": { "wmUplineSo": "ONIGUM", "wmType": "Underground" }, "geometry": { "type": "LineString", "coordinates": [ [ -94.5675919295293, 47.042184086451499 ], [ -94.567422512537107, 47.042265722383902 ] ] } },
{ "type": "Feature", "properties": { "wmUplineSo": "ONIGUM", "wmType": "Underground" }, "geometry": { "type": "LineString", "coordinates": [ [ -94.567422512537107, 47.042265722383902 ], [ -94.566961878097004, 47.042303868575502 ] ] } },
{ "type": "Feature", "properties": { "wmUplineSo": "ONIGUM", "wmType": "Underground" }, "geometry": { "type": "LineString", "coordinates": [ [ -94.5675919295293, 47.042184086451499 ], [ -94.567902466679001, 47.0418521349578 ] ] } },
{ "type": "Feature", "properties": { "wmUplineSo": "ONIGUM", "wmType": "Underground" }, "geometry": { "type": "LineString", "coordinates": [ [ -94.567902466679001, 47.0418521349578 ], [ -94.568341712064395, 47.041210424482301 ] ] } },
{ "type": "Feature", "properties": { "wmUplineSo": "ONIGUM", "wmType": "Underground" }, "geometry": { "type": "LineString", "coordinates": [ [ -94.528812095852601, 47.051013443468896 ], [ -94.528101671782295, 47.0508693260022 ] ] } },
{ "type": "Feature", "properties": { "wmUplineSo": "ONIGUM", "wmType": "Underground" }, "geometry": { "type": "LineString", "coordinates": [ [ -94.543814, 47.083039999999897 ], [ -94.543878, 47.083019 ] ] } },
{ "type": "Feature", "properties": { "wmUplineSo": "ONIGUM", "wmType": "Underground" }, "geometry": { "type": "LineString", "coordinates": [ [ -94.527370858051597, 47.050292102199798 ], [ -94.526963120086705, 47.0504010791987 ] ] } },
{ "type": "Feature", "properties": { "wmUplineSo": "ONIGUM", "wmType": "Underground" }, "geometry": { "type": "LineString", "coordinates": [ [ -94.565638000099099, 47.048504003572702 ], [ -94.565832000098993, 47.048631003572801 ] ] } },
{ "type": "Feature", "properties": { "wmUplineSo": "ONIGUM", "wmType": "Underground" }, "geometry": { "type": "LineString", "coordinates": [ [ -94.531569361589504, 47.056086159069302 ], [ -94.531554282974099, 47.056039125689502 ] ] } },
{ "type": "Feature", "properties": { "wmUplineSo": "ONIGUM", "wmType": "Underground" }, "geometry": { "type": "LineString", "coordinates": [ [ -94.531569361589504, 47.056086159069302 ], [ -94.530826949344402, 47.055685488954403 ] ] } },
{ "type": "Feature", "properties": { "wmUplineSo": "ONIGUM", "wmType": "Underground" }, "geometry": { "type": "LineString", "coordinates": [ [ -94.530826949344402, 47.055685488954403 ], [ -94.530212827768594, 47.055370128795097 ] ] } },
{ "type": "Feature", "properties": { "wmUplineSo": "ONIGUM", "wmType": "Underground" }, "geometry": { "type": "LineString", "coordinates": [ [ -94.530212827768594, 47.055370128795097 ], [ -94.529589767280797, 47.054969637159701 ] ] } },
{ "type": "Feature", "properties": { "wmUplineSo": "ONIGUM", "wmType": "Underground" }, "geometry": { "type": "LineString", "coordinates": [ [ -94.529589767280797, 47.054969637159701 ], [ -94.529615552963904, 47.054960249374403 ] ] } },
{ "type": "Feature", "properties": { "wmUplineSo": "ONIGUM", "wmType": "Underground" }, "geometry": { "type": "LineString", "coordinates": [ [ -94.529589767280797, 47.054969637159701 ], [ -94.529477253799698, 47.054226319929597 ] ] } },
{ "type": "Feature", "properties": { "wmUplineSo": "ONIGUM", "wmType": "Underground" }, "geometry": { "type": "LineString", "coordinates": [ [ -94.529477253799698, 47.054226319929597 ], [ -94.529549038568504, 47.054218340559999 ] ] } },
{ "type": "Feature", "properties": { "wmUplineSo": "ONIGUM", "wmType": "Underground" }, "geometry": { "type": "LineString", "coordinates": [ [ -94.530826949344402, 47.055685488954403 ], [ -94.530889973322502, 47.055661545097401 ] ] } },
{ "type": "Feature", "properties": { "wmUplineSo": "ONIGUM", "wmType": "Underground" }, "geometry": { "type": "LineString", "coordinates": [ [ -94.541827, 47.087345 ], [ -94.542213, 47.08752 ] ] } },
{ "type": "Feature", "properties": { "wmUplineSo": "ONIGUM", "wmType": "Underground" }, "geometry": { "type": "LineString", "coordinates": [ [ -94.542508052189106, 47.087342910765898 ], [ -94.542697500001196, 47.087360300008797 ] ] } }
]
}
