{
"type": "FeatureCollection",
"crs": { "type": "name", "properties": { "name": "urn:ogc:def:crs:OGC:1.3:CRS84" } },
"features": [
{ "type": "Feature", "properties": { "wmUplineSo": "ONIGUM", "wmType": "Overhead" }, "geometry": { "type": "LineString", "coordinates": [ [ -94.501016200001004, 47.060719100008797 ], [ -94.501110616154605, 47.060742285418698 ] ] } },
{ "type": "Feature", "properties": { "wmUplineSo": "ONIGUM", "wmType": "Overhead" }, "geometry": { "type": "LineString", "coordinates": [ [ -94.504044984379405, 47.115411477017702 ], [ -94.504057366664199, 47.115486899272902 ] ] } },
{ "type": "Feature", "properties": { "wmUplineSo": "ONIGUM", "wmType": "Overhead" }, "geometry": { "type": "LineString", "coordinates": [ [ -94.504057366664199, 47.115486899272902 ], [ -94.504121976516302, 47.115880443303901 ] ] } },
{ "type": "Feature", "properties": { "wmUplineSo": "ONIGUM", "wmType": "Overhead" }, "geometry": { "type": "LineString", "coordinates": [ [ -94.465403, 47.123193 ], [ -94.465799, 47.123381000000101 ] ] } },
{ "type": "Feature", "properties": { "wmUplineSo": "ONIGUM", "wmType": "Overhead" }, "geometry": { "type": "LineString", "coordinates": [ [ -94.542973445004606, 47.100084027986902 ], [ -94.542459184572095, 47.100725240511601 ] ] } },
{ "type": "Feature", "properties": { "wmUplineSo": "ONIGUM", "wmType": "Overhead" }, "geometry": { "type": "LineString", "coordinates": [ [ -94.496999361167298, 47.067683126129701 ], [ -94.496067571346401, 47.068416708846797 ] ] } },
{ "type": "Feature", "properties": { "wmUplineSo": "ONIGUM", "wmType": "Overhead" }, "geometry": { "type": "LineString", "coordinates": [ [ -94.518718, 47.152448 ], [ -94.517842, 47.152711000000103 ] ] } },
{ "type": "Feature", "properties": { "wmUplineSo": "ONIGUM", "wmType": "Overhead" }, "geometry": { "type": "LineString", "coordinates": [ [ -94.517842, 47.152711000000103 ], [ -94.517818088025294, 47.152718069185099 ] ] } },
{ "type": "Feature", "properties": { "wmUplineSo": "ONIGUM", "wmType": "Overhead" }, "geometry": { "type": "LineString", "coordinates": [ [ -94.516228212453996, 47.156313840056399 ], [ -94.516319914455195, 47.156341901428597 ] ] } },
{ "type": "Feature", "properties": { "wmUplineSo": "ONIGUM", "wmType": "Overhead" }, "geometry": { "type": "LineString", "coordinates": [ [ -94.539997090120494, 47.123326895596101 ], [ -94.540584814524493, 47.122660182894101 ] ] } },
{ "type": "Feature", "properties": { "wmUplineSo": "ONIGUM", "wmType": "Overhead" }, "geometry": { "type": "LineString", "coordinates": [ [ -94.505811408981401, 47.100444200708303 ], [ -94.505503000095004, 47.100642003587197 ] ] } },
{ "type": "Feature", "properties": { "wmUplineSo": "ONIGUM", "wmType": "Overhead" }, "geometry": { "type": "LineString", "coordinates": [ [ -94.505233799961005, 47.099597078939297 ], [ -94.505811408981401, 47.100444200708303 ] ] } },
{ "type": "Feature", "properties": { "wmUplineSo": "ONIGUM", "wmType": "Overhead" }, "geometry": { "type": "LineString", "coordinates": [ [ -94.505173323790402, 47.099595778322801 ], [ -94.504824841077607, 47.099588283137699 ] ] } },
{ "type": "Feature", "properties": { "wmUplineSo": "ONIGUM", "wmType": "Overhead" }, "geometry": { "type": "LineString", "coordinates": [ [ -94.506686390495204, 47.101275354601697 ], [ -94.506726420017799, 47.101212480509403 ] ] } },
{ "type": "Feature", "properties": { "wmUplineSo": "ONIGUM", "wmType": "Overhead" }, "geometry": { "type": "LineString", "coordinates": [ [ -94.542828000098098, 47.125319003593702 ], [ -94.542818000098094, 47.125923003594004 ] ] } },
{ "type": "Feature", "properties": { "wmUplineSo": "ONIGUM", "wmType": "Overhead" }, "geometry": { "type": "LineString", "coordinates": [ [ -94.518191495712003, 47.1521939041031 ], [ -94.518247858630204, 47.152250665160103 ] ] } },
{ "type": "Feature", "properties": { "wmUplineSo": "ONIGUM", "wmType": "Overhead" }, "geometry": { "type": "LineString", "coordinates": [ [ -94.515842884673901, 47.154569310067103 ], [ -94.515899247693298, 47.154626072257102 ] ] } },
{ "type": "Feature", "properties": { "wmUplineSo": "ONIGUM", "wmType": "Overhead" }, "geometry": { "type": "LineString", "coordinates": [ [ -94.564276744814904, 47.117344479448199 ], [ -94.564356159497393, 47.117302510821702 ] ] } },
{ "type": "Feature", "properties": { "wmUplineSo": "ONIGUM", "wmType": "Overhead" }, "geometry": { "type": "LineString", "coordinates": [ [ -94.540789332796393, 47.111297547310599 ], [ -94.540868757477199, 47.111255594820499 ] ] } },
{ "type": "Feature", "properties": { "wmUplineSo": "ONIGUM", "wmType": "Overhead" }, "geometry": { "type": "LineString", "coordinates": [ [ -94.512685061617105, 47.156916826522703 ], [ -94.512756243968099, 47.156868425696899 ] ] } },
{ "type": "Feature", "properties": { "wmUplineSo": "ONIGUM", "wmType": "Overhead" }, "geometry": { "type": "LineString", "coordinates": [ [ -94.533732664947905, 47.139507113533497 ], [ -94.533657385532194, 47.1394617076852 ] ] } },
{ "type": "Feature", "properties": { "wmUplineSo": "ONIGUM", "wmType": "Overhead" }, "geometry": { "type": "LineString", "coordinates": [ [ -94.465426000092194, 47.122323003593003 ], [ -94.465273000092196, 47.122122003592899 ] ] } },
{ "type": "Feature", "properties": { "wmUplineSo": "ONIGUM", "wmType": "Overhead" }, "geometry": { "type": "LineString", "coordinates": [ [ -94.465273000092196, 47.122122003592899 ], [ -94.465345503767793, 47.122074556460397 ] ] } },
{ "type": "Feature", "properties": { "wmUplineSo": "ONIGUM", "wmType": "Overhead" }, "geometry": { "type": "LineString", "coordinates": [ [ -94.507349286917005, 47.124632296614102 ], [ -94.5074287580522, 47.124590366888697 ] ] } },
{ "type": "Feature", "properties": { "wmUplineSo": "ONIGUM", "wmType": "Overhead" }, "geometry": { "type": "LineString", "coordinates": [ [ -94.508686676983899, 47.124109321688302 ], [ -94.508766146276201, 47.124067391051803 ] ] } },
{ "type": "Feature", "properties": { "wmUplineSo": "ONIGUM", "wmType": "Overhead" }, "geometry": { "type": "LineString", "coordinates": [ [ -94.520665472264895, 47.154196876968598 ], [ -94.520700518340007, 47.154132622567403 ] ] } },
{ "type": "Feature", "properties": { "wmUplineSo": "ONIGUM", "wmType": "Overhead" }, "geometry": { "type": "LineString", "coordinates": [ [ -94.520665472264895, 47.154196876968598 ], [ -94.520700518340007, 47.154132622567403 ] ] } },
{ "type": "Feature", "properties": { "wmUplineSo": "ONIGUM", "wmType": "Overhead" }, "geometry": { "type": "LineString", "coordinates": [ [ -94.488838911910605, 47.127382140239703 ], [ -94.488782606873201, 47.127325363824099 ] ] } },
{ "type": "Feature", "properties": { "wmUplineSo": "ONIGUM", "wmType": "Overhead" }, "geometry": { "type": "LineString", "coordinates": [ [ -94.489783968685103, 47.1268191585362 ], [ -94.489863457137702, 47.126777240824801 ] ] } },
{ "type": "Feature", "properties": { "wmUplineSo": "ONIGUM", "wmType": "Overhead" }, "geometry": { "type": "LineString", "coordinates": [ [ -94.522381354021306, 47.100230696945403 ], [ -94.522301930683597, 47.100272636668798 ] ] } },
{ "type": "Feature", "properties": { "wmUplineSo": "ONIGUM", "wmType": "Overhead" }, "geometry": { "type": "LineString", "coordinates": [ [ -94.526911233340698, 47.150422163591102 ], [ -94.526389552906707, 47.151036698894302 ] ] } },
{ "type": "Feature", "properties": { "wmUplineSo": "ONIGUM", "wmType": "Overhead" }, "geometry": { "type": "LineString", "coordinates": [ [ -94.542124023362803, 47.118159445169901 ], [ -94.542124979561805, 47.118161906694297 ], [ -94.542149765575004, 47.118225712760299 ] ] } },
{ "type": "Feature", "properties": { "wmUplineSo": "ONIGUM", "wmType": "Overhead" }, "geometry": { "type": "LineString", "coordinates": [ [ -94.516329929404904, 47.154173916213502 ], [ -94.51703, 47.1534240000002 ] ] } },
{ "type": "Feature", "properties": { "wmUplineSo": "ONIGUM", "wmType": "Overhead" }, "geometry": { "type": "LineString", "coordinates": [ [ -94.565219510923001, 47.122700398323403 ], [ -94.565548628329495, 47.122842688802699 ] ] } },
{ "type": "Feature", "properties": { "wmUplineSo": "ONIGUM", "wmType": "Overhead" }, "geometry": { "type": "LineString", "coordinates": [ [ -94.564736626556197, 47.120055438429397 ], [ -94.565277800001297, 47.1198321000089 ] ] } },
{ "type": "Feature", "properties": { "wmUplineSo": "ONIGUM", "wmType": "Overhead" }, "geometry": { "type": "LineString", "coordinates": [ [ -94.465282844940106, 47.120723819418203 ], [ -94.465345715017804, 47.120762616422503 ] ] } },
{ "type": "Feature", "properties": { "wmUplineSo": "ONIGUM", "wmType": "Overhead" }, "geometry": { "type": "LineString", "coordinates": [ [ -94.465282844940106, 47.120723819418203 ], [ -94.465229734273606, 47.120650697916297 ] ] } },
{ "type": "Feature", "properties": { "wmUplineSo": "ONIGUM", "wmType": "Overhead" }, "geometry": { "type": "LineString", "coordinates": [ [ -94.545614000098098, 47.109117003589297 ], [ -94.545289000098094, 47.1089950035892 ] ] } },
{ "type": "Feature", "properties": { "wmUplineSo": "ONIGUM", "wmType": "Overhead" }, "geometry": { "type": "LineString", "coordinates": [ [ -94.545289000098094, 47.1089950035892 ], [ -94.545336000098104, 47.1089330035892 ] ] } },
{ "type": "Feature", "properties": { "wmUplineSo": "ONIGUM", "wmType": "Overhead" }, "geometry": { "type": "LineString", "coordinates": [ [ -94.46253, 47.128436999999899 ], [ -94.461907954365401, 47.128248903908101 ] ] } },
{ "type": "Feature", "properties": { "wmUplineSo": "ONIGUM", "wmType": "Overhead" }, "geometry": { "type": "LineString", "coordinates": [ [ -94.461998, 47.129203000000103 ], [ -94.461653042658497, 47.129111819601299 ] ] } },
{ "type": "Feature", "properties": { "wmUplineSo": "ONIGUM", "wmType": "Overhead" }, "geometry": { "type": "LineString", "coordinates": [ [ -94.461653042658497, 47.129111819601299 ], [ -94.461356207107599, 47.129022764882301 ] ] } },
{ "type": "Feature", "properties": { "wmUplineSo": "ONIGUM", "wmType": "Overhead" }, "geometry": { "type": "LineString", "coordinates": [ [ -94.460355, 47.13111 ], [ -94.459401601682202, 47.131666393225899 ] ] } },
{ "type": "Feature", "properties": { "wmUplineSo": "ONIGUM", "wmType": "Overhead" }, "geometry": { "type": "LineString", "coordinates": [ [ -94.518885751841907, 47.095330499726202 ], [ -94.518890633471898, 47.095907724938399 ] ] } },
{ "type": "Feature", "properties": { "wmUplineSo": "ONIGUM", "wmType": "Overhead" }, "geometry": { "type": "LineString", "coordinates": [ [ -94.501497, 47.062893000000102 ], [ -94.501660287991101, 47.063499593781202 ] ] } },
{ "type": "Feature", "properties": { "wmUplineSo": "ONIGUM", "wmType": "Overhead" }, "geometry": { "type": "LineString", "coordinates": [ [ -94.465610000092198, 47.121907003592803 ], [ -94.465426000092194, 47.122323003593003 ] ] } },
{ "type": "Feature", "properties": { "wmUplineSo": "ONIGUM", "wmType": "Overhead" }, "geometry": { "type": "LineString", "coordinates": [ [ -94.465426000092194, 47.122323003593003 ], [ -94.465351999913906, 47.122735625334101 ] ] } },
{ "type": "Feature", "properties": { "wmUplineSo": "ONIGUM", "wmType": "Overhead" }, "geometry": { "type": "LineString", "coordinates": [ [ -94.465351999913906, 47.122735625334101 ], [ -94.465403, 47.123193 ] ] } },
{ "type": "Feature", "properties": { "wmUplineSo": "ONIGUM", "wmType": "Overhead" }, "geometry": { "type": "LineString", "coordinates": [ [ -94.465796144435402, 47.121603157226303 ], [ -94.465424528966594, 47.121565258641702 ] ] } },
{ "type": "Feature", "properties": { "wmUplineSo": "ONIGUM", "wmType": "Overhead" }, "geometry": { "type": "LineString", "coordinates": [ [ -94.501193490953995, 47.113018132205703 ], [ -94.5009618084962, 47.112875976488603 ] ] } },
{ "type": "Feature", "properties": { "wmUplineSo": "ONIGUM", "wmType": "Overhead" }, "geometry": { "type": "LineString", "coordinates": [ [ -94.564512208880402, 47.118361922474897 ], [ -94.564783966568001, 47.118827255232901 ] ] } },
{ "type": "Feature", "properties": { "wmUplineSo": "ONIGUM", "wmType": "Overhead" }, "geometry": { "type": "LineString", "coordinates": [ [ -94.507999914140797, 47.119290394718 ], [ -94.508726, 47.119577 ] ] } },
{ "type": "Feature", "properties": { "wmUplineSo": "ONIGUM", "wmType": "Overhead" }, "geometry": { "type": "LineString", "coordinates": [ [ -94.502846252108995, 47.054220376654897 ], [ -94.502836252864299, 47.054220375780297 ] ] } },
{ "type": "Feature", "properties": { "wmUplineSo": "ONIGUM", "wmType": "Overhead" }, "geometry": { "type": "LineString", "coordinates": [ [ -94.502836252864299, 47.054220375780297 ], [ -94.502774416465698, 47.055244813473699 ] ] } },
{ "type": "Feature", "properties": { "wmUplineSo": "ONIGUM", "wmType": "Overhead" }, "geometry": { "type": "LineString", "coordinates": [ [ -94.502774416465698, 47.055244813473699 ], [ -94.502769008643398, 47.055935510044598 ] ] } },
{ "type": "Feature", "properties": { "wmUplineSo": "ONIGUM", "wmType": "Overhead" }, "geometry": { "type": "LineString", "coordinates": [ [ -94.502769008643398, 47.055935510044598 ], [ -94.502780466157702, 47.0565703459716 ] ] } },
{ "type": "Feature", "properties": { "wmUplineSo": "ONIGUM", "wmType": "Overhead" }, "geometry": { "type": "LineString", "coordinates": [ [ -94.502780466157702, 47.0565703459716 ], [ -94.502780874932, 47.056966539711901 ] ] } },
{ "type": "Feature", "properties": { "wmUplineSo": "ONIGUM", "wmType": "Overhead" }, "geometry": { "type": "LineString", "coordinates": [ [ -94.502780874932, 47.056966539711901 ], [ -94.502775799693495, 47.057800024017801 ] ] } },
{ "type": "Feature", "properties": { "wmUplineSo": "ONIGUM", "wmType": "Overhead" }, "geometry": { "type": "LineString", "coordinates": [ [ -94.502775799693495, 47.057800024017801 ], [ -94.502766949098799, 47.058483230259696 ] ] } },
{ "type": "Feature", "properties": { "wmUplineSo": "ONIGUM", "wmType": "Overhead" }, "geometry": { "type": "LineString", "coordinates": [ [ -94.502766949098799, 47.058483230259696 ], [ -94.502778839181403, 47.059162158040003 ] ] } },
{ "type": "Feature", "properties": { "wmUplineSo": "ONIGUM", "wmType": "Overhead" }, "geometry": { "type": "LineString", "coordinates": [ [ -94.502778839181403, 47.059162158040003 ], [ -94.502819137589199, 47.059961856045 ] ] } },
{ "type": "Feature", "properties": { "wmUplineSo": "ONIGUM", "wmType": "Overhead" }, "geometry": { "type": "LineString", "coordinates": [ [ -94.520244210673695, 47.153384222830397 ], [ -94.519413826373906, 47.152856200400798 ] ] } },
{ "type": "Feature", "properties": { "wmUplineSo": "ONIGUM", "wmType": "Overhead" }, "geometry": { "type": "LineString", "coordinates": [ [ -94.519413826373906, 47.152856200400798 ], [ -94.518718, 47.152448 ] ] } },
{ "type": "Feature", "properties": { "wmUplineSo": "ONIGUM", "wmType": "Overhead" }, "geometry": { "type": "LineString", "coordinates": [ [ -94.5221663510561, 47.100184697593001 ], [ -94.522381354021306, 47.100230696945403 ] ] } },
{ "type": "Feature", "properties": { "wmUplineSo": "ONIGUM", "wmType": "Overhead" }, "geometry": { "type": "LineString", "coordinates": [ [ -94.520984489170004, 47.096884746645898 ], [ -94.521084444805695, 47.0977777340348 ] ] } },
{ "type": "Feature", "properties": { "wmUplineSo": "ONIGUM", "wmType": "Overhead" }, "geometry": { "type": "LineString", "coordinates": [ [ -94.521084444805695, 47.0977777340348 ], [ -94.521064000096104, 47.098666003586402 ] ] } },
{ "type": "Feature", "properties": { "wmUplineSo": "ONIGUM", "wmType": "Overhead" }, "geometry": { "type": "LineString", "coordinates": [ [ -94.502321796207895, 47.1181944059309 ], [ -94.500741743919207, 47.118257404310697 ] ] } },
{ "type": "Feature", "properties": { "wmUplineSo": "ONIGUM", "wmType": "Overhead" }, "geometry": { "type": "LineString", "coordinates": [ [ -94.500741743919207, 47.118257404310697 ], [ -94.499336700085607, 47.118307391855801 ] ] } },
{ "type": "Feature", "properties": { "wmUplineSo": "ONIGUM", "wmType": "Overhead" }, "geometry": { "type": "LineString", "coordinates": [ [ -94.499336700085607, 47.118307391855801 ], [ -94.497922654806004, 47.118434373657003 ] ] } },
{ "type": "Feature", "properties": { "wmUplineSo": "ONIGUM", "wmType": "Overhead" }, "geometry": { "type": "LineString", "coordinates": [ [ -94.497211600410395, 47.119030356870702 ], [ -94.4964795318092, 47.1199193357211 ] ] } },
{ "type": "Feature", "properties": { "wmUplineSo": "ONIGUM", "wmType": "Overhead" }, "geometry": { "type": "LineString", "coordinates": [ [ -94.4964795318092, 47.1199193357211 ], [ -94.494304443985897, 47.1203943048083 ] ] } },
{ "type": "Feature", "properties": { "wmUplineSo": "ONIGUM", "wmType": "Overhead" }, "geometry": { "type": "LineString", "coordinates": [ [ -94.494304443985897, 47.1203943048083 ], [ -94.493311378241799, 47.121060282740999 ] ] } },
{ "type": "Feature", "properties": { "wmUplineSo": "ONIGUM", "wmType": "Overhead" }, "geometry": { "type": "LineString", "coordinates": [ [ -94.493311378241799, 47.121060282740999 ], [ -94.492254318051593, 47.121652262116598 ] ] } },
{ "type": "Feature", "properties": { "wmUplineSo": "ONIGUM", "wmType": "Overhead" }, "geometry": { "type": "LineString", "coordinates": [ [ -94.505617964692703, 47.0982597124599 ], [ -94.5059639755776, 47.098275711837303 ] ] } },
{ "type": "Feature", "properties": { "wmUplineSo": "ONIGUM", "wmType": "Overhead" }, "geometry": { "type": "LineString", "coordinates": [ [ -94.533216723831501, 47.1380641355262 ], [ -94.532617334708107, 47.137208221935303 ] ] } },
{ "type": "Feature", "properties": { "wmUplineSo": "ONIGUM", "wmType": "Overhead" }, "geometry": { "type": "LineString", "coordinates": [ [ -94.537710049065595, 47.134539193467802 ], [ -94.537218013919997, 47.134917186487201 ] ] } },
{ "type": "Feature", "properties": { "wmUplineSo": "ONIGUM", "wmType": "Overhead" }, "geometry": { "type": "LineString", "coordinates": [ [ -94.537218013919997, 47.134917186487201 ], [ -94.536619966773699, 47.135457177713498 ] ] } },
{ "type": "Feature", "properties": { "wmUplineSo": "ONIGUM", "wmType": "Overhead" }, "geometry": { "type": "LineString", "coordinates": [ [ -94.536619966773699, 47.135457177713498 ], [ -94.536042892481106, 47.1365271614143 ] ] } },
{ "type": "Feature", "properties": { "wmUplineSo": "ONIGUM", "wmType": "Overhead" }, "geometry": { "type": "LineString", "coordinates": [ [ -94.536042892481106, 47.1365271614143 ], [ -94.535909850233907, 47.137254149951602 ] ] } },
{ "type": "Feature", "properties": { "wmUplineSo": "ONIGUM", "wmType": "Overhead" }, "geometry": { "type": "LineString", "coordinates": [ [ -94.535909850233907, 47.137254149951602 ], [ -94.535129782466996, 47.138089136747901 ] ] } },
{ "type": "Feature", "properties": { "wmUplineSo": "ONIGUM", "wmType": "Overhead" }, "geometry": { "type": "LineString", "coordinates": [ [ -94.535129782466996, 47.138089136747901 ], [ -94.534612721624001, 47.138972123022498 ] ] } },
{ "type": "Feature", "properties": { "wmUplineSo": "ONIGUM", "wmType": "Overhead" }, "geometry": { "type": "LineString", "coordinates": [ [ -94.518716373348298, 47.154844864813498 ], [ -94.518341328948495, 47.155436855748803 ] ] } },
{ "type": "Feature", "properties": { "wmUplineSo": "ONIGUM", "wmType": "Overhead" }, "geometry": { "type": "LineString", "coordinates": [ [ -94.518341328948495, 47.155436855748803 ], [ -94.517555275656505, 47.1559368473022 ] ] } },
{ "type": "Feature", "properties": { "wmUplineSo": "ONIGUM", "wmType": "Overhead" }, "geometry": { "type": "LineString", "coordinates": [ [ -94.517555275656505, 47.1559368473022 ], [ -94.516228212453996, 47.156313840056399 ] ] } },
{ "type": "Feature", "properties": { "wmUplineSo": "ONIGUM", "wmType": "Overhead" }, "geometry": { "type": "LineString", "coordinates": [ [ -94.518445000096506, 47.152221003601198 ], [ -94.518191495712003, 47.1521939041031 ] ] } },
{ "type": "Feature", "properties": { "wmUplineSo": "ONIGUM", "wmType": "Overhead" }, "geometry": { "type": "LineString", "coordinates": [ [ -94.522898469616294, 47.153285136940397 ], [ -94.522292846902602, 47.153421031364402 ] ] } },
{ "type": "Feature", "properties": { "wmUplineSo": "ONIGUM", "wmType": "Overhead" }, "geometry": { "type": "LineString", "coordinates": [ [ -94.524762196375505, 47.151263581277497 ], [ -94.524445710369605, 47.151828589194302 ] ] } },
{ "type": "Feature", "properties": { "wmUplineSo": "ONIGUM", "wmType": "Overhead" }, "geometry": { "type": "LineString", "coordinates": [ [ -94.524445710369605, 47.151828589194302 ], [ -94.524034, 47.152800999999897 ] ] } },
{ "type": "Feature", "properties": { "wmUplineSo": "ONIGUM", "wmType": "Overhead" }, "geometry": { "type": "LineString", "coordinates": [ [ -94.524034, 47.152800999999897 ], [ -94.523505621701304, 47.153148894999802 ] ] } },
{ "type": "Feature", "properties": { "wmUplineSo": "ONIGUM", "wmType": "Overhead" }, "geometry": { "type": "LineString", "coordinates": [ [ -94.466034015465496, 47.090657945818798 ], [ -94.466336474245793, 47.091208166949698 ] ] } },
{ "type": "Feature", "properties": { "wmUplineSo": "ONIGUM", "wmType": "Overhead" }, "geometry": { "type": "LineString", "coordinates": [ [ -94.466272, 47.092705000000102 ], [ -94.466013072349895, 47.093359356119997 ] ] } },
{ "type": "Feature", "properties": { "wmUplineSo": "ONIGUM", "wmType": "Overhead" }, "geometry": { "type": "LineString", "coordinates": [ [ -94.502918354785905, 47.078406982087103 ], [ -94.502939, 47.079107 ] ] } },
{ "type": "Feature", "properties": { "wmUplineSo": "ONIGUM", "wmType": "Overhead" }, "geometry": { "type": "LineString", "coordinates": [ [ -94.502939, 47.079107 ], [ -94.502916354602903, 47.079734336342099 ] ] } },
{ "type": "Feature", "properties": { "wmUplineSo": "ONIGUM", "wmType": "Overhead" }, "geometry": { "type": "LineString", "coordinates": [ [ -94.502916354602903, 47.079734336342099 ], [ -94.502937999935895, 47.080523542185198 ] ] } },
{ "type": "Feature", "properties": { "wmUplineSo": "ONIGUM", "wmType": "Overhead" }, "geometry": { "type": "LineString", "coordinates": [ [ -94.502937999935895, 47.080523542185198 ], [ -94.502901804801496, 47.081157968330899 ] ] } },
{ "type": "Feature", "properties": { "wmUplineSo": "ONIGUM", "wmType": "Overhead" }, "geometry": { "type": "LineString", "coordinates": [ [ -94.5029898078283, 47.075423585535503 ], [ -94.502965556038504, 47.076169518669197 ] ] } },
{ "type": "Feature", "properties": { "wmUplineSo": "ONIGUM", "wmType": "Overhead" }, "geometry": { "type": "LineString", "coordinates": [ [ -94.502965556038504, 47.076169518669197 ], [ -94.502939262445395, 47.076912791601998 ] ] } },
{ "type": "Feature", "properties": { "wmUplineSo": "ONIGUM", "wmType": "Overhead" }, "geometry": { "type": "LineString", "coordinates": [ [ -94.502939262445395, 47.076912791601998 ], [ -94.502904991644101, 47.077698021315001 ] ] } },
{ "type": "Feature", "properties": { "wmUplineSo": "ONIGUM", "wmType": "Overhead" }, "geometry": { "type": "LineString", "coordinates": [ [ -94.502988480224801, 47.070061890868601 ], [ -94.502992542644805, 47.070765806026799 ] ] } },
{ "type": "Feature", "properties": { "wmUplineSo": "ONIGUM", "wmType": "Overhead" }, "geometry": { "type": "LineString", "coordinates": [ [ -94.502992542644805, 47.070765806026799 ], [ -94.502971618501405, 47.0714902008352 ] ] } },
{ "type": "Feature", "properties": { "wmUplineSo": "ONIGUM", "wmType": "Overhead" }, "geometry": { "type": "LineString", "coordinates": [ [ -94.502971618501405, 47.0714902008352 ], [ -94.502972694026099, 47.072227741306797 ] ] } },
{ "type": "Feature", "properties": { "wmUplineSo": "ONIGUM", "wmType": "Overhead" }, "geometry": { "type": "LineString", "coordinates": [ [ -94.502972694026099, 47.072227741306797 ], [ -94.502973960577606, 47.072902136997101 ] ] } },
{ "type": "Feature", "properties": { "wmUplineSo": "ONIGUM", "wmType": "Overhead" }, "geometry": { "type": "LineString", "coordinates": [ [ -94.502973960577606, 47.072902136997101 ], [ -94.502979802722507, 47.0735294517848 ] ] } },
{ "type": "Feature", "properties": { "wmUplineSo": "ONIGUM", "wmType": "Overhead" }, "geometry": { "type": "LineString", "coordinates": [ [ -94.502979802722507, 47.0735294517848 ], [ -94.502986476052698, 47.074186311508797 ] ] } },
{ "type": "Feature", "properties": { "wmUplineSo": "ONIGUM", "wmType": "Overhead" }, "geometry": { "type": "LineString", "coordinates": [ [ -94.502986476052698, 47.074186311508797 ], [ -94.502971339355497, 47.074766880761203 ] ] } },
{ "type": "Feature", "properties": { "wmUplineSo": "ONIGUM", "wmType": "Overhead" }, "geometry": { "type": "LineString", "coordinates": [ [ -94.502971339355497, 47.074766880761203 ], [ -94.5029898078283, 47.075423585535503 ] ] } },
{ "type": "Feature", "properties": { "wmUplineSo": "ONIGUM", "wmType": "Overhead" }, "geometry": { "type": "LineString", "coordinates": [ [ -94.534608524036202, 47.140637943634601 ], [ -94.534547848915196, 47.141466287956298 ] ] } },
{ "type": "Feature", "properties": { "wmUplineSo": "ONIGUM", "wmType": "Overhead" }, "geometry": { "type": "LineString", "coordinates": [ [ -94.534547848915196, 47.141466287956298 ], [ -94.534678202826598, 47.142184122946297 ] ] } },
{ "type": "Feature", "properties": { "wmUplineSo": "ONIGUM", "wmType": "Overhead" }, "geometry": { "type": "LineString", "coordinates": [ [ -94.534678202826598, 47.142184122946297 ], [ -94.5347484176595, 47.143294087551197 ] ] } },
{ "type": "Feature", "properties": { "wmUplineSo": "ONIGUM", "wmType": "Overhead" }, "geometry": { "type": "LineString", "coordinates": [ [ -94.5347484176595, 47.143294087551197 ], [ -94.534736485085801, 47.1436370527856 ] ] } },
{ "type": "Feature", "properties": { "wmUplineSo": "ONIGUM", "wmType": "Overhead" }, "geometry": { "type": "LineString", "coordinates": [ [ -94.534736485085801, 47.1436370527856 ], [ -94.534632021785001, 47.144328378834601 ] ] } },
{ "type": "Feature", "properties": { "wmUplineSo": "ONIGUM", "wmType": "Overhead" }, "geometry": { "type": "LineString", "coordinates": [ [ -94.534632021785001, 47.144328378834601 ], [ -94.534418893915799, 47.145059920489999 ] ] } },
{ "type": "Feature", "properties": { "wmUplineSo": "ONIGUM", "wmType": "Overhead" }, "geometry": { "type": "LineString", "coordinates": [ [ -94.534418893915799, 47.145059920489999 ], [ -94.534214347311604, 47.145761991037901 ] ] } },
{ "type": "Feature", "properties": { "wmUplineSo": "ONIGUM", "wmType": "Overhead" }, "geometry": { "type": "LineString", "coordinates": [ [ -94.534214347311604, 47.145761991037901 ], [ -94.533986314907295, 47.146467007886699 ] ] } },
{ "type": "Feature", "properties": { "wmUplineSo": "ONIGUM", "wmType": "Overhead" }, "geometry": { "type": "LineString", "coordinates": [ [ -94.533986314907295, 47.146467007886699 ], [ -94.533577248681098, 47.147503991464703 ] ] } },
{ "type": "Feature", "properties": { "wmUplineSo": "ONIGUM", "wmType": "Overhead" }, "geometry": { "type": "LineString", "coordinates": [ [ -94.533577248681098, 47.147503991464703 ], [ -94.532647618337904, 47.148511431276802 ] ] } },
{ "type": "Feature", "properties": { "wmUplineSo": "ONIGUM", "wmType": "Overhead" }, "geometry": { "type": "LineString", "coordinates": [ [ -94.532647618337904, 47.148511431276802 ], [ -94.532082473208703, 47.148690559412003 ] ] } },
{ "type": "Feature", "properties": { "wmUplineSo": "ONIGUM", "wmType": "Overhead" }, "geometry": { "type": "LineString", "coordinates": [ [ -94.532082473208703, 47.148690559412003 ], [ -94.530405139064001, 47.149223694090203 ] ] } },
{ "type": "Feature", "properties": { "wmUplineSo": "ONIGUM", "wmType": "Overhead" }, "geometry": { "type": "LineString", "coordinates": [ [ -94.530405139064001, 47.149223694090203 ], [ -94.529566510451502, 47.149492037355202 ] ] } },
{ "type": "Feature", "properties": { "wmUplineSo": "ONIGUM", "wmType": "Overhead" }, "geometry": { "type": "LineString", "coordinates": [ [ -94.534144667957804, 47.139732110595098 ], [ -94.533732664947905, 47.139507113533497 ] ] } },
{ "type": "Feature", "properties": { "wmUplineSo": "ONIGUM", "wmType": "Overhead" }, "geometry": { "type": "LineString", "coordinates": [ [ -94.502919278301604, 47.064783538182297 ], [ -94.502919557885207, 47.065492877408303 ] ] } },
{ "type": "Feature", "properties": { "wmUplineSo": "ONIGUM", "wmType": "Overhead" }, "geometry": { "type": "LineString", "coordinates": [ [ -94.502919557885207, 47.065492877408303 ], [ -94.502928001535594, 47.066212857013902 ] ] } },
{ "type": "Feature", "properties": { "wmUplineSo": "ONIGUM", "wmType": "Overhead" }, "geometry": { "type": "LineString", "coordinates": [ [ -94.502928001535594, 47.066212857013902 ], [ -94.502989133798295, 47.0669885699497 ] ] } },
{ "type": "Feature", "properties": { "wmUplineSo": "ONIGUM", "wmType": "Overhead" }, "geometry": { "type": "LineString", "coordinates": [ [ -94.502912519500697, 47.063424052780697 ], [ -94.502924288762799, 47.064122493736797 ] ] } },
{ "type": "Feature", "properties": { "wmUplineSo": "ONIGUM", "wmType": "Overhead" }, "geometry": { "type": "LineString", "coordinates": [ [ -94.502840656987701, 47.060587622948603 ], [ -94.502873359851307, 47.061331466892497 ] ] } },
{ "type": "Feature", "properties": { "wmUplineSo": "ONIGUM", "wmType": "Overhead" }, "geometry": { "type": "LineString", "coordinates": [ [ -94.502873359851307, 47.061331466892497 ], [ -94.502865701014798, 47.0620382238031 ] ] } },
{ "type": "Feature", "properties": { "wmUplineSo": "ONIGUM", "wmType": "Overhead" }, "geometry": { "type": "LineString", "coordinates": [ [ -94.502865701014798, 47.0620382238031 ], [ -94.502907326223493, 47.062749707586299 ] ] } },
{ "type": "Feature", "properties": { "wmUplineSo": "ONIGUM", "wmType": "Overhead" }, "geometry": { "type": "LineString", "coordinates": [ [ -94.502706335623301, 47.089830837436203 ], [ -94.502674291435895, 47.090615824632899 ] ] } },
{ "type": "Feature", "properties": { "wmUplineSo": "ONIGUM", "wmType": "Overhead" }, "geometry": { "type": "LineString", "coordinates": [ [ -94.502721661772895, 47.0837609291872 ], [ -94.502723618492595, 47.084555917528597 ] ] } },
{ "type": "Feature", "properties": { "wmUplineSo": "ONIGUM", "wmType": "Overhead" }, "geometry": { "type": "LineString", "coordinates": [ [ -94.502723618492595, 47.084555917528597 ], [ -94.502701580458904, 47.085240907428002 ] ] } },
{ "type": "Feature", "properties": { "wmUplineSo": "ONIGUM", "wmType": "Overhead" }, "geometry": { "type": "LineString", "coordinates": [ [ -94.502701580458904, 47.085240907428002 ], [ -94.502676541506801, 47.085970895980402 ] ] } },
{ "type": "Feature", "properties": { "wmUplineSo": "ONIGUM", "wmType": "Overhead" }, "geometry": { "type": "LineString", "coordinates": [ [ -94.502676541506801, 47.085970895980402 ], [ -94.502693495833299, 47.086817882959799 ] ] } },
{ "type": "Feature", "properties": { "wmUplineSo": "ONIGUM", "wmType": "Overhead" }, "geometry": { "type": "LineString", "coordinates": [ [ -94.502693495833299, 47.086817882959799 ], [ -94.502696455458803, 47.0875678705697 ] ] } },
{ "type": "Feature", "properties": { "wmUplineSo": "ONIGUM", "wmType": "Overhead" }, "geometry": { "type": "LineString", "coordinates": [ [ -94.502696455458803, 47.0875678705697 ], [ -94.502714415150805, 47.088334860170399 ] ] } },
{ "type": "Feature", "properties": { "wmUplineSo": "ONIGUM", "wmType": "Overhead" }, "geometry": { "type": "LineString", "coordinates": [ [ -94.502714415150805, 47.088334860170399 ], [ -94.502686376376502, 47.089037848538503 ] ] } },
{ "type": "Feature", "properties": { "wmUplineSo": "ONIGUM", "wmType": "Overhead" }, "geometry": { "type": "LineString", "coordinates": [ [ -94.502823053589395, 47.092792397220499 ], [ -94.502771146394593, 47.093342784549002 ] ] } },
{ "type": "Feature", "properties": { "wmUplineSo": "ONIGUM", "wmType": "Overhead" }, "geometry": { "type": "LineString", "coordinates": [ [ -94.502771146394593, 47.093342784549002 ], [ -94.502834113776004, 47.094004774486201 ] ] } },
{ "type": "Feature", "properties": { "wmUplineSo": "ONIGUM", "wmType": "Overhead" }, "geometry": { "type": "LineString", "coordinates": [ [ -94.498838171488799, 47.090775802542602 ], [ -94.497676104892903, 47.091364779972999 ] ] } },
{ "type": "Feature", "properties": { "wmUplineSo": "ONIGUM", "wmType": "Overhead" }, "geometry": { "type": "LineString", "coordinates": [ [ -94.497676104892903, 47.091364779972999 ], [ -94.496591043412806, 47.091914757943698 ] ] } },
{ "type": "Feature", "properties": { "wmUplineSo": "ONIGUM", "wmType": "Overhead" }, "geometry": { "type": "LineString", "coordinates": [ [ -94.496591043412806, 47.091914757943698 ], [ -94.495438981731795, 47.0924457355651 ] ] } },
{ "type": "Feature", "properties": { "wmUplineSo": "ONIGUM", "wmType": "Overhead" }, "geometry": { "type": "LineString", "coordinates": [ [ -94.501663331659302, 47.089302844158503 ], [ -94.500463293634397, 47.089379841773301 ] ] } },
{ "type": "Feature", "properties": { "wmUplineSo": "ONIGUM", "wmType": "Overhead" }, "geometry": { "type": "LineString", "coordinates": [ [ -94.500463293634397, 47.089379841773301 ], [ -94.500103262212804, 47.089785834203397 ] ] } },
{ "type": "Feature", "properties": { "wmUplineSo": "ONIGUM", "wmType": "Overhead" }, "geometry": { "type": "LineString", "coordinates": [ [ -94.500103262212804, 47.089785834203397 ], [ -94.499869235748207, 47.0901358253317 ] ] } },
{ "type": "Feature", "properties": { "wmUplineSo": "ONIGUM", "wmType": "Overhead" }, "geometry": { "type": "LineString", "coordinates": [ [ -94.516988020812093, 47.122517354467398 ], [ -94.518202045403697, 47.122987268701003 ] ] } },
{ "type": "Feature", "properties": { "wmUplineSo": "ONIGUM", "wmType": "Overhead" }, "geometry": { "type": "LineString", "coordinates": [ [ -94.519756880186307, 47.123541880448201 ], [ -94.520070059662899, 47.123646453477797 ] ] } },
{ "type": "Feature", "properties": { "wmUplineSo": "ONIGUM", "wmType": "Overhead" }, "geometry": { "type": "LineString", "coordinates": [ [ -94.504267932928698, 47.116750430359602 ], [ -94.504494903437404, 47.117449419827601 ] ] } },
{ "type": "Feature", "properties": { "wmUplineSo": "ONIGUM", "wmType": "Overhead" }, "geometry": { "type": "LineString", "coordinates": [ [ -94.504494903437404, 47.117449419827601 ], [ -94.505129889500694, 47.118090410699303 ] ] } },
{ "type": "Feature", "properties": { "wmUplineSo": "ONIGUM", "wmType": "Overhead" }, "geometry": { "type": "LineString", "coordinates": [ [ -94.505129889500694, 47.118090410699303 ], [ -94.505382889001098, 47.118237408148097 ] ] } },
{ "type": "Feature", "properties": { "wmUplineSo": "ONIGUM", "wmType": "Overhead" }, "geometry": { "type": "LineString", "coordinates": [ [ -94.504907072357099, 47.114529463915503 ], [ -94.505305079333894, 47.114657462753101 ] ] } },
{ "type": "Feature", "properties": { "wmUplineSo": "ONIGUM", "wmType": "Overhead" }, "geometry": { "type": "LineString", "coordinates": [ [ -94.505305079333894, 47.114657462753101 ], [ -94.505693097565796, 47.114524465824303 ] ] } },
{ "type": "Feature", "properties": { "wmUplineSo": "ONIGUM", "wmType": "Overhead" }, "geometry": { "type": "LineString", "coordinates": [ [ -94.505693097565796, 47.114524465824303 ], [ -94.506538123353394, 47.1145154667093 ] ] } },
{ "type": "Feature", "properties": { "wmUplineSo": "ONIGUM", "wmType": "Overhead" }, "geometry": { "type": "LineString", "coordinates": [ [ -94.506538123353394, 47.1145154667093 ], [ -94.506756755710796, 47.114753983084803 ] ] } },
{ "type": "Feature", "properties": { "wmUplineSo": "ONIGUM", "wmType": "Overhead" }, "geometry": { "type": "LineString", "coordinates": [ [ -94.541817814626498, 47.122084385435699 ], [ -94.542532828396403, 47.122240384175498 ] ] } },
{ "type": "Feature", "properties": { "wmUplineSo": "ONIGUM", "wmType": "Overhead" }, "geometry": { "type": "LineString", "coordinates": [ [ -94.542532828396403, 47.122240384175498 ], [ -94.5428408119583, 47.122757376114798 ] ] } },
{ "type": "Feature", "properties": { "wmUplineSo": "ONIGUM", "wmType": "Overhead" }, "geometry": { "type": "LineString", "coordinates": [ [ -94.542738737333806, 47.124160355295203 ], [ -94.542720691798806, 47.125012341592402 ] ] } },
{ "type": "Feature", "properties": { "wmUplineSo": "ONIGUM", "wmType": "Overhead" }, "geometry": { "type": "LineString", "coordinates": [ [ -94.542720691798806, 47.125012341592402 ], [ -94.542828000098098, 47.125319003593702 ] ] } },
{ "type": "Feature", "properties": { "wmUplineSo": "ONIGUM", "wmType": "Overhead" }, "geometry": { "type": "LineString", "coordinates": [ [ -94.544033205922503, 47.110872828836001 ], [ -94.544369291290707, 47.110383709215597 ] ] } },
{ "type": "Feature", "properties": { "wmUplineSo": "ONIGUM", "wmType": "Overhead" }, "geometry": { "type": "LineString", "coordinates": [ [ -94.541868335903899, 47.111869539906898 ], [ -94.540973324399104, 47.111569543207899 ] ] } },
{ "type": "Feature", "properties": { "wmUplineSo": "ONIGUM", "wmType": "Overhead" }, "geometry": { "type": "LineString", "coordinates": [ [ -94.540973324399104, 47.111569543207899 ], [ -94.540789332796393, 47.111297547310599 ] ] } },
{ "type": "Feature", "properties": { "wmUplineSo": "ONIGUM", "wmType": "Overhead" }, "geometry": { "type": "LineString", "coordinates": [ [ -94.542663273144797, 47.113579514845902 ], [ -94.543039281696593, 47.113620513971703 ] ] } },
{ "type": "Feature", "properties": { "wmUplineSo": "ONIGUM", "wmType": "Overhead" }, "geometry": { "type": "LineString", "coordinates": [ [ -94.5222502220075, 47.096154190960497 ], [ -94.522269224690206, 47.096111190793302 ] ] } },
{ "type": "Feature", "properties": { "wmUplineSo": "ONIGUM", "wmType": "Overhead" }, "geometry": { "type": "LineString", "coordinates": [ [ -94.522269224690206, 47.096111190793302 ], [ -94.523111594323098, 47.096064761855502 ] ] } },
{ "type": "Feature", "properties": { "wmUplineSo": "ONIGUM", "wmType": "Overhead" }, "geometry": { "type": "LineString", "coordinates": [ [ -94.523111594323098, 47.096064761855502 ], [ -94.523701600653098, 47.096259759549397 ] ] } },
{ "type": "Feature", "properties": { "wmUplineSo": "ONIGUM", "wmType": "Overhead" }, "geometry": { "type": "LineString", "coordinates": [ [ -94.523701600653098, 47.096259759549397 ], [ -94.524659599772093, 47.096397649111701 ] ] } },
{ "type": "Feature", "properties": { "wmUplineSo": "ONIGUM", "wmType": "Overhead" }, "geometry": { "type": "LineString", "coordinates": [ [ -94.502399553678103, 47.067010181884001 ], [ -94.501100521291704, 47.066961182122 ] ] } },
{ "type": "Feature", "properties": { "wmUplineSo": "ONIGUM", "wmType": "Overhead" }, "geometry": { "type": "LineString", "coordinates": [ [ -94.501100521291704, 47.066961182122 ], [ -94.4998054838901, 47.066965174745199 ] ] } },
{ "type": "Feature", "properties": { "wmUplineSo": "ONIGUM", "wmType": "Overhead" }, "geometry": { "type": "LineString", "coordinates": [ [ -94.4998054838901, 47.066965174745199 ], [ -94.498227438367195, 47.066915154557798 ] ] } },
{ "type": "Feature", "properties": { "wmUplineSo": "ONIGUM", "wmType": "Overhead" }, "geometry": { "type": "LineString", "coordinates": [ [ -94.498227438367195, 47.066915154557798 ], [ -94.497389411656499, 47.066973142082503 ] ] } },
{ "type": "Feature", "properties": { "wmUplineSo": "ONIGUM", "wmType": "Overhead" }, "geometry": { "type": "LineString", "coordinates": [ [ -94.497389411656499, 47.066973142082503 ], [ -94.497095372924704, 47.067533129500099 ] ] } },
{ "type": "Feature", "properties": { "wmUplineSo": "ONIGUM", "wmType": "Overhead" }, "geometry": { "type": "LineString", "coordinates": [ [ -94.497095372924704, 47.067533129500099 ], [ -94.496999361167298, 47.067683126129701 ] ] } },
{ "type": "Feature", "properties": { "wmUplineSo": "ONIGUM", "wmType": "Overhead" }, "geometry": { "type": "LineString", "coordinates": [ [ -94.503013872350706, 47.067748133866502 ], [ -94.503014680791594, 47.068546133622498 ] ] } },
{ "type": "Feature", "properties": { "wmUplineSo": "ONIGUM", "wmType": "Overhead" }, "geometry": { "type": "LineString", "coordinates": [ [ -94.503014680791594, 47.068546133622498 ], [ -94.502987403233803, 47.069394209634602 ] ] } },
{ "type": "Feature", "properties": { "wmUplineSo": "ONIGUM", "wmType": "Overhead" }, "geometry": { "type": "LineString", "coordinates": [ [ -94.496067571346401, 47.068416708846797 ], [ -94.494725244837696, 47.068610081513299 ] ] } },
{ "type": "Feature", "properties": { "wmUplineSo": "ONIGUM", "wmType": "Overhead" }, "geometry": { "type": "LineString", "coordinates": [ [ -94.564158383360194, 47.124612369151599 ], [ -94.563893350151204, 47.125125361468001 ] ] } },
{ "type": "Feature", "properties": { "wmUplineSo": "ONIGUM", "wmType": "Overhead" }, "geometry": { "type": "LineString", "coordinates": [ [ -94.563893350151204, 47.125125361468001 ], [ -94.564181313883495, 47.126042348585202 ] ] } },
{ "type": "Feature", "properties": { "wmUplineSo": "ONIGUM", "wmType": "Overhead" }, "geometry": { "type": "LineString", "coordinates": [ [ -94.564181313883495, 47.126042348585202 ], [ -94.564523278094995, 47.126997333490699 ] ] } },
{ "type": "Feature", "properties": { "wmUplineSo": "ONIGUM", "wmType": "Overhead" }, "geometry": { "type": "LineString", "coordinates": [ [ -94.564523278094995, 47.126997333490699 ], [ -94.565372405604194, 47.1276556765661 ] ] } },
{ "type": "Feature", "properties": { "wmUplineSo": "ONIGUM", "wmType": "Overhead" }, "geometry": { "type": "LineString", "coordinates": [ [ -94.565372405604194, 47.1276556765661 ], [ -94.565914981848593, 47.128183947825903 ] ] } },
{ "type": "Feature", "properties": { "wmUplineSo": "ONIGUM", "wmType": "Overhead" }, "geometry": { "type": "LineString", "coordinates": [ [ -94.565914981848593, 47.128183947825903 ], [ -94.566695603608693, 47.128317073155401 ] ] } },
{ "type": "Feature", "properties": { "wmUplineSo": "ONIGUM", "wmType": "Overhead" }, "geometry": { "type": "LineString", "coordinates": [ [ -94.566695603608693, 47.128317073155401 ], [ -94.568219041527698, 47.128429376038902 ] ] } },
{ "type": "Feature", "properties": { "wmUplineSo": "ONIGUM", "wmType": "Overhead" }, "geometry": { "type": "LineString", "coordinates": [ [ -94.568219041527698, 47.128429376038902 ], [ -94.568847858043995, 47.1283875411347 ] ] } },
{ "type": "Feature", "properties": { "wmUplineSo": "ONIGUM", "wmType": "Overhead" }, "geometry": { "type": "LineString", "coordinates": [ [ -94.550142974955506, 47.109134182894799 ], [ -94.551203729597901, 47.109645582404703 ] ] } },
{ "type": "Feature", "properties": { "wmUplineSo": "ONIGUM", "wmType": "Overhead" }, "geometry": { "type": "LineString", "coordinates": [ [ -94.552067377236, 47.110409355407697 ], [ -94.552973709625505, 47.111119561970703 ] ] } },
{ "type": "Feature", "properties": { "wmUplineSo": "ONIGUM", "wmType": "Overhead" }, "geometry": { "type": "LineString", "coordinates": [ [ -94.552973709625505, 47.111119561970703 ], [ -94.553833717342201, 47.111505557320299 ] ] } },
{ "type": "Feature", "properties": { "wmUplineSo": "ONIGUM", "wmType": "Overhead" }, "geometry": { "type": "LineString", "coordinates": [ [ -94.553833717342201, 47.111505557320299 ], [ -94.5549047240862, 47.112015549839199 ] ] } },
{ "type": "Feature", "properties": { "wmUplineSo": "ONIGUM", "wmType": "Overhead" }, "geometry": { "type": "LineString", "coordinates": [ [ -94.5549047240862, 47.112015549839199 ], [ -94.556019727164596, 47.112619541489899 ] ] } },
{ "type": "Feature", "properties": { "wmUplineSo": "ONIGUM", "wmType": "Overhead" }, "geometry": { "type": "LineString", "coordinates": [ [ -94.556019727164596, 47.112619541489899 ], [ -94.556831728066996, 47.113105536155402 ] ] } },
{ "type": "Feature", "properties": { "wmUplineSo": "ONIGUM", "wmType": "Overhead" }, "geometry": { "type": "LineString", "coordinates": [ [ -94.556831728066996, 47.113105536155402 ], [ -94.558144767738099, 47.113092537171298 ] ] } },
{ "type": "Feature", "properties": { "wmUplineSo": "ONIGUM", "wmType": "Overhead" }, "geometry": { "type": "LineString", "coordinates": [ [ -94.558144767738099, 47.113092537171298 ], [ -94.559664820913994, 47.112960540133798 ] ] } },
{ "type": "Feature", "properties": { "wmUplineSo": "ONIGUM", "wmType": "Overhead" }, "geometry": { "type": "LineString", "coordinates": [ [ -94.559664820913994, 47.112960540133798 ], [ -94.560128829284395, 47.113102538309199 ] ] } },
{ "type": "Feature", "properties": { "wmUplineSo": "ONIGUM", "wmType": "Overhead" }, "geometry": { "type": "LineString", "coordinates": [ [ -94.560128829284395, 47.113102538309199 ], [ -94.560658846789707, 47.113070539521999 ] ] } },
{ "type": "Feature", "properties": { "wmUplineSo": "ONIGUM", "wmType": "Overhead" }, "geometry": { "type": "LineString", "coordinates": [ [ -94.560174848069593, 47.112740542957603 ], [ -94.559683850517104, 47.112394548911404 ] ] } },
{ "type": "Feature", "properties": { "wmUplineSo": "ONIGUM", "wmType": "Overhead" }, "geometry": { "type": "LineString", "coordinates": [ [ -94.559683850517104, 47.112394548911404 ], [ -94.559779859793593, 47.112237550640899 ] ] } },
{ "type": "Feature", "properties": { "wmUplineSo": "ONIGUM", "wmType": "Overhead" }, "geometry": { "type": "LineString", "coordinates": [ [ -94.546699973204099, 47.102135690445799 ], [ -94.546311992244199, 47.1015506988198 ] ] } },
{ "type": "Feature", "properties": { "wmUplineSo": "ONIGUM", "wmType": "Overhead" }, "geometry": { "type": "LineString", "coordinates": [ [ -94.545217902324495, 47.101011857600803 ], [ -94.544184131185204, 47.100568660237201 ] ] } },
{ "type": "Feature", "properties": { "wmUplineSo": "ONIGUM", "wmType": "Overhead" }, "geometry": { "type": "LineString", "coordinates": [ [ -94.547069040075897, 47.101042707961703 ], [ -94.547152066617301, 47.100564714872199 ] ] } },
{ "type": "Feature", "properties": { "wmUplineSo": "ONIGUM", "wmType": "Overhead" }, "geometry": { "type": "LineString", "coordinates": [ [ -94.547152066617301, 47.100564714872199 ], [ -94.547349104400794, 47.099927724027999 ] ] } },
{ "type": "Feature", "properties": { "wmUplineSo": "ONIGUM", "wmType": "Overhead" }, "geometry": { "type": "LineString", "coordinates": [ [ -94.548669089671193, 47.104966055908001 ], [ -94.548244714791693, 47.104177512097102 ] ] } },
{ "type": "Feature", "properties": { "wmUplineSo": "ONIGUM", "wmType": "Overhead" }, "geometry": { "type": "LineString", "coordinates": [ [ -94.542619126138007, 47.116430471716001 ], [ -94.542578175023806, 47.115454486685202 ] ] } },
{ "type": "Feature", "properties": { "wmUplineSo": "ONIGUM", "wmType": "Overhead" }, "geometry": { "type": "LineString", "coordinates": [ [ -94.523475519170702, 47.1584289848252 ], [ -94.521747, 47.158432 ] ] } },
{ "type": "Feature", "properties": { "wmUplineSo": "ONIGUM", "wmType": "Overhead" }, "geometry": { "type": "LineString", "coordinates": [ [ -94.525740683839899, 47.157659002368199 ], [ -94.524774424871595, 47.1582558617377 ] ] } },
{ "type": "Feature", "properties": { "wmUplineSo": "ONIGUM", "wmType": "Overhead" }, "geometry": { "type": "LineString", "coordinates": [ [ -94.526091591984596, 47.155376865038903 ], [ -94.526113553555007, 47.156138853497502 ] ] } },
{ "type": "Feature", "properties": { "wmUplineSo": "ONIGUM", "wmType": "Overhead" }, "geometry": { "type": "LineString", "coordinates": [ [ -94.526113553555007, 47.156138853497502 ], [ -94.526118368173002, 47.156955557710603 ] ] } },
{ "type": "Feature", "properties": { "wmUplineSo": "ONIGUM", "wmType": "Overhead" }, "geometry": { "type": "LineString", "coordinates": [ [ -94.526147821520098, 47.152173546643901 ], [ -94.526123572295404, 47.153117844731497 ] ] } },
{ "type": "Feature", "properties": { "wmUplineSo": "ONIGUM", "wmType": "Overhead" }, "geometry": { "type": "LineString", "coordinates": [ [ -94.526123572295404, 47.153117844731497 ], [ -94.526276615570296, 47.153509564739998 ] ] } },
{ "type": "Feature", "properties": { "wmUplineSo": "ONIGUM", "wmType": "Overhead" }, "geometry": { "type": "LineString", "coordinates": [ [ -94.526276615570296, 47.153509564739998 ], [ -94.526254000097097, 47.153942003601799 ] ] } },
{ "type": "Feature", "properties": { "wmUplineSo": "ONIGUM", "wmType": "Overhead" }, "geometry": { "type": "LineString", "coordinates": [ [ -94.5184011849896, 47.158231812465097 ], [ -94.517730150704494, 47.158436809504899 ] ] } },
{ "type": "Feature", "properties": { "wmUplineSo": "ONIGUM", "wmType": "Overhead" }, "geometry": { "type": "LineString", "coordinates": [ [ -94.517730150704494, 47.158436809504899 ], [ -94.516978113180897, 47.1586798041875 ] ] } },
{ "type": "Feature", "properties": { "wmUplineSo": "ONIGUM", "wmType": "Overhead" }, "geometry": { "type": "LineString", "coordinates": [ [ -94.519156172146694, 47.158958802822497 ], [ -94.519135145735902, 47.1594267951495 ] ] } },
{ "type": "Feature", "properties": { "wmUplineSo": "ONIGUM", "wmType": "Overhead" }, "geometry": { "type": "LineString", "coordinates": [ [ -94.515455196984604, 47.1561088424275 ], [ -94.515419833841904, 47.155297299166598 ], [ -94.514884793565898, 47.154953907111199 ] ] } },
{ "type": "Feature", "properties": { "wmUplineSo": "ONIGUM", "wmType": "Overhead" }, "geometry": { "type": "LineString", "coordinates": [ [ -94.514275137917593, 47.156463834980002 ], [ -94.514450162483399, 47.156113840523602 ] ] } },
{ "type": "Feature", "properties": { "wmUplineSo": "ONIGUM", "wmType": "Overhead" }, "geometry": { "type": "LineString", "coordinates": [ [ -94.513033074459102, 47.156889827875197 ], [ -94.512685061617105, 47.156916826522703 ] ] } },
{ "type": "Feature", "properties": { "wmUplineSo": "ONIGUM", "wmType": "Overhead" }, "geometry": { "type": "LineString", "coordinates": [ [ -94.542660600336703, 47.126779315743903 ], [ -94.542737553900494, 47.1277403011849 ] ] } },
{ "type": "Feature", "properties": { "wmUplineSo": "ONIGUM", "wmType": "Overhead" }, "geometry": { "type": "LineString", "coordinates": [ [ -94.542737553900494, 47.1277403011849 ], [ -94.542646796687706, 47.128381678264802 ] ] } },
{ "type": "Feature", "properties": { "wmUplineSo": "ONIGUM", "wmType": "Overhead" }, "geometry": { "type": "LineString", "coordinates": [ [ -94.542646796687706, 47.128381678264802 ], [ -94.542549236401001, 47.128952128071703 ] ] } },
{ "type": "Feature", "properties": { "wmUplineSo": "ONIGUM", "wmType": "Overhead" }, "geometry": { "type": "LineString", "coordinates": [ [ -94.542549236401001, 47.128952128071703 ], [ -94.542467460182394, 47.129430275000701 ] ] } },
{ "type": "Feature", "properties": { "wmUplineSo": "ONIGUM", "wmType": "Overhead" }, "geometry": { "type": "LineString", "coordinates": [ [ -94.542467460182394, 47.129430275000701 ], [ -94.542122423092707, 47.129949267072902 ] ] } },
{ "type": "Feature", "properties": { "wmUplineSo": "ONIGUM", "wmType": "Overhead" }, "geometry": { "type": "LineString", "coordinates": [ [ -94.542122423092707, 47.129949267072902 ], [ -94.541717433313096, 47.130330909467403 ] ] } },
{ "type": "Feature", "properties": { "wmUplineSo": "ONIGUM", "wmType": "Overhead" }, "geometry": { "type": "LineString", "coordinates": [ [ -94.541717433313096, 47.130330909467403 ], [ -94.541201420918199, 47.130773527943902 ] ] } },
{ "type": "Feature", "properties": { "wmUplineSo": "ONIGUM", "wmType": "Overhead" }, "geometry": { "type": "LineString", "coordinates": [ [ -94.541201420918199, 47.130773527943902 ], [ -94.540683311763502, 47.131229246333497 ] ] } },
{ "type": "Feature", "properties": { "wmUplineSo": "ONIGUM", "wmType": "Overhead" }, "geometry": { "type": "LineString", "coordinates": [ [ -94.540683311763502, 47.131229246333497 ], [ -94.539728248941799, 47.131889235618601 ] ] } },
{ "type": "Feature", "properties": { "wmUplineSo": "ONIGUM", "wmType": "Overhead" }, "geometry": { "type": "LineString", "coordinates": [ [ -94.539728248941799, 47.131889235618601 ], [ -94.539765245456607, 47.131962234163304 ] ] } },
{ "type": "Feature", "properties": { "wmUplineSo": "ONIGUM", "wmType": "Overhead" }, "geometry": { "type": "LineString", "coordinates": [ [ -94.539765245456607, 47.131962234163304 ], [ -94.539175187784707, 47.1327192217475 ] ] } },
{ "type": "Feature", "properties": { "wmUplineSo": "ONIGUM", "wmType": "Overhead" }, "geometry": { "type": "LineString", "coordinates": [ [ -94.539175187784707, 47.1327192217475 ], [ -94.538813132361497, 47.133580208777701 ] ] } },
{ "type": "Feature", "properties": { "wmUplineSo": "ONIGUM", "wmType": "Overhead" }, "geometry": { "type": "LineString", "coordinates": [ [ -94.538813132361497, 47.133580208777701 ], [ -94.538505102709905, 47.133977202142297 ] ] } },
{ "type": "Feature", "properties": { "wmUplineSo": "ONIGUM", "wmType": "Overhead" }, "geometry": { "type": "LineString", "coordinates": [ [ -94.534258427347297, 47.125536977376797 ], [ -94.535403448284896, 47.125320330300703 ] ] } },
{ "type": "Feature", "properties": { "wmUplineSo": "ONIGUM", "wmType": "Overhead" }, "geometry": { "type": "LineString", "coordinates": [ [ -94.535403448284896, 47.125320330300703 ], [ -94.536828503457002, 47.125092335782497 ] ] } },
{ "type": "Feature", "properties": { "wmUplineSo": "ONIGUM", "wmType": "Overhead" }, "geometry": { "type": "LineString", "coordinates": [ [ -94.536828503457002, 47.125092335782497 ], [ -94.537455413637005, 47.124913398579501 ] ] } },
{ "type": "Feature", "properties": { "wmUplineSo": "ONIGUM", "wmType": "Overhead" }, "geometry": { "type": "LineString", "coordinates": [ [ -94.512244954487898, 47.1209643743653 ], [ -94.513397973001801, 47.121307369722402 ] ] } },
{ "type": "Feature", "properties": { "wmUplineSo": "ONIGUM", "wmType": "Overhead" }, "geometry": { "type": "LineString", "coordinates": [ [ -94.506169892718802, 47.1186204031874 ], [ -94.506907897996399, 47.118959398910903 ] ] } },
{ "type": "Feature", "properties": { "wmUplineSo": "ONIGUM", "wmType": "Overhead" }, "geometry": { "type": "LineString", "coordinates": [ [ -94.491321252026395, 47.122359241291797 ], [ -94.490432204780006, 47.122775225414799 ] ] } },
{ "type": "Feature", "properties": { "wmUplineSo": "ONIGUM", "wmType": "Overhead" }, "geometry": { "type": "LineString", "coordinates": [ [ -94.490432204780006, 47.122775225414799 ], [ -94.4902121487805, 47.123690209559001 ] ] } },
{ "type": "Feature", "properties": { "wmUplineSo": "ONIGUM", "wmType": "Overhead" }, "geometry": { "type": "LineString", "coordinates": [ [ -94.4902121487805, 47.123690209559001 ], [ -94.489847091382998, 47.124545192353203 ] ] } },
{ "type": "Feature", "properties": { "wmUplineSo": "ONIGUM", "wmType": "Overhead" }, "geometry": { "type": "LineString", "coordinates": [ [ -94.489847091382998, 47.124545192353203 ], [ -94.489362022452596, 47.125609170826003 ] ] } },
{ "type": "Feature", "properties": { "wmUplineSo": "ONIGUM", "wmType": "Overhead" }, "geometry": { "type": "LineString", "coordinates": [ [ -94.489362022452596, 47.125609170826003 ], [ -94.489156983609803, 47.126224159768903 ] ] } },
{ "type": "Feature", "properties": { "wmUplineSo": "ONIGUM", "wmType": "Overhead" }, "geometry": { "type": "LineString", "coordinates": [ [ -94.489156983609803, 47.126224159768903 ], [ -94.488981942970497, 47.126875148772399 ] ] } },
{ "type": "Feature", "properties": { "wmUplineSo": "ONIGUM", "wmType": "Overhead" }, "geometry": { "type": "LineString", "coordinates": [ [ -94.488981942970497, 47.126875148772399 ], [ -94.488838911910605, 47.127382140239703 ] ] } },
{ "type": "Feature", "properties": { "wmUplineSo": "ONIGUM", "wmType": "Overhead" }, "geometry": { "type": "LineString", "coordinates": [ [ -94.503026769948605, 47.119110393285702 ], [ -94.503056719848104, 47.120059379061097 ] ] } },
{ "type": "Feature", "properties": { "wmUplineSo": "ONIGUM", "wmType": "Overhead" }, "geometry": { "type": "LineString", "coordinates": [ [ -94.503056719848104, 47.120059379061097 ], [ -94.503077667525403, 47.121024364858499 ] ] } },
{ "type": "Feature", "properties": { "wmUplineSo": "ONIGUM", "wmType": "Overhead" }, "geometry": { "type": "LineString", "coordinates": [ [ -94.503077667525403, 47.121024364858499 ], [ -94.503051618613497, 47.121919349256899 ] ] } },
{ "type": "Feature", "properties": { "wmUplineSo": "ONIGUM", "wmType": "Overhead" }, "geometry": { "type": "LineString", "coordinates": [ [ -94.503051618613497, 47.121919349256899 ], [ -94.503066570948704, 47.122842336481398 ] ] } },
{ "type": "Feature", "properties": { "wmUplineSo": "ONIGUM", "wmType": "Overhead" }, "geometry": { "type": "LineString", "coordinates": [ [ -94.506232825132102, 47.101237667483502 ], [ -94.506686390495204, 47.101275354601697 ] ] } },
{ "type": "Feature", "properties": { "wmUplineSo": "ONIGUM", "wmType": "Overhead" }, "geometry": { "type": "LineString", "coordinates": [ [ -94.562291808289203, 47.114820514131203 ], [ -94.562543755164796, 47.116067496668002 ] ] } },
{ "type": "Feature", "properties": { "wmUplineSo": "ONIGUM", "wmType": "Overhead" }, "geometry": { "type": "LineString", "coordinates": [ [ -94.562543755164796, 47.116067496668002 ], [ -94.563131746929301, 47.116580489416997 ] ] } },
{ "type": "Feature", "properties": { "wmUplineSo": "ONIGUM", "wmType": "Overhead" }, "geometry": { "type": "LineString", "coordinates": [ [ -94.561246844116695, 47.113479533976097 ], [ -94.562096833798904, 47.114190524105503 ] ] } },
{ "type": "Feature", "properties": { "wmUplineSo": "ONIGUM", "wmType": "Overhead" }, "geometry": { "type": "LineString", "coordinates": [ [ -94.564128749326898, 47.117147481198799 ], [ -94.564276744814904, 47.117344479448199 ] ] } },
{ "type": "Feature", "properties": { "wmUplineSo": "ONIGUM", "wmType": "Overhead" }, "geometry": { "type": "LineString", "coordinates": [ [ -94.564276744814904, 47.117344479448199 ], [ -94.564203720252095, 47.117809472054503 ] ] } },
{ "type": "Feature", "properties": { "wmUplineSo": "ONIGUM", "wmType": "Overhead" }, "geometry": { "type": "LineString", "coordinates": [ [ -94.564203720252095, 47.117809472054503 ], [ -94.564512208880402, 47.118361922474897 ] ] } },
{ "type": "Feature", "properties": { "wmUplineSo": "ONIGUM", "wmType": "Overhead" }, "geometry": { "type": "LineString", "coordinates": [ [ -94.565379573613896, 47.121509417665401 ], [ -94.565316541314203, 47.122120407843603 ] ] } },
{ "type": "Feature", "properties": { "wmUplineSo": "ONIGUM", "wmType": "Overhead" }, "geometry": { "type": "LineString", "coordinates": [ [ -94.506552925328094, 47.118224409562202 ], [ -94.507884966164596, 47.118204412238399 ] ] } },
{ "type": "Feature", "properties": { "wmUplineSo": "ONIGUM", "wmType": "Overhead" }, "geometry": { "type": "LineString", "coordinates": [ [ -94.507884966164596, 47.118204412238399 ], [ -94.508702987770107, 47.118289411752201 ] ] } },
{ "type": "Feature", "properties": { "wmUplineSo": "ONIGUM", "wmType": "Overhead" }, "geometry": { "type": "LineString", "coordinates": [ [ -94.508702987770107, 47.118289411752201 ], [ -94.509313009521904, 47.118237411816899 ] ] } },
{ "type": "Feature", "properties": { "wmUplineSo": "ONIGUM", "wmType": "Overhead" }, "geometry": { "type": "LineString", "coordinates": [ [ -94.508707022623895, 47.117652420338601 ], [ -94.507871800001098, 47.116526800008899 ] ] } },
{ "type": "Feature", "properties": { "wmUplineSo": "ONIGUM", "wmType": "Overhead" }, "geometry": { "type": "LineString", "coordinates": [ [ -94.511534999688294, 47.119709391355201 ], [ -94.512263051891495, 47.119145401214098 ] ] } },
{ "type": "Feature", "properties": { "wmUplineSo": "ONIGUM", "wmType": "Overhead" }, "geometry": { "type": "LineString", "coordinates": [ [ -94.512263051891495, 47.119145401214098 ], [ -94.512343070187001, 47.118859405336501 ] ] } },
{ "type": "Feature", "properties": { "wmUplineSo": "ONIGUM", "wmType": "Overhead" }, "geometry": { "type": "LineString", "coordinates": [ [ -94.507235509492403, 47.124494509349397 ], [ -94.507349286917005, 47.124632296614102 ] ] } },
{ "type": "Feature", "properties": { "wmUplineSo": "ONIGUM", "wmType": "Overhead" }, "geometry": { "type": "LineString", "coordinates": [ [ -94.508606679836504, 47.123995324261003 ], [ -94.508686676983899, 47.124109321688302 ] ] } },
{ "type": "Feature", "properties": { "wmUplineSo": "ONIGUM", "wmType": "Overhead" }, "geometry": { "type": "LineString", "coordinates": [ [ -94.505092592582997, 47.104930610876302 ], [ -94.504643528889503, 47.105864595906098 ] ] } },
{ "type": "Feature", "properties": { "wmUplineSo": "ONIGUM", "wmType": "Overhead" }, "geometry": { "type": "LineString", "coordinates": [ [ -94.504643528889503, 47.105864595906098 ], [ -94.504190466186699, 47.106804580189603 ] ] } },
{ "type": "Feature", "properties": { "wmUplineSo": "ONIGUM", "wmType": "Overhead" }, "geometry": { "type": "LineString", "coordinates": [ [ -94.504190466186699, 47.106804580189603 ], [ -94.503775406794304, 47.107659568623703 ] ] } },
{ "type": "Feature", "properties": { "wmUplineSo": "ONIGUM", "wmType": "Overhead" }, "geometry": { "type": "LineString", "coordinates": [ [ -94.503775406794304, 47.107659568623703 ], [ -94.503435354415004, 47.1084655553516 ] ] } },
{ "type": "Feature", "properties": { "wmUplineSo": "ONIGUM", "wmType": "Overhead" }, "geometry": { "type": "LineString", "coordinates": [ [ -94.503435354415004, 47.1084655553516 ], [ -94.503248295379507, 47.109440540200701 ] ] } },
{ "type": "Feature", "properties": { "wmUplineSo": "ONIGUM", "wmType": "Overhead" }, "geometry": { "type": "LineString", "coordinates": [ [ -94.504213969547195, 47.097424722819298 ], [ -94.504797937014004, 47.098340709613801 ] ] } },
{ "type": "Feature", "properties": { "wmUplineSo": "ONIGUM", "wmType": "Overhead" }, "geometry": { "type": "LineString", "coordinates": [ [ -94.505233799961005, 47.099597078939297 ], [ -94.505173323790402, 47.099595778322801 ] ] } },
{ "type": "Feature", "properties": { "wmUplineSo": "ONIGUM", "wmType": "Overhead" }, "geometry": { "type": "LineString", "coordinates": [ [ -94.518996476207803, 47.096025758632599 ], [ -94.519761495255494, 47.096095757842797 ] ] } },
{ "type": "Feature", "properties": { "wmUplineSo": "ONIGUM", "wmType": "Overhead" }, "geometry": { "type": "LineString", "coordinates": [ [ -94.519761495255494, 47.096095757842797 ], [ -94.521009533548195, 47.096029759642498 ] ] } },
{ "type": "Feature", "properties": { "wmUplineSo": "ONIGUM", "wmType": "Overhead" }, "geometry": { "type": "LineString", "coordinates": [ [ -94.5185128788886, 47.092719943354801 ], [ -94.518971355066597, 47.093630878949597 ] ] } },
{ "type": "Feature", "properties": { "wmUplineSo": "ONIGUM", "wmType": "Overhead" }, "geometry": { "type": "LineString", "coordinates": [ [ -94.502741767743402, 47.0817649599162 ], [ -94.502739703158696, 47.0829849411178 ] ] } },
{ "type": "Feature", "properties": { "wmUplineSo": "ONIGUM", "wmType": "Overhead" }, "geometry": { "type": "LineString", "coordinates": [ [ -94.4659970446708, 47.093859349812597 ], [ -94.465926202907099, 47.094679577387097 ] ] } },
{ "type": "Feature", "properties": { "wmUplineSo": "ONIGUM", "wmType": "Overhead" }, "geometry": { "type": "LineString", "coordinates": [ [ -94.483855888843905, 47.087875656464199 ], [ -94.482948862606904, 47.087857645793001 ] ] } },
{ "type": "Feature", "properties": { "wmUplineSo": "ONIGUM", "wmType": "Overhead" }, "geometry": { "type": "LineString", "coordinates": [ [ -94.482948862606904, 47.087857645793001 ], [ -94.481865830161397, 47.087864632157803 ] ] } },
{ "type": "Feature", "properties": { "wmUplineSo": "ONIGUM", "wmType": "Overhead" }, "geometry": { "type": "LineString", "coordinates": [ [ -94.481865830161397, 47.087864632157803 ], [ -94.480735796941801, 47.0878676176062 ] ] } },
{ "type": "Feature", "properties": { "wmUplineSo": "ONIGUM", "wmType": "Overhead" }, "geometry": { "type": "LineString", "coordinates": [ [ -94.480735796941801, 47.0878676176062 ], [ -94.4794327594349, 47.087839600602898 ] ] } },
{ "type": "Feature", "properties": { "wmUplineSo": "ONIGUM", "wmType": "Overhead" }, "geometry": { "type": "LineString", "coordinates": [ [ -94.4794327594349, 47.087839600602898 ], [ -94.478925715950197, 47.088387586505199 ] ] } },
{ "type": "Feature", "properties": { "wmUplineSo": "ONIGUM", "wmType": "Overhead" }, "geometry": { "type": "LineString", "coordinates": [ [ -94.478925715950197, 47.088387586505199 ], [ -94.478345662989696, 47.0890495705615 ] ] } },
{ "type": "Feature", "properties": { "wmUplineSo": "ONIGUM", "wmType": "Overhead" }, "geometry": { "type": "LineString", "coordinates": [ [ -94.478345662989696, 47.0890495705615 ], [ -94.477485615311096, 47.089507552895 ] ] } },
{ "type": "Feature", "properties": { "wmUplineSo": "ONIGUM", "wmType": "Overhead" }, "geometry": { "type": "LineString", "coordinates": [ [ -94.477485615311096, 47.089507552895 ], [ -94.476992957267797, 47.089491530485297 ], [ -94.476965166479701, 47.0894906265993 ] ] } },
{ "type": "Feature", "properties": { "wmUplineSo": "ONIGUM", "wmType": "Overhead" }, "geometry": { "type": "LineString", "coordinates": [ [ -94.476965166479701, 47.0894906265993 ], [ -94.475829179437497, 47.089154797206398 ] ] } },
{ "type": "Feature", "properties": { "wmUplineSo": "ONIGUM", "wmType": "Overhead" }, "geometry": { "type": "LineString", "coordinates": [ [ -94.475829179437497, 47.089154797206398 ], [ -94.473715336591297, 47.089260115529399 ] ] } },
{ "type": "Feature", "properties": { "wmUplineSo": "ONIGUM", "wmType": "Overhead" }, "geometry": { "type": "LineString", "coordinates": [ [ -94.473715336591297, 47.089260115529399 ], [ -94.471664264796004, 47.089012208011397 ] ] } },
{ "type": "Feature", "properties": { "wmUplineSo": "ONIGUM", "wmType": "Overhead" }, "geometry": { "type": "LineString", "coordinates": [ [ -94.471664264796004, 47.089012208011397 ], [ -94.471059847484796, 47.088736165181501 ] ] } },
{ "type": "Feature", "properties": { "wmUplineSo": "ONIGUM", "wmType": "Overhead" }, "geometry": { "type": "LineString", "coordinates": [ [ -94.471059847484796, 47.088736165181501 ], [ -94.470269520229195, 47.088190125926502 ] ] } },
{ "type": "Feature", "properties": { "wmUplineSo": "ONIGUM", "wmType": "Overhead" }, "geometry": { "type": "LineString", "coordinates": [ [ -94.470269520229195, 47.088190125926502 ], [ -94.469547268725606, 47.087685112269 ] ] } },
{ "type": "Feature", "properties": { "wmUplineSo": "ONIGUM", "wmType": "Overhead" }, "geometry": { "type": "LineString", "coordinates": [ [ -94.469547268725606, 47.087685112269 ], [ -94.468366195544803, 47.087633596335202 ] ] } },
{ "type": "Feature", "properties": { "wmUplineSo": "ONIGUM", "wmType": "Overhead" }, "geometry": { "type": "LineString", "coordinates": [ [ -94.468366195544803, 47.087633596335202 ], [ -94.467119367577993, 47.0876248153387 ] ] } },
{ "type": "Feature", "properties": { "wmUplineSo": "ONIGUM", "wmType": "Overhead" }, "geometry": { "type": "LineString", "coordinates": [ [ -94.467119367577993, 47.0876248153387 ], [ -94.465928452539401, 47.0876210192868 ] ] } },
{ "type": "Feature", "properties": { "wmUplineSo": "ONIGUM", "wmType": "Overhead" }, "geometry": { "type": "LineString", "coordinates": [ [ -94.491879450179496, 47.081794848227297 ], [ -94.492013383153605, 47.083129830256901 ] ] } },
{ "type": "Feature", "properties": { "wmUplineSo": "ONIGUM", "wmType": "Overhead" }, "geometry": { "type": "LineString", "coordinates": [ [ -94.492013383153605, 47.083129830256901 ], [ -94.4919013215153, 47.084202812469897 ] ] } },
{ "type": "Feature", "properties": { "wmUplineSo": "ONIGUM", "wmType": "Overhead" }, "geometry": { "type": "LineString", "coordinates": [ [ -94.4919013215153, 47.084202812469897 ], [ -94.491944283516901, 47.084922803318698 ] ] } },
{ "type": "Feature", "properties": { "wmUplineSo": "ONIGUM", "wmType": "Overhead" }, "geometry": { "type": "LineString", "coordinates": [ [ -94.491944283516901, 47.084922803318698 ], [ -94.491913233882201, 47.085835788728197 ] ] } },
{ "type": "Feature", "properties": { "wmUplineSo": "ONIGUM", "wmType": "Overhead" }, "geometry": { "type": "LineString", "coordinates": [ [ -94.491913233882201, 47.085835788728197 ], [ -94.491921199850296, 47.086485778832198 ] ] } },
{ "type": "Feature", "properties": { "wmUplineSo": "ONIGUM", "wmType": "Overhead" }, "geometry": { "type": "LineString", "coordinates": [ [ -94.491921199850296, 47.086485778832198 ], [ -94.491768158299394, 47.0871707673016 ] ] } },
{ "type": "Feature", "properties": { "wmUplineSo": "ONIGUM", "wmType": "Overhead" }, "geometry": { "type": "LineString", "coordinates": [ [ -94.491768158299394, 47.0871707673016 ], [ -94.491816132979096, 47.087657761561601 ] ] } },
{ "type": "Feature", "properties": { "wmUplineSo": "ONIGUM", "wmType": "Overhead" }, "geometry": { "type": "LineString", "coordinates": [ [ -94.491816132979096, 47.087657761561601 ], [ -94.491629113257403, 47.087937753941397 ] ] } },
{ "type": "Feature", "properties": { "wmUplineSo": "ONIGUM", "wmType": "Overhead" }, "geometry": { "type": "LineString", "coordinates": [ [ -94.491629113257403, 47.087937753941397 ], [ -94.490508081965103, 47.087894741303899 ] ] } },
{ "type": "Feature", "properties": { "wmUplineSo": "ONIGUM", "wmType": "Overhead" }, "geometry": { "type": "LineString", "coordinates": [ [ -94.490508081965103, 47.087894741303899 ], [ -94.489099041146304, 47.0879157227928 ] ] } },
{ "type": "Feature", "properties": { "wmUplineSo": "ONIGUM", "wmType": "Overhead" }, "geometry": { "type": "LineString", "coordinates": [ [ -94.489099041146304, 47.0879157227928 ], [ -94.487831003140897, 47.087904705825999 ] ] } },
{ "type": "Feature", "properties": { "wmUplineSo": "ONIGUM", "wmType": "Overhead" }, "geometry": { "type": "LineString", "coordinates": [ [ -94.487831003140897, 47.087904705825999 ], [ -94.486392960911999, 47.087889688919503 ] ] } },
{ "type": "Feature", "properties": { "wmUplineSo": "ONIGUM", "wmType": "Overhead" }, "geometry": { "type": "LineString", "coordinates": [ [ -94.486392960911999, 47.087889688919503 ], [ -94.485140921986996, 47.087942671783999 ] ] } },
{ "type": "Feature", "properties": { "wmUplineSo": "ONIGUM", "wmType": "Overhead" }, "geometry": { "type": "LineString", "coordinates": [ [ -94.485265900875604, 47.088405666693198 ], [ -94.485365859825507, 47.089230656944999 ] ] } },
{ "type": "Feature", "properties": { "wmUplineSo": "ONIGUM", "wmType": "Overhead" }, "geometry": { "type": "LineString", "coordinates": [ [ -94.495471598196801, 47.081010905966401 ], [ -94.4942645642288, 47.080985891719699 ] ] } },
{ "type": "Feature", "properties": { "wmUplineSo": "ONIGUM", "wmType": "Overhead" }, "geometry": { "type": "LineString", "coordinates": [ [ -94.4942645642288, 47.080985891719699 ], [ -94.492664525529307, 47.080825873385699 ] ] } },
{ "type": "Feature", "properties": { "wmUplineSo": "ONIGUM", "wmType": "Overhead" }, "geometry": { "type": "LineString", "coordinates": [ [ -94.492664525529307, 47.080825873385699 ], [ -94.491698492741804, 47.080922858578802 ] ] } },
{ "type": "Feature", "properties": { "wmUplineSo": "ONIGUM", "wmType": "Overhead" }, "geometry": { "type": "LineString", "coordinates": [ [ -94.498001668144994, 47.0811249378106 ], [ -94.496759637881397, 47.080992923483301 ] ] } },
{ "type": "Feature", "properties": { "wmUplineSo": "ONIGUM", "wmType": "Overhead" }, "geometry": { "type": "LineString", "coordinates": [ [ -94.524724509114193, 47.159532142605599 ], [ -94.524289106817506, 47.160037634342103 ] ] } },
{ "type": "Feature", "properties": { "wmUplineSo": "ONIGUM", "wmType": "Overhead" }, "geometry": { "type": "LineString", "coordinates": [ [ -94.500514743225494, 47.081090967333502 ], [ -94.499123702602802, 47.081070952774802 ] ] } },
{ "type": "Feature", "properties": { "wmUplineSo": "ONIGUM", "wmType": "Overhead" }, "geometry": { "type": "LineString", "coordinates": [ [ -94.511147784398204, 47.067120187763599 ], [ -94.512759824677005, 47.067153188374398 ] ] } },
{ "type": "Feature", "properties": { "wmUplineSo": "ONIGUM", "wmType": "Overhead" }, "geometry": { "type": "LineString", "coordinates": [ [ -94.507992836283407, 47.064541223737798 ], [ -94.507975853861794, 47.064208228814401 ] ] } },
{ "type": "Feature", "properties": { "wmUplineSo": "ONIGUM", "wmType": "Overhead" }, "geometry": { "type": "LineString", "coordinates": [ [ -94.508141960948706, 47.066381003502997 ], [ -94.508005800409094, 47.065228213899601 ] ] } },
{ "type": "Feature", "properties": { "wmUplineSo": "ONIGUM", "wmType": "Overhead" }, "geometry": { "type": "LineString", "coordinates": [ [ -94.504385605616505, 47.067021183480399 ], [ -94.505374634640305, 47.0669761854912 ] ] } },
{ "type": "Feature", "properties": { "wmUplineSo": "ONIGUM", "wmType": "Overhead" }, "geometry": { "type": "LineString", "coordinates": [ [ -94.505374634640305, 47.0669761854912 ], [ -94.506830304748902, 47.067005600033802 ] ] } },
{ "type": "Feature", "properties": { "wmUplineSo": "ONIGUM", "wmType": "Overhead" }, "geometry": { "type": "LineString", "coordinates": [ [ -94.494187223807899, 47.068688073446999 ], [ -94.493514207055696, 47.0686360651179 ] ] } },
{ "type": "Feature", "properties": { "wmUplineSo": "ONIGUM", "wmType": "Overhead" }, "geometry": { "type": "LineString", "coordinates": [ [ -94.489536947577193, 47.127067152451701 ], [ -94.489783968685103, 47.1268191585362 ] ] } },
{ "type": "Feature", "properties": { "wmUplineSo": "ONIGUM", "wmType": "Overhead" }, "geometry": { "type": "LineString", "coordinates": [ [ -94.503135244481498, 47.1103545268574 ], [ -94.503265198048297, 47.111264512284201 ] ] } },
{ "type": "Feature", "properties": { "wmUplineSo": "ONIGUM", "wmType": "Overhead" }, "geometry": { "type": "LineString", "coordinates": [ [ -94.5218228582508, 47.124600152840003 ], [ -94.522725332859906, 47.124931011777598 ] ] } },
{ "type": "Feature", "properties": { "wmUplineSo": "ONIGUM", "wmType": "Overhead" }, "geometry": { "type": "LineString", "coordinates": [ [ -94.522725332859906, 47.124931011777598 ], [ -94.523520015681299, 47.125200440896002 ] ] } },
{ "type": "Feature", "properties": { "wmUplineSo": "ONIGUM", "wmType": "Overhead" }, "geometry": { "type": "LineString", "coordinates": [ [ -94.523520015681299, 47.125200440896002 ], [ -94.524623097308293, 47.125574316199099 ] ] } },
{ "type": "Feature", "properties": { "wmUplineSo": "ONIGUM", "wmType": "Overhead" }, "geometry": { "type": "LineString", "coordinates": [ [ -94.524623097308293, 47.125574316199099 ], [ -94.525591314006306, 47.125951909835202 ] ] } },
{ "type": "Feature", "properties": { "wmUplineSo": "ONIGUM", "wmType": "Overhead" }, "geometry": { "type": "LineString", "coordinates": [ [ -94.525591314006306, 47.125951909835202 ], [ -94.526544431164396, 47.126295397288096 ] ] } },
{ "type": "Feature", "properties": { "wmUplineSo": "ONIGUM", "wmType": "Overhead" }, "geometry": { "type": "LineString", "coordinates": [ [ -94.526544431164396, 47.126295397288096 ], [ -94.527545158829597, 47.126180309364202 ] ] } },
{ "type": "Feature", "properties": { "wmUplineSo": "ONIGUM", "wmType": "Overhead" }, "geometry": { "type": "LineString", "coordinates": [ [ -94.515586973668704, 47.122555352719402 ], [ -94.515621100001098, 47.122555800008897 ] ] } },
{ "type": "Feature", "properties": { "wmUplineSo": "ONIGUM", "wmType": "Overhead" }, "geometry": { "type": "LineString", "coordinates": [ [ -94.571312677138806, 47.1298783925237 ], [ -94.571567708041201, 47.129936935087798 ] ] } },
{ "type": "Feature", "properties": { "wmUplineSo": "ONIGUM", "wmType": "Overhead" }, "geometry": { "type": "LineString", "coordinates": [ [ -94.540991522666801, 47.1225881628487 ], [ -94.541554600001206, 47.122631100008903 ] ] } },
{ "type": "Feature", "properties": { "wmUplineSo": "ONIGUM", "wmType": "Overhead" }, "geometry": { "type": "LineString", "coordinates": [ [ -94.502044768784401, 47.081394963908899 ], [ -94.502083100001002, 47.081686800008796 ] ] } },
{ "type": "Feature", "properties": { "wmUplineSo": "ONIGUM", "wmType": "Overhead" }, "geometry": { "type": "LineString", "coordinates": [ [ -94.493376413375799, 47.068576447556303 ], [ -94.493042100001006, 47.069099900008801 ] ] } },
{ "type": "Feature", "properties": { "wmUplineSo": "ONIGUM", "wmType": "Overhead" }, "geometry": { "type": "LineString", "coordinates": [ [ -94.506232825132102, 47.101237667483502 ], [ -94.505417700001004, 47.101382100008898 ] ] } },
{ "type": "Feature", "properties": { "wmUplineSo": "ONIGUM", "wmType": "Overhead" }, "geometry": { "type": "LineString", "coordinates": [ [ -94.518500147083699, 47.096098385508498 ], [ -94.518343900001099, 47.096349100008901 ] ] } },
{ "type": "Feature", "properties": { "wmUplineSo": "ONIGUM", "wmType": "Overhead" }, "geometry": { "type": "LineString", "coordinates": [ [ -94.507981452206494, 47.092353240250901 ], [ -94.508886551648203, 47.0923903141518 ] ] } },
{ "type": "Feature", "properties": { "wmUplineSo": "ONIGUM", "wmType": "Overhead" }, "geometry": { "type": "LineString", "coordinates": [ [ -94.548669089671193, 47.104966055908001 ], [ -94.548751360857807, 47.105065515697298 ] ] } },
{ "type": "Feature", "properties": { "wmUplineSo": "ONIGUM", "wmType": "Overhead" }, "geometry": { "type": "LineString", "coordinates": [ [ -94.569665000100201, 47.128918003594798 ], [ -94.570114260240899, 47.128844358026697 ] ] } },
{ "type": "Feature", "properties": { "wmUplineSo": "ONIGUM", "wmType": "Overhead" }, "geometry": { "type": "LineString", "coordinates": [ [ -94.568847858043995, 47.1283875411347 ], [ -94.569665000100201, 47.128918003594798 ] ] } },
{ "type": "Feature", "properties": { "wmUplineSo": "ONIGUM", "wmType": "Overhead" }, "geometry": { "type": "LineString", "coordinates": [ [ -94.514884793565898, 47.154953907111199 ], [ -94.515842884673901, 47.154569310067103 ] ] } },
{ "type": "Feature", "properties": { "wmUplineSo": "ONIGUM", "wmType": "Overhead" }, "geometry": { "type": "LineString", "coordinates": [ [ -94.503562959773504, 47.113141705414101 ], [ -94.503498982427104, 47.113107643639999 ] ] } },
{ "type": "Feature", "properties": { "wmUplineSo": "ONIGUM", "wmType": "Overhead" }, "geometry": { "type": "LineString", "coordinates": [ [ -94.502885019294297, 47.1127863823979 ], [ -94.502606613066206, 47.112633957847201 ] ] } },
{ "type": "Feature", "properties": { "wmUplineSo": "ONIGUM", "wmType": "Overhead" }, "geometry": { "type": "LineString", "coordinates": [ [ -94.502885019294297, 47.1127863823979 ], [ -94.5020217276832, 47.112905656953799 ] ] } },
{ "type": "Feature", "properties": { "wmUplineSo": "ONIGUM", "wmType": "Overhead" }, "geometry": { "type": "LineString", "coordinates": [ [ -94.5020217276832, 47.112905656953799 ], [ -94.501193490953995, 47.113018132205703 ] ] } },
{ "type": "Feature", "properties": { "wmUplineSo": "ONIGUM", "wmType": "Overhead" }, "geometry": { "type": "LineString", "coordinates": [ [ -94.501193490953995, 47.113018132205703 ], [ -94.500595143018003, 47.113098167789701 ] ] } },
{ "type": "Feature", "properties": { "wmUplineSo": "ONIGUM", "wmType": "Overhead" }, "geometry": { "type": "LineString", "coordinates": [ [ -94.500595143018003, 47.113098167789701 ], [ -94.499892913817902, 47.113185917550602 ] ] } },
{ "type": "Feature", "properties": { "wmUplineSo": "ONIGUM", "wmType": "Overhead" }, "geometry": { "type": "LineString", "coordinates": [ [ -94.499892913817902, 47.113185917550602 ], [ -94.498987882672097, 47.113325281534998 ] ] } },
{ "type": "Feature", "properties": { "wmUplineSo": "ONIGUM", "wmType": "Overhead" }, "geometry": { "type": "LineString", "coordinates": [ [ -94.498987882672097, 47.113325281534998 ], [ -94.498130916158004, 47.113511357846903 ] ] } },
{ "type": "Feature", "properties": { "wmUplineSo": "ONIGUM", "wmType": "Overhead" }, "geometry": { "type": "LineString", "coordinates": [ [ -94.502971339355497, 47.074766880761203 ], [ -94.502530184720101, 47.074703168485101 ] ] } },
{ "type": "Feature", "properties": { "wmUplineSo": "ONIGUM", "wmType": "Overhead" }, "geometry": { "type": "LineString", "coordinates": [ [ -94.465660366328507, 47.1202368729477 ], [ -94.465634380809902, 47.120441783667601 ] ] } },
{ "type": "Feature", "properties": { "wmUplineSo": "ONIGUM", "wmType": "Overhead" }, "geometry": { "type": "LineString", "coordinates": [ [ -94.498130916158004, 47.113511357846903 ], [ -94.497227754904699, 47.1137768656669 ] ] } },
{ "type": "Feature", "properties": { "wmUplineSo": "ONIGUM", "wmType": "Overhead" }, "geometry": { "type": "LineString", "coordinates": [ [ -94.497227754904699, 47.1137768656669 ], [ -94.496318122014301, 47.113991331316299 ] ] } },
{ "type": "Feature", "properties": { "wmUplineSo": "ONIGUM", "wmType": "Overhead" }, "geometry": { "type": "LineString", "coordinates": [ [ -94.496318122014301, 47.113991331316299 ], [ -94.495477408639402, 47.1145775972021 ] ] } },
{ "type": "Feature", "properties": { "wmUplineSo": "ONIGUM", "wmType": "Overhead" }, "geometry": { "type": "LineString", "coordinates": [ [ -94.495477408639402, 47.1145775972021 ], [ -94.494481141998804, 47.114951041163202 ] ] } },
{ "type": "Feature", "properties": { "wmUplineSo": "ONIGUM", "wmType": "Overhead" }, "geometry": { "type": "LineString", "coordinates": [ [ -94.494481141998804, 47.114951041163202 ], [ -94.493439, 47.115163000000102 ] ] } },
{ "type": "Feature", "properties": { "wmUplineSo": "ONIGUM", "wmType": "Overhead" }, "geometry": { "type": "LineString", "coordinates": [ [ -94.493439, 47.115163000000102 ], [ -94.492639, 47.115234999999899 ] ] } },
{ "type": "Feature", "properties": { "wmUplineSo": "ONIGUM", "wmType": "Overhead" }, "geometry": { "type": "LineString", "coordinates": [ [ -94.492639, 47.115234999999899 ], [ -94.491718921941995, 47.115208686856697 ] ] } },
{ "type": "Feature", "properties": { "wmUplineSo": "ONIGUM", "wmType": "Overhead" }, "geometry": { "type": "LineString", "coordinates": [ [ -94.491718921941995, 47.115208686856697 ], [ -94.490840712027804, 47.114835039459699 ] ] } },
{ "type": "Feature", "properties": { "wmUplineSo": "ONIGUM", "wmType": "Overhead" }, "geometry": { "type": "LineString", "coordinates": [ [ -94.490840712027804, 47.114835039459699 ], [ -94.489753159486497, 47.114461601543603 ] ] } },
{ "type": "Feature", "properties": { "wmUplineSo": "ONIGUM", "wmType": "Overhead" }, "geometry": { "type": "LineString", "coordinates": [ [ -94.489753159486497, 47.114461601543603 ], [ -94.488677070673702, 47.114111881039904 ] ] } },
{ "type": "Feature", "properties": { "wmUplineSo": "ONIGUM", "wmType": "Overhead" }, "geometry": { "type": "LineString", "coordinates": [ [ -94.488677070673702, 47.114111881039904 ], [ -94.487725020036095, 47.113766973965099 ] ] } },
{ "type": "Feature", "properties": { "wmUplineSo": "ONIGUM", "wmType": "Overhead" }, "geometry": { "type": "LineString", "coordinates": [ [ -94.487725020036095, 47.113766973965099 ], [ -94.486544581851305, 47.114030472251599 ] ] } },
{ "type": "Feature", "properties": { "wmUplineSo": "ONIGUM", "wmType": "Overhead" }, "geometry": { "type": "LineString", "coordinates": [ [ -94.486544581851305, 47.114030472251599 ], [ -94.485556905279793, 47.114322279535898 ] ] } },
{ "type": "Feature", "properties": { "wmUplineSo": "ONIGUM", "wmType": "Overhead" }, "geometry": { "type": "LineString", "coordinates": [ [ -94.485556905279793, 47.114322279535898 ], [ -94.484368095462898, 47.114482642840102 ] ] } },
{ "type": "Feature", "properties": { "wmUplineSo": "ONIGUM", "wmType": "Overhead" }, "geometry": { "type": "LineString", "coordinates": [ [ -94.484368095462898, 47.114482642840102 ], [ -94.483142648550199, 47.114480668985799 ] ] } },
{ "type": "Feature", "properties": { "wmUplineSo": "ONIGUM", "wmType": "Overhead" }, "geometry": { "type": "LineString", "coordinates": [ [ -94.483142648550199, 47.114480668985799 ], [ -94.482139927278098, 47.114277703571602 ] ] } },
{ "type": "Feature", "properties": { "wmUplineSo": "ONIGUM", "wmType": "Overhead" }, "geometry": { "type": "LineString", "coordinates": [ [ -94.482139927278098, 47.114277703571602 ], [ -94.481080266325094, 47.1140536207295 ] ] } },
{ "type": "Feature", "properties": { "wmUplineSo": "ONIGUM", "wmType": "Overhead" }, "geometry": { "type": "LineString", "coordinates": [ [ -94.481080266325094, 47.1140536207295 ], [ -94.480382982903095, 47.113942949546697 ] ] } },
{ "type": "Feature", "properties": { "wmUplineSo": "ONIGUM", "wmType": "Overhead" }, "geometry": { "type": "LineString", "coordinates": [ [ -94.480382982903095, 47.113942949546697 ], [ -94.479689077527894, 47.113934503133102 ] ] } },
{ "type": "Feature", "properties": { "wmUplineSo": "ONIGUM", "wmType": "Overhead" }, "geometry": { "type": "LineString", "coordinates": [ [ -94.479689077527894, 47.113934503133102 ], [ -94.479335337182505, 47.114108337181797 ] ] } },
{ "type": "Feature", "properties": { "wmUplineSo": "ONIGUM", "wmType": "Overhead" }, "geometry": { "type": "LineString", "coordinates": [ [ -94.479335337182505, 47.114108337181797 ], [ -94.478691883173994, 47.114504736796803 ] ] } },
{ "type": "Feature", "properties": { "wmUplineSo": "ONIGUM", "wmType": "Overhead" }, "geometry": { "type": "LineString", "coordinates": [ [ -94.478691883173994, 47.114504736796803 ], [ -94.478292000093106, 47.114869003590996 ] ] } },
{ "type": "Feature", "properties": { "wmUplineSo": "ONIGUM", "wmType": "Overhead" }, "geometry": { "type": "LineString", "coordinates": [ [ -94.478292000093106, 47.114869003590996 ], [ -94.477579000093002, 47.115234003591098 ] ] } },
{ "type": "Feature", "properties": { "wmUplineSo": "ONIGUM", "wmType": "Overhead" }, "geometry": { "type": "LineString", "coordinates": [ [ -94.477579000093002, 47.115234003591098 ], [ -94.477007000092996, 47.115738003591296 ] ] } },
{ "type": "Feature", "properties": { "wmUplineSo": "ONIGUM", "wmType": "Overhead" }, "geometry": { "type": "LineString", "coordinates": [ [ -94.477007000092996, 47.115738003591296 ], [ -94.476142000092906, 47.116145003591498 ] ] } },
{ "type": "Feature", "properties": { "wmUplineSo": "ONIGUM", "wmType": "Overhead" }, "geometry": { "type": "LineString", "coordinates": [ [ -94.476142000092906, 47.116145003591498 ], [ -94.475278000092899, 47.116616003591503 ] ] } },
{ "type": "Feature", "properties": { "wmUplineSo": "ONIGUM", "wmType": "Overhead" }, "geometry": { "type": "LineString", "coordinates": [ [ -94.475278000092899, 47.116616003591503 ], [ -94.474434650800006, 47.116915212683502 ] ] } },
{ "type": "Feature", "properties": { "wmUplineSo": "ONIGUM", "wmType": "Overhead" }, "geometry": { "type": "LineString", "coordinates": [ [ -94.474434650800006, 47.116915212683502 ], [ -94.473579000092798, 47.117112003591501 ] ] } },
{ "type": "Feature", "properties": { "wmUplineSo": "ONIGUM", "wmType": "Overhead" }, "geometry": { "type": "LineString", "coordinates": [ [ -94.473579000092798, 47.117112003591501 ], [ -94.472563000092705, 47.117097003591603 ] ] } },
{ "type": "Feature", "properties": { "wmUplineSo": "ONIGUM", "wmType": "Overhead" }, "geometry": { "type": "LineString", "coordinates": [ [ -94.472563000092705, 47.117097003591603 ], [ -94.471927259120903, 47.117181979702401 ] ] } },
{ "type": "Feature", "properties": { "wmUplineSo": "ONIGUM", "wmType": "Overhead" }, "geometry": { "type": "LineString", "coordinates": [ [ -94.465926202907099, 47.094679577387097 ], [ -94.4657096921392, 47.094698282674699 ] ] } },
{ "type": "Feature", "properties": { "wmUplineSo": "ONIGUM", "wmType": "Overhead" }, "geometry": { "type": "LineString", "coordinates": [ [ -94.471927259120903, 47.117181979702401 ], [ -94.4712332789219, 47.117302088043999 ] ] } },
{ "type": "Feature", "properties": { "wmUplineSo": "ONIGUM", "wmType": "Overhead" }, "geometry": { "type": "LineString", "coordinates": [ [ -94.4712332789219, 47.117302088043999 ], [ -94.471066982343899, 47.117829770646701 ] ] } },
{ "type": "Feature", "properties": { "wmUplineSo": "ONIGUM", "wmType": "Overhead" }, "geometry": { "type": "LineString", "coordinates": [ [ -94.471066982343899, 47.117829770646701 ], [ -94.470148558172198, 47.118007931487497 ] ] } },
{ "type": "Feature", "properties": { "wmUplineSo": "ONIGUM", "wmType": "Overhead" }, "geometry": { "type": "LineString", "coordinates": [ [ -94.470148558172198, 47.118007931487497 ], [ -94.469417971445694, 47.1181843567106 ] ] } },
{ "type": "Feature", "properties": { "wmUplineSo": "ONIGUM", "wmType": "Overhead" }, "geometry": { "type": "LineString", "coordinates": [ [ -94.469417971445694, 47.1181843567106 ], [ -94.468441000179197, 47.118323994613597 ] ] } },
{ "type": "Feature", "properties": { "wmUplineSo": "ONIGUM", "wmType": "Overhead" }, "geometry": { "type": "LineString", "coordinates": [ [ -94.468441000179197, 47.118323994613597 ], [ -94.467523075255698, 47.118565468953697 ] ] } },
{ "type": "Feature", "properties": { "wmUplineSo": "ONIGUM", "wmType": "Overhead" }, "geometry": { "type": "LineString", "coordinates": [ [ -94.467523075255698, 47.118565468953697 ], [ -94.466781924122301, 47.119006419278598 ] ] } },
{ "type": "Feature", "properties": { "wmUplineSo": "ONIGUM", "wmType": "Overhead" }, "geometry": { "type": "LineString", "coordinates": [ [ -94.466781924122301, 47.119006419278598 ], [ -94.466330413632903, 47.1194962468605 ] ] } },
{ "type": "Feature", "properties": { "wmUplineSo": "ONIGUM", "wmType": "Overhead" }, "geometry": { "type": "LineString", "coordinates": [ [ -94.466330413632903, 47.1194962468605 ], [ -94.4660528070646, 47.119798046311303 ] ] } },
{ "type": "Feature", "properties": { "wmUplineSo": "ONIGUM", "wmType": "Overhead" }, "geometry": { "type": "LineString", "coordinates": [ [ -94.564832812850696, 47.119323345475998 ], [ -94.564869648152694, 47.119697443448302 ] ] } },
{ "type": "Feature", "properties": { "wmUplineSo": "ONIGUM", "wmType": "Overhead" }, "geometry": { "type": "LineString", "coordinates": [ [ -94.506626387796899, 47.102356273471599 ], [ -94.507533303143305, 47.102422257918398 ] ] } },
{ "type": "Feature", "properties": { "wmUplineSo": "ONIGUM", "wmType": "Overhead" }, "geometry": { "type": "LineString", "coordinates": [ [ -94.4660528070646, 47.119798046311303 ], [ -94.465660366328507, 47.1202368729477 ] ] } },
{ "type": "Feature", "properties": { "wmUplineSo": "ONIGUM", "wmType": "Overhead" }, "geometry": { "type": "LineString", "coordinates": [ [ -94.465660366328507, 47.1202368729477 ], [ -94.465282844940106, 47.120723819418203 ] ] } },
{ "type": "Feature", "properties": { "wmUplineSo": "ONIGUM", "wmType": "Overhead" }, "geometry": { "type": "LineString", "coordinates": [ [ -94.459450214757695, 47.132664835441901 ], [ -94.458880788237593, 47.132426745856002 ] ] } },
{ "type": "Feature", "properties": { "wmUplineSo": "ONIGUM", "wmType": "Overhead" }, "geometry": { "type": "LineString", "coordinates": [ [ -94.458594669086395, 47.133240213558999 ], [ -94.458139800000893, 47.133061000008901 ], [ -94.458139800001007, 47.133061000008901 ] ] } },
{ "type": "Feature", "properties": { "wmUplineSo": "ONIGUM", "wmType": "Overhead" }, "geometry": { "type": "LineString", "coordinates": [ [ -94.465282844940106, 47.120723819418203 ], [ -94.465503000092198, 47.121046003592603 ] ] } },
{ "type": "Feature", "properties": { "wmUplineSo": "ONIGUM", "wmType": "Overhead" }, "geometry": { "type": "LineString", "coordinates": [ [ -94.465503000092198, 47.121046003592603 ], [ -94.465796144435402, 47.121603157226303 ] ] } },
{ "type": "Feature", "properties": { "wmUplineSo": "ONIGUM", "wmType": "Overhead" }, "geometry": { "type": "LineString", "coordinates": [ [ -94.565277800001297, 47.1198321000089 ], [ -94.565245000099793, 47.119861003592099 ] ] } },
{ "type": "Feature", "properties": { "wmUplineSo": "ONIGUM", "wmType": "Overhead" }, "geometry": { "type": "LineString", "coordinates": [ [ -94.465796144435402, 47.121603157226303 ], [ -94.465610000092198, 47.121907003592803 ] ] } },
{ "type": "Feature", "properties": { "wmUplineSo": "ONIGUM", "wmType": "Overhead" }, "geometry": { "type": "LineString", "coordinates": [ [ -94.504027381592707, 47.1152946847481 ], [ -94.504035568977002, 47.115354126308901 ] ] } },
{ "type": "Feature", "properties": { "wmUplineSo": "ONIGUM", "wmType": "Overhead" }, "geometry": { "type": "LineString", "coordinates": [ [ -94.458594669086395, 47.133240213558999 ], [ -94.458153781242501, 47.133449415566197 ] ] } },
{ "type": "Feature", "properties": { "wmUplineSo": "ONIGUM", "wmType": "Overhead" }, "geometry": { "type": "LineString", "coordinates": [ [ -94.570114260240899, 47.128844358026697 ], [ -94.570310000100307, 47.128589003594797 ] ] } },
{ "type": "Feature", "properties": { "wmUplineSo": "ONIGUM", "wmType": "Overhead" }, "geometry": { "type": "LineString", "coordinates": [ [ -94.543039281696593, 47.113620513971703 ], [ -94.543718900001195, 47.113504800008897 ] ] } },
{ "type": "Feature", "properties": { "wmUplineSo": "ONIGUM", "wmType": "Overhead" }, "geometry": { "type": "LineString", "coordinates": [ [ -94.457926532155099, 47.134093373517999 ], [ -94.457704500001, 47.133861200008901 ] ] } },
{ "type": "Feature", "properties": { "wmUplineSo": "ONIGUM", "wmType": "Overhead" }, "geometry": { "type": "LineString", "coordinates": [ [ -94.515053000178298, 47.092413661289697 ], [ -94.515995849900804, 47.092394028868497 ] ] } },
{ "type": "Feature", "properties": { "wmUplineSo": "ONIGUM", "wmType": "Overhead" }, "geometry": { "type": "LineString", "coordinates": [ [ -94.508886551648203, 47.0923903141518 ], [ -94.509410064626195, 47.092419323423599 ] ] } },
{ "type": "Feature", "properties": { "wmUplineSo": "ONIGUM", "wmType": "Overhead" }, "geometry": { "type": "LineString", "coordinates": [ [ -94.500978000000998, 47.1128605000089 ], [ -94.500977195337498, 47.1128567488066 ] ] } },
{ "type": "Feature", "properties": { "wmUplineSo": "ONIGUM", "wmType": "Overhead" }, "geometry": { "type": "LineString", "coordinates": [ [ -94.509410064626195, 47.092419323423599 ], [ -94.509994769829106, 47.0924204678251 ] ] } }
]
}
