{
"type": "FeatureCollection",
"crs": { "type": "name", "properties": { "name": "urn:ogc:def:crs:OGC:1.3:CRS84" } },
"features": [
{ "type": "Feature", "properties": { "wmUplineSo": "ORR", "wmType": "Underground" }, "geometry": { "type": "LineString", "coordinates": [ [ -92.861918, 48.055506000000101 ], [ -92.862266581402395, 48.054750478684703 ] ] } },
{ "type": "Feature", "properties": { "wmUplineSo": "ORR", "wmType": "Underground" }, "geometry": { "type": "LineString", "coordinates": [ [ -92.862266581402395, 48.054750478684703 ], [ -92.864491, 48.054825999999899 ] ] } },
{ "type": "Feature", "properties": { "wmUplineSo": "ORR", "wmType": "Underground" }, "geometry": { "type": "LineString", "coordinates": [ [ -92.864491, 48.054825999999899 ], [ -92.866608, 48.055556 ] ] } },
{ "type": "Feature", "properties": { "wmUplineSo": "ORR", "wmType": "Underground" }, "geometry": { "type": "LineString", "coordinates": [ [ -92.866608, 48.055556 ], [ -92.867912, 48.056399 ] ] } },
{ "type": "Feature", "properties": { "wmUplineSo": "ORR", "wmType": "Underground" }, "geometry": { "type": "LineString", "coordinates": [ [ -92.867912, 48.056399 ], [ -92.869194, 48.057278000000103 ] ] } },
{ "type": "Feature", "properties": { "wmUplineSo": "ORR", "wmType": "Underground" }, "geometry": { "type": "LineString", "coordinates": [ [ -92.869194, 48.057278000000103 ], [ -92.870421, 48.058051999999897 ] ] } },
{ "type": "Feature", "properties": { "wmUplineSo": "ORR", "wmType": "Underground" }, "geometry": { "type": "LineString", "coordinates": [ [ -92.870421, 48.058051999999897 ], [ -92.871893, 48.059033 ] ] } },
{ "type": "Feature", "properties": { "wmUplineSo": "ORR", "wmType": "Underground" }, "geometry": { "type": "LineString", "coordinates": [ [ -92.871893, 48.059033 ], [ -92.873543, 48.06018 ] ] } },
{ "type": "Feature", "properties": { "wmUplineSo": "ORR", "wmType": "Underground" }, "geometry": { "type": "LineString", "coordinates": [ [ -92.873543, 48.06018 ], [ -92.875035, 48.060775 ] ] } },
{ "type": "Feature", "properties": { "wmUplineSo": "ORR", "wmType": "Underground" }, "geometry": { "type": "LineString", "coordinates": [ [ -92.875035, 48.060775 ], [ -92.878478, 48.061580999999897 ] ] } },
{ "type": "Feature", "properties": { "wmUplineSo": "ORR", "wmType": "Underground" }, "geometry": { "type": "LineString", "coordinates": [ [ -92.878478, 48.061580999999897 ], [ -92.880454403501105, 48.061814098921303 ] ] } },
{ "type": "Feature", "properties": { "wmUplineSo": "ORR", "wmType": "Underground" }, "geometry": { "type": "LineString", "coordinates": [ [ -92.880454403501105, 48.061814098921303 ], [ -92.880514958872496, 48.061812186174201 ] ] } },
{ "type": "Feature", "properties": { "wmUplineSo": "ORR", "wmType": "Underground" }, "geometry": { "type": "LineString", "coordinates": [ [ -92.848847367347503, 48.060797337477197 ], [ -92.8486531032991, 48.060632243123202 ], [ -92.848310595873599, 48.060524152713 ], [ -92.848310595873599, 48.060524152712901 ] ] } },
{ "type": "Feature", "properties": { "wmUplineSo": "ORR", "wmType": "Underground" }, "geometry": { "type": "LineString", "coordinates": [ [ -92.803846104716797, 48.052054200733302 ], [ -92.80362693, 48.052763320010001 ] ] } },
{ "type": "Feature", "properties": { "wmUplineSo": "ORR", "wmType": "Underground" }, "geometry": { "type": "LineString", "coordinates": [ [ -92.8615781621303, 48.020722920047199 ], [ -92.8606636, 48.021438800010003 ] ] } },
{ "type": "Feature", "properties": { "wmUplineSo": "ORR", "wmType": "Underground" }, "geometry": { "type": "LineString", "coordinates": [ [ -92.807095836420601, 47.967033282107103 ], [ -92.8055685, 47.965536100009899 ] ] } },
{ "type": "Feature", "properties": { "wmUplineSo": "ORR", "wmType": "Underground" }, "geometry": { "type": "LineString", "coordinates": [ [ -92.867393039500001, 48.049433417619497 ], [ -92.867434615730204, 48.049406499078003 ] ] } },
{ "type": "Feature", "properties": { "wmUplineSo": "ORR", "wmType": "Underground" }, "geometry": { "type": "LineString", "coordinates": [ [ -92.8683761276518, 48.0513809558717 ], [ -92.868313, 48.050793100009997 ] ] } },
{ "type": "Feature", "properties": { "wmUplineSo": "ORR", "wmType": "Underground" }, "geometry": { "type": "LineString", "coordinates": [ [ -92.884684297063998, 48.005297584280697 ], [ -92.8847571, 48.005235500009903 ] ] } },
{ "type": "Feature", "properties": { "wmUplineSo": "ORR", "wmType": "Underground" }, "geometry": { "type": "LineString", "coordinates": [ [ -92.888086772208993, 48.008866842801901 ], [ -92.8880903, 48.0088123000099 ] ] } },
{ "type": "Feature", "properties": { "wmUplineSo": "ORR", "wmType": "Underground" }, "geometry": { "type": "LineString", "coordinates": [ [ -92.887042826544004, 48.009633053280702 ], [ -92.8869911, 48.0096179000099 ] ] } },
{ "type": "Feature", "properties": { "wmUplineSo": "ORR", "wmType": "Underground" }, "geometry": { "type": "LineString", "coordinates": [ [ -92.861733027985693, 48.019003082580703 ], [ -92.8616814, 48.018610100009901 ] ] } },
{ "type": "Feature", "properties": { "wmUplineSo": "ORR", "wmType": "Underground" }, "geometry": { "type": "LineString", "coordinates": [ [ -92.857791651950606, 48.019468783207202 ], [ -92.8577526, 48.0190715000099 ] ] } },
{ "type": "Feature", "properties": { "wmUplineSo": "ORR", "wmType": "Underground" }, "geometry": { "type": "LineString", "coordinates": [ [ -92.869679801964494, 48.0273264292601 ], [ -92.8696926, 48.026939600009896 ] ] } },
{ "type": "Feature", "properties": { "wmUplineSo": "ORR", "wmType": "Underground" }, "geometry": { "type": "LineString", "coordinates": [ [ -92.868593400906406, 48.0289111402329 ], [ -92.868493, 48.028524100009903 ] ] } },
{ "type": "Feature", "properties": { "wmUplineSo": "ORR", "wmType": "Underground" }, "geometry": { "type": "LineString", "coordinates": [ [ -92.869585782434896, 48.034747805816799 ], [ -92.8695336, 48.034340300010001 ] ] } },
{ "type": "Feature", "properties": { "wmUplineSo": "ORR", "wmType": "Underground" }, "geometry": { "type": "LineString", "coordinates": [ [ -92.863134473167904, 48.0380750830629 ], [ -92.8631266, 48.038033800009998 ], [ -92.8631266, 48.038033800009998 ] ] } },
{ "type": "Feature", "properties": { "wmUplineSo": "ORR", "wmType": "Underground" }, "geometry": { "type": "LineString", "coordinates": [ [ -92.860885902872596, 48.041215348204297 ], [ -92.8608303, 48.041207100009998 ] ] } },
{ "type": "Feature", "properties": { "wmUplineSo": "ORR", "wmType": "Underground" }, "geometry": { "type": "LineString", "coordinates": [ [ -92.863379581716501, 48.044072259071498 ], [ -92.863504, 48.043794100009997 ] ] } },
{ "type": "Feature", "properties": { "wmUplineSo": "ORR", "wmType": "Underground" }, "geometry": { "type": "LineString", "coordinates": [ [ -92.847410999881305, 48.032739619655601 ], [ -92.8476613, 48.032609900010002 ] ] } },
{ "type": "Feature", "properties": { "wmUplineSo": "ORR", "wmType": "Underground" }, "geometry": { "type": "LineString", "coordinates": [ [ -92.852162999989702, 48.030725003848801 ], [ -92.8522158, 48.030702900009999 ] ] } },
{ "type": "Feature", "properties": { "wmUplineSo": "ORR", "wmType": "Underground" }, "geometry": { "type": "LineString", "coordinates": [ [ -92.859832263804094, 48.054258567279199 ], [ -92.8598384, 48.054127000009998 ] ] } },
{ "type": "Feature", "properties": { "wmUplineSo": "ORR", "wmType": "Underground" }, "geometry": { "type": "LineString", "coordinates": [ [ -92.851653184526896, 48.048832191025802 ], [ -92.8515684, 48.048812000010003 ] ] } },
{ "type": "Feature", "properties": { "wmUplineSo": "ORR", "wmType": "Underground" }, "geometry": { "type": "LineString", "coordinates": [ [ -92.847257103940606, 48.047253094510303 ], [ -92.847268353201201, 48.047258904866801 ], [ -92.8472728, 48.047197100010003 ] ] } },
{ "type": "Feature", "properties": { "wmUplineSo": "ORR", "wmType": "Underground" }, "geometry": { "type": "LineString", "coordinates": [ [ -92.848852578639907, 48.049759425098799 ], [ -92.8488175, 48.049574400010002 ] ] } },
{ "type": "Feature", "properties": { "wmUplineSo": "ORR", "wmType": "Underground" }, "geometry": { "type": "LineString", "coordinates": [ [ -92.847591515180895, 48.057404025828603 ], [ -92.8475805, 48.057380800010002 ] ] } },
{ "type": "Feature", "properties": { "wmUplineSo": "ORR", "wmType": "Underground" }, "geometry": { "type": "LineString", "coordinates": [ [ -92.857692757849193, 48.059376085849898 ], [ -92.8576779, 48.05957140001 ] ] } },
{ "type": "Feature", "properties": { "wmUplineSo": "ORR", "wmType": "Underground" }, "geometry": { "type": "LineString", "coordinates": [ [ -92.857657346872998, 48.059017502020303 ], [ -92.8576713, 48.059216400010001 ] ] } },
{ "type": "Feature", "properties": { "wmUplineSo": "ORR", "wmType": "Underground" }, "geometry": { "type": "LineString", "coordinates": [ [ -92.858257131990399, 48.057879596713597 ], [ -92.8579604, 48.05808050001 ] ] } },
{ "type": "Feature", "properties": { "wmUplineSo": "ORR", "wmType": "Underground" }, "geometry": { "type": "LineString", "coordinates": [ [ -92.852471835977099, 48.059905221005998 ], [ -92.852200331210199, 48.060029614341097 ] ] } },
{ "type": "Feature", "properties": { "wmUplineSo": "ORR", "wmType": "Underground" }, "geometry": { "type": "LineString", "coordinates": [ [ -92.847603, 48.062206000000103 ], [ -92.847526030259999, 48.062164933545603 ] ] } },
{ "type": "Feature", "properties": { "wmUplineSo": "ORR", "wmType": "Underground" }, "geometry": { "type": "LineString", "coordinates": [ [ -92.847274560945493, 48.062990094174602 ], [ -92.847316154961206, 48.062963183882502 ] ] } },
{ "type": "Feature", "properties": { "wmUplineSo": "ORR", "wmType": "Underground" }, "geometry": { "type": "LineString", "coordinates": [ [ -92.846361460639599, 48.0602352477664 ], [ -92.8464514, 48.059902300010002 ] ] } },
{ "type": "Feature", "properties": { "wmUplineSo": "ORR", "wmType": "Underground" }, "geometry": { "type": "LineString", "coordinates": [ [ -92.842835360745497, 48.063546868302403 ], [ -92.8428935, 48.063431000009999 ] ] } },
{ "type": "Feature", "properties": { "wmUplineSo": "ORR", "wmType": "Underground" }, "geometry": { "type": "LineString", "coordinates": [ [ -92.842984042134105, 48.063965045295497 ], [ -92.8426471, 48.063876600009998 ] ] } },
{ "type": "Feature", "properties": { "wmUplineSo": "ORR", "wmType": "Underground" }, "geometry": { "type": "LineString", "coordinates": [ [ -92.842482905980702, 48.064648362529802 ], [ -92.8426927, 48.064810800010001 ] ] } },
{ "type": "Feature", "properties": { "wmUplineSo": "ORR", "wmType": "Underground" }, "geometry": { "type": "LineString", "coordinates": [ [ -92.842250774612097, 48.067670423207602 ], [ -92.8420605, 48.067432100010002 ] ] } },
{ "type": "Feature", "properties": { "wmUplineSo": "ORR", "wmType": "Underground" }, "geometry": { "type": "LineString", "coordinates": [ [ -92.842481843334696, 48.0668898875008 ], [ -92.8421808, 48.06662690001 ] ] } },
{ "type": "Feature", "properties": { "wmUplineSo": "ORR", "wmType": "Underground" }, "geometry": { "type": "LineString", "coordinates": [ [ -92.842722772997405, 48.066031137349903 ], [ -92.8423776, 48.06577810001 ] ] } },
{ "type": "Feature", "properties": { "wmUplineSo": "ORR", "wmType": "Underground" }, "geometry": { "type": "LineString", "coordinates": [ [ -92.835833548760107, 48.037193317899501 ], [ -92.8359503, 48.03719490001 ] ] } },
{ "type": "Feature", "properties": { "wmUplineSo": "ORR", "wmType": "Underground" }, "geometry": { "type": "LineString", "coordinates": [ [ -92.8724313, 48.022943600010002 ], [ -92.8725011, 48.02285100001 ] ] } },
{ "type": "Feature", "properties": { "wmUplineSo": "ORR", "wmType": "Underground" }, "geometry": { "type": "LineString", "coordinates": [ [ -92.858201072155893, 48.019722415500802 ], [ -92.8580196, 48.019798100009901 ] ] } },
{ "type": "Feature", "properties": { "wmUplineSo": "ORR", "wmType": "Underground" }, "geometry": { "type": "LineString", "coordinates": [ [ -92.858201072155893, 48.019722415500802 ], [ -92.8579949, 48.019783950009902 ] ] } },
{ "type": "Feature", "properties": { "wmUplineSo": "ORR", "wmType": "Underground" }, "geometry": { "type": "LineString", "coordinates": [ [ -92.813698300797199, 48.039966383852303 ], [ -92.8132356, 48.03984160001 ] ] } },
{ "type": "Feature", "properties": { "wmUplineSo": "ORR", "wmType": "Underground" }, "geometry": { "type": "LineString", "coordinates": [ [ -92.820180360715995, 48.035261096483502 ], [ -92.8200886, 48.035340300009999 ] ] } },
{ "type": "Feature", "properties": { "wmUplineSo": "ORR", "wmType": "Underground" }, "geometry": { "type": "LineString", "coordinates": [ [ -92.831328231289305, 48.034941060892997 ], [ -92.8313295, 48.034940700009997 ] ] } },
{ "type": "Feature", "properties": { "wmUplineSo": "ORR", "wmType": "Underground" }, "geometry": { "type": "LineString", "coordinates": [ [ -92.845116052978895, 48.061332704227198 ], [ -92.8449694, 48.060901800010001 ] ] } },
{ "type": "Feature", "properties": { "wmUplineSo": "ORR", "wmType": "Underground" }, "geometry": { "type": "LineString", "coordinates": [ [ -92.860195424123702, 48.053013504941802 ], [ -92.8601506, 48.052848600010002 ] ] } },
{ "type": "Feature", "properties": { "wmUplineSo": "ORR", "wmType": "Underground" }, "geometry": { "type": "LineString", "coordinates": [ [ -92.848310595873599, 48.060524152712901 ], [ -92.8483496, 48.060623100009998 ] ] } },
{ "type": "Feature", "properties": { "wmUplineSo": "ORR", "wmType": "Underground" }, "geometry": { "type": "LineString", "coordinates": [ [ -92.816980696840503, 48.041618841706502 ], [ -92.8166206, 48.04178300001 ] ] } },
{ "type": "Feature", "properties": { "wmUplineSo": "ORR", "wmType": "Underground" }, "geometry": { "type": "LineString", "coordinates": [ [ -92.830619387500604, 47.977756366510697 ], [ -92.830919247371099, 47.977648144704098 ] ] } },
{ "type": "Feature", "properties": { "wmUplineSo": "ORR", "wmType": "Underground" }, "geometry": { "type": "LineString", "coordinates": [ [ -92.830619387500604, 47.977756366510697 ], [ -92.8307035, 47.977781400009903 ] ] } },
{ "type": "Feature", "properties": { "wmUplineSo": "ORR", "wmType": "Underground" }, "geometry": { "type": "LineString", "coordinates": [ [ -92.834209485239796, 47.9697992262127 ], [ -92.8326842, 47.970579200009901 ] ] } },
{ "type": "Feature", "properties": { "wmUplineSo": "ORR", "wmType": "Underground" }, "geometry": { "type": "LineString", "coordinates": [ [ -92.871573519269106, 48.0216595150195 ], [ -92.871667863096604, 48.021658033443003 ] ] } },
{ "type": "Feature", "properties": { "wmUplineSo": "ORR", "wmType": "Underground" }, "geometry": { "type": "LineString", "coordinates": [ [ -92.831031617128502, 48.029018023175297 ], [ -92.8302149999883, 48.028930003848103 ] ] } },
{ "type": "Feature", "properties": { "wmUplineSo": "ORR", "wmType": "Underground" }, "geometry": { "type": "LineString", "coordinates": [ [ -92.8302149999883, 48.028930003848103 ], [ -92.829883999988198, 48.0288580038481 ] ] } },
{ "type": "Feature", "properties": { "wmUplineSo": "ORR", "wmType": "Underground" }, "geometry": { "type": "LineString", "coordinates": [ [ -92.829883999988198, 48.0288580038481 ], [ -92.829886999988204, 48.028826003848302 ] ] } },
{ "type": "Feature", "properties": { "wmUplineSo": "ORR", "wmType": "Underground" }, "geometry": { "type": "LineString", "coordinates": [ [ -92.807824314030697, 47.9680663110735 ], [ -92.807740711826, 47.967424981620098 ], [ -92.807514365587906, 47.967094856297898 ], [ -92.807339320532193, 47.967041913056498 ], [ -92.807095836420601, 47.967033282107103 ] ] } },
{ "type": "Feature", "properties": { "wmUplineSo": "ORR", "wmType": "Underground" }, "geometry": { "type": "LineString", "coordinates": [ [ -92.8582537186834, 48.019687728930002 ], [ -92.857791651950606, 48.019468783207202 ] ] } },
{ "type": "Feature", "properties": { "wmUplineSo": "ORR", "wmType": "Underground" }, "geometry": { "type": "LineString", "coordinates": [ [ -92.8582537186834, 48.019687728930002 ], [ -92.859082863578095, 48.018568201823797 ] ] } },
{ "type": "Feature", "properties": { "wmUplineSo": "ORR", "wmType": "Underground" }, "geometry": { "type": "LineString", "coordinates": [ [ -92.859082863578095, 48.018568201823797 ], [ -92.858925047912507, 48.019296667439697 ], [ -92.859439002459894, 48.019358591221803 ] ] } },
{ "type": "Feature", "properties": { "wmUplineSo": "ORR", "wmType": "Underground" }, "geometry": { "type": "LineString", "coordinates": [ [ -92.859082863578095, 48.018568201823797 ], [ -92.860154381665197, 48.018245145069898 ], [ -92.861792457023498, 48.019327766147804 ] ] } },
{ "type": "Feature", "properties": { "wmUplineSo": "ORR", "wmType": "Underground" }, "geometry": { "type": "LineString", "coordinates": [ [ -92.861792457023498, 48.019327766147804 ], [ -92.861733027985693, 48.019003082580703 ] ] } },
{ "type": "Feature", "properties": { "wmUplineSo": "ORR", "wmType": "Underground" }, "geometry": { "type": "LineString", "coordinates": [ [ -92.867968431417395, 48.024702899740902 ], [ -92.867787065650404, 48.024672900754098 ] ] } },
{ "type": "Feature", "properties": { "wmUplineSo": "ORR", "wmType": "Underground" }, "geometry": { "type": "LineString", "coordinates": [ [ -92.867787065650404, 48.024672900754098 ], [ -92.8615781621303, 48.020722920047199 ] ] } },
{ "type": "Feature", "properties": { "wmUplineSo": "ORR", "wmType": "Underground" }, "geometry": { "type": "LineString", "coordinates": [ [ -92.8615781621303, 48.020722920047199 ], [ -92.860153542881704, 48.020730917854003 ], [ -92.859178760094807, 48.021150465031901 ], [ -92.8582537186834, 48.019687728930002 ] ] } },
{ "type": "Feature", "properties": { "wmUplineSo": "ORR", "wmType": "Underground" }, "geometry": { "type": "LineString", "coordinates": [ [ -92.8630065879113, 48.032040188285301 ], [ -92.863025571653097, 48.032353145699801 ] ] } },
{ "type": "Feature", "properties": { "wmUplineSo": "ORR", "wmType": "Underground" }, "geometry": { "type": "LineString", "coordinates": [ [ -92.867393039500001, 48.049433417619497 ], [ -92.868121669117798, 48.050226126402897 ], [ -92.8683761276518, 48.0513809558717 ] ] } },
{ "type": "Feature", "properties": { "wmUplineSo": "ORR", "wmType": "Underground" }, "geometry": { "type": "LineString", "coordinates": [ [ -92.8582537186834, 48.019687728930002 ], [ -92.858201072155893, 48.019722415500802 ] ] } },
{ "type": "Feature", "properties": { "wmUplineSo": "ORR", "wmType": "Underground" }, "geometry": { "type": "LineString", "coordinates": [ [ -92.820579590777797, 48.035030368339498 ], [ -92.820180360715995, 48.035261096483502 ] ] } },
{ "type": "Feature", "properties": { "wmUplineSo": "ORR", "wmType": "Underground" }, "geometry": { "type": "LineString", "coordinates": [ [ -92.816544751091797, 48.040809027274499 ], [ -92.816257929332394, 48.0407446720805 ] ] } },
{ "type": "Feature", "properties": { "wmUplineSo": "ORR", "wmType": "Underground" }, "geometry": { "type": "LineString", "coordinates": [ [ -92.816257929332394, 48.0407446720805 ], [ -92.813698300797199, 48.039966383852303 ] ] } },
{ "type": "Feature", "properties": { "wmUplineSo": "ORR", "wmType": "Underground" }, "geometry": { "type": "LineString", "coordinates": [ [ -92.863025571653097, 48.032353145699801 ], [ -92.8640617439615, 48.032476336012401 ] ] } },
{ "type": "Feature", "properties": { "wmUplineSo": "ORR", "wmType": "Underground" }, "geometry": { "type": "LineString", "coordinates": [ [ -92.830665563403699, 47.978006468550397 ], [ -92.830619387500604, 47.977756366510697 ] ] } },
{ "type": "Feature", "properties": { "wmUplineSo": "ORR", "wmType": "Underground" }, "geometry": { "type": "LineString", "coordinates": [ [ -92.845746204515606, 48.061028156187099 ], [ -92.845116052978895, 48.061332704227198 ] ] } },
{ "type": "Feature", "properties": { "wmUplineSo": "ORR", "wmType": "Underground" }, "geometry": { "type": "LineString", "coordinates": [ [ -92.860195424123702, 48.053013504941802 ], [ -92.860072350928306, 48.053128464909101 ] ] } },
{ "type": "Feature", "properties": { "wmUplineSo": "ORR", "wmType": "Underground" }, "geometry": { "type": "LineString", "coordinates": [ [ -92.860072350928306, 48.053128464909101 ], [ -92.859832263804094, 48.054258567279199 ] ] } },
{ "type": "Feature", "properties": { "wmUplineSo": "ORR", "wmType": "Underground" }, "geometry": { "type": "LineString", "coordinates": [ [ -92.803685190745298, 48.0520578892054 ], [ -92.803846104716797, 48.052054200733302 ] ] } },
{ "type": "Feature", "properties": { "wmUplineSo": "ORR", "wmType": "Underground" }, "geometry": { "type": "LineString", "coordinates": [ [ -92.848879270601103, 48.060816661378702 ], [ -92.848847367347503, 48.060797337477197 ] ] } },
{ "type": "Feature", "properties": { "wmUplineSo": "ORR", "wmType": "Underground" }, "geometry": { "type": "LineString", "coordinates": [ [ -92.8161383237086, 48.041225573186601 ], [ -92.816980696840503, 48.041618841706502 ] ] } },
{ "type": "Feature", "properties": { "wmUplineSo": "ORR", "wmType": "Underground" }, "geometry": { "type": "LineString", "coordinates": [ [ -92.830668200120002, 47.978020749695197 ], [ -92.830665563403699, 47.978006468550397 ] ] } },
{ "type": "Feature", "properties": { "wmUplineSo": "ORR", "wmType": "Underground" }, "geometry": { "type": "LineString", "coordinates": [ [ -92.83401686, 47.969643410009901 ], [ -92.834316669565794, 47.969798621760397 ], [ -92.834209485239796, 47.9697992262127 ], [ -92.834209485239796, 47.9697992262127 ] ] } },
{ "type": "Feature", "properties": { "wmUplineSo": "ORR", "wmType": "Underground" }, "geometry": { "type": "LineString", "coordinates": [ [ -92.830619387500604, 47.977756366510697 ], [ -92.830697, 47.977748000009903 ] ] } },
{ "type": "Feature", "properties": { "wmUplineSo": "ORR", "wmType": "Underground" }, "geometry": { "type": "LineString", "coordinates": [ [ -92.832430208341194, 48.036617557192699 ], [ -92.8330339, 48.036502400010001 ] ] } }
]
}
