{
"type": "FeatureCollection",
"crs": { "type": "name", "properties": { "name": "urn:ogc:def:crs:OGC:1.3:CRS84" } },
"features": [
{ "type": "Feature", "properties": { "wmUplineSo": "ORR", "wmType": "Underground" }, "geometry": { "type": "LineString", "coordinates": [ [ -92.487853, 48.263433999999897 ], [ -92.487876, 48.263325 ] ] } },
{ "type": "Feature", "properties": { "wmUplineSo": "ORR", "wmType": "Underground" }, "geometry": { "type": "LineString", "coordinates": [ [ -92.487569, 48.26281 ], [ -92.48751, 48.262796 ] ] } },
{ "type": "Feature", "properties": { "wmUplineSo": "ORR", "wmType": "Underground" }, "geometry": { "type": "LineString", "coordinates": [ [ -92.487876, 48.263325 ], [ -92.487967, 48.263155 ] ] } },
{ "type": "Feature", "properties": { "wmUplineSo": "ORR", "wmType": "Underground" }, "geometry": { "type": "LineString", "coordinates": [ [ -92.487967, 48.263155 ], [ -92.487569, 48.26281 ] ] } },
{ "type": "Feature", "properties": { "wmUplineSo": "ORR", "wmType": "Underground" }, "geometry": { "type": "LineString", "coordinates": [ [ -92.486959, 48.261356 ], [ -92.48705, 48.261393 ] ] } },
{ "type": "Feature", "properties": { "wmUplineSo": "ORR", "wmType": "Underground" }, "geometry": { "type": "LineString", "coordinates": [ [ -92.48705, 48.261393 ], [ -92.487367, 48.261427 ] ] } },
{ "type": "Feature", "properties": { "wmUplineSo": "ORR", "wmType": "Underground" }, "geometry": { "type": "LineString", "coordinates": [ [ -92.487367, 48.261427 ], [ -92.487536, 48.261569 ] ] } },
{ "type": "Feature", "properties": { "wmUplineSo": "ORR", "wmType": "Underground" }, "geometry": { "type": "LineString", "coordinates": [ [ -92.487536, 48.261569 ], [ -92.48747, 48.261632 ] ] } },
{ "type": "Feature", "properties": { "wmUplineSo": "ORR", "wmType": "Underground" }, "geometry": { "type": "LineString", "coordinates": [ [ -92.48747, 48.261632 ], [ -92.487481893365498, 48.261651650538397 ] ] } },
{ "type": "Feature", "properties": { "wmUplineSo": "ORR", "wmType": "Underground" }, "geometry": { "type": "LineString", "coordinates": [ [ -92.482805149362903, 48.290886867849402 ], [ -92.483293, 48.290909 ] ] } },
{ "type": "Feature", "properties": { "wmUplineSo": "ORR", "wmType": "Underground" }, "geometry": { "type": "LineString", "coordinates": [ [ -92.483293, 48.290909 ], [ -92.483757, 48.290871 ] ] } },
{ "type": "Feature", "properties": { "wmUplineSo": "ORR", "wmType": "Underground" }, "geometry": { "type": "LineString", "coordinates": [ [ -92.483757, 48.290871 ], [ -92.484027, 48.290966 ] ] } },
{ "type": "Feature", "properties": { "wmUplineSo": "ORR", "wmType": "Underground" }, "geometry": { "type": "LineString", "coordinates": [ [ -92.484027, 48.290966 ], [ -92.484099, 48.29109 ] ] } },
{ "type": "Feature", "properties": { "wmUplineSo": "ORR", "wmType": "Underground" }, "geometry": { "type": "LineString", "coordinates": [ [ -92.484099, 48.29109 ], [ -92.484188086723705, 48.291124136539899 ] ] } },
{ "type": "Feature", "properties": { "wmUplineSo": "ORR", "wmType": "Underground" }, "geometry": { "type": "LineString", "coordinates": [ [ -92.478735, 48.23814 ], [ -92.478747, 48.238158 ] ] } },
{ "type": "Feature", "properties": { "wmUplineSo": "ORR", "wmType": "Underground" }, "geometry": { "type": "LineString", "coordinates": [ [ -92.478747, 48.238158 ], [ -92.47895, 48.238537 ] ] } },
{ "type": "Feature", "properties": { "wmUplineSo": "ORR", "wmType": "Underground" }, "geometry": { "type": "LineString", "coordinates": [ [ -92.47895, 48.238537 ], [ -92.479092, 48.238746999999897 ] ] } },
{ "type": "Feature", "properties": { "wmUplineSo": "ORR", "wmType": "Underground" }, "geometry": { "type": "LineString", "coordinates": [ [ -92.479092, 48.238746999999897 ], [ -92.479165, 48.238985 ] ] } },
{ "type": "Feature", "properties": { "wmUplineSo": "ORR", "wmType": "Underground" }, "geometry": { "type": "LineString", "coordinates": [ [ -92.479165, 48.238985 ], [ -92.479168, 48.239003000000103 ] ] } },
{ "type": "Feature", "properties": { "wmUplineSo": "ORR", "wmType": "Underground" }, "geometry": { "type": "LineString", "coordinates": [ [ -92.483412, 48.289189999999898 ], [ -92.483407288340402, 48.289178137327603 ], [ -92.483154371096305, 48.289001636992701 ], [ -92.482792010388906, 48.289082300368797 ], [ -92.482275765791996, 48.289759875863801 ], [ -92.482805149362903, 48.290886867849402 ] ] } },
{ "type": "Feature", "properties": { "wmUplineSo": "ORR", "wmType": "Underground" }, "geometry": { "type": "LineString", "coordinates": [ [ -92.483293, 48.290909 ], [ -92.483293, 48.290909 ], [ -92.482878437132996, 48.291102638325498 ], [ -92.483543900998598, 48.293150393176397 ], [ -92.483965530511497, 48.2932197928912 ], [ -92.483972, 48.293242 ] ] } },
{ "type": "Feature", "properties": { "wmUplineSo": "ORR", "wmType": "Underground" }, "geometry": { "type": "LineString", "coordinates": [ [ -92.483972, 48.293242 ], [ -92.483571, 48.293196000000101 ] ] } },
{ "type": "Feature", "properties": { "wmUplineSo": "ORR", "wmType": "Underground" }, "geometry": { "type": "LineString", "coordinates": [ [ -92.483571, 48.293196000000101 ], [ -92.483724, 48.293594999999897 ] ] } },
{ "type": "Feature", "properties": { "wmUplineSo": "ORR", "wmType": "Underground" }, "geometry": { "type": "LineString", "coordinates": [ [ -92.483724, 48.293594999999897 ], [ -92.484214, 48.294083999999899 ] ] } },
{ "type": "Feature", "properties": { "wmUplineSo": "ORR", "wmType": "Underground" }, "geometry": { "type": "LineString", "coordinates": [ [ -92.484214, 48.294083999999899 ], [ -92.484958797874, 48.294144160007299 ] ] } },
{ "type": "Feature", "properties": { "wmUplineSo": "ORR", "wmType": "Underground" }, "geometry": { "type": "LineString", "coordinates": [ [ -92.481677183110904, 48.243184970769299 ], [ -92.481575923956697, 48.2435475201342 ] ] } },
{ "type": "Feature", "properties": { "wmUplineSo": "ORR", "wmType": "Underground" }, "geometry": { "type": "LineString", "coordinates": [ [ -92.481575923956697, 48.2435475201342 ], [ -92.481440762412404, 48.243953536442802 ] ] } },
{ "type": "Feature", "properties": { "wmUplineSo": "ORR", "wmType": "Underground" }, "geometry": { "type": "LineString", "coordinates": [ [ -92.481440762412404, 48.243953536442802 ], [ -92.4812579451944, 48.244516854175302 ] ] } },
{ "type": "Feature", "properties": { "wmUplineSo": "ORR", "wmType": "Underground" }, "geometry": { "type": "LineString", "coordinates": [ [ -92.4812579451944, 48.244516854175302 ], [ -92.481053396096797, 48.244827704754101 ] ] } },
{ "type": "Feature", "properties": { "wmUplineSo": "ORR", "wmType": "Underground" }, "geometry": { "type": "LineString", "coordinates": [ [ -92.481053396096797, 48.244827704754101 ], [ -92.480900252857893, 48.245154653878998 ] ] } },
{ "type": "Feature", "properties": { "wmUplineSo": "ORR", "wmType": "Underground" }, "geometry": { "type": "LineString", "coordinates": [ [ -92.480900252857893, 48.245154653878998 ], [ -92.480826873655104, 48.245360816548001 ] ] } },
{ "type": "Feature", "properties": { "wmUplineSo": "ORR", "wmType": "Underground" }, "geometry": { "type": "LineString", "coordinates": [ [ -92.480826873655104, 48.245360816548001 ], [ -92.480764735639099, 48.245357506500298 ] ] } },
{ "type": "Feature", "properties": { "wmUplineSo": "ORR", "wmType": "Underground" }, "geometry": { "type": "LineString", "coordinates": [ [ -92.480326833493507, 48.238209514869197 ], [ -92.480659943800703, 48.238370421538299 ] ] } },
{ "type": "Feature", "properties": { "wmUplineSo": "ORR", "wmType": "Underground" }, "geometry": { "type": "LineString", "coordinates": [ [ -92.480659943800703, 48.238370421538299 ], [ -92.480941944308199, 48.238236422064901 ] ] } },
{ "type": "Feature", "properties": { "wmUplineSo": "ORR", "wmType": "Underground" }, "geometry": { "type": "LineString", "coordinates": [ [ -92.480941944308199, 48.238236422064901 ], [ -92.481408944715199, 48.238118422935599 ] ] } },
{ "type": "Feature", "properties": { "wmUplineSo": "ORR", "wmType": "Underground" }, "geometry": { "type": "LineString", "coordinates": [ [ -92.481408944715199, 48.238118422935599 ], [ -92.481838946083897, 48.237771423740597 ] ] } },
{ "type": "Feature", "properties": { "wmUplineSo": "ORR", "wmType": "Underground" }, "geometry": { "type": "LineString", "coordinates": [ [ -92.481838946083897, 48.237771423740597 ], [ -92.481985947153902, 48.237508424017498 ] ] } },
{ "type": "Feature", "properties": { "wmUplineSo": "ORR", "wmType": "Underground" }, "geometry": { "type": "LineString", "coordinates": [ [ -92.481985947153902, 48.237508424017498 ], [ -92.481999346923104, 48.237457998411898 ] ] } },
{ "type": "Feature", "properties": { "wmUplineSo": "ORR", "wmType": "Underground" }, "geometry": { "type": "LineString", "coordinates": [ [ -92.493568943478493, 48.307453007553498 ], [ -92.493578173694004, 48.3077282297034 ] ] } },
{ "type": "Feature", "properties": { "wmUplineSo": "ORR", "wmType": "Underground" }, "geometry": { "type": "LineString", "coordinates": [ [ -92.493578173694004, 48.3077282297034 ], [ -92.494572322158604, 48.308243595742901 ] ] } },
{ "type": "Feature", "properties": { "wmUplineSo": "ORR", "wmType": "Underground" }, "geometry": { "type": "LineString", "coordinates": [ [ -92.489908462101994, 48.255700235761502 ], [ -92.490034324358703, 48.255707702565402 ] ] } },
{ "type": "Feature", "properties": { "wmUplineSo": "ORR", "wmType": "Underground" }, "geometry": { "type": "LineString", "coordinates": [ [ -92.490034324358703, 48.255707702565402 ], [ -92.490355056715401, 48.255614980147797 ] ] } },
{ "type": "Feature", "properties": { "wmUplineSo": "ORR", "wmType": "Underground" }, "geometry": { "type": "LineString", "coordinates": [ [ -92.558912, 48.123089999999898 ], [ -92.559006, 48.122984 ] ] } },
{ "type": "Feature", "properties": { "wmUplineSo": "ORR", "wmType": "Underground" }, "geometry": { "type": "LineString", "coordinates": [ [ -92.473572999963096, 48.229925003905699 ], [ -92.473446123418697, 48.229815618608903 ] ] } },
{ "type": "Feature", "properties": { "wmUplineSo": "ORR", "wmType": "Underground" }, "geometry": { "type": "LineString", "coordinates": [ [ -92.473446123418697, 48.229815618608903 ], [ -92.473348999963093, 48.229831003905602 ] ] } },
{ "type": "Feature", "properties": { "wmUplineSo": "ORR", "wmType": "Underground" }, "geometry": { "type": "LineString", "coordinates": [ [ -92.528196999967193, 48.162738003886403 ], [ -92.528328999967201, 48.162501003886298 ] ] } },
{ "type": "Feature", "properties": { "wmUplineSo": "ORR", "wmType": "Underground" }, "geometry": { "type": "LineString", "coordinates": [ [ -92.528328999967201, 48.162501003886298 ], [ -92.528670999967204, 48.162425003886298 ] ] } },
{ "type": "Feature", "properties": { "wmUplineSo": "ORR", "wmType": "Underground" }, "geometry": { "type": "LineString", "coordinates": [ [ -92.528670999967204, 48.162425003886298 ], [ -92.529352323048698, 48.162185404397199 ] ] } },
{ "type": "Feature", "properties": { "wmUplineSo": "ORR", "wmType": "Underground" }, "geometry": { "type": "LineString", "coordinates": [ [ -92.560407185091293, 48.149207769353502 ], [ -92.560781803175203, 48.149252415872702 ] ] } },
{ "type": "Feature", "properties": { "wmUplineSo": "ORR", "wmType": "Underground" }, "geometry": { "type": "LineString", "coordinates": [ [ -92.560781803175203, 48.149252415872702 ], [ -92.561325803848703, 48.149147416155998 ] ] } },
{ "type": "Feature", "properties": { "wmUplineSo": "ORR", "wmType": "Underground" }, "geometry": { "type": "LineString", "coordinates": [ [ -92.561325803848703, 48.149147416155998 ], [ -92.561786804413799, 48.149063416395897 ] ] } },
{ "type": "Feature", "properties": { "wmUplineSo": "ORR", "wmType": "Underground" }, "geometry": { "type": "LineString", "coordinates": [ [ -92.561786804413799, 48.149063416395897 ], [ -92.562175804744896, 48.149118416596799 ] ] } },
{ "type": "Feature", "properties": { "wmUplineSo": "ORR", "wmType": "Underground" }, "geometry": { "type": "LineString", "coordinates": [ [ -92.562175804744896, 48.149118416596799 ], [ -92.562408890439102, 48.149106342647897 ] ] } },
{ "type": "Feature", "properties": { "wmUplineSo": "ORR", "wmType": "Underground" }, "geometry": { "type": "LineString", "coordinates": [ [ -92.562408890439102, 48.149106342647897 ], [ -92.562452804921904, 48.149208416739199 ] ] } },
{ "type": "Feature", "properties": { "wmUplineSo": "ORR", "wmType": "Underground" }, "geometry": { "type": "LineString", "coordinates": [ [ -92.562452804921904, 48.149208416739199 ], [ -92.563087805662306, 48.1491254170692 ] ] } },
{ "type": "Feature", "properties": { "wmUplineSo": "ORR", "wmType": "Underground" }, "geometry": { "type": "LineString", "coordinates": [ [ -92.563087805662306, 48.1491254170692 ], [ -92.563126299999894, 48.149099000010096 ] ] } },
{ "type": "Feature", "properties": { "wmUplineSo": "ORR", "wmType": "Underground" }, "geometry": { "type": "LineString", "coordinates": [ [ -92.476639007352702, 48.235494668010503 ], [ -92.476776299999898, 48.235373600010199 ] ] } },
{ "type": "Feature", "properties": { "wmUplineSo": "ORR", "wmType": "Underground" }, "geometry": { "type": "LineString", "coordinates": [ [ -92.490708128552498, 48.265265994493802 ], [ -92.491435592291793, 48.265277900332102 ] ] } },
{ "type": "Feature", "properties": { "wmUplineSo": "ORR", "wmType": "Underground" }, "geometry": { "type": "LineString", "coordinates": [ [ -92.491435592291793, 48.265277900332102 ], [ -92.491818584035499, 48.265541320851099 ] ] } },
{ "type": "Feature", "properties": { "wmUplineSo": "ORR", "wmType": "Underground" }, "geometry": { "type": "LineString", "coordinates": [ [ -92.491818584035499, 48.265541320851099 ], [ -92.492350626378695, 48.2658999949197 ] ] } },
{ "type": "Feature", "properties": { "wmUplineSo": "ORR", "wmType": "Underground" }, "geometry": { "type": "LineString", "coordinates": [ [ -92.492350626378695, 48.2658999949197 ], [ -92.493201144258293, 48.265959454487898 ] ] } },
{ "type": "Feature", "properties": { "wmUplineSo": "ORR", "wmType": "Underground" }, "geometry": { "type": "LineString", "coordinates": [ [ -92.493201144258293, 48.265959454487898 ], [ -92.494047590393293, 48.2658366361999 ] ] } },
{ "type": "Feature", "properties": { "wmUplineSo": "ORR", "wmType": "Underground" }, "geometry": { "type": "LineString", "coordinates": [ [ -92.803379989268095, 48.052171797439797 ], [ -92.80362652, 48.052870440009997 ] ] } },
{ "type": "Feature", "properties": { "wmUplineSo": "ORR", "wmType": "Underground" }, "geometry": { "type": "LineString", "coordinates": [ [ -92.557810715218096, 48.154651051023201 ], [ -92.562917179308698, 48.153019314711202 ] ] } },
{ "type": "Feature", "properties": { "wmUplineSo": "ORR", "wmType": "Underground" }, "geometry": { "type": "LineString", "coordinates": [ [ -92.562917179308698, 48.153019314711202 ], [ -92.563277946010501, 48.1528533043778 ] ] } },
{ "type": "Feature", "properties": { "wmUplineSo": "ORR", "wmType": "Underground" }, "geometry": { "type": "LineString", "coordinates": [ [ -92.563277946010501, 48.1528533043778 ], [ -92.564283097850904, 48.152965734998702 ] ] } },
{ "type": "Feature", "properties": { "wmUplineSo": "ORR", "wmType": "Underground" }, "geometry": { "type": "LineString", "coordinates": [ [ -92.564283097850904, 48.152965734998702 ], [ -92.564220199999895, 48.152895000010098 ] ] } },
{ "type": "Feature", "properties": { "wmUplineSo": "ORR", "wmType": "Underground" }, "geometry": { "type": "LineString", "coordinates": [ [ -92.490529860250504, 48.295954207340699 ], [ -92.490386348114299, 48.295932245718298 ] ] } },
{ "type": "Feature", "properties": { "wmUplineSo": "ORR", "wmType": "Underground" }, "geometry": { "type": "LineString", "coordinates": [ [ -92.490529860250504, 48.295954207340699 ], [ -92.4906735541296, 48.296287912449799 ], [ -92.4908701873903, 48.2964244657732 ], [ -92.491196591458007, 48.296425910267203 ], [ -92.491455313359694, 48.296237812945897 ], [ -92.491645216696696, 48.295974428332499 ], [ -92.491771581613506, 48.2956429212852 ], [ -92.492260427751006, 48.2945027319034 ] ] } },
{ "type": "Feature", "properties": { "wmUplineSo": "ORR", "wmType": "Underground" }, "geometry": { "type": "LineString", "coordinates": [ [ -92.492311871592193, 48.294314625699798 ], [ -92.492780914195393, 48.294446456022698 ], [ -92.493119600620702, 48.294355266978897 ], [ -92.493306020639693, 48.294103612906802 ] ] } },
{ "type": "Feature", "properties": { "wmUplineSo": "ORR", "wmType": "Underground" }, "geometry": { "type": "LineString", "coordinates": [ [ -92.493306020639693, 48.294103612906802 ], [ -92.493293580929205, 48.294008865838002 ] ] } },
{ "type": "Feature", "properties": { "wmUplineSo": "ORR", "wmType": "Underground" }, "geometry": { "type": "LineString", "coordinates": [ [ -92.471793294643007, 48.353393060619702 ], [ -92.472746618606095, 48.353182534299002 ] ] } },
{ "type": "Feature", "properties": { "wmUplineSo": "ORR", "wmType": "Underground" }, "geometry": { "type": "LineString", "coordinates": [ [ -92.470312022649793, 48.3516563063828 ], [ -92.471793294643007, 48.353393060619702 ] ] } },
{ "type": "Feature", "properties": { "wmUplineSo": "ORR", "wmType": "Underground" }, "geometry": { "type": "LineString", "coordinates": [ [ -92.469954748496903, 48.350354516753796 ], [ -92.470312022649793, 48.3516563063828 ] ] } },
{ "type": "Feature", "properties": { "wmUplineSo": "ORR", "wmType": "Underground" }, "geometry": { "type": "LineString", "coordinates": [ [ -92.473344648714701, 48.348339282693502 ], [ -92.469954748496903, 48.350354516753796 ] ] } },
{ "type": "Feature", "properties": { "wmUplineSo": "ORR", "wmType": "Underground" }, "geometry": { "type": "LineString", "coordinates": [ [ -92.488759388580604, 48.263378374036797 ], [ -92.488738276106304, 48.263344793359899 ] ] } },
{ "type": "Feature", "properties": { "wmUplineSo": "ORR", "wmType": "Underground" }, "geometry": { "type": "LineString", "coordinates": [ [ -92.559006, 48.122984 ], [ -92.559035, 48.122954 ] ] } },
{ "type": "Feature", "properties": { "wmUplineSo": "ORR", "wmType": "Underground" }, "geometry": { "type": "LineString", "coordinates": [ [ -92.483965127289096, 48.288526113349498 ], [ -92.483399891720296, 48.288474363661102 ], [ -92.483239249981295, 48.288949632886698 ], [ -92.483392941011104, 48.289163505956601 ], [ -92.483412, 48.289189999999898 ] ] } },
{ "type": "Feature", "properties": { "wmUplineSo": "ORR", "wmType": "Underground" }, "geometry": { "type": "LineString", "coordinates": [ [ -92.483412, 48.289189999999898 ], [ -92.483178, 48.288988000000103 ] ] } },
{ "type": "Feature", "properties": { "wmUplineSo": "ORR", "wmType": "Underground" }, "geometry": { "type": "LineString", "coordinates": [ [ -92.483178, 48.288988000000103 ], [ -92.482778, 48.289084 ] ] } },
{ "type": "Feature", "properties": { "wmUplineSo": "ORR", "wmType": "Underground" }, "geometry": { "type": "LineString", "coordinates": [ [ -92.476312624190598, 48.341305816124098 ], [ -92.4764191786292, 48.341285792828003 ] ] } },
{ "type": "Feature", "properties": { "wmUplineSo": "ORR", "wmType": "Underground" }, "geometry": { "type": "LineString", "coordinates": [ [ -92.487393832511401, 48.295888468955198 ], [ -92.487272199999893, 48.295804200010302 ] ] } },
{ "type": "Feature", "properties": { "wmUplineSo": "ORR", "wmType": "Underground" }, "geometry": { "type": "LineString", "coordinates": [ [ -92.548144, 48.122708000000102 ], [ -92.548298, 48.122771 ] ] } },
{ "type": "Feature", "properties": { "wmUplineSo": "ORR", "wmType": "Underground" }, "geometry": { "type": "LineString", "coordinates": [ [ -92.548298, 48.122771 ], [ -92.548748, 48.122735 ] ] } },
{ "type": "Feature", "properties": { "wmUplineSo": "ORR", "wmType": "Underground" }, "geometry": { "type": "LineString", "coordinates": [ [ -92.548748, 48.122735 ], [ -92.54954, 48.122410000000102 ] ] } },
{ "type": "Feature", "properties": { "wmUplineSo": "ORR", "wmType": "Underground" }, "geometry": { "type": "LineString", "coordinates": [ [ -92.54954, 48.122410000000102 ], [ -92.550489, 48.122011 ] ] } },
{ "type": "Feature", "properties": { "wmUplineSo": "ORR", "wmType": "Underground" }, "geometry": { "type": "LineString", "coordinates": [ [ -92.550489, 48.122011 ], [ -92.551295, 48.121687000000101 ] ] } },
{ "type": "Feature", "properties": { "wmUplineSo": "ORR", "wmType": "Underground" }, "geometry": { "type": "LineString", "coordinates": [ [ -92.551295, 48.121687000000101 ], [ -92.551908, 48.121436000000102 ] ] } },
{ "type": "Feature", "properties": { "wmUplineSo": "ORR", "wmType": "Underground" }, "geometry": { "type": "LineString", "coordinates": [ [ -92.551908, 48.121436000000102 ], [ -92.552778, 48.121592999999898 ] ] } },
{ "type": "Feature", "properties": { "wmUplineSo": "ORR", "wmType": "Underground" }, "geometry": { "type": "LineString", "coordinates": [ [ -92.552778, 48.121592999999898 ], [ -92.554956, 48.121962000000103 ] ] } },
{ "type": "Feature", "properties": { "wmUplineSo": "ORR", "wmType": "Underground" }, "geometry": { "type": "LineString", "coordinates": [ [ -92.554956, 48.121962000000103 ], [ -92.556717, 48.122146 ] ] } },
{ "type": "Feature", "properties": { "wmUplineSo": "ORR", "wmType": "Underground" }, "geometry": { "type": "LineString", "coordinates": [ [ -92.556717, 48.122146 ], [ -92.557792, 48.122499 ] ] } },
{ "type": "Feature", "properties": { "wmUplineSo": "ORR", "wmType": "Underground" }, "geometry": { "type": "LineString", "coordinates": [ [ -92.557792, 48.122499 ], [ -92.558508, 48.122986 ] ] } },
{ "type": "Feature", "properties": { "wmUplineSo": "ORR", "wmType": "Underground" }, "geometry": { "type": "LineString", "coordinates": [ [ -92.558508, 48.122986 ], [ -92.558912, 48.123089999999898 ] ] } },
{ "type": "Feature", "properties": { "wmUplineSo": "ORR", "wmType": "Underground" }, "geometry": { "type": "LineString", "coordinates": [ [ -92.459857, 48.2659430000001 ], [ -92.459889, 48.266255 ] ] } },
{ "type": "Feature", "properties": { "wmUplineSo": "ORR", "wmType": "Underground" }, "geometry": { "type": "LineString", "coordinates": [ [ -92.459889, 48.266255 ], [ -92.459957, 48.266373000000101 ] ] } },
{ "type": "Feature", "properties": { "wmUplineSo": "ORR", "wmType": "Underground" }, "geometry": { "type": "LineString", "coordinates": [ [ -92.459957, 48.266373000000101 ], [ -92.459933340664406, 48.266408415666596 ] ] } },
{ "type": "Feature", "properties": { "wmUplineSo": "ORR", "wmType": "Underground" }, "geometry": { "type": "LineString", "coordinates": [ [ -92.489769909728196, 48.265807394077797 ], [ -92.490181, 48.265472 ] ] } },
{ "type": "Feature", "properties": { "wmUplineSo": "ORR", "wmType": "Underground" }, "geometry": { "type": "LineString", "coordinates": [ [ -92.490181, 48.265472 ], [ -92.490148, 48.26547 ] ] } },
{ "type": "Feature", "properties": { "wmUplineSo": "ORR", "wmType": "Underground" }, "geometry": { "type": "LineString", "coordinates": [ [ -92.490181, 48.265472 ], [ -92.490148, 48.26547 ] ] } },
{ "type": "Feature", "properties": { "wmUplineSo": "ORR", "wmType": "Underground" }, "geometry": { "type": "LineString", "coordinates": [ [ -92.616435431397804, 48.111812985057 ], [ -92.616419700772596, 48.111799149259397 ], [ -92.616347847202306, 48.110636071122499 ], [ -92.6164149257106, 48.109556926057799 ], [ -92.616939138413201, 48.108273050244001 ], [ -92.617763592865003, 48.108119934681397 ], [ -92.618354196007303, 48.1081189525258 ], [ -92.618369899396399, 48.108125189444301 ] ] } },
{ "type": "Feature", "properties": { "wmUplineSo": "ORR", "wmType": "Underground" }, "geometry": { "type": "LineString", "coordinates": [ [ -92.618369899396399, 48.108125189444301 ], [ -92.618042, 48.10775 ] ] } },
{ "type": "Feature", "properties": { "wmUplineSo": "ORR", "wmType": "Underground" }, "geometry": { "type": "LineString", "coordinates": [ [ -92.618042, 48.10775 ], [ -92.618499, 48.107108 ] ] } },
{ "type": "Feature", "properties": { "wmUplineSo": "ORR", "wmType": "Underground" }, "geometry": { "type": "LineString", "coordinates": [ [ -92.618499, 48.107108 ], [ -92.619134, 48.10653 ] ] } },
{ "type": "Feature", "properties": { "wmUplineSo": "ORR", "wmType": "Underground" }, "geometry": { "type": "LineString", "coordinates": [ [ -92.619134, 48.10653 ], [ -92.619429, 48.106625 ] ] } },
{ "type": "Feature", "properties": { "wmUplineSo": "ORR", "wmType": "Underground" }, "geometry": { "type": "LineString", "coordinates": [ [ -92.484709, 48.205595000000102 ], [ -92.484911, 48.205695 ] ] } },
{ "type": "Feature", "properties": { "wmUplineSo": "ORR", "wmType": "Underground" }, "geometry": { "type": "LineString", "coordinates": [ [ -92.484911, 48.205695 ], [ -92.485477, 48.205859 ] ] } },
{ "type": "Feature", "properties": { "wmUplineSo": "ORR", "wmType": "Underground" }, "geometry": { "type": "LineString", "coordinates": [ [ -92.485477, 48.205859 ], [ -92.485575, 48.205816 ] ] } },
{ "type": "Feature", "properties": { "wmUplineSo": "ORR", "wmType": "Underground" }, "geometry": { "type": "LineString", "coordinates": [ [ -92.485575, 48.205816 ], [ -92.485594857991501, 48.205842475236402 ] ] } },
{ "type": "Feature", "properties": { "wmUplineSo": "ORR", "wmType": "Underground" }, "geometry": { "type": "LineString", "coordinates": [ [ -92.605567, 48.091293 ], [ -92.605631, 48.091189999999898 ] ] } },
{ "type": "Feature", "properties": { "wmUplineSo": "ORR", "wmType": "Underground" }, "geometry": { "type": "LineString", "coordinates": [ [ -92.605631, 48.091189999999898 ], [ -92.605763, 48.091143000000102 ] ] } },
{ "type": "Feature", "properties": { "wmUplineSo": "ORR", "wmType": "Underground" }, "geometry": { "type": "LineString", "coordinates": [ [ -92.605763, 48.091143000000102 ], [ -92.605837, 48.091014 ] ] } },
{ "type": "Feature", "properties": { "wmUplineSo": "ORR", "wmType": "Underground" }, "geometry": { "type": "LineString", "coordinates": [ [ -92.605837, 48.091014 ], [ -92.605853914128005, 48.090964788528403 ] ] } },
{ "type": "Feature", "properties": { "wmUplineSo": "ORR", "wmType": "Underground" }, "geometry": { "type": "LineString", "coordinates": [ [ -92.6030039999726, 48.0926710038663 ], [ -92.602889999972604, 48.092358003866202 ] ] } },
{ "type": "Feature", "properties": { "wmUplineSo": "ORR", "wmType": "Underground" }, "geometry": { "type": "LineString", "coordinates": [ [ -92.597029, 48.092149 ], [ -92.597062, 48.092124 ] ] } },
{ "type": "Feature", "properties": { "wmUplineSo": "ORR", "wmType": "Underground" }, "geometry": { "type": "LineString", "coordinates": [ [ -92.496763097524095, 48.299105703391398 ], [ -92.496328799999901, 48.298662600010303 ] ] } },
{ "type": "Feature", "properties": { "wmUplineSo": "ORR", "wmType": "Underground" }, "geometry": { "type": "LineString", "coordinates": [ [ -92.496004096308297, 48.302281057554303 ], [ -92.496095499999896, 48.302228100010304 ] ] } },
{ "type": "Feature", "properties": { "wmUplineSo": "ORR", "wmType": "Underground" }, "geometry": { "type": "LineString", "coordinates": [ [ -92.496558989716107, 48.301536704935899 ], [ -92.496572299999897, 48.301608100010299 ] ] } },
{ "type": "Feature", "properties": { "wmUplineSo": "ORR", "wmType": "Underground" }, "geometry": { "type": "LineString", "coordinates": [ [ -92.496558989716107, 48.301536704935899 ], [ -92.496573499999897, 48.301603900010299 ] ] } },
{ "type": "Feature", "properties": { "wmUplineSo": "ORR", "wmType": "Underground" }, "geometry": { "type": "LineString", "coordinates": [ [ -92.496918817704795, 48.300770006304901 ], [ -92.496874799999901, 48.3011364000103 ] ] } },
{ "type": "Feature", "properties": { "wmUplineSo": "ORR", "wmType": "Underground" }, "geometry": { "type": "LineString", "coordinates": [ [ -92.496458394861193, 48.300097766992899 ], [ -92.496552399999899, 48.300100100010297 ] ] } },
{ "type": "Feature", "properties": { "wmUplineSo": "ORR", "wmType": "Underground" }, "geometry": { "type": "LineString", "coordinates": [ [ -92.483189101462401, 48.286615525322901 ], [ -92.4833710999999, 48.286862600010302 ] ] } },
{ "type": "Feature", "properties": { "wmUplineSo": "ORR", "wmType": "Underground" }, "geometry": { "type": "LineString", "coordinates": [ [ -92.495811541279494, 48.303026996406899 ], [ -92.495873599999896, 48.303031800010302 ] ] } },
{ "type": "Feature", "properties": { "wmUplineSo": "ORR", "wmType": "Underground" }, "geometry": { "type": "LineString", "coordinates": [ [ -92.496918817704795, 48.300770006304901 ], [ -92.497372628864099, 48.3004765007801 ] ] } },
{ "type": "Feature", "properties": { "wmUplineSo": "ORR", "wmType": "Underground" }, "geometry": { "type": "LineString", "coordinates": [ [ -92.470937208551007, 48.279322310545503 ], [ -92.471187199999903, 48.279462400010303 ] ] } },
{ "type": "Feature", "properties": { "wmUplineSo": "ORR", "wmType": "Underground" }, "geometry": { "type": "LineString", "coordinates": [ [ -92.469856439012901, 48.278486034103302 ], [ -92.470453499999905, 48.278467900010298 ] ] } },
{ "type": "Feature", "properties": { "wmUplineSo": "ORR", "wmType": "Underground" }, "geometry": { "type": "LineString", "coordinates": [ [ -92.492260427751006, 48.2945027319034 ], [ -92.492311871592193, 48.294314625699798 ] ] } },
{ "type": "Feature", "properties": { "wmUplineSo": "ORR", "wmType": "Underground" }, "geometry": { "type": "LineString", "coordinates": [ [ -92.501521453240699, 48.097806031070299 ], [ -92.501634299999907, 48.097743300010002 ] ] } },
{ "type": "Feature", "properties": { "wmUplineSo": "ORR", "wmType": "Underground" }, "geometry": { "type": "LineString", "coordinates": [ [ -92.5068210184657, 48.103666183252599 ], [ -92.506346099999902, 48.103528400009999 ] ] } },
{ "type": "Feature", "properties": { "wmUplineSo": "ORR", "wmType": "Underground" }, "geometry": { "type": "LineString", "coordinates": [ [ -92.562897717120805, 48.150348126040001 ], [ -92.563515399999901, 48.1505318000101 ] ] } },
{ "type": "Feature", "properties": { "wmUplineSo": "ORR", "wmType": "Underground" }, "geometry": { "type": "LineString", "coordinates": [ [ -92.758549655868094, 48.048885265269803 ], [ -92.757955833454403, 48.048858798908803 ] ] } },
{ "type": "Feature", "properties": { "wmUplineSo": "ORR", "wmType": "Underground" }, "geometry": { "type": "LineString", "coordinates": [ [ -92.557810715218096, 48.154651051023201 ], [ -92.559150099999897, 48.1544414000101 ] ] } },
{ "type": "Feature", "properties": { "wmUplineSo": "ORR", "wmType": "Underground" }, "geometry": { "type": "LineString", "coordinates": [ [ -92.556900691782701, 48.1549645341088 ], [ -92.556991799999906, 48.154982900010097 ] ] } },
{ "type": "Feature", "properties": { "wmUplineSo": "ORR", "wmType": "Underground" }, "geometry": { "type": "LineString", "coordinates": [ [ -92.553561388940807, 48.151315014054198 ], [ -92.554017099999896, 48.151911800010097 ] ] } },
{ "type": "Feature", "properties": { "wmUplineSo": "ORR", "wmType": "Underground" }, "geometry": { "type": "LineString", "coordinates": [ [ -92.548916127741094, 48.1493776057236 ], [ -92.548117099999899, 48.1495590000101 ] ] } },
{ "type": "Feature", "properties": { "wmUplineSo": "ORR", "wmType": "Underground" }, "geometry": { "type": "LineString", "coordinates": [ [ -92.524464847407501, 48.127856894716103 ], [ -92.524361599999907, 48.127890900010101 ] ] } },
{ "type": "Feature", "properties": { "wmUplineSo": "ORR", "wmType": "Underground" }, "geometry": { "type": "LineString", "coordinates": [ [ -92.528741632873505, 48.129803802906402 ], [ -92.526909599999897, 48.131249600010101 ] ] } },
{ "type": "Feature", "properties": { "wmUplineSo": "ORR", "wmType": "Underground" }, "geometry": { "type": "LineString", "coordinates": [ [ -92.471583114978003, 48.179018057724903 ], [ -92.471672711202999, 48.179347045799602 ] ] } },
{ "type": "Feature", "properties": { "wmUplineSo": "ORR", "wmType": "Underground" }, "geometry": { "type": "LineString", "coordinates": [ [ -92.456500519118904, 48.172970404270899 ], [ -92.456598899999904, 48.172875100010103 ] ] } },
{ "type": "Feature", "properties": { "wmUplineSo": "ORR", "wmType": "Underground" }, "geometry": { "type": "LineString", "coordinates": [ [ -92.456500519118904, 48.172970404270899 ], [ -92.4566338999999, 48.172917000010102 ] ] } },
{ "type": "Feature", "properties": { "wmUplineSo": "ORR", "wmType": "Underground" }, "geometry": { "type": "LineString", "coordinates": [ [ -92.479749833354305, 48.260720034319903 ], [ -92.479321099999893, 48.260787400010202 ] ] } },
{ "type": "Feature", "properties": { "wmUplineSo": "ORR", "wmType": "Underground" }, "geometry": { "type": "LineString", "coordinates": [ [ -92.475496156807395, 48.2601624547383 ], [ -92.4754302999999, 48.260143300010199 ] ] } },
{ "type": "Feature", "properties": { "wmUplineSo": "ORR", "wmType": "Underground" }, "geometry": { "type": "LineString", "coordinates": [ [ -92.493568943478493, 48.307453007553498 ], [ -92.493552899999898, 48.307412800010297 ] ] } },
{ "type": "Feature", "properties": { "wmUplineSo": "ORR", "wmType": "Underground" }, "geometry": { "type": "LineString", "coordinates": [ [ -92.491182887765603, 48.303792116403898 ], [ -92.491447699999895, 48.304231000010297 ] ] } },
{ "type": "Feature", "properties": { "wmUplineSo": "ORR", "wmType": "Underground" }, "geometry": { "type": "LineString", "coordinates": [ [ -92.494224490625299, 48.303095243661602 ], [ -92.494289299999906, 48.303146300010297 ] ] } },
{ "type": "Feature", "properties": { "wmUplineSo": "ORR", "wmType": "Underground" }, "geometry": { "type": "LineString", "coordinates": [ [ -92.475931205486603, 48.334068500036501 ], [ -92.476201399999894, 48.335301600010297 ] ] } },
{ "type": "Feature", "properties": { "wmUplineSo": "ORR", "wmType": "Underground" }, "geometry": { "type": "LineString", "coordinates": [ [ -92.492350626378695, 48.2658999949197 ], [ -92.492742099999901, 48.265449100010201 ] ] } },
{ "type": "Feature", "properties": { "wmUplineSo": "ORR", "wmType": "Underground" }, "geometry": { "type": "LineString", "coordinates": [ [ -92.492350626378695, 48.2658999949197 ], [ -92.4924002999999, 48.2658935000103 ] ] } },
{ "type": "Feature", "properties": { "wmUplineSo": "ORR", "wmType": "Underground" }, "geometry": { "type": "LineString", "coordinates": [ [ -92.494047590393293, 48.2658366361999 ], [ -92.494109599999902, 48.2657603000102 ] ] } },
{ "type": "Feature", "properties": { "wmUplineSo": "ORR", "wmType": "Underground" }, "geometry": { "type": "LineString", "coordinates": [ [ -92.494047590393293, 48.2658366361999 ], [ -92.494124899999903, 48.265722800010202 ] ] } },
{ "type": "Feature", "properties": { "wmUplineSo": "ORR", "wmType": "Underground" }, "geometry": { "type": "LineString", "coordinates": [ [ -92.488128024542902, 48.267485745866601 ], [ -92.488482499999904, 48.2675121000103 ] ] } },
{ "type": "Feature", "properties": { "wmUplineSo": "ORR", "wmType": "Underground" }, "geometry": { "type": "LineString", "coordinates": [ [ -92.4922418864208, 48.270833495638499 ], [ -92.492397799999907, 48.270836400010197 ] ] } },
{ "type": "Feature", "properties": { "wmUplineSo": "ORR", "wmType": "Underground" }, "geometry": { "type": "LineString", "coordinates": [ [ -92.492158731119105, 48.2736515183813 ], [ -92.492018599999895, 48.274010800010302 ] ] } },
{ "type": "Feature", "properties": { "wmUplineSo": "ORR", "wmType": "Underground" }, "geometry": { "type": "LineString", "coordinates": [ [ -92.483412, 48.289189999999898 ], [ -92.483398599999902, 48.289169600010297 ] ] } },
{ "type": "Feature", "properties": { "wmUplineSo": "ORR", "wmType": "Underground" }, "geometry": { "type": "LineString", "coordinates": [ [ -92.483412, 48.289189999999898 ], [ -92.483399799999901, 48.2892039000103 ] ] } },
{ "type": "Feature", "properties": { "wmUplineSo": "ORR", "wmType": "Underground" }, "geometry": { "type": "LineString", "coordinates": [ [ -92.483965127289096, 48.288526113349498 ], [ -92.484078499999896, 48.288456600010299 ] ] } },
{ "type": "Feature", "properties": { "wmUplineSo": "ORR", "wmType": "Underground" }, "geometry": { "type": "LineString", "coordinates": [ [ -92.514328, 48.289546000000101 ], [ -92.514347299999898, 48.289542300010297 ] ] } },
{ "type": "Feature", "properties": { "wmUplineSo": "ORR", "wmType": "Underground" }, "geometry": { "type": "LineString", "coordinates": [ [ -92.515202, 48.290970000000101 ], [ -92.515237799999895, 48.290970100010298 ] ] } },
{ "type": "Feature", "properties": { "wmUplineSo": "ORR", "wmType": "Underground" }, "geometry": { "type": "LineString", "coordinates": [ [ -92.5148351649066, 48.294949140115797 ], [ -92.514960599999895, 48.294959100010303 ] ] } },
{ "type": "Feature", "properties": { "wmUplineSo": "ORR", "wmType": "Underground" }, "geometry": { "type": "LineString", "coordinates": [ [ -92.484958797874, 48.294144160007299 ], [ -92.484967299999894, 48.2941453000103 ] ] } },
{ "type": "Feature", "properties": { "wmUplineSo": "ORR", "wmType": "Underground" }, "geometry": { "type": "LineString", "coordinates": [ [ -92.4907609931888, 48.271647632895501 ], [ -92.490777299999905, 48.2716393000102 ] ] } },
{ "type": "Feature", "properties": { "wmUplineSo": "ORR", "wmType": "Underground" }, "geometry": { "type": "LineString", "coordinates": [ [ -92.460406, 48.326003 ], [ -92.460489334002006, 48.32606646883 ] ] } },
{ "type": "Feature", "properties": { "wmUplineSo": "ORR", "wmType": "Underground" }, "geometry": { "type": "LineString", "coordinates": [ [ -92.482759143947703, 48.285023910483801 ], [ -92.482554499999907, 48.285161700010299 ] ] } },
{ "type": "Feature", "properties": { "wmUplineSo": "ORR", "wmType": "Underground" }, "geometry": { "type": "LineString", "coordinates": [ [ -92.475054337896694, 48.2335025295395 ], [ -92.474911599999899, 48.2336548000102 ] ] } },
{ "type": "Feature", "properties": { "wmUplineSo": "ORR", "wmType": "Underground" }, "geometry": { "type": "LineString", "coordinates": [ [ -92.507610542870907, 48.102837211457398 ], [ -92.507293199999907, 48.102670700010101 ] ] } },
{ "type": "Feature", "properties": { "wmUplineSo": "ORR", "wmType": "Underground" }, "geometry": { "type": "LineString", "coordinates": [ [ -92.516274293261006, 48.170978531631299 ], [ -92.514854799999895, 48.171842500010101 ] ] } },
{ "type": "Feature", "properties": { "wmUplineSo": "ORR", "wmType": "Underground" }, "geometry": { "type": "LineString", "coordinates": [ [ -92.488000390408004, 48.2666954397857 ], [ -92.487977399999906, 48.266617290010203 ] ] } },
{ "type": "Feature", "properties": { "wmUplineSo": "ORR", "wmType": "Underground" }, "geometry": { "type": "LineString", "coordinates": [ [ -92.489059468374904, 48.270412619376202 ], [ -92.489045, 48.270413100010302 ] ] } },
{ "type": "Feature", "properties": { "wmUplineSo": "ORR", "wmType": "Underground" }, "geometry": { "type": "LineString", "coordinates": [ [ -92.489740592013206, 48.264656235089198 ], [ -92.489958599999895, 48.264632800010197 ] ] } },
{ "type": "Feature", "properties": { "wmUplineSo": "ORR", "wmType": "Underground" }, "geometry": { "type": "LineString", "coordinates": [ [ -92.5930772444339, 48.113930653363298 ], [ -92.5934507999999, 48.113776600010098 ] ] } },
{ "type": "Feature", "properties": { "wmUplineSo": "ORR", "wmType": "Underground" }, "geometry": { "type": "LineString", "coordinates": [ [ -92.5930772444339, 48.113930653363298 ], [ -92.593475999999896, 48.113775700010102 ] ] } },
{ "type": "Feature", "properties": { "wmUplineSo": "ORR", "wmType": "Underground" }, "geometry": { "type": "LineString", "coordinates": [ [ -92.470078068318301, 48.2275724977886 ], [ -92.469977099999895, 48.227598600010197 ] ] } },
{ "type": "Feature", "properties": { "wmUplineSo": "ORR", "wmType": "Underground" }, "geometry": { "type": "LineString", "coordinates": [ [ -92.621403, 48.10523 ], [ -92.621452828191906, 48.105289885241397 ] ] } },
{ "type": "Feature", "properties": { "wmUplineSo": "ORR", "wmType": "Underground" }, "geometry": { "type": "LineString", "coordinates": [ [ -92.621267052827207, 48.103886911463803 ], [ -92.620987299999896, 48.103755100010098 ] ] } },
{ "type": "Feature", "properties": { "wmUplineSo": "ORR", "wmType": "Underground" }, "geometry": { "type": "LineString", "coordinates": [ [ -92.618369899396399, 48.108125189444301 ], [ -92.618351199999907, 48.108096900010104 ] ] } },
{ "type": "Feature", "properties": { "wmUplineSo": "ORR", "wmType": "Underground" }, "geometry": { "type": "LineString", "coordinates": [ [ -92.616046105053897, 48.113092925431403 ], [ -92.615662, 48.112687700010099 ] ] } },
{ "type": "Feature", "properties": { "wmUplineSo": "ORR", "wmType": "Underground" }, "geometry": { "type": "LineString", "coordinates": [ [ -92.616046105053897, 48.113092925431403 ], [ -92.616256904773707, 48.112938827187897 ] ] } },
{ "type": "Feature", "properties": { "wmUplineSo": "ORR", "wmType": "Underground" }, "geometry": { "type": "LineString", "coordinates": [ [ -92.616435431397804, 48.111812985057 ], [ -92.616406599999905, 48.111589300010003 ] ] } },
{ "type": "Feature", "properties": { "wmUplineSo": "ORR", "wmType": "Underground" }, "geometry": { "type": "LineString", "coordinates": [ [ -92.616435431397804, 48.111812985057 ], [ -92.616408699999894, 48.111546200010103 ] ] } },
{ "type": "Feature", "properties": { "wmUplineSo": "ORR", "wmType": "Underground" }, "geometry": { "type": "LineString", "coordinates": [ [ -92.476312624190598, 48.341305816124098 ], [ -92.475499375116101, 48.341082032152102 ] ] } },
{ "type": "Feature", "properties": { "wmUplineSo": "ORR", "wmType": "Underground" }, "geometry": { "type": "LineString", "coordinates": [ [ -92.478124949999895, 48.345456530010402 ], [ -92.478145422722704, 48.345573149007102 ] ] } },
{ "type": "Feature", "properties": { "wmUplineSo": "ORR", "wmType": "Underground" }, "geometry": { "type": "LineString", "coordinates": [ [ -92.602889999972604, 48.092358003866202 ], [ -92.602881999972595, 48.0921900038662 ] ] } },
{ "type": "Feature", "properties": { "wmUplineSo": "ORR", "wmType": "Underground" }, "geometry": { "type": "LineString", "coordinates": [ [ -92.602881999972595, 48.0921900038662 ], [ -92.602870958941907, 48.092142910920501 ] ] } },
{ "type": "Feature", "properties": { "wmUplineSo": "ORR", "wmType": "Underground" }, "geometry": { "type": "LineString", "coordinates": [ [ -92.619429, 48.106625 ], [ -92.619435302036393, 48.106636490519101 ], [ -92.618810657314299, 48.106394625770399 ], [ -92.618869498203296, 48.106304997107401 ], [ -92.619819210929606, 48.105558855816298 ], [ -92.620651222528707, 48.1049921921757 ], [ -92.621405636419695, 48.105225412989199 ], [ -92.621403, 48.10523 ] ] } },
{ "type": "Feature", "properties": { "wmUplineSo": "ORR", "wmType": "Underground" }, "geometry": { "type": "LineString", "coordinates": [ [ -92.510577655512407, 48.135140240625397 ], [ -92.510475842469106, 48.135147676327001 ] ] } },
{ "type": "Feature", "properties": { "wmUplineSo": "ORR", "wmType": "Underground" }, "geometry": { "type": "LineString", "coordinates": [ [ -92.473348999963093, 48.229831003905602 ], [ -92.473338223500093, 48.2298041067573 ] ] } },
{ "type": "Feature", "properties": { "wmUplineSo": "ORR", "wmType": "Underground" }, "geometry": { "type": "LineString", "coordinates": [ [ -92.485087062420803, 48.2450850031668 ], [ -92.484480061834702, 48.245144002346201 ] ] } },
{ "type": "Feature", "properties": { "wmUplineSo": "ORR", "wmType": "Underground" }, "geometry": { "type": "LineString", "coordinates": [ [ -92.488738276106304, 48.263344793359899 ], [ -92.488678175170307, 48.263344526132897 ] ] } },
{ "type": "Feature", "properties": { "wmUplineSo": "ORR", "wmType": "Underground" }, "geometry": { "type": "LineString", "coordinates": [ [ -92.610118917877102, 48.093239442089804 ], [ -92.6106069184858, 48.093140442343397 ] ] } },
{ "type": "Feature", "properties": { "wmUplineSo": "ORR", "wmType": "Underground" }, "geometry": { "type": "LineString", "coordinates": [ [ -92.492311871592193, 48.294314625699798 ], [ -92.492323426713895, 48.294265584519401 ] ] } },
{ "type": "Feature", "properties": { "wmUplineSo": "ORR", "wmType": "Underground" }, "geometry": { "type": "LineString", "coordinates": [ [ -92.522789932045598, 48.123276539707703 ], [ -92.522749726893593, 48.123247457427702 ] ] } },
{ "type": "Feature", "properties": { "wmUplineSo": "ORR", "wmType": "Underground" }, "geometry": { "type": "LineString", "coordinates": [ [ -92.487393832511401, 48.295888468955198 ], [ -92.487388319004907, 48.295904249301302 ], [ -92.487387266219997, 48.295935811290299 ], [ -92.487398038523693, 48.2959675489003 ], [ -92.487397248938606, 48.295991220390697 ], [ -92.4874077580658, 48.296030848495299 ], [ -92.487441654246197, 48.296078718330101 ], [ -92.4874639885481, 48.296118522043301 ], [ -92.4874747609352, 48.296150259641898 ], [ -92.487509446791194, 48.296174457965598 ], [ -92.487544395853206, 48.296190765783003 ], [ -92.487579081767706, 48.296214964085699 ], [ -92.487695754320399, 48.2962640630357 ], [ -92.487742528660306, 48.2962805463847 ], [ -92.487894940150099, 48.296322281396499 ], [ -92.487965364953396, 48.296339115798098 ], [ -92.488047614980502, 48.296356125715199 ], [ -92.488141953329702, 48.2963654206266 ], [ -92.488223940381005, 48.296390320917197 ], [ -92.488282803253497, 48.296399089094002 ], [ -92.488341403089294, 48.296415747737797 ], [ -92.488376352567499, 48.2964320553072 ], [ -92.488482253274199, 48.296449415966997 ], [ -92.488646754057498, 48.296483435024697 ], [ -92.488729267527404, 48.296492553970801 ], [ -92.488835168471297, 48.296509914315102 ], [ -92.488905856796706, 48.296518857659699 ], [ -92.488952894705093, 48.296527450031697 ], [ -92.488976545146002, 48.296527800962302 ], [ -92.489141309429101, 48.296553928835401 ], [ -92.489188610337493, 48.296554630616797 ], [ -92.489223823094406, 48.296563047437601 ], [ -92.489294511556594, 48.296571990550397 ], [ -92.489377025276497, 48.296581109045597 ], [ -92.489436151446597, 48.2965819861518 ], [ -92.489495014733706, 48.296590753726001 ], [ -92.489707869000895, 48.296593910958599 ], [ -92.489838472288596, 48.296580059193602 ], [ -92.489886036056205, 48.296572870198098 ], [ -92.489958038722605, 48.296542360421697 ], [ -92.489993777214394, 48.296534996016099 ], [ -92.490017953278794, 48.296519565740503 ], [ -92.490053954548003, 48.296504310817198 ], [ -92.490077867783398, 48.296496771028899 ], [ -92.490102043805805, 48.296481340735802 ], [ -92.490149870235399, 48.296466261134199 ], [ -92.490185871430199, 48.2964510061704 ], [ -92.490270487263203, 48.296397000043299 ], [ -92.490294925948206, 48.296373679209097 ], [ -92.490427893238603, 48.296288812282398 ], [ -92.490452331804207, 48.296265491413898 ], [ -92.490488595509802, 48.296242345853699 ], [ -92.490501208870597, 48.296218849660001 ], [ -92.490502522534001, 48.296179397148101 ], [ -92.490515661334399, 48.296140119946102 ], [ -92.4905196022806, 48.296021762398901 ], [ -92.490529860250504, 48.295954207340699 ], [ -92.490529860250504, 48.295954207340699 ] ] } },
{ "type": "Feature", "properties": { "wmUplineSo": "ORR", "wmType": "Underground" }, "geometry": { "type": "LineString", "coordinates": [ [ -92.475475182845997, 48.341122794930698 ], [ -92.476312624190598, 48.341305816124098 ] ] } },
{ "type": "Feature", "properties": { "wmUplineSo": "ORR", "wmType": "Underground" }, "geometry": { "type": "LineString", "coordinates": [ [ -92.602970999972598, 48.092940003866403 ], [ -92.602950999972606, 48.092857003866499 ] ] } },
{ "type": "Feature", "properties": { "wmUplineSo": "ORR", "wmType": "Underground" }, "geometry": { "type": "LineString", "coordinates": [ [ -92.602950999972606, 48.092857003866499 ], [ -92.6030039999726, 48.0926710038663 ] ] } },
{ "type": "Feature", "properties": { "wmUplineSo": "ORR", "wmType": "Underground" }, "geometry": { "type": "LineString", "coordinates": [ [ -92.476255664344606, 48.235526766240902 ], [ -92.4762115999999, 48.235534300010201 ] ] } },
{ "type": "Feature", "properties": { "wmUplineSo": "ORR", "wmType": "Underground" }, "geometry": { "type": "LineString", "coordinates": [ [ -92.523698999966896, 48.147309003881901 ], [ -92.524604999966996, 48.146967003881699 ] ] } },
{ "type": "Feature", "properties": { "wmUplineSo": "ORR", "wmType": "Underground" }, "geometry": { "type": "LineString", "coordinates": [ [ -92.611483919213597, 48.093280442794899 ], [ -92.611678099999907, 48.093253700010003 ] ] } },
{ "type": "Feature", "properties": { "wmUplineSo": "ORR", "wmType": "Underground" }, "geometry": { "type": "LineString", "coordinates": [ [ -92.6113999192102, 48.093209442752503 ], [ -92.611483919213597, 48.093280442794899 ] ] } },
{ "type": "Feature", "properties": { "wmUplineSo": "ORR", "wmType": "Underground" }, "geometry": { "type": "LineString", "coordinates": [ [ -92.476257280789497, 48.235526722808103 ], [ -92.476255664344606, 48.235526766240902 ] ] } },
{ "type": "Feature", "properties": { "wmUplineSo": "ORR", "wmType": "Underground" }, "geometry": { "type": "LineString", "coordinates": [ [ -92.470937208551007, 48.279322310545503 ], [ -92.471042814311801, 48.278734708528297 ], [ -92.470601514131801, 48.278129887726202 ], [ -92.470062308817504, 48.278013030218297 ], [ -92.4699063477359, 48.278333652065598 ], [ -92.469856439012901, 48.278486034103302 ] ] } },
{ "type": "Feature", "properties": { "wmUplineSo": "ORR", "wmType": "Underground" }, "geometry": { "type": "LineString", "coordinates": [ [ -92.484958797874, 48.294144160007299 ], [ -92.484718236700402, 48.294741631744898 ], [ -92.484783026299098, 48.2952116028058 ], [ -92.485213563847793, 48.295604931373198 ], [ -92.485824340265196, 48.295790317263098 ], [ -92.486796551964801, 48.295896133929602 ], [ -92.487393832511401, 48.295888468955198 ] ] } },
{ "type": "Feature", "properties": { "wmUplineSo": "ORR", "wmType": "Underground" }, "geometry": { "type": "LineString", "coordinates": [ [ -92.495811541279494, 48.303026996406899 ], [ -92.496004096308297, 48.302281057554303 ] ] } },
{ "type": "Feature", "properties": { "wmUplineSo": "ORR", "wmType": "Underground" }, "geometry": { "type": "LineString", "coordinates": [ [ -92.496004096308297, 48.302281057554303 ], [ -92.4954214881312, 48.3019146173595 ], [ -92.495620023378393, 48.301595292101602 ], [ -92.496558989716107, 48.301536704935899 ] ] } },
{ "type": "Feature", "properties": { "wmUplineSo": "ORR", "wmType": "Underground" }, "geometry": { "type": "LineString", "coordinates": [ [ -92.496558989716107, 48.301536704935899 ], [ -92.496918817704795, 48.300770006304901 ] ] } },
{ "type": "Feature", "properties": { "wmUplineSo": "ORR", "wmType": "Underground" }, "geometry": { "type": "LineString", "coordinates": [ [ -92.496458394861193, 48.300097766992899 ], [ -92.496651060852898, 48.299650103534702 ], [ -92.496763097524095, 48.299105703391398 ] ] } },
{ "type": "Feature", "properties": { "wmUplineSo": "ORR", "wmType": "Underground" }, "geometry": { "type": "LineString", "coordinates": [ [ -92.496918817704795, 48.300770006304901 ], [ -92.496458394861193, 48.300097766992899 ] ] } },
{ "type": "Feature", "properties": { "wmUplineSo": "ORR", "wmType": "Underground" }, "geometry": { "type": "LineString", "coordinates": [ [ -92.475599164302096, 48.234151285136697 ], [ -92.475647648385007, 48.234135579250001 ], [ -92.476819401535096, 48.233846882178803 ], [ -92.476921537795306, 48.233688824761401 ], [ -92.476919895852205, 48.233691839907998 ] ] } },
{ "type": "Feature", "properties": { "wmUplineSo": "ORR", "wmType": "Underground" }, "geometry": { "type": "LineString", "coordinates": [ [ -92.476324999963296, 48.235616003907403 ], [ -92.476257280789497, 48.235526722808103 ] ] } },
{ "type": "Feature", "properties": { "wmUplineSo": "ORR", "wmType": "Underground" }, "geometry": { "type": "LineString", "coordinates": [ [ -92.524604999966996, 48.146967003881699 ], [ -92.524975999966998, 48.1469690038819 ] ] } },
{ "type": "Feature", "properties": { "wmUplineSo": "ORR", "wmType": "Underground" }, "geometry": { "type": "LineString", "coordinates": [ [ -92.476324999963296, 48.235616003907403 ], [ -92.476265494046899, 48.235525707994803 ] ] } },
{ "type": "Feature", "properties": { "wmUplineSo": "ORR", "wmType": "Underground" }, "geometry": { "type": "LineString", "coordinates": [ [ -92.476312624190598, 48.341305816124098 ], [ -92.476370228943296, 48.341328800415297 ] ] } },
{ "type": "Feature", "properties": { "wmUplineSo": "ORR", "wmType": "Underground" }, "geometry": { "type": "LineString", "coordinates": [ [ -92.476919895852205, 48.233691839907998 ], [ -92.476897799999904, 48.233774800010202 ] ] } },
{ "type": "Feature", "properties": { "wmUplineSo": "ORR", "wmType": "Underground" }, "geometry": { "type": "LineString", "coordinates": [ [ -92.490529860250504, 48.295954207340699 ], [ -92.490488799999895, 48.2958393000103 ] ] } },
{ "type": "Feature", "properties": { "wmUplineSo": "ORR", "wmType": "Underground" }, "geometry": { "type": "LineString", "coordinates": [ [ -92.490378724076507, 48.271113618519102 ], [ -92.4922418864208, 48.270833495638499 ] ] } },
{ "type": "Feature", "properties": { "wmUplineSo": "ORR", "wmType": "Underground" }, "geometry": { "type": "LineString", "coordinates": [ [ -92.483189101462401, 48.286615525322901 ], [ -92.482087651683898, 48.287055149873801 ], [ -92.482127467668505, 48.287583099262697 ], [ -92.482711576481194, 48.288363108143002 ], [ -92.483965127289096, 48.288526113349498 ] ] } },
{ "type": "Feature", "properties": { "wmUplineSo": "ORR", "wmType": "Underground" }, "geometry": { "type": "LineString", "coordinates": [ [ -92.4825215648154, 48.285549524136101 ], [ -92.482413450794496, 48.286188573430003 ], [ -92.483189101462401, 48.286615525322901 ] ] } },
{ "type": "Feature", "properties": { "wmUplineSo": "ORR", "wmType": "Underground" }, "geometry": { "type": "LineString", "coordinates": [ [ -92.501990786624503, 48.097662025405398 ], [ -92.501521453240699, 48.097806031070299 ] ] } },
{ "type": "Feature", "properties": { "wmUplineSo": "ORR", "wmType": "Underground" }, "geometry": { "type": "LineString", "coordinates": [ [ -92.5089713706559, 48.103202319624899 ], [ -92.5068210184657, 48.103666183252599 ] ] } },
{ "type": "Feature", "properties": { "wmUplineSo": "ORR", "wmType": "Underground" }, "geometry": { "type": "LineString", "coordinates": [ [ -92.765291517699694, 48.052698059759599 ], [ -92.765290174818205, 48.052696688311499 ], [ -92.764048878136094, 48.051428948124098 ], [ -92.758549655868094, 48.048885265269803 ] ] } },
{ "type": "Feature", "properties": { "wmUplineSo": "ORR", "wmType": "Underground" }, "geometry": { "type": "LineString", "coordinates": [ [ -92.556900691782701, 48.1549645341088 ], [ -92.557810715218096, 48.154651051023201 ] ] } },
{ "type": "Feature", "properties": { "wmUplineSo": "ORR", "wmType": "Underground" }, "geometry": { "type": "LineString", "coordinates": [ [ -92.553561388940807, 48.151315014054198 ], [ -92.554879845244898, 48.155143773321697 ], [ -92.556900691782701, 48.1549645341088 ] ] } },
{ "type": "Feature", "properties": { "wmUplineSo": "ORR", "wmType": "Underground" }, "geometry": { "type": "LineString", "coordinates": [ [ -92.553561388940807, 48.151315014054198 ], [ -92.552949263067205, 48.1512239179646 ], [ -92.552467758229398, 48.150346852975403 ], [ -92.551962535954701, 48.150210250779203 ], [ -92.550972151854296, 48.150166902034499 ], [ -92.550851994664001, 48.149770978198703 ], [ -92.549657256069295, 48.149765559572103 ], [ -92.548916127741094, 48.1493776057236 ] ] } },
{ "type": "Feature", "properties": { "wmUplineSo": "ORR", "wmType": "Underground" }, "geometry": { "type": "LineString", "coordinates": [ [ -92.562128112247194, 48.151247967074802 ], [ -92.559157753192295, 48.151273897987302 ], [ -92.553561388940807, 48.151315014054198 ] ] } },
{ "type": "Feature", "properties": { "wmUplineSo": "ORR", "wmType": "Underground" }, "geometry": { "type": "LineString", "coordinates": [ [ -92.522273613052604, 48.127283176939201 ], [ -92.522397252347503, 48.127402510773102 ] ] } },
{ "type": "Feature", "properties": { "wmUplineSo": "ORR", "wmType": "Underground" }, "geometry": { "type": "LineString", "coordinates": [ [ -92.524464847407501, 48.127856894716103 ], [ -92.524531733772605, 48.128042297569102 ], [ -92.524900035728393, 48.128177856145797 ], [ -92.525190193017195, 48.127975968347997 ], [ -92.525656737976604, 48.128080414234503 ], [ -92.526158842487902, 48.128337253599199 ], [ -92.526854095423104, 48.128385362407002 ], [ -92.527223758445302, 48.128335152337897 ], [ -92.527597411178704, 48.1284504405387 ], [ -92.527837554062302, 48.128540728597102 ], [ -92.528507986441497, 48.128604738864198 ], [ -92.528922253553802, 48.1285728020748 ], [ -92.528998895165699, 48.129681354742999 ], [ -92.528741632873505, 48.129803802906402 ] ] } },
{ "type": "Feature", "properties": { "wmUplineSo": "ORR", "wmType": "Underground" }, "geometry": { "type": "LineString", "coordinates": [ [ -92.522397252347503, 48.127402510773102 ], [ -92.523010481452403, 48.127483075453803 ], [ -92.5232634533712, 48.127676621138498 ], [ -92.523520841891596, 48.1277346242045 ], [ -92.523725072415402, 48.127683364989302 ], [ -92.524464847407501, 48.127856894716103 ] ] } },
{ "type": "Feature", "properties": { "wmUplineSo": "ORR", "wmType": "Underground" }, "geometry": { "type": "LineString", "coordinates": [ [ -92.501707582145499, 48.180119996161999 ], [ -92.501660522939005, 48.178548697958803 ], [ -92.480475546757106, 48.176236430077502 ], [ -92.479542726976106, 48.176220418884903 ], [ -92.478611370119495, 48.176258834449797 ], [ -92.477688564096397, 48.176351384724903 ], [ -92.476781325958797, 48.176497367703497 ], [ -92.475896561722493, 48.176695669908298 ], [ -92.475040998646094, 48.176944784239701 ], [ -92.474221148824896, 48.177242815702201 ], [ -92.473443248284696, 48.177587495748803 ], [ -92.472713218692704, 48.177976203255497 ], [ -92.472036613076597, 48.178405980757198 ], [ -92.471738374945204, 48.178746344384301 ], [ -92.471583114978003, 48.179018057724903 ] ] } },
{ "type": "Feature", "properties": { "wmUplineSo": "ORR", "wmType": "Underground" }, "geometry": { "type": "LineString", "coordinates": [ [ -92.471583114978003, 48.179018057724903 ], [ -92.456500519118904, 48.172970404270899 ] ] } },
{ "type": "Feature", "properties": { "wmUplineSo": "ORR", "wmType": "Underground" }, "geometry": { "type": "LineString", "coordinates": [ [ -92.470664609999901, 48.227501380010203 ], [ -92.470078068318301, 48.2275724977886 ] ] } },
{ "type": "Feature", "properties": { "wmUplineSo": "ORR", "wmType": "Underground" }, "geometry": { "type": "LineString", "coordinates": [ [ -92.479813704333594, 48.260296241150002 ], [ -92.479749833354305, 48.260720034319903 ] ] } },
{ "type": "Feature", "properties": { "wmUplineSo": "ORR", "wmType": "Underground" }, "geometry": { "type": "LineString", "coordinates": [ [ -92.479829548409, 48.260159516412102 ], [ -92.479813704333594, 48.260296241150002 ] ] } },
{ "type": "Feature", "properties": { "wmUplineSo": "ORR", "wmType": "Underground" }, "geometry": { "type": "LineString", "coordinates": [ [ -92.476373755000793, 48.260512182083097 ], [ -92.476046707376497, 48.260305770924603 ] ] } },
{ "type": "Feature", "properties": { "wmUplineSo": "ORR", "wmType": "Underground" }, "geometry": { "type": "LineString", "coordinates": [ [ -92.476046707376497, 48.260305770924603 ], [ -92.475496156807395, 48.2601624547383 ], [ -92.475496156807395, 48.2601624547383 ] ] } },
{ "type": "Feature", "properties": { "wmUplineSo": "ORR", "wmType": "Underground" }, "geometry": { "type": "LineString", "coordinates": [ [ -92.457342385102606, 48.254556918651197 ], [ -92.457350054998699, 48.254522485034201 ], [ -92.457727629293899, 48.252884102496999 ] ] } },
{ "type": "Feature", "properties": { "wmUplineSo": "ORR", "wmType": "Underground" }, "geometry": { "type": "LineString", "coordinates": [ [ -92.460150379158307, 48.300052925968401 ], [ -92.460895033298797, 48.2995708116785 ], [ -92.462471841023003, 48.2993329191019 ], [ -92.464779278098206, 48.298984756159001 ], [ -92.467853554042094, 48.299390134382897 ], [ -92.470127566129094, 48.299689933106997 ], [ -92.471787046899493, 48.299044785222101 ], [ -92.472421272213495, 48.299268387275298 ], [ -92.472901850601602, 48.300000437105503 ] ] } },
{ "type": "Feature", "properties": { "wmUplineSo": "ORR", "wmType": "Underground" }, "geometry": { "type": "LineString", "coordinates": [ [ -92.472901850601602, 48.300000437105503 ], [ -92.474961381223196, 48.300160406153601 ], [ -92.475541029718897, 48.303908365631798 ] ] } },
{ "type": "Feature", "properties": { "wmUplineSo": "ORR", "wmType": "Underground" }, "geometry": { "type": "LineString", "coordinates": [ [ -92.491182887765603, 48.303792116403898 ], [ -92.490633717497502, 48.304001404304501 ], [ -92.4904996295963, 48.304996956544002 ], [ -92.490952288636706, 48.306400513878899 ], [ -92.4921362997747, 48.307763649414397 ], [ -92.493568943478493, 48.307453007553498 ] ] } },
{ "type": "Feature", "properties": { "wmUplineSo": "ORR", "wmType": "Underground" }, "geometry": { "type": "LineString", "coordinates": [ [ -92.475541029718897, 48.303908365631798 ], [ -92.4774798582785, 48.302782953207398 ], [ -92.482323711192294, 48.303207410526099 ], [ -92.488776882870994, 48.302880838372801 ], [ -92.490586985022105, 48.303405314086298 ], [ -92.491182887765603, 48.303792116403898 ] ] } },
{ "type": "Feature", "properties": { "wmUplineSo": "ORR", "wmType": "Underground" }, "geometry": { "type": "LineString", "coordinates": [ [ -92.491182887765603, 48.303792116403898 ], [ -92.491047333985506, 48.303181093393697 ], [ -92.491503984318896, 48.302662249421999 ], [ -92.493085627389107, 48.302730447638197 ], [ -92.494224490625299, 48.303095243661602 ] ] } },
{ "type": "Feature", "properties": { "wmUplineSo": "ORR", "wmType": "Underground" }, "geometry": { "type": "LineString", "coordinates": [ [ -92.494224490625299, 48.303095243661602 ], [ -92.494318487859204, 48.302915825552702 ], [ -92.495811541279494, 48.303026996406899 ] ] } },
{ "type": "Feature", "properties": { "wmUplineSo": "ORR", "wmType": "Underground" }, "geometry": { "type": "LineString", "coordinates": [ [ -92.475499375116101, 48.341082032152102 ], [ -92.474778118043801, 48.339155108673403 ], [ -92.474882347955997, 48.336057765800398 ], [ -92.475931205486603, 48.334068500036501 ] ] } },
{ "type": "Feature", "properties": { "wmUplineSo": "ORR", "wmType": "Underground" }, "geometry": { "type": "LineString", "coordinates": [ [ -92.462814473693101, 48.325801389779599 ], [ -92.462958963894906, 48.325922995800703 ], [ -92.463891919361799, 48.326572356635502 ], [ -92.464789949086807, 48.331760134932402 ], [ -92.464710043375305, 48.333067255882803 ], [ -92.4647818523692, 48.334162130125897 ], [ -92.466510582223805, 48.337619186694297 ], [ -92.467237728731604, 48.338196578694998 ], [ -92.468513244878295, 48.3385053733276 ], [ -92.469537065512498, 48.338422610133797 ], [ -92.470217326442196, 48.338744044216597 ], [ -92.471175735605101, 48.340217834298599 ], [ -92.471732377168095, 48.340669851455999 ], [ -92.472537205070395, 48.341019096003798 ], [ -92.475475182845997, 48.341122794930698 ] ] } },
{ "type": "Feature", "properties": { "wmUplineSo": "ORR", "wmType": "Underground" }, "geometry": { "type": "LineString", "coordinates": [ [ -92.486373899999904, 48.265010830010198 ], [ -92.485181619797899, 48.264855222090901 ] ] } },
{ "type": "Feature", "properties": { "wmUplineSo": "ORR", "wmType": "Underground" }, "geometry": { "type": "LineString", "coordinates": [ [ -92.561746380477103, 48.150335772464601 ], [ -92.562897717120805, 48.150348126040001 ] ] } },
{ "type": "Feature", "properties": { "wmUplineSo": "ORR", "wmType": "Underground" }, "geometry": { "type": "LineString", "coordinates": [ [ -92.476265494046899, 48.235525707994803 ], [ -92.476639007352702, 48.235494668010503 ] ] } },
{ "type": "Feature", "properties": { "wmUplineSo": "ORR", "wmType": "Underground" }, "geometry": { "type": "LineString", "coordinates": [ [ -92.524975999966998, 48.1469690038819 ], [ -92.525216999967, 48.147220003881898 ] ] } },
{ "type": "Feature", "properties": { "wmUplineSo": "ORR", "wmType": "Underground" }, "geometry": { "type": "LineString", "coordinates": [ [ -92.490664896986104, 48.271738553321697 ], [ -92.4907609931888, 48.271647632895501 ] ] } },
{ "type": "Feature", "properties": { "wmUplineSo": "ORR", "wmType": "Underground" }, "geometry": { "type": "LineString", "coordinates": [ [ -92.611281919187306, 48.093125442692497 ], [ -92.6113999192102, 48.093209442752503 ] ] } },
{ "type": "Feature", "properties": { "wmUplineSo": "ORR", "wmType": "Underground" }, "geometry": { "type": "LineString", "coordinates": [ [ -92.508310525036407, 48.287644319865002 ], [ -92.508320204304795, 48.2876331618736 ], [ -92.509129921049194, 48.286362804228297 ], [ -92.509241973806198, 48.286333185039503 ], [ -92.509804277152099, 48.286257574773003 ], [ -92.509973751666706, 48.286060472024197 ], [ -92.510177506031397, 48.285962378445298 ], [ -92.510408027570094, 48.285916535296103 ], [ -92.510591453867704, 48.285909544656398 ], [ -92.510867480175094, 48.285991383527403 ], [ -92.511030286690797, 48.286090939113201 ], [ -92.511215881451903, 48.286258369235199 ], [ -92.511475243231601, 48.286465067472797 ], [ -92.511351095497702, 48.286805239782502 ], [ -92.511519294867398, 48.287147263359699 ], [ -92.511685638738697, 48.287293657760898 ], [ -92.511945850229694, 48.2874119226069 ], [ -92.512658091385504, 48.2875660415095 ], [ -92.512848940725107, 48.287585048797297 ], [ -92.512938109717695, 48.287647892292902 ], [ -92.5129940276599, 48.2879214046458 ], [ -92.512953606619703, 48.288064363795002 ], [ -92.512922283604397, 48.288072100841902 ], [ -92.512871481812596, 48.288082214667703 ], [ -92.512836054285401, 48.288118560497097 ], [ -92.512831331374002, 48.288212189959403 ], [ -92.512919041460904, 48.288413042347003 ], [ -92.513286960182, 48.288784489042897 ], [ -92.513203891045805, 48.289320261253501 ], [ -92.513346785697806, 48.289469209886903 ], [ -92.513498382009203, 48.289524545703898 ], [ -92.513611215265499, 48.289548435402899 ], [ -92.513825608153894, 48.2895571132984 ], [ -92.514273774737902, 48.289598060361598 ], [ -92.514344553265502, 48.289533335854898 ], [ -92.514328, 48.289546000000101 ] ] } },
{ "type": "Feature", "properties": { "wmUplineSo": "ORR", "wmType": "Underground" }, "geometry": { "type": "LineString", "coordinates": [ [ -92.494572322158604, 48.308243595742901 ], [ -92.494981262613706, 48.308266948356 ] ] } },
{ "type": "Feature", "properties": { "wmUplineSo": "ORR", "wmType": "Underground" }, "geometry": { "type": "LineString", "coordinates": [ [ -92.803603283712704, 48.052085172479302 ], [ -92.803379989268095, 48.052171797439797 ] ] } },
{ "type": "Feature", "properties": { "wmUplineSo": "ORR", "wmType": "Underground" }, "geometry": { "type": "LineString", "coordinates": [ [ -92.472873864476298, 48.278543392426101 ], [ -92.470937208551007, 48.279322310545503 ] ] } },
{ "type": "Feature", "properties": { "wmUplineSo": "ORR", "wmType": "Underground" }, "geometry": { "type": "LineString", "coordinates": [ [ -92.479940961678906, 48.269553358054701 ], [ -92.480667989515396, 48.269892196986 ], [ -92.481221276937703, 48.2703952611174 ], [ -92.4827027003344, 48.276183837915099 ], [ -92.482738537570796, 48.2762839284769 ] ] } },
{ "type": "Feature", "properties": { "wmUplineSo": "ORR", "wmType": "Underground" }, "geometry": { "type": "LineString", "coordinates": [ [ -92.479329579952605, 48.270086372041497 ], [ -92.479940961678906, 48.269553358054701 ] ] } },
{ "type": "Feature", "properties": { "wmUplineSo": "ORR", "wmType": "Underground" }, "geometry": { "type": "LineString", "coordinates": [ [ -92.482983612925594, 48.285154999993999 ], [ -92.482759143947703, 48.285023910483801 ] ] } },
{ "type": "Feature", "properties": { "wmUplineSo": "ORR", "wmType": "Underground" }, "geometry": { "type": "LineString", "coordinates": [ [ -92.501700999965294, 48.180332003891401 ], [ -92.501707582145499, 48.180119996161999 ] ] } },
{ "type": "Feature", "properties": { "wmUplineSo": "ORR", "wmType": "Underground" }, "geometry": { "type": "LineString", "coordinates": [ [ -92.475217730598203, 48.233100313341701 ], [ -92.4748538891387, 48.233203219021902 ], [ -92.474934285550404, 48.2334957079688 ], [ -92.475054337896694, 48.2335025295395 ] ] } },
{ "type": "Feature", "properties": { "wmUplineSo": "ORR", "wmType": "Underground" }, "geometry": { "type": "LineString", "coordinates": [ [ -92.488049304373703, 48.267412000259299 ], [ -92.488128024542902, 48.267485745866601 ] ] } },
{ "type": "Feature", "properties": { "wmUplineSo": "ORR", "wmType": "Underground" }, "geometry": { "type": "LineString", "coordinates": [ [ -92.507455628881303, 48.102330824637498 ], [ -92.507610542870907, 48.102837211457398 ] ] } },
{ "type": "Feature", "properties": { "wmUplineSo": "ORR", "wmType": "Underground" }, "geometry": { "type": "LineString", "coordinates": [ [ -92.517869849286001, 48.171647783346302 ], [ -92.517647756654597, 48.1714202479397 ] ] } },
{ "type": "Feature", "properties": { "wmUplineSo": "ORR", "wmType": "Underground" }, "geometry": { "type": "LineString", "coordinates": [ [ -92.517647756654597, 48.1714202479397 ], [ -92.517371627870503, 48.171137348638297 ], [ -92.516734088464105, 48.171056639086899 ], [ -92.516274293261006, 48.170978531631299 ] ] } },
{ "type": "Feature", "properties": { "wmUplineSo": "ORR", "wmType": "Underground" }, "geometry": { "type": "LineString", "coordinates": [ [ -92.616046105053897, 48.113092925431403 ], [ -92.614915630158904, 48.112886965478502 ], [ -92.614470867026398, 48.112333639367399 ], [ -92.614670425375607, 48.111622702498302 ], [ -92.615282889801193, 48.111345698499797 ], [ -92.615779290134498, 48.111376355904703 ], [ -92.616435431397804, 48.111812985057 ] ] } },
{ "type": "Feature", "properties": { "wmUplineSo": "ORR", "wmType": "Underground" }, "geometry": { "type": "LineString", "coordinates": [ [ -92.621403, 48.10523 ], [ -92.621463280555901, 48.104436788280402 ], [ -92.620969133591402, 48.104334814717397 ], [ -92.620940203812594, 48.104120304440798 ], [ -92.621267052827207, 48.103886911463803 ] ] } },
{ "type": "Feature", "properties": { "wmUplineSo": "ORR", "wmType": "Underground" }, "geometry": { "type": "LineString", "coordinates": [ [ -92.5930772444339, 48.113930653363298 ], [ -92.592905714602196, 48.113508114652802 ], [ -92.593178633799297, 48.112960012417297 ], [ -92.594377835028993, 48.111872962689702 ], [ -92.596415555906205, 48.111235378230099 ], [ -92.600789716339705, 48.111315553050197 ], [ -92.605582333222799, 48.111648808564702 ], [ -92.609750624607599, 48.111954171237301 ], [ -92.613476983455598, 48.112767128219502 ], [ -92.614970894416601, 48.113168452074099 ], [ -92.616046105053897, 48.113092925431403 ] ] } },
{ "type": "Feature", "properties": { "wmUplineSo": "ORR", "wmType": "Underground" }, "geometry": { "type": "LineString", "coordinates": [ [ -92.488247138170294, 48.266702328424998 ], [ -92.488000390408004, 48.2666954397857 ], [ -92.488000390408004, 48.2666954397857 ] ] } },
{ "type": "Feature", "properties": { "wmUplineSo": "ORR", "wmType": "Underground" }, "geometry": { "type": "LineString", "coordinates": [ [ -92.489158643117605, 48.270403657983003 ], [ -92.489059468374904, 48.270412619376202 ] ] } },
{ "type": "Feature", "properties": { "wmUplineSo": "ORR", "wmType": "Underground" }, "geometry": { "type": "LineString", "coordinates": [ [ -92.489205869179003, 48.264672620117302 ], [ -92.489740592013206, 48.264656235089198 ], [ -92.489740592013206, 48.264656235089198 ] ] } },
{ "type": "Feature", "properties": { "wmUplineSo": "ORR", "wmType": "Underground" }, "geometry": { "type": "LineString", "coordinates": [ [ -92.585340333917799, 48.1121291115115 ], [ -92.592342442482007, 48.1135706317651 ], [ -92.5930772444339, 48.113930653363298 ] ] } },
{ "type": "Feature", "properties": { "wmUplineSo": "ORR", "wmType": "Underground" }, "geometry": { "type": "LineString", "coordinates": [ [ -92.585203483877294, 48.112100933271599 ], [ -92.585340333917799, 48.1121291115115 ] ] } },
{ "type": "Feature", "properties": { "wmUplineSo": "ORR", "wmType": "Underground" }, "geometry": { "type": "LineString", "coordinates": [ [ -92.514328, 48.289546000000101 ], [ -92.514338269539607, 48.289541460595999 ], [ -92.514302870722403, 48.289663053904803 ], [ -92.514642072037404, 48.290198410101901 ], [ -92.514841666594904, 48.2905360682416 ], [ -92.515010406071099, 48.290776384560303 ], [ -92.515071963904205, 48.290894649640698 ], [ -92.515065500756194, 48.290963039693303 ], [ -92.515208117237094, 48.290959760243503 ], [ -92.515202, 48.290970000000101 ] ] } },
{ "type": "Feature", "properties": { "wmUplineSo": "ORR", "wmType": "Underground" }, "geometry": { "type": "LineString", "coordinates": [ [ -92.515202, 48.290970000000101 ], [ -92.5151940738332, 48.290963702038702 ], [ -92.515075332040894, 48.290970249193997 ], [ -92.5149683762602, 48.291195855492703 ], [ -92.514706810487198, 48.291521064013502 ], [ -92.5144337073001, 48.2919628638031 ], [ -92.514016920174399, 48.292075365443303 ], [ -92.513849244006494, 48.292076947272001 ], [ -92.513744558885804, 48.292062585290701 ], [ -92.513479771020599, 48.291989137705002 ], [ -92.513006165042597, 48.292217947765501 ], [ -92.513088485733803, 48.292376783143503 ], [ -92.513313287800401, 48.292601501464198 ], [ -92.513434025402006, 48.292760499078902 ], [ -92.513474145655394, 48.292956508762103 ], [ -92.513483111675797, 48.293110540502603 ], [ -92.513026169297206, 48.293404612992497 ], [ -92.512882288887695, 48.293485581597302 ], [ -92.512825693730207, 48.293550621967697 ], [ -92.512876729206198, 48.2936953173866 ], [ -92.513173850182199, 48.294048611683799 ], [ -92.513120088999102, 48.294190484695399 ], [ -92.513076554866203, 48.294367463829602 ], [ -92.513085831719195, 48.294488724725099 ], [ -92.513154139568201, 48.294649879225197 ], [ -92.513268283809097, 48.2947669148393 ], [ -92.513403818213902, 48.294842018574698 ], [ -92.513574625408197, 48.294887053966598 ], [ -92.513836439969495, 48.294899789848401 ], [ -92.514021729208196, 48.294879605785901 ], [ -92.514130669332999, 48.294821833902098 ], [ -92.514421001546495, 48.294778747255997 ], [ -92.514539333037305, 48.294816511876803 ], [ -92.514591324034996, 48.2948610441602 ], [ -92.5146256246924, 48.294933428565102 ], [ -92.514835093697201, 48.2949389815412 ], [ -92.5148351649066, 48.294949140115797 ] ] } },
{ "type": "Feature", "properties": { "wmUplineSo": "ORR", "wmType": "Underground" }, "geometry": { "type": "LineString", "coordinates": [ [ -92.487393832511401, 48.295888468955198 ], [ -92.487373986403497, 48.295814311852503 ] ] } },
{ "type": "Feature", "properties": { "wmUplineSo": "ORR", "wmType": "Underground" }, "geometry": { "type": "LineString", "coordinates": [ [ -92.488762735881096, 48.263383698117899 ], [ -92.488759388580604, 48.263378374036797 ] ] } },
{ "type": "Feature", "properties": { "wmUplineSo": "ORR", "wmType": "Underground" }, "geometry": { "type": "LineString", "coordinates": [ [ -92.472259515642605, 48.345712529893703 ], [ -92.473344648714701, 48.348339282693502 ] ] } },
{ "type": "Feature", "properties": { "wmUplineSo": "ORR", "wmType": "Underground" }, "geometry": { "type": "LineString", "coordinates": [ [ -92.488762735881096, 48.263383698117899 ], [ -92.488713733133395, 48.263346609934601 ] ] } },
{ "type": "Feature", "properties": { "wmUplineSo": "ORR", "wmType": "Underground" }, "geometry": { "type": "LineString", "coordinates": [ [ -92.490355056715401, 48.255614980147797 ], [ -92.490859362441498, 48.2555710558686 ] ] } },
{ "type": "Feature", "properties": { "wmUplineSo": "ORR", "wmType": "Underground" }, "geometry": { "type": "LineString", "coordinates": [ [ -92.490859362441498, 48.2555710558686 ], [ -92.4909187978229, 48.255528825908698 ] ] } },
{ "type": "Feature", "properties": { "wmUplineSo": "ORR", "wmType": "Underground" }, "geometry": { "type": "LineString", "coordinates": [ [ -92.484480061834702, 48.245144002346201 ], [ -92.484455061805804, 48.245148002312398 ] ] } },
{ "type": "Feature", "properties": { "wmUplineSo": "ORR", "wmType": "Underground" }, "geometry": { "type": "LineString", "coordinates": [ [ -92.483972, 48.293242 ], [ -92.484067821624805, 48.293266719574902 ] ] } },
{ "type": "Feature", "properties": { "wmUplineSo": "ORR", "wmType": "Underground" }, "geometry": { "type": "LineString", "coordinates": [ [ -92.597916937378599, 48.092943321359797 ], [ -92.597507, 48.092612 ] ] } },
{ "type": "Feature", "properties": { "wmUplineSo": "ORR", "wmType": "Underground" }, "geometry": { "type": "LineString", "coordinates": [ [ -92.523136584408704, 48.147357280465997 ], [ -92.523301301984006, 48.1473609005442 ] ] } },
{ "type": "Feature", "properties": { "wmUplineSo": "ORR", "wmType": "Underground" }, "geometry": { "type": "LineString", "coordinates": [ [ -92.5972, 48.092338 ], [ -92.597029, 48.092149 ] ] } },
{ "type": "Feature", "properties": { "wmUplineSo": "ORR", "wmType": "Underground" }, "geometry": { "type": "LineString", "coordinates": [ [ -92.597029, 48.092149 ], [ -92.597062, 48.092124 ] ] } },
{ "type": "Feature", "properties": { "wmUplineSo": "ORR", "wmType": "Underground" }, "geometry": { "type": "LineString", "coordinates": [ [ -92.525216999967, 48.147220003881898 ], [ -92.525479999967004, 48.147273003881999 ] ] } },
{ "type": "Feature", "properties": { "wmUplineSo": "ORR", "wmType": "Underground" }, "geometry": { "type": "LineString", "coordinates": [ [ -92.525479999967004, 48.147273003881999 ], [ -92.525750999967002, 48.147490003881998 ] ] } },
{ "type": "Feature", "properties": { "wmUplineSo": "ORR", "wmType": "Underground" }, "geometry": { "type": "LineString", "coordinates": [ [ -92.525750999967002, 48.147490003881998 ], [ -92.525777999967104, 48.147683003882101 ] ] } },
{ "type": "Feature", "properties": { "wmUplineSo": "ORR", "wmType": "Underground" }, "geometry": { "type": "LineString", "coordinates": [ [ -92.525777999967104, 48.147683003882101 ], [ -92.525802880023207, 48.147726727271397 ] ] } },
{ "type": "Feature", "properties": { "wmUplineSo": "ORR", "wmType": "Underground" }, "geometry": { "type": "LineString", "coordinates": [ [ -92.4733479913629, 48.343321382786698 ], [ -92.472259515642605, 48.345712529893703 ] ] } },
{ "type": "Feature", "properties": { "wmUplineSo": "ORR", "wmType": "Underground" }, "geometry": { "type": "LineString", "coordinates": [ [ -92.475475182845997, 48.341122794930698 ], [ -92.4733479913629, 48.343321382786698 ] ] } },
{ "type": "Feature", "properties": { "wmUplineSo": "ORR", "wmType": "Underground" }, "geometry": { "type": "LineString", "coordinates": [ [ -92.597507, 48.092612 ], [ -92.5972, 48.092338 ] ] } },
{ "type": "Feature", "properties": { "wmUplineSo": "ORR", "wmType": "Underground" }, "geometry": { "type": "LineString", "coordinates": [ [ -92.597029, 48.092149 ], [ -92.597003148799502, 48.092126906916398 ] ] } },
{ "type": "Feature", "properties": { "wmUplineSo": "ORR", "wmType": "Underground" }, "geometry": { "type": "LineString", "coordinates": [ [ -92.609880504323698, 48.093284965309302 ], [ -92.610118917877102, 48.093239442089804 ] ] } },
{ "type": "Feature", "properties": { "wmUplineSo": "ORR", "wmType": "Underground" }, "geometry": { "type": "LineString", "coordinates": [ [ -92.523123999966899, 48.147357003881901 ], [ -92.523136584408704, 48.147357280465997 ] ] } },
{ "type": "Feature", "properties": { "wmUplineSo": "ORR", "wmType": "Underground" }, "geometry": { "type": "LineString", "coordinates": [ [ -92.476257280789497, 48.235526722808103 ], [ -92.476255664344606, 48.235526766240902 ] ] } },
{ "type": "Feature", "properties": { "wmUplineSo": "ORR", "wmType": "Underground" }, "geometry": { "type": "LineString", "coordinates": [ [ -92.6106069184858, 48.093140442343397 ], [ -92.611281919187306, 48.093125442692497 ] ] } },
{ "type": "Feature", "properties": { "wmUplineSo": "ORR", "wmType": "Underground" }, "geometry": { "type": "LineString", "coordinates": [ [ -92.523301301984006, 48.1473609005442 ], [ -92.523698999966896, 48.147309003881901 ] ] } }
]
}
