{
"type": "FeatureCollection",
"crs": { "type": "name", "properties": { "name": "urn:ogc:def:crs:OGC:1.3:CRS84" } },
"features": [
{ "type": "Feature", "properties": { "wmUplineSo": "PEARY", "wmType": "Underground" }, "geometry": { "type": "LineString", "coordinates": [ [ -92.616401, 47.399787000000103 ], [ -92.616404, 47.399814999999897 ] ] } },
{ "type": "Feature", "properties": { "wmUplineSo": "PEARY", "wmType": "Underground" }, "geometry": { "type": "LineString", "coordinates": [ [ -92.616404, 47.399814999999897 ], [ -92.61648, 47.398997999999899 ] ] } },
{ "type": "Feature", "properties": { "wmUplineSo": "PEARY", "wmType": "Underground" }, "geometry": { "type": "LineString", "coordinates": [ [ -92.61648, 47.398997999999899 ], [ -92.616551, 47.397931 ] ] } },
{ "type": "Feature", "properties": { "wmUplineSo": "PEARY", "wmType": "Underground" }, "geometry": { "type": "LineString", "coordinates": [ [ -92.616551, 47.397931 ], [ -92.616546, 47.3975170000001 ] ] } },
{ "type": "Feature", "properties": { "wmUplineSo": "PEARY", "wmType": "Underground" }, "geometry": { "type": "LineString", "coordinates": [ [ -92.616546, 47.3975170000001 ], [ -92.616564, 47.397125 ] ] } },
{ "type": "Feature", "properties": { "wmUplineSo": "PEARY", "wmType": "Underground" }, "geometry": { "type": "LineString", "coordinates": [ [ -92.616564, 47.397125 ], [ -92.616564, 47.396381 ] ] } },
{ "type": "Feature", "properties": { "wmUplineSo": "PEARY", "wmType": "Underground" }, "geometry": { "type": "LineString", "coordinates": [ [ -92.616564, 47.396381 ], [ -92.616559, 47.395944999999898 ] ] } },
{ "type": "Feature", "properties": { "wmUplineSo": "PEARY", "wmType": "Underground" }, "geometry": { "type": "LineString", "coordinates": [ [ -92.616559, 47.395944999999898 ], [ -92.61664, 47.395379 ] ] } },
{ "type": "Feature", "properties": { "wmUplineSo": "PEARY", "wmType": "Underground" }, "geometry": { "type": "LineString", "coordinates": [ [ -92.61664, 47.395379 ], [ -92.6169341240455, 47.395193438726402 ] ] } },
{ "type": "Feature", "properties": { "wmUplineSo": "PEARY", "wmType": "Underground" }, "geometry": { "type": "LineString", "coordinates": [ [ -92.6169341240455, 47.395193438726402 ], [ -92.617064, 47.3950460000001 ] ] } },
{ "type": "Feature", "properties": { "wmUplineSo": "PEARY", "wmType": "Underground" }, "geometry": { "type": "LineString", "coordinates": [ [ -92.617064, 47.3950460000001 ], [ -92.617145, 47.394987 ] ] } },
{ "type": "Feature", "properties": { "wmUplineSo": "PEARY", "wmType": "Underground" }, "geometry": { "type": "LineString", "coordinates": [ [ -92.617145, 47.394987 ], [ -92.617180073636703, 47.394997044859799 ] ] } },
{ "type": "Feature", "properties": { "wmUplineSo": "PEARY", "wmType": "Underground" }, "geometry": { "type": "LineString", "coordinates": [ [ -92.616574, 47.400842 ], [ -92.616627, 47.400430999999898 ] ] } },
{ "type": "Feature", "properties": { "wmUplineSo": "PEARY", "wmType": "Underground" }, "geometry": { "type": "LineString", "coordinates": [ [ -92.616627, 47.400430999999898 ], [ -92.616472, 47.400265 ] ] } },
{ "type": "Feature", "properties": { "wmUplineSo": "PEARY", "wmType": "Underground" }, "geometry": { "type": "LineString", "coordinates": [ [ -92.616472, 47.400265 ], [ -92.616423, 47.399946 ] ] } },
{ "type": "Feature", "properties": { "wmUplineSo": "PEARY", "wmType": "Underground" }, "geometry": { "type": "LineString", "coordinates": [ [ -92.616423, 47.399946 ], [ -92.616401, 47.399787000000103 ] ] } },
{ "type": "Feature", "properties": { "wmUplineSo": "PEARY", "wmType": "Underground" }, "geometry": { "type": "LineString", "coordinates": [ [ -92.542636522862594, 47.415663979625897 ], [ -92.542677384748302, 47.415628031138397 ], [ -92.542852210353004, 47.415625661896001 ], [ -92.542867551703694, 47.413853029327299 ], [ -92.542864, 47.413865 ] ] } },
{ "type": "Feature", "properties": { "wmUplineSo": "PEARY", "wmType": "Underground" }, "geometry": { "type": "LineString", "coordinates": [ [ -92.542864, 47.413865 ], [ -92.543162, 47.413856 ] ] } },
{ "type": "Feature", "properties": { "wmUplineSo": "PEARY", "wmType": "Underground" }, "geometry": { "type": "LineString", "coordinates": [ [ -92.543162, 47.413856 ], [ -92.543845, 47.413846 ] ] } },
{ "type": "Feature", "properties": { "wmUplineSo": "PEARY", "wmType": "Underground" }, "geometry": { "type": "LineString", "coordinates": [ [ -92.543845, 47.413846 ], [ -92.543887326482803, 47.413847440040399 ] ] } },
{ "type": "Feature", "properties": { "wmUplineSo": "PEARY", "wmType": "Underground" }, "geometry": { "type": "LineString", "coordinates": [ [ -92.542864, 47.413865 ], [ -92.542889699578396, 47.411526731373002 ] ] } },
{ "type": "Feature", "properties": { "wmUplineSo": "PEARY", "wmType": "Underground" }, "geometry": { "type": "LineString", "coordinates": [ [ -92.564703, 47.396537 ], [ -92.564871, 47.396427 ] ] } },
{ "type": "Feature", "properties": { "wmUplineSo": "PEARY", "wmType": "Underground" }, "geometry": { "type": "LineString", "coordinates": [ [ -92.529690556502501, 47.414649952542803 ], [ -92.529739162623301, 47.414588256981197 ] ] } },
{ "type": "Feature", "properties": { "wmUplineSo": "PEARY", "wmType": "Underground" }, "geometry": { "type": "LineString", "coordinates": [ [ -92.542088, 47.408853999999899 ], [ -92.541911, 47.408825 ] ] } },
{ "type": "Feature", "properties": { "wmUplineSo": "PEARY", "wmType": "Underground" }, "geometry": { "type": "LineString", "coordinates": [ [ -92.541896999970703, 47.425202003677903 ], [ -92.541654999970703, 47.4252570036778 ] ] } },
{ "type": "Feature", "properties": { "wmUplineSo": "PEARY", "wmType": "Underground" }, "geometry": { "type": "LineString", "coordinates": [ [ -92.541654999970703, 47.4252570036778 ], [ -92.541365999970694, 47.425577003678001 ] ] } },
{ "type": "Feature", "properties": { "wmUplineSo": "PEARY", "wmType": "Underground" }, "geometry": { "type": "LineString", "coordinates": [ [ -92.541365999970694, 47.425577003678001 ], [ -92.541218999970695, 47.425795003677898 ] ] } },
{ "type": "Feature", "properties": { "wmUplineSo": "PEARY", "wmType": "Underground" }, "geometry": { "type": "LineString", "coordinates": [ [ -92.541218999970695, 47.425795003677898 ], [ -92.541042999970699, 47.425990003678102 ] ] } },
{ "type": "Feature", "properties": { "wmUplineSo": "PEARY", "wmType": "Underground" }, "geometry": { "type": "LineString", "coordinates": [ [ -92.541042999970699, 47.425990003678102 ], [ -92.540935999970699, 47.426088003677997 ] ] } },
{ "type": "Feature", "properties": { "wmUplineSo": "PEARY", "wmType": "Underground" }, "geometry": { "type": "LineString", "coordinates": [ [ -92.540935999970699, 47.426088003677997 ], [ -92.540825999970707, 47.426104003677999 ] ] } },
{ "type": "Feature", "properties": { "wmUplineSo": "PEARY", "wmType": "Underground" }, "geometry": { "type": "LineString", "coordinates": [ [ -92.533530999970196, 47.416128003675396 ], [ -92.533655999970307, 47.416272003675303 ] ] } },
{ "type": "Feature", "properties": { "wmUplineSo": "PEARY", "wmType": "Underground" }, "geometry": { "type": "LineString", "coordinates": [ [ -92.533655999970307, 47.416272003675303 ], [ -92.533644999970306, 47.416443003675298 ] ] } },
{ "type": "Feature", "properties": { "wmUplineSo": "PEARY", "wmType": "Underground" }, "geometry": { "type": "LineString", "coordinates": [ [ -92.533644999970306, 47.416443003675298 ], [ -92.533718999970304, 47.416542003675502 ] ] } },
{ "type": "Feature", "properties": { "wmUplineSo": "PEARY", "wmType": "Underground" }, "geometry": { "type": "LineString", "coordinates": [ [ -92.533718999970304, 47.416542003675502 ], [ -92.533957999970298, 47.416635003675502 ] ] } },
{ "type": "Feature", "properties": { "wmUplineSo": "PEARY", "wmType": "Underground" }, "geometry": { "type": "LineString", "coordinates": [ [ -92.533957999970298, 47.416635003675502 ], [ -92.5342329999703, 47.4166530036754 ] ] } },
{ "type": "Feature", "properties": { "wmUplineSo": "PEARY", "wmType": "Underground" }, "geometry": { "type": "LineString", "coordinates": [ [ -92.5342329999703, 47.4166530036754 ], [ -92.534271199999907, 47.416660300009198 ] ] } },
{ "type": "Feature", "properties": { "wmUplineSo": "PEARY", "wmType": "Underground" }, "geometry": { "type": "LineString", "coordinates": [ [ -92.577529999973095, 47.3938590036691 ], [ -92.578810728182106, 47.393823845536701 ] ] } },
{ "type": "Feature", "properties": { "wmUplineSo": "PEARY", "wmType": "Underground" }, "geometry": { "type": "LineString", "coordinates": [ [ -92.555515568369202, 47.371527152356499 ], [ -92.555842986375495, 47.371496947402598 ] ] } },
{ "type": "Feature", "properties": { "wmUplineSo": "PEARY", "wmType": "Underground" }, "geometry": { "type": "LineString", "coordinates": [ [ -92.555842986375495, 47.371496947402598 ], [ -92.555319176435106, 47.370342596082999 ] ] } },
{ "type": "Feature", "properties": { "wmUplineSo": "PEARY", "wmType": "Underground" }, "geometry": { "type": "LineString", "coordinates": [ [ -92.552735986385997, 47.365783947410399 ], [ -92.551947986388299, 47.365092947411398 ] ] } },
{ "type": "Feature", "properties": { "wmUplineSo": "PEARY", "wmType": "Underground" }, "geometry": { "type": "LineString", "coordinates": [ [ -92.554475986380496, 47.368346947406899 ], [ -92.554474499999898, 47.368347400009199 ] ] } },
{ "type": "Feature", "properties": { "wmUplineSo": "PEARY", "wmType": "Underground" }, "geometry": { "type": "LineString", "coordinates": [ [ -92.529603348936206, 47.416124029757 ], [ -92.532341986407403, 47.416102947339603 ] ] } },
{ "type": "Feature", "properties": { "wmUplineSo": "PEARY", "wmType": "Underground" }, "geometry": { "type": "LineString", "coordinates": [ [ -92.532341986407403, 47.416102947339603 ], [ -92.533530999970196, 47.416128003675396 ] ] } },
{ "type": "Feature", "properties": { "wmUplineSo": "PEARY", "wmType": "Underground" }, "geometry": { "type": "LineString", "coordinates": [ [ -92.533530999970196, 47.416128003675396 ], [ -92.537633986394894, 47.41598494734 ] ] } },
{ "type": "Feature", "properties": { "wmUplineSo": "PEARY", "wmType": "Underground" }, "geometry": { "type": "LineString", "coordinates": [ [ -92.579540968752397, 47.4356084191039 ], [ -92.579662968999401, 47.435505419120503 ], [ -92.579803835343697, 47.4354406538516 ], [ -92.582616394945703, 47.434158890863998 ], [ -92.583518976413103, 47.433764419612501 ] ] } },
{ "type": "Feature", "properties": { "wmUplineSo": "PEARY", "wmType": "Underground" }, "geometry": { "type": "LineString", "coordinates": [ [ -92.583518976413103, 47.433764419612501 ], [ -92.583408976184003, 47.433882419597403 ] ] } },
{ "type": "Feature", "properties": { "wmUplineSo": "PEARY", "wmType": "Underground" }, "geometry": { "type": "LineString", "coordinates": [ [ -92.583408976184003, 47.433882419597403 ], [ -92.584694467429998, 47.436774018726801 ] ] } },
{ "type": "Feature", "properties": { "wmUplineSo": "PEARY", "wmType": "Underground" }, "geometry": { "type": "LineString", "coordinates": [ [ -92.584694467429998, 47.436774018726801 ], [ -92.584677381103106, 47.436779371431598 ] ] } },
{ "type": "Feature", "properties": { "wmUplineSo": "PEARY", "wmType": "Underground" }, "geometry": { "type": "LineString", "coordinates": [ [ -92.565141, 47.396423 ], [ -92.565215049217301, 47.396379744944497 ] ] } },
{ "type": "Feature", "properties": { "wmUplineSo": "PEARY", "wmType": "Underground" }, "geometry": { "type": "LineString", "coordinates": [ [ -92.529603348936206, 47.416124029757 ], [ -92.529559405984401, 47.417135370297302 ] ] } },
{ "type": "Feature", "properties": { "wmUplineSo": "PEARY", "wmType": "Underground" }, "geometry": { "type": "LineString", "coordinates": [ [ -92.545717999971004, 47.422294003677202 ], [ -92.545770999970998, 47.422299003677203 ] ] } },
{ "type": "Feature", "properties": { "wmUplineSo": "PEARY", "wmType": "Underground" }, "geometry": { "type": "LineString", "coordinates": [ [ -92.596100999974297, 47.402098003671298 ], [ -92.596194599999905, 47.402133300009197 ] ] } },
{ "type": "Feature", "properties": { "wmUplineSo": "PEARY", "wmType": "Underground" }, "geometry": { "type": "LineString", "coordinates": [ [ -92.542636522862594, 47.415663979625897 ], [ -92.542957185750595, 47.415670789564899 ] ] } },
{ "type": "Feature", "properties": { "wmUplineSo": "PEARY", "wmType": "Underground" }, "geometry": { "type": "LineString", "coordinates": [ [ -92.541911, 47.408825 ], [ -92.541858740147603, 47.408839687932698 ] ] } },
{ "type": "Feature", "properties": { "wmUplineSo": "PEARY", "wmType": "Underground" }, "geometry": { "type": "LineString", "coordinates": [ [ -92.542474, 47.408917 ], [ -92.542088, 47.408853999999899 ] ] } },
{ "type": "Feature", "properties": { "wmUplineSo": "PEARY", "wmType": "Underground" }, "geometry": { "type": "LineString", "coordinates": [ [ -92.537633986394894, 47.41598494734 ], [ -92.537618316923997, 47.415996281628701 ], [ -92.542675828272294, 47.415957292698501 ], [ -92.542636522862594, 47.415663979625897 ] ] } },
{ "type": "Feature", "properties": { "wmUplineSo": "PEARY", "wmType": "Underground" }, "geometry": { "type": "LineString", "coordinates": [ [ -92.542636522862594, 47.415663979625897 ], [ -92.542613, 47.416184000000101 ] ] } },
{ "type": "Feature", "properties": { "wmUplineSo": "PEARY", "wmType": "Underground" }, "geometry": { "type": "LineString", "coordinates": [ [ -92.542613, 47.416184000000101 ], [ -92.5429, 47.416231 ] ] } },
{ "type": "Feature", "properties": { "wmUplineSo": "PEARY", "wmType": "Underground" }, "geometry": { "type": "LineString", "coordinates": [ [ -92.5429, 47.416231 ], [ -92.54309, 47.416325999999898 ] ] } },
{ "type": "Feature", "properties": { "wmUplineSo": "PEARY", "wmType": "Underground" }, "geometry": { "type": "LineString", "coordinates": [ [ -92.54309, 47.416325999999898 ], [ -92.543378, 47.416372000000102 ] ] } },
{ "type": "Feature", "properties": { "wmUplineSo": "PEARY", "wmType": "Underground" }, "geometry": { "type": "LineString", "coordinates": [ [ -92.535008986435301, 47.352709947428302 ], [ -92.535001299999905, 47.352696000009203 ] ] } },
{ "type": "Feature", "properties": { "wmUplineSo": "PEARY", "wmType": "Underground" }, "geometry": { "type": "LineString", "coordinates": [ [ -92.555855719992195, 47.371531573772302 ], [ -92.55588, 47.371630100009199 ] ] } },
{ "type": "Feature", "properties": { "wmUplineSo": "PEARY", "wmType": "Underground" }, "geometry": { "type": "LineString", "coordinates": [ [ -92.545340829427602, 47.387820888024699 ], [ -92.545168899999894, 47.387866100009198 ] ] } },
{ "type": "Feature", "properties": { "wmUplineSo": "PEARY", "wmType": "Underground" }, "geometry": { "type": "LineString", "coordinates": [ [ -92.529559405984401, 47.417135370297302 ], [ -92.529600099999897, 47.417293300009199 ] ] } },
{ "type": "Feature", "properties": { "wmUplineSo": "PEARY", "wmType": "Underground" }, "geometry": { "type": "LineString", "coordinates": [ [ -92.542957185750595, 47.415670789564899 ], [ -92.542991299999898, 47.415668600009198 ] ] } },
{ "type": "Feature", "properties": { "wmUplineSo": "PEARY", "wmType": "Underground" }, "geometry": { "type": "LineString", "coordinates": [ [ -92.541147589706597, 47.417111477732099 ], [ -92.540824399999906, 47.417231600009202 ] ] } },
{ "type": "Feature", "properties": { "wmUplineSo": "PEARY", "wmType": "Underground" }, "geometry": { "type": "LineString", "coordinates": [ [ -92.529563713249402, 47.412517384101299 ], [ -92.529464, 47.412610600009202 ] ] } },
{ "type": "Feature", "properties": { "wmUplineSo": "PEARY", "wmType": "Underground" }, "geometry": { "type": "LineString", "coordinates": [ [ -92.583804072530896, 47.402652221515297 ], [ -92.584058299999896, 47.402394100009197 ] ] } },
{ "type": "Feature", "properties": { "wmUplineSo": "PEARY", "wmType": "Underground" }, "geometry": { "type": "LineString", "coordinates": [ [ -92.639407741824201, 47.390048264763898 ], [ -92.639574056210606, 47.389299050996598 ] ] } },
{ "type": "Feature", "properties": { "wmUplineSo": "PEARY", "wmType": "Underground" }, "geometry": { "type": "LineString", "coordinates": [ [ -92.641789077099304, 47.370306039539798 ], [ -92.6415131, 47.370204600009203 ] ] } },
{ "type": "Feature", "properties": { "wmUplineSo": "PEARY", "wmType": "Underground" }, "geometry": { "type": "LineString", "coordinates": [ [ -92.637266887021298, 47.364663173036902 ], [ -92.6370641, 47.364628600009198 ] ] } },
{ "type": "Feature", "properties": { "wmUplineSo": "PEARY", "wmType": "Underground" }, "geometry": { "type": "LineString", "coordinates": [ [ -92.662145500961103, 47.402524363410897 ], [ -92.662014090054399, 47.402663991229502 ] ] } },
{ "type": "Feature", "properties": { "wmUplineSo": "PEARY", "wmType": "Underground" }, "geometry": { "type": "LineString", "coordinates": [ [ -92.516824654087799, 47.436621887910398 ], [ -92.516374099999894, 47.436840500009197 ] ] } },
{ "type": "Feature", "properties": { "wmUplineSo": "PEARY", "wmType": "Underground" }, "geometry": { "type": "LineString", "coordinates": [ [ -92.5578450502951, 47.404333519184902 ], [ -92.557689799999906, 47.4042811000092 ] ] } },
{ "type": "Feature", "properties": { "wmUplineSo": "PEARY", "wmType": "Underground" }, "geometry": { "type": "LineString", "coordinates": [ [ -92.5578450502951, 47.404333519184902 ], [ -92.557688099999893, 47.4042793000092 ] ] } },
{ "type": "Feature", "properties": { "wmUplineSo": "PEARY", "wmType": "Underground" }, "geometry": { "type": "LineString", "coordinates": [ [ -92.540929265030798, 47.421922624008602 ], [ -92.540981, 47.421965600009202 ] ] } },
{ "type": "Feature", "properties": { "wmUplineSo": "PEARY", "wmType": "Underground" }, "geometry": { "type": "LineString", "coordinates": [ [ -92.533761751977494, 47.385764757031801 ], [ -92.533346898090898, 47.385783345616098 ] ] } },
{ "type": "Feature", "properties": { "wmUplineSo": "PEARY", "wmType": "Underground" }, "geometry": { "type": "LineString", "coordinates": [ [ -92.6692091237244, 47.399882882552397 ], [ -92.669178907434102, 47.399970488424401 ] ] } },
{ "type": "Feature", "properties": { "wmUplineSo": "PEARY", "wmType": "Underground" }, "geometry": { "type": "LineString", "coordinates": [ [ -92.518355390067995, 47.438322635386399 ], [ -92.518288299999895, 47.438375600009302 ] ] } },
{ "type": "Feature", "properties": { "wmUplineSo": "PEARY", "wmType": "Underground" }, "geometry": { "type": "LineString", "coordinates": [ [ -92.639433163471594, 47.365785356486697 ], [ -92.6395268, 47.365804800009201 ] ] } },
{ "type": "Feature", "properties": { "wmUplineSo": "PEARY", "wmType": "Underground" }, "geometry": { "type": "LineString", "coordinates": [ [ -92.625205003764805, 47.400150393051 ], [ -92.624259299999906, 47.400363400009198 ] ] } },
{ "type": "Feature", "properties": { "wmUplineSo": "PEARY", "wmType": "Underground" }, "geometry": { "type": "LineString", "coordinates": [ [ -92.649138120863796, 47.369150304885601 ], [ -92.649250563449698, 47.369290496689203 ], [ -92.649045599999894, 47.3693088000092 ] ] } },
{ "type": "Feature", "properties": { "wmUplineSo": "PEARY", "wmType": "Underground" }, "geometry": { "type": "LineString", "coordinates": [ [ -92.616401, 47.399787000000103 ], [ -92.616404322682797, 47.399630081357799 ] ] } },
{ "type": "Feature", "properties": { "wmUplineSo": "PEARY", "wmType": "Underground" }, "geometry": { "type": "LineString", "coordinates": [ [ -92.541147089081605, 47.410053536244099 ], [ -92.541252768322394, 47.410022469867897 ] ] } },
{ "type": "Feature", "properties": { "wmUplineSo": "PEARY", "wmType": "Underground" }, "geometry": { "type": "LineString", "coordinates": [ [ -92.541911, 47.408825 ], [ -92.5417960229139, 47.408796607958102 ] ] } },
{ "type": "Feature", "properties": { "wmUplineSo": "PEARY", "wmType": "Underground" }, "geometry": { "type": "LineString", "coordinates": [ [ -92.551224986390295, 47.364588947411903 ], [ -92.549676986394402, 47.363827947413 ] ] } },
{ "type": "Feature", "properties": { "wmUplineSo": "PEARY", "wmType": "Underground" }, "geometry": { "type": "LineString", "coordinates": [ [ -92.535077986435198, 47.352713947428299 ], [ -92.535008986435301, 47.352709947428302 ] ] } },
{ "type": "Feature", "properties": { "wmUplineSo": "PEARY", "wmType": "Underground" }, "geometry": { "type": "LineString", "coordinates": [ [ -92.549676986394402, 47.363827947413 ], [ -92.548195986398497, 47.362819947414401 ] ] } },
{ "type": "Feature", "properties": { "wmUplineSo": "PEARY", "wmType": "Underground" }, "geometry": { "type": "LineString", "coordinates": [ [ -92.5417960229139, 47.408796607958102 ], [ -92.54166, 47.408756 ] ] } },
{ "type": "Feature", "properties": { "wmUplineSo": "PEARY", "wmType": "Underground" }, "geometry": { "type": "LineString", "coordinates": [ [ -92.542447999970804, 47.423359003677199 ], [ -92.545717999971004, 47.422294003677202 ] ] } },
{ "type": "Feature", "properties": { "wmUplineSo": "PEARY", "wmType": "Underground" }, "geometry": { "type": "LineString", "coordinates": [ [ -92.539375986422399, 47.357382947421698 ], [ -92.537635986427503, 47.355551947424303 ] ] } },
{ "type": "Feature", "properties": { "wmUplineSo": "PEARY", "wmType": "Underground" }, "geometry": { "type": "LineString", "coordinates": [ [ -92.564871, 47.396427 ], [ -92.565141, 47.396423 ] ] } },
{ "type": "Feature", "properties": { "wmUplineSo": "PEARY", "wmType": "Underground" }, "geometry": { "type": "LineString", "coordinates": [ [ -92.541146626699003, 47.410053605686997 ], [ -92.541320423641096, 47.4101170027648 ] ] } },
{ "type": "Feature", "properties": { "wmUplineSo": "PEARY", "wmType": "Underground" }, "geometry": { "type": "LineString", "coordinates": [ [ -92.542651841476399, 47.415577925124097 ], [ -92.542622661304307, 47.415561415393597 ] ] } },
{ "type": "Feature", "properties": { "wmUplineSo": "PEARY", "wmType": "Underground" }, "geometry": { "type": "LineString", "coordinates": [ [ -92.529676273197396, 47.414668582922197 ], [ -92.529603348936206, 47.416124029757 ] ] } },
{ "type": "Feature", "properties": { "wmUplineSo": "PEARY", "wmType": "Underground" }, "geometry": { "type": "LineString", "coordinates": [ [ -92.637248455029393, 47.400836182429202 ], [ -92.637306012184197, 47.400624476516199 ] ] } },
{ "type": "Feature", "properties": { "wmUplineSo": "PEARY", "wmType": "Underground" }, "geometry": { "type": "LineString", "coordinates": [ [ -92.627625537587093, 47.401249670051101 ], [ -92.6275988, 47.401250900009202 ] ] } },
{ "type": "Feature", "properties": { "wmUplineSo": "PEARY", "wmType": "Underground" }, "geometry": { "type": "LineString", "coordinates": [ [ -92.546650704398701, 47.386701364402299 ], [ -92.545340829427602, 47.387820888024699 ] ] } },
{ "type": "Feature", "properties": { "wmUplineSo": "PEARY", "wmType": "Underground" }, "geometry": { "type": "LineString", "coordinates": [ [ -92.542613, 47.416184000000101 ], [ -92.542598254756996, 47.416451701578403 ], [ -92.541891209581394, 47.416450162516803 ], [ -92.541550341951606, 47.416973334059399 ], [ -92.541147589706597, 47.417111477732099 ] ] } },
{ "type": "Feature", "properties": { "wmUplineSo": "PEARY", "wmType": "Underground" }, "geometry": { "type": "LineString", "coordinates": [ [ -92.529617099999896, 47.413424500009199 ], [ -92.529540701702999, 47.413369172320799 ], [ -92.529428326776795, 47.413046205887397 ], [ -92.529384713155594, 47.412765904285202 ], [ -92.529425475751594, 47.412588000718202 ], [ -92.529563713249402, 47.412517384101299 ] ] } },
{ "type": "Feature", "properties": { "wmUplineSo": "PEARY", "wmType": "Underground" }, "geometry": { "type": "LineString", "coordinates": [ [ -92.529418077079598, 47.413671799670396 ], [ -92.529617099999896, 47.413424500009199 ] ] } },
{ "type": "Feature", "properties": { "wmUplineSo": "PEARY", "wmType": "Underground" }, "geometry": { "type": "LineString", "coordinates": [ [ -92.585408288649205, 47.402642629534903 ], [ -92.583804072530896, 47.402652221515297 ] ] } },
{ "type": "Feature", "properties": { "wmUplineSo": "PEARY", "wmType": "Underground" }, "geometry": { "type": "LineString", "coordinates": [ [ -92.641294276872799, 47.389982786370297 ], [ -92.639407741824201, 47.390048264763898 ] ] } },
{ "type": "Feature", "properties": { "wmUplineSo": "PEARY", "wmType": "Underground" }, "geometry": { "type": "LineString", "coordinates": [ [ -92.640335498072602, 47.370164690955299 ], [ -92.640408892680895, 47.370171828436099 ] ] } },
{ "type": "Feature", "properties": { "wmUplineSo": "PEARY", "wmType": "Underground" }, "geometry": { "type": "LineString", "coordinates": [ [ -92.640684531600897, 47.364507361527799 ], [ -92.637266887021298, 47.364663173036902 ], [ -92.637266887021298, 47.364663173036902 ] ] } },
{ "type": "Feature", "properties": { "wmUplineSo": "PEARY", "wmType": "Underground" }, "geometry": { "type": "LineString", "coordinates": [ [ -92.516156684813893, 47.438802804757501 ], [ -92.516695276379593, 47.438467082653197 ], [ -92.5168476355434, 47.437454446426898 ] ] } },
{ "type": "Feature", "properties": { "wmUplineSo": "PEARY", "wmType": "Underground" }, "geometry": { "type": "LineString", "coordinates": [ [ -92.5168476355434, 47.437454446426898 ], [ -92.516824654087799, 47.436621887910398 ] ] } },
{ "type": "Feature", "properties": { "wmUplineSo": "PEARY", "wmType": "Underground" }, "geometry": { "type": "LineString", "coordinates": [ [ -92.558644482415303, 47.404110719540803 ], [ -92.5578450502951, 47.404333519184902 ] ] } },
{ "type": "Feature", "properties": { "wmUplineSo": "PEARY", "wmType": "Underground" }, "geometry": { "type": "LineString", "coordinates": [ [ -92.542019991438593, 47.4227429839965 ], [ -92.540929265030798, 47.421922624008602 ] ] } },
{ "type": "Feature", "properties": { "wmUplineSo": "PEARY", "wmType": "Underground" }, "geometry": { "type": "LineString", "coordinates": [ [ -92.534388249784101, 47.385776300518302 ], [ -92.533761751977494, 47.385764757031801 ] ] } },
{ "type": "Feature", "properties": { "wmUplineSo": "PEARY", "wmType": "Underground" }, "geometry": { "type": "LineString", "coordinates": [ [ -92.670739339120601, 47.399937186678301 ], [ -92.6692091237244, 47.399882882552397 ] ] } },
{ "type": "Feature", "properties": { "wmUplineSo": "PEARY", "wmType": "Underground" }, "geometry": { "type": "LineString", "coordinates": [ [ -92.518037878206997, 47.438778488110799 ], [ -92.518355390067995, 47.438322635386399 ] ] } },
{ "type": "Feature", "properties": { "wmUplineSo": "PEARY", "wmType": "Underground" }, "geometry": { "type": "LineString", "coordinates": [ [ -92.640603135489201, 47.366011659684901 ], [ -92.639433163471594, 47.365785356486697 ] ] } },
{ "type": "Feature", "properties": { "wmUplineSo": "PEARY", "wmType": "Underground" }, "geometry": { "type": "LineString", "coordinates": [ [ -92.625645492585605, 47.401251104839702 ], [ -92.625727429171107, 47.401040514249402 ] ] } },
{ "type": "Feature", "properties": { "wmUplineSo": "PEARY", "wmType": "Underground" }, "geometry": { "type": "LineString", "coordinates": [ [ -92.625727429171107, 47.401040514249402 ], [ -92.625779327177995, 47.400158398283502 ], [ -92.625205003764805, 47.400150393051 ] ] } },
{ "type": "Feature", "properties": { "wmUplineSo": "PEARY", "wmType": "Underground" }, "geometry": { "type": "LineString", "coordinates": [ [ -92.648419299443503, 47.370128373456701 ], [ -92.648525830992298, 47.369151791066798 ], [ -92.649138120863796, 47.369150304885601 ] ] } },
{ "type": "Feature", "properties": { "wmUplineSo": "PEARY", "wmType": "Underground" }, "geometry": { "type": "LineString", "coordinates": [ [ -92.640408892680895, 47.370171828436099 ], [ -92.641789077099304, 47.370306039539798 ] ] } },
{ "type": "Feature", "properties": { "wmUplineSo": "PEARY", "wmType": "Underground" }, "geometry": { "type": "LineString", "coordinates": [ [ -92.634221825150206, 47.400909892131097 ], [ -92.635502168255996, 47.4008425472149 ] ] } },
{ "type": "Feature", "properties": { "wmUplineSo": "PEARY", "wmType": "Underground" }, "geometry": { "type": "LineString", "coordinates": [ [ -92.642990855729295, 47.3823071886763 ], [ -92.642960002102598, 47.380934854636699 ] ] } },
{ "type": "Feature", "properties": { "wmUplineSo": "PEARY", "wmType": "Underground" }, "geometry": { "type": "LineString", "coordinates": [ [ -92.642960002102598, 47.380934854636699 ], [ -92.642974649100907, 47.379342399276098 ] ] } },
{ "type": "Feature", "properties": { "wmUplineSo": "PEARY", "wmType": "Underground" }, "geometry": { "type": "LineString", "coordinates": [ [ -92.642974649100907, 47.379342399276098 ], [ -92.643918, 47.379357 ] ] } },
{ "type": "Feature", "properties": { "wmUplineSo": "PEARY", "wmType": "Underground" }, "geometry": { "type": "LineString", "coordinates": [ [ -92.643918, 47.379357 ], [ -92.643991013611, 47.379357170341699 ] ] } },
{ "type": "Feature", "properties": { "wmUplineSo": "PEARY", "wmType": "Underground" }, "geometry": { "type": "LineString", "coordinates": [ [ -92.633727252223096, 47.400932120684502 ], [ -92.634221825150206, 47.400909892131097 ] ] } },
{ "type": "Feature", "properties": { "wmUplineSo": "PEARY", "wmType": "Underground" }, "geometry": { "type": "LineString", "coordinates": [ [ -92.542636522862594, 47.415663979625897 ], [ -92.542651841476399, 47.415577925124097 ] ] } },
{ "type": "Feature", "properties": { "wmUplineSo": "PEARY", "wmType": "Underground" }, "geometry": { "type": "LineString", "coordinates": [ [ -92.548195986398497, 47.362819947414401 ], [ -92.544818986407606, 47.360887947417197 ] ] } },
{ "type": "Feature", "properties": { "wmUplineSo": "PEARY", "wmType": "Underground" }, "geometry": { "type": "LineString", "coordinates": [ [ -92.554432986380604, 47.368359947406802 ], [ -92.554475986380496, 47.368346947406899 ] ] } },
{ "type": "Feature", "properties": { "wmUplineSo": "PEARY", "wmType": "Underground" }, "geometry": { "type": "LineString", "coordinates": [ [ -92.554432986380604, 47.368359947406802 ], [ -92.553893986382505, 47.367185947408501 ] ] } },
{ "type": "Feature", "properties": { "wmUplineSo": "PEARY", "wmType": "Underground" }, "geometry": { "type": "LineString", "coordinates": [ [ -92.553893986382505, 47.367185947408501 ], [ -92.553376986384094, 47.366592947409501 ] ] } },
{ "type": "Feature", "properties": { "wmUplineSo": "PEARY", "wmType": "Underground" }, "geometry": { "type": "LineString", "coordinates": [ [ -92.553376986384094, 47.366592947409501 ], [ -92.552735986385997, 47.365783947410399 ] ] } },
{ "type": "Feature", "properties": { "wmUplineSo": "PEARY", "wmType": "Underground" }, "geometry": { "type": "LineString", "coordinates": [ [ -92.551947986388299, 47.365092947411398 ], [ -92.551224986390295, 47.364588947411903 ] ] } },
{ "type": "Feature", "properties": { "wmUplineSo": "PEARY", "wmType": "Underground" }, "geometry": { "type": "LineString", "coordinates": [ [ -92.635502168255996, 47.4008425472149 ], [ -92.637248455029393, 47.400836182429202 ] ] } },
{ "type": "Feature", "properties": { "wmUplineSo": "PEARY", "wmType": "Underground" }, "geometry": { "type": "LineString", "coordinates": [ [ -92.544818986407606, 47.360887947417197 ], [ -92.541434986416604, 47.358997947419702 ] ] } },
{ "type": "Feature", "properties": { "wmUplineSo": "PEARY", "wmType": "Underground" }, "geometry": { "type": "LineString", "coordinates": [ [ -92.541434986416604, 47.358997947419702 ], [ -92.540522986419205, 47.358331947420602 ] ] } },
{ "type": "Feature", "properties": { "wmUplineSo": "PEARY", "wmType": "Underground" }, "geometry": { "type": "LineString", "coordinates": [ [ -92.537635986427503, 47.355551947424303 ], [ -92.535077986435198, 47.352713947428299 ] ] } },
{ "type": "Feature", "properties": { "wmUplineSo": "PEARY", "wmType": "Underground" }, "geometry": { "type": "LineString", "coordinates": [ [ -92.555079807083899, 47.369784984716802 ], [ -92.554432986380604, 47.368359947406802 ] ] } },
{ "type": "Feature", "properties": { "wmUplineSo": "PEARY", "wmType": "Underground" }, "geometry": { "type": "LineString", "coordinates": [ [ -92.540522986419205, 47.358331947420602 ], [ -92.540228986420004, 47.358072947420801 ] ] } },
{ "type": "Feature", "properties": { "wmUplineSo": "PEARY", "wmType": "Underground" }, "geometry": { "type": "LineString", "coordinates": [ [ -92.540228986420004, 47.358072947420801 ], [ -92.539375986422399, 47.357382947421698 ] ] } },
{ "type": "Feature", "properties": { "wmUplineSo": "PEARY", "wmType": "Underground" }, "geometry": { "type": "LineString", "coordinates": [ [ -92.565141, 47.396423 ], [ -92.5652259595022, 47.3963834682759 ] ] } }
]
}
