{
"type": "FeatureCollection",
"crs": { "type": "name", "properties": { "name": "urn:ogc:def:crs:OGC:1.3:CRS84" } },
"features": [
{ "type": "Feature", "properties": { "wmUplineSo": "PIKE RIVER", "wmType": "Underground" }, "geometry": { "type": "LineString", "coordinates": [ [ -92.283263060417497, 47.738068838931802 ], [ -92.28253, 47.738848 ] ] } },
{ "type": "Feature", "properties": { "wmUplineSo": "PIKE RIVER", "wmType": "Underground" }, "geometry": { "type": "LineString", "coordinates": [ [ -92.28253, 47.738848 ], [ -92.282158, 47.739907 ] ] } },
{ "type": "Feature", "properties": { "wmUplineSo": "PIKE RIVER", "wmType": "Underground" }, "geometry": { "type": "LineString", "coordinates": [ [ -92.282158, 47.739907 ], [ -92.281995, 47.740194 ] ] } },
{ "type": "Feature", "properties": { "wmUplineSo": "PIKE RIVER", "wmType": "Underground" }, "geometry": { "type": "LineString", "coordinates": [ [ -92.413756929254703, 47.662991383510601 ], [ -92.413801299999903, 47.663009600009502 ], [ -92.413801299999903, 47.663009600009502 ] ] } },
{ "type": "Feature", "properties": { "wmUplineSo": "PIKE RIVER", "wmType": "Underground" }, "geometry": { "type": "LineString", "coordinates": [ [ -92.419409337640502, 47.669076031662797 ], [ -92.419409337900504, 47.669076032104201 ], [ -92.419507699999897, 47.6690684000095 ] ] } },
{ "type": "Feature", "properties": { "wmUplineSo": "PIKE RIVER", "wmType": "Underground" }, "geometry": { "type": "LineString", "coordinates": [ [ -92.418198618222505, 47.666756260063501 ], [ -92.417911799999899, 47.667006400009498 ] ] } },
{ "type": "Feature", "properties": { "wmUplineSo": "PIKE RIVER", "wmType": "Underground" }, "geometry": { "type": "LineString", "coordinates": [ [ -92.413945286244299, 47.660883940510203 ], [ -92.413986786619105, 47.660857173740098 ] ] } },
{ "type": "Feature", "properties": { "wmUplineSo": "PIKE RIVER", "wmType": "Underground" }, "geometry": { "type": "LineString", "coordinates": [ [ -92.413053, 47.662673 ], [ -92.413085299999906, 47.662686800009503 ] ] } },
{ "type": "Feature", "properties": { "wmUplineSo": "PIKE RIVER", "wmType": "Underground" }, "geometry": { "type": "LineString", "coordinates": [ [ -92.408857668212903, 47.6598982917032 ], [ -92.408896280982901, 47.659728616507998 ], [ -92.408865799999901, 47.659897000009501 ] ] } },
{ "type": "Feature", "properties": { "wmUplineSo": "PIKE RIVER", "wmType": "Underground" }, "geometry": { "type": "LineString", "coordinates": [ [ -92.419225504824297, 47.6709678819605 ], [ -92.419240199999905, 47.670897600009503 ] ] } },
{ "type": "Feature", "properties": { "wmUplineSo": "PIKE RIVER", "wmType": "Underground" }, "geometry": { "type": "LineString", "coordinates": [ [ -92.419095999999897, 47.6716330000095 ], [ -92.419311413719299, 47.671516933869697 ], [ -92.419132099999899, 47.671547800009499 ] ] } },
{ "type": "Feature", "properties": { "wmUplineSo": "PIKE RIVER", "wmType": "Underground" }, "geometry": { "type": "LineString", "coordinates": [ [ -92.415975334926998, 47.673934816772601 ], [ -92.415874819376199, 47.673925240067099 ] ] } },
{ "type": "Feature", "properties": { "wmUplineSo": "PIKE RIVER", "wmType": "Underground" }, "geometry": { "type": "LineString", "coordinates": [ [ -92.397475845012295, 47.697216966385902 ], [ -92.397516698634803, 47.697194654645301 ] ] } },
{ "type": "Feature", "properties": { "wmUplineSo": "PIKE RIVER", "wmType": "Underground" }, "geometry": { "type": "LineString", "coordinates": [ [ -92.409130095283501, 47.699000041286503 ], [ -92.408922099999899, 47.699740100009599 ] ] } },
{ "type": "Feature", "properties": { "wmUplineSo": "PIKE RIVER", "wmType": "Underground" }, "geometry": { "type": "LineString", "coordinates": [ [ -92.308641269415503, 47.7137810216704 ], [ -92.308413899999906, 47.713844800009603 ] ] } },
{ "type": "Feature", "properties": { "wmUplineSo": "PIKE RIVER", "wmType": "Underground" }, "geometry": { "type": "LineString", "coordinates": [ [ -92.270941008522897, 47.736078958761397 ], [ -92.270706599999897, 47.736202100009599 ] ] } },
{ "type": "Feature", "properties": { "wmUplineSo": "PIKE RIVER", "wmType": "Underground" }, "geometry": { "type": "LineString", "coordinates": [ [ -92.2866200442446, 47.723774210695801 ], [ -92.286641103185204, 47.723769015801899 ], [ -92.286669099999898, 47.723935600009597 ] ] } },
{ "type": "Feature", "properties": { "wmUplineSo": "PIKE RIVER", "wmType": "Underground" }, "geometry": { "type": "LineString", "coordinates": [ [ -92.432497900766904, 47.698891182819203 ], [ -92.432735599999901, 47.698882100009598 ] ] } },
{ "type": "Feature", "properties": { "wmUplineSo": "PIKE RIVER", "wmType": "Underground" }, "geometry": { "type": "LineString", "coordinates": [ [ -92.432497900766904, 47.698891182819203 ], [ -92.432799799999898, 47.698886900009597 ] ] } },
{ "type": "Feature", "properties": { "wmUplineSo": "PIKE RIVER", "wmType": "Underground" }, "geometry": { "type": "LineString", "coordinates": [ [ -92.284373925155293, 47.736422741557703 ], [ -92.284486099999896, 47.736386100009597 ] ] } },
{ "type": "Feature", "properties": { "wmUplineSo": "PIKE RIVER", "wmType": "Underground" }, "geometry": { "type": "LineString", "coordinates": [ [ -92.413053, 47.662673 ], [ -92.413112, 47.662627 ] ] } },
{ "type": "Feature", "properties": { "wmUplineSo": "PIKE RIVER", "wmType": "Underground" }, "geometry": { "type": "LineString", "coordinates": [ [ -92.272700999951894, 47.735999003764803 ], [ -92.272776999951901, 47.735796003764598 ] ] } },
{ "type": "Feature", "properties": { "wmUplineSo": "PIKE RIVER", "wmType": "Underground" }, "geometry": { "type": "LineString", "coordinates": [ [ -92.273199999951999, 47.734837003764298 ], [ -92.273378722722498, 47.734624628781397 ] ] } },
{ "type": "Feature", "properties": { "wmUplineSo": "PIKE RIVER", "wmType": "Underground" }, "geometry": { "type": "LineString", "coordinates": [ [ -92.272776999951901, 47.735796003764598 ], [ -92.272818999951895, 47.735627003764598 ] ] } },
{ "type": "Feature", "properties": { "wmUplineSo": "PIKE RIVER", "wmType": "Underground" }, "geometry": { "type": "LineString", "coordinates": [ [ -92.272818999951895, 47.735627003764598 ], [ -92.2729349999519, 47.735198003764502 ] ] } },
{ "type": "Feature", "properties": { "wmUplineSo": "PIKE RIVER", "wmType": "Underground" }, "geometry": { "type": "LineString", "coordinates": [ [ -92.273378722722498, 47.734624628781397 ], [ -92.273369599999896, 47.734629300009601 ] ] } },
{ "type": "Feature", "properties": { "wmUplineSo": "PIKE RIVER", "wmType": "Underground" }, "geometry": { "type": "LineString", "coordinates": [ [ -92.413400575985307, 47.662064618275899 ], [ -92.412683634653206, 47.662528404731802 ] ] } },
{ "type": "Feature", "properties": { "wmUplineSo": "PIKE RIVER", "wmType": "Underground" }, "geometry": { "type": "LineString", "coordinates": [ [ -92.408851872414104, 47.664638637775901 ], [ -92.409068887951506, 47.665394425480798 ] ] } },
{ "type": "Feature", "properties": { "wmUplineSo": "PIKE RIVER", "wmType": "Underground" }, "geometry": { "type": "LineString", "coordinates": [ [ -92.397394736199004, 47.697841799718603 ], [ -92.397398594953103, 47.697680424582501 ] ] } },
{ "type": "Feature", "properties": { "wmUplineSo": "PIKE RIVER", "wmType": "Underground" }, "geometry": { "type": "LineString", "coordinates": [ [ -92.397398594953103, 47.697680424582501 ], [ -92.397475845012295, 47.697216966385902 ] ] } },
{ "type": "Feature", "properties": { "wmUplineSo": "PIKE RIVER", "wmType": "Underground" }, "geometry": { "type": "LineString", "coordinates": [ [ -92.431566307190593, 47.699596004441503 ], [ -92.432497900766904, 47.698891182819203 ] ] } },
{ "type": "Feature", "properties": { "wmUplineSo": "PIKE RIVER", "wmType": "Underground" }, "geometry": { "type": "LineString", "coordinates": [ [ -92.283745283175605, 47.736617280108902 ], [ -92.2840432124339, 47.736438953381402 ] ] } },
{ "type": "Feature", "properties": { "wmUplineSo": "PIKE RIVER", "wmType": "Underground" }, "geometry": { "type": "LineString", "coordinates": [ [ -92.2840432124339, 47.736438953381402 ], [ -92.284373925155293, 47.736422741557703 ] ] } },
{ "type": "Feature", "properties": { "wmUplineSo": "PIKE RIVER", "wmType": "Underground" }, "geometry": { "type": "LineString", "coordinates": [ [ -92.285034999999894, 47.719835000009603 ], [ -92.286020324164198, 47.7197227456709 ], [ -92.286027464956206, 47.719648493691999 ], [ -92.286625, 47.719196000009603 ] ] } },
{ "type": "Feature", "properties": { "wmUplineSo": "PIKE RIVER", "wmType": "Underground" }, "geometry": { "type": "LineString", "coordinates": [ [ -92.412683634653206, 47.662528404731802 ], [ -92.413053, 47.662673 ] ] } },
{ "type": "Feature", "properties": { "wmUplineSo": "PIKE RIVER", "wmType": "Underground" }, "geometry": { "type": "LineString", "coordinates": [ [ -92.28101, 47.740253 ], [ -92.280983184481201, 47.740186869794798 ] ] } },
{ "type": "Feature", "properties": { "wmUplineSo": "PIKE RIVER", "wmType": "Underground" }, "geometry": { "type": "LineString", "coordinates": [ [ -92.2729349999519, 47.735198003764502 ], [ -92.273199999951999, 47.734837003764298 ] ] } },
{ "type": "Feature", "properties": { "wmUplineSo": "PIKE RIVER", "wmType": "Underground" }, "geometry": { "type": "LineString", "coordinates": [ [ -92.281995, 47.740194 ], [ -92.28101, 47.740253 ] ] } }
]
}
