{
"type": "FeatureCollection",
"crs": { "type": "name", "properties": { "name": "urn:ogc:def:crs:OGC:1.3:CRS84" } },
"features": [
{ "type": "Feature", "properties": { "wmUplineSo": "REMER", "wmType": "Overhead" }, "geometry": { "type": "LineString", "coordinates": [ [ -93.985386434221795, 47.083408847875297 ], [ -93.986007410113999, 47.0837508580207 ], [ -93.986520488561993, 47.084379098733599 ] ] } },
{ "type": "Feature", "properties": { "wmUplineSo": "REMER", "wmType": "Overhead" }, "geometry": { "type": "LineString", "coordinates": [ [ -93.985527453996596, 47.083008850191597 ], [ -93.985682600000303, 47.082897000008799 ] ] } },
{ "type": "Feature", "properties": { "wmUplineSo": "REMER", "wmType": "Overhead" }, "geometry": { "type": "LineString", "coordinates": [ [ -93.987050702093995, 47.092948473644498 ], [ -93.987038245303197, 47.093977646357096 ] ] } },
{ "type": "Feature", "properties": { "wmUplineSo": "REMER", "wmType": "Overhead" }, "geometry": { "type": "LineString", "coordinates": [ [ -93.987065045538998, 47.092158634703601 ], [ -93.987050702093995, 47.092948473644498 ] ] } },
{ "type": "Feature", "properties": { "wmUplineSo": "REMER", "wmType": "Overhead" }, "geometry": { "type": "LineString", "coordinates": [ [ -93.9870921689852, 47.091010445937201 ], [ -93.987065045538998, 47.092158634703601 ] ] } },
{ "type": "Feature", "properties": { "wmUplineSo": "REMER", "wmType": "Overhead" }, "geometry": { "type": "LineString", "coordinates": [ [ -93.987116011288094, 47.090239556334303 ], [ -93.9870921689852, 47.091010445937201 ] ] } },
{ "type": "Feature", "properties": { "wmUplineSo": "REMER", "wmType": "Overhead" }, "geometry": { "type": "LineString", "coordinates": [ [ -93.986783198188107, 47.102319834465099 ], [ -93.986771965884301, 47.102776695832503 ] ] } },
{ "type": "Feature", "properties": { "wmUplineSo": "REMER", "wmType": "Overhead" }, "geometry": { "type": "LineString", "coordinates": [ [ -93.986803515294298, 47.101502856760199 ], [ -93.986783198188107, 47.102319834465099 ] ] } },
{ "type": "Feature", "properties": { "wmUplineSo": "REMER", "wmType": "Overhead" }, "geometry": { "type": "LineString", "coordinates": [ [ -93.986823534123005, 47.100669760399001 ], [ -93.986803515294298, 47.101502856760199 ] ] } },
{ "type": "Feature", "properties": { "wmUplineSo": "REMER", "wmType": "Overhead" }, "geometry": { "type": "LineString", "coordinates": [ [ -93.9868742687283, 47.100008357764402 ], [ -93.986823534123005, 47.100669760399001 ] ] } },
{ "type": "Feature", "properties": { "wmUplineSo": "REMER", "wmType": "Overhead" }, "geometry": { "type": "LineString", "coordinates": [ [ -93.986889011804607, 47.099102761630199 ], [ -93.9868742687283, 47.100008357764402 ] ] } },
{ "type": "Feature", "properties": { "wmUplineSo": "REMER", "wmType": "Overhead" }, "geometry": { "type": "LineString", "coordinates": [ [ -93.9869215260846, 47.098307173172103 ], [ -93.986889011804607, 47.099102761630199 ] ] } },
{ "type": "Feature", "properties": { "wmUplineSo": "REMER", "wmType": "Overhead" }, "geometry": { "type": "LineString", "coordinates": [ [ -93.9869307832613, 47.097530592979503 ], [ -93.9869215260846, 47.098307173172103 ] ] } },
{ "type": "Feature", "properties": { "wmUplineSo": "REMER", "wmType": "Overhead" }, "geometry": { "type": "LineString", "coordinates": [ [ -93.986942174947998, 47.0968695289762 ], [ -93.9869307832613, 47.097530592979503 ] ] } },
{ "type": "Feature", "properties": { "wmUplineSo": "REMER", "wmType": "Overhead" }, "geometry": { "type": "LineString", "coordinates": [ [ -93.986960639964295, 47.096165414287299 ], [ -93.986942174947998, 47.0968695289762 ] ] } },
{ "type": "Feature", "properties": { "wmUplineSo": "REMER", "wmType": "Overhead" }, "geometry": { "type": "LineString", "coordinates": [ [ -93.9869849866149, 47.095353774671501 ], [ -93.986960639964295, 47.096165414287299 ] ] } },
{ "type": "Feature", "properties": { "wmUplineSo": "REMER", "wmType": "Overhead" }, "geometry": { "type": "LineString", "coordinates": [ [ -93.987023318228495, 47.094660235999299 ], [ -93.9869849866149, 47.095353774671501 ] ] } },
{ "type": "Feature", "properties": { "wmUplineSo": "REMER", "wmType": "Overhead" }, "geometry": { "type": "LineString", "coordinates": [ [ -93.972081184754899, 47.080392162785202 ], [ -93.972464, 47.080578 ] ] } },
{ "type": "Feature", "properties": { "wmUplineSo": "REMER", "wmType": "Overhead" }, "geometry": { "type": "LineString", "coordinates": [ [ -93.970862080595296, 47.070695908395599 ], [ -93.970560360557201, 47.070173151587497 ] ] } },
{ "type": "Feature", "properties": { "wmUplineSo": "REMER", "wmType": "Overhead" }, "geometry": { "type": "LineString", "coordinates": [ [ -93.986520488561993, 47.084379098733599 ], [ -93.98699, 47.084952813198001 ] ] } },
{ "type": "Feature", "properties": { "wmUplineSo": "REMER", "wmType": "Overhead" }, "geometry": { "type": "LineString", "coordinates": [ [ -93.930541544149804, 47.079086228924801 ], [ -93.930699000000203, 47.079117300008797 ] ] } },
{ "type": "Feature", "properties": { "wmUplineSo": "REMER", "wmType": "Overhead" }, "geometry": { "type": "LineString", "coordinates": [ [ -93.931541234103406, 47.077830058143199 ], [ -93.931583800000197, 47.077565600008803 ] ] } },
{ "type": "Feature", "properties": { "wmUplineSo": "REMER", "wmType": "Overhead" }, "geometry": { "type": "LineString", "coordinates": [ [ -93.934492145289198, 47.078683015625103 ], [ -93.9344825000002, 47.078692100008901 ] ] } },
{ "type": "Feature", "properties": { "wmUplineSo": "REMER", "wmType": "Overhead" }, "geometry": { "type": "LineString", "coordinates": [ [ -93.946050421619802, 47.071595233184297 ], [ -93.946178300000199, 47.071957300008798 ] ] } },
{ "type": "Feature", "properties": { "wmUplineSo": "REMER", "wmType": "Overhead" }, "geometry": { "type": "LineString", "coordinates": [ [ -93.944705484784905, 47.070648215680102 ], [ -93.944225491834601, 47.070618209136001 ], [ -93.943837600000293, 47.070829900008803 ] ] } },
{ "type": "Feature", "properties": { "wmUplineSo": "REMER", "wmType": "Overhead" }, "geometry": { "type": "LineString", "coordinates": [ [ -93.944705484784905, 47.070648215680102 ], [ -93.944947100000206, 47.070372500008801 ] ] } },
{ "type": "Feature", "properties": { "wmUplineSo": "REMER", "wmType": "Overhead" }, "geometry": { "type": "LineString", "coordinates": [ [ -93.951788422879204, 47.070531328977999 ], [ -93.952049309749398, 47.070442770716198 ] ] } },
{ "type": "Feature", "properties": { "wmUplineSo": "REMER", "wmType": "Overhead" }, "geometry": { "type": "LineString", "coordinates": [ [ -93.949128634296997, 47.078125401706203 ], [ -93.948910300000193, 47.078260400008801 ] ] } },
{ "type": "Feature", "properties": { "wmUplineSo": "REMER", "wmType": "Overhead" }, "geometry": { "type": "LineString", "coordinates": [ [ -93.951304274474893, 47.077217680480501 ], [ -93.951313369636097, 47.0772235542088 ], [ -93.951755100000199, 47.077389100008801 ] ] } },
{ "type": "Feature", "properties": { "wmUplineSo": "REMER", "wmType": "Overhead" }, "geometry": { "type": "LineString", "coordinates": [ [ -93.963322470038904, 47.074303210523297 ], [ -93.963556000000295, 47.074164500008898 ] ] } },
{ "type": "Feature", "properties": { "wmUplineSo": "REMER", "wmType": "Overhead" }, "geometry": { "type": "LineString", "coordinates": [ [ -93.962427090480503, 47.074871485383603 ], [ -93.9623598000003, 47.074869500008802 ] ] } },
{ "type": "Feature", "properties": { "wmUplineSo": "REMER", "wmType": "Overhead" }, "geometry": { "type": "LineString", "coordinates": [ [ -93.971260152065497, 47.080553412209397 ], [ -93.971284800000305, 47.080560600008802 ] ] } },
{ "type": "Feature", "properties": { "wmUplineSo": "REMER", "wmType": "Overhead" }, "geometry": { "type": "LineString", "coordinates": [ [ -93.970821138265705, 47.080657969313897 ], [ -93.9707712000003, 47.0807976000088 ], [ -93.970361900000299, 47.080784400008802 ] ] } },
{ "type": "Feature", "properties": { "wmUplineSo": "REMER", "wmType": "Overhead" }, "geometry": { "type": "LineString", "coordinates": [ [ -93.969962706752, 47.080813593724102 ], [ -93.969946800000301, 47.080871300008901 ] ] } },
{ "type": "Feature", "properties": { "wmUplineSo": "REMER", "wmType": "Overhead" }, "geometry": { "type": "LineString", "coordinates": [ [ -93.970909989302001, 47.078363753459101 ], [ -93.970920300000301, 47.0783618000088 ] ] } },
{ "type": "Feature", "properties": { "wmUplineSo": "REMER", "wmType": "Overhead" }, "geometry": { "type": "LineString", "coordinates": [ [ -93.984602462330898, 47.082995835623798 ], [ -93.984163300000304, 47.0834936000089 ] ] } },
{ "type": "Feature", "properties": { "wmUplineSo": "REMER", "wmType": "Overhead" }, "geometry": { "type": "LineString", "coordinates": [ [ -93.985386434221795, 47.083408847875297 ], [ -93.984683600000295, 47.083638100008798 ] ] } },
{ "type": "Feature", "properties": { "wmUplineSo": "REMER", "wmType": "Overhead" }, "geometry": { "type": "LineString", "coordinates": [ [ -93.985386434221795, 47.083408847875297 ], [ -93.985527453996596, 47.083008850191597 ] ] } },
{ "type": "Feature", "properties": { "wmUplineSo": "REMER", "wmType": "Overhead" }, "geometry": { "type": "LineString", "coordinates": [ [ -93.984251499341497, 47.082333830284597 ], [ -93.984260500000303, 47.082378300008898 ] ] } },
{ "type": "Feature", "properties": { "wmUplineSo": "REMER", "wmType": "Overhead" }, "geometry": { "type": "LineString", "coordinates": [ [ -93.970560360557201, 47.070173151587497 ], [ -93.970422171131602, 47.069733560877999 ] ] } },
{ "type": "Feature", "properties": { "wmUplineSo": "REMER", "wmType": "Overhead" }, "geometry": { "type": "LineString", "coordinates": [ [ -93.959669847992501, 47.075407909972199 ], [ -93.959861800000297, 47.075200300008802 ] ] } },
{ "type": "Feature", "properties": { "wmUplineSo": "REMER", "wmType": "Overhead" }, "geometry": { "type": "LineString", "coordinates": [ [ -93.959468895010701, 47.075396260555699 ], [ -93.9585809000003, 47.075130400008803 ] ] } },
{ "type": "Feature", "properties": { "wmUplineSo": "REMER", "wmType": "Overhead" }, "geometry": { "type": "LineString", "coordinates": [ [ -93.973514742716205, 47.080142727355501 ], [ -93.9736958000003, 47.080255500008903 ] ] } },
{ "type": "Feature", "properties": { "wmUplineSo": "REMER", "wmType": "Overhead" }, "geometry": { "type": "LineString", "coordinates": [ [ -93.973514742716205, 47.080142727355501 ], [ -93.973288800000304, 47.080148100008799 ] ] } },
{ "type": "Feature", "properties": { "wmUplineSo": "REMER", "wmType": "Overhead" }, "geometry": { "type": "LineString", "coordinates": [ [ -93.973514742716205, 47.080142727355501 ], [ -93.973063100000303, 47.080402100008797 ] ] } },
{ "type": "Feature", "properties": { "wmUplineSo": "REMER", "wmType": "Overhead" }, "geometry": { "type": "LineString", "coordinates": [ [ -93.972081184754899, 47.080392162785202 ], [ -93.9717428000003, 47.080617900008797 ] ] } },
{ "type": "Feature", "properties": { "wmUplineSo": "REMER", "wmType": "Overhead" }, "geometry": { "type": "LineString", "coordinates": [ [ -93.972081184754899, 47.080392162785202 ], [ -93.9721928000003, 47.080584000008798 ] ] } },
{ "type": "Feature", "properties": { "wmUplineSo": "REMER", "wmType": "Overhead" }, "geometry": { "type": "LineString", "coordinates": [ [ -93.943256263871405, 47.078166775685098 ], [ -93.944451229718297, 47.078158355996102 ], [ -93.944451229718297, 47.078158355996102 ] ] } },
{ "type": "Feature", "properties": { "wmUplineSo": "REMER", "wmType": "Overhead" }, "geometry": { "type": "LineString", "coordinates": [ [ -93.958421206184497, 47.0752764634926 ], [ -93.959128147568606, 47.075362924804899 ], [ -93.959468895010701, 47.075396260555699 ] ] } },
{ "type": "Feature", "properties": { "wmUplineSo": "REMER", "wmType": "Overhead" }, "geometry": { "type": "LineString", "coordinates": [ [ -93.971131825513794, 47.0783656190534 ], [ -93.972339651029102, 47.078439242083498 ] ] } },
{ "type": "Feature", "properties": { "wmUplineSo": "REMER", "wmType": "Overhead" }, "geometry": { "type": "LineString", "coordinates": [ [ -93.929814655358498, 47.0782540498681 ], [ -93.929701730369501, 47.078254014264502 ], [ -93.929629936869901, 47.078255802434199 ], [ -93.929471583975896, 47.078255619477403 ] ] } },
{ "type": "Feature", "properties": { "wmUplineSo": "REMER", "wmType": "Overhead" }, "geometry": { "type": "LineString", "coordinates": [ [ -93.987038245303197, 47.093977646357096 ], [ -93.987023318228495, 47.094660235999299 ] ] } },
{ "type": "Feature", "properties": { "wmUplineSo": "REMER", "wmType": "Overhead" }, "geometry": { "type": "LineString", "coordinates": [ [ -93.987326357960399, 47.094810307386901 ], [ -93.987812891419907, 47.095118644423799 ] ] } },
{ "type": "Feature", "properties": { "wmUplineSo": "REMER", "wmType": "Overhead" }, "geometry": { "type": "LineString", "coordinates": [ [ -93.983805532232793, 47.082624882856699 ], [ -93.983790400000302, 47.082615500008799 ] ] } },
{ "type": "Feature", "properties": { "wmUplineSo": "REMER", "wmType": "Overhead" }, "geometry": { "type": "LineString", "coordinates": [ [ -93.944667307748503, 47.073930202672599 ], [ -93.944695354240096, 47.073070206479301 ], [ -93.944795394221501, 47.072301210545803 ], [ -93.944805437058207, 47.071531214087003 ] ] } },
{ "type": "Feature", "properties": { "wmUplineSo": "REMER", "wmType": "Overhead" }, "geometry": { "type": "LineString", "coordinates": [ [ -93.944805437058207, 47.071531214087003 ], [ -93.946050421619802, 47.071595233184297 ] ] } },
{ "type": "Feature", "properties": { "wmUplineSo": "REMER", "wmType": "Overhead" }, "geometry": { "type": "LineString", "coordinates": [ [ -93.944805437058207, 47.071531214087003 ], [ -93.944705484784905, 47.070648215680102 ] ] } },
{ "type": "Feature", "properties": { "wmUplineSo": "REMER", "wmType": "Overhead" }, "geometry": { "type": "LineString", "coordinates": [ [ -93.944705484784905, 47.070648215680102 ], [ -93.944807543176395, 47.069575221431101 ] ] } },
{ "type": "Feature", "properties": { "wmUplineSo": "REMER", "wmType": "Overhead" }, "geometry": { "type": "LineString", "coordinates": [ [ -93.944705484784905, 47.070648215680102 ], [ -93.945802470148195, 47.070735233408797 ], [ -93.946997458625205, 47.070740252729699 ], [ -93.948180446827095, 47.070745270578897 ], [ -93.949353438066296, 47.070713289418897 ], [ -93.950462422051999, 47.070820306659797 ], [ -93.951618412555206, 47.070771325116802 ], [ -93.951788422879204, 47.070531328977999 ] ] } },
{ "type": "Feature", "properties": { "wmUplineSo": "REMER", "wmType": "Overhead" }, "geometry": { "type": "LineString", "coordinates": [ [ -93.935172609378398, 47.078231679765501 ], [ -93.936345502223105, 47.078202057446497 ], [ -93.9374956171348, 47.078199791235797 ], [ -93.938661288010806, 47.078190243222799 ], [ -93.939826832702494, 47.0781735416248 ], [ -93.940982236406498, 47.078174768369003 ], [ -93.942116794068696, 47.078179726318901 ], [ -93.943256263871405, 47.078166775685098 ] ] } },
{ "type": "Feature", "properties": { "wmUplineSo": "REMER", "wmType": "Overhead" }, "geometry": { "type": "LineString", "coordinates": [ [ -93.951578352582601, 47.077940033078001 ], [ -93.951304274474893, 47.077217680480501 ] ] } },
{ "type": "Feature", "properties": { "wmUplineSo": "REMER", "wmType": "Overhead" }, "geometry": { "type": "LineString", "coordinates": [ [ -93.951588536116404, 47.078110544302199 ], [ -93.951578352582601, 47.077940033078001 ] ] } },
{ "type": "Feature", "properties": { "wmUplineSo": "REMER", "wmType": "Overhead" }, "geometry": { "type": "LineString", "coordinates": [ [ -93.951588536116404, 47.078110544302199 ], [ -93.952810862466194, 47.078114489051799 ] ] } },
{ "type": "Feature", "properties": { "wmUplineSo": "REMER", "wmType": "Overhead" }, "geometry": { "type": "LineString", "coordinates": [ [ -93.952810862466194, 47.078114489051799 ], [ -93.954017650567394, 47.078102239636799 ], [ -93.955516792328893, 47.078127836360999 ] ] } },
{ "type": "Feature", "properties": { "wmUplineSo": "REMER", "wmType": "Overhead" }, "geometry": { "type": "LineString", "coordinates": [ [ -93.958290515880293, 47.0767448385295 ], [ -93.958360454439401, 47.076077595843401 ] ] } },
{ "type": "Feature", "properties": { "wmUplineSo": "REMER", "wmType": "Overhead" }, "geometry": { "type": "LineString", "coordinates": [ [ -93.958169102977493, 47.078127104892403 ], [ -93.958151550590799, 47.077838843109802 ] ] } },
{ "type": "Feature", "properties": { "wmUplineSo": "REMER", "wmType": "Overhead" }, "geometry": { "type": "LineString", "coordinates": [ [ -93.958151550590799, 47.077838843109802 ], [ -93.958206473505996, 47.077500293103903 ] ] } },
{ "type": "Feature", "properties": { "wmUplineSo": "REMER", "wmType": "Overhead" }, "geometry": { "type": "LineString", "coordinates": [ [ -93.958206473505996, 47.077500293103903 ], [ -93.958290515880293, 47.0767448385295 ] ] } },
{ "type": "Feature", "properties": { "wmUplineSo": "REMER", "wmType": "Overhead" }, "geometry": { "type": "LineString", "coordinates": [ [ -93.963044935268499, 47.077931223198803 ], [ -93.963027874725498, 47.076978810935898 ] ] } },
{ "type": "Feature", "properties": { "wmUplineSo": "REMER", "wmType": "Overhead" }, "geometry": { "type": "LineString", "coordinates": [ [ -93.963030347784695, 47.074988341129099 ], [ -93.963322470038904, 47.074303210523297 ] ] } },
{ "type": "Feature", "properties": { "wmUplineSo": "REMER", "wmType": "Overhead" }, "geometry": { "type": "LineString", "coordinates": [ [ -93.963027874725498, 47.076978810935898 ], [ -93.963039739696399, 47.0764187188786 ], [ -93.963022329663701, 47.076090774535999 ], [ -93.963029973459797, 47.075547860514398 ] ] } },
{ "type": "Feature", "properties": { "wmUplineSo": "REMER", "wmType": "Overhead" }, "geometry": { "type": "LineString", "coordinates": [ [ -93.963030347784695, 47.074988341129099 ], [ -93.962427090480503, 47.074871485383603 ] ] } },
{ "type": "Feature", "properties": { "wmUplineSo": "REMER", "wmType": "Overhead" }, "geometry": { "type": "LineString", "coordinates": [ [ -93.963029973459797, 47.075547860514398 ], [ -93.963030347784695, 47.074988341129099 ] ] } },
{ "type": "Feature", "properties": { "wmUplineSo": "REMER", "wmType": "Overhead" }, "geometry": { "type": "LineString", "coordinates": [ [ -93.971161630489803, 47.079015896427201 ], [ -93.971213743569805, 47.079840958758901 ], [ -93.971284800000305, 47.080560600008802 ] ] } },
{ "type": "Feature", "properties": { "wmUplineSo": "REMER", "wmType": "Overhead" }, "geometry": { "type": "LineString", "coordinates": [ [ -93.971284800000305, 47.080560600008802 ], [ -93.971260152065497, 47.080553412209397 ] ] } },
{ "type": "Feature", "properties": { "wmUplineSo": "REMER", "wmType": "Overhead" }, "geometry": { "type": "LineString", "coordinates": [ [ -93.971260152065497, 47.080553412209397 ], [ -93.970821138265705, 47.080657969313897 ] ] } },
{ "type": "Feature", "properties": { "wmUplineSo": "REMER", "wmType": "Overhead" }, "geometry": { "type": "LineString", "coordinates": [ [ -93.970821138265705, 47.080657969313897 ], [ -93.970361900000299, 47.080784400008802 ], [ -93.969962706752, 47.080813593724102 ] ] } },
{ "type": "Feature", "properties": { "wmUplineSo": "REMER", "wmType": "Overhead" }, "geometry": { "type": "LineString", "coordinates": [ [ -93.963017085532101, 47.078122155585397 ], [ -93.963044935268499, 47.077931223198803 ] ] } },
{ "type": "Feature", "properties": { "wmUplineSo": "REMER", "wmType": "Overhead" }, "geometry": { "type": "LineString", "coordinates": [ [ -93.963017085532101, 47.078122155585397 ], [ -93.964453031619698, 47.078121976591902 ], [ -93.965401021760002, 47.078121132075999 ], [ -93.966185313046495, 47.078126422707598 ], [ -93.967531774797607, 47.078188863902 ] ] } },
{ "type": "Feature", "properties": { "wmUplineSo": "REMER", "wmType": "Overhead" }, "geometry": { "type": "LineString", "coordinates": [ [ -93.983805532232793, 47.082624882856699 ], [ -93.984602462330898, 47.082995835623798 ] ] } },
{ "type": "Feature", "properties": { "wmUplineSo": "REMER", "wmType": "Overhead" }, "geometry": { "type": "LineString", "coordinates": [ [ -93.983805532232793, 47.082624882856699 ], [ -93.984030240225096, 47.082454352516798 ] ] } },
{ "type": "Feature", "properties": { "wmUplineSo": "REMER", "wmType": "Overhead" }, "geometry": { "type": "LineString", "coordinates": [ [ -93.976084169532299, 47.0790811892915 ], [ -93.977374511965706, 47.079503511864999 ], [ -93.9785611364602, 47.079908697350902 ], [ -93.979990606793194, 47.080476459356902 ], [ -93.980701834674406, 47.080866794171598 ] ] } },
{ "type": "Feature", "properties": { "wmUplineSo": "REMER", "wmType": "Overhead" }, "geometry": { "type": "LineString", "coordinates": [ [ -93.972339651029102, 47.078439242083498 ], [ -93.973365178277504, 47.078485291693497 ], [ -93.974328675125605, 47.078569954575897 ], [ -93.975278095897195, 47.078838060015002 ], [ -93.976084169532299, 47.0790811892915 ] ] } },
{ "type": "Feature", "properties": { "wmUplineSo": "REMER", "wmType": "Overhead" }, "geometry": { "type": "LineString", "coordinates": [ [ -93.98699, 47.084952813198001 ], [ -93.987263147094396, 47.085923199442298 ], [ -93.987242365563802, 47.086811011161302 ], [ -93.987221377343602, 47.087707633062998 ], [ -93.987162653730707, 47.088574650676897 ], [ -93.987135542737406, 47.0895423887942 ], [ -93.987116011288094, 47.090239556334303 ] ] } },
{ "type": "Feature", "properties": { "wmUplineSo": "REMER", "wmType": "Overhead" }, "geometry": { "type": "LineString", "coordinates": [ [ -93.984602462330898, 47.082995835623798 ], [ -93.985386434221795, 47.083408847875297 ], [ -93.985386434221795, 47.083408847875297 ] ] } },
{ "type": "Feature", "properties": { "wmUplineSo": "REMER", "wmType": "Overhead" }, "geometry": { "type": "LineString", "coordinates": [ [ -93.982653999333607, 47.081918924904699 ], [ -93.983805532232793, 47.082624882856699 ] ] } },
{ "type": "Feature", "properties": { "wmUplineSo": "REMER", "wmType": "Overhead" }, "geometry": { "type": "LineString", "coordinates": [ [ -93.981595349496999, 47.081321965832998 ], [ -93.982653999333607, 47.081918924904699 ] ] } },
{ "type": "Feature", "properties": { "wmUplineSo": "REMER", "wmType": "Overhead" }, "geometry": { "type": "LineString", "coordinates": [ [ -93.944451229718297, 47.078158355996102 ], [ -93.945605574406201, 47.078158830547203 ], [ -93.946810024211601, 47.078154593587598 ] ] } },
{ "type": "Feature", "properties": { "wmUplineSo": "REMER", "wmType": "Overhead" }, "geometry": { "type": "LineString", "coordinates": [ [ -93.949128634296997, 47.078125401706203 ], [ -93.950187435789701, 47.078110272869097 ], [ -93.951588536116404, 47.078110544302199 ] ] } },
{ "type": "Feature", "properties": { "wmUplineSo": "REMER", "wmType": "Overhead" }, "geometry": { "type": "LineString", "coordinates": [ [ -93.930636699626106, 47.078466416725497 ], [ -93.930541544149804, 47.079086228924801 ] ] } },
{ "type": "Feature", "properties": { "wmUplineSo": "REMER", "wmType": "Overhead" }, "geometry": { "type": "LineString", "coordinates": [ [ -93.971131825513794, 47.0783656190534 ], [ -93.971161630489803, 47.079015896427201 ] ] } },
{ "type": "Feature", "properties": { "wmUplineSo": "REMER", "wmType": "Overhead" }, "geometry": { "type": "LineString", "coordinates": [ [ -93.970909989302001, 47.078363753459101 ], [ -93.971131825513794, 47.0783656190534 ] ] } },
{ "type": "Feature", "properties": { "wmUplineSo": "REMER", "wmType": "Overhead" }, "geometry": { "type": "LineString", "coordinates": [ [ -93.967531774797607, 47.078188863902 ], [ -93.9688364651428, 47.078254023563296 ], [ -93.970221481501, 47.078328011567798 ], [ -93.970909989302001, 47.078363753459101 ] ] } },
{ "type": "Feature", "properties": { "wmUplineSo": "REMER", "wmType": "Overhead" }, "geometry": { "type": "LineString", "coordinates": [ [ -93.984030240225096, 47.082454352516798 ], [ -93.984251499341497, 47.082333830284597 ] ] } },
{ "type": "Feature", "properties": { "wmUplineSo": "REMER", "wmType": "Overhead" }, "geometry": { "type": "LineString", "coordinates": [ [ -93.970909989302001, 47.078363753459101 ], [ -93.970897858873499, 47.077766617126201 ], [ -93.970877873502801, 47.077501617453997 ], [ -93.970822919131393, 47.076655617551999 ], [ -93.970865322601199, 47.075854657931302 ], [ -93.970875379793, 47.074892676051 ], [ -93.970863160818197, 47.074003428151499 ], [ -93.970828104322294, 47.073108625262201 ] ] } },
{ "type": "Feature", "properties": { "wmUplineSo": "REMER", "wmType": "Overhead" }, "geometry": { "type": "LineString", "coordinates": [ [ -93.970828104322294, 47.073108625262201 ], [ -93.970859653997096, 47.0722946129547 ], [ -93.970877478174501, 47.0713271909177 ], [ -93.970862080595296, 47.070695908395599 ] ] } },
{ "type": "Feature", "properties": { "wmUplineSo": "REMER", "wmType": "Overhead" }, "geometry": { "type": "LineString", "coordinates": [ [ -93.955516792328893, 47.078127836360999 ], [ -93.956778415194194, 47.078124446070902 ] ] } },
{ "type": "Feature", "properties": { "wmUplineSo": "REMER", "wmType": "Overhead" }, "geometry": { "type": "LineString", "coordinates": [ [ -93.956778415194194, 47.078124446070902 ], [ -93.958169102977493, 47.078127104892403 ] ] } },
{ "type": "Feature", "properties": { "wmUplineSo": "REMER", "wmType": "Overhead" }, "geometry": { "type": "LineString", "coordinates": [ [ -93.959468895010701, 47.075396260555699 ], [ -93.959669847992501, 47.075407909972199 ] ] } },
{ "type": "Feature", "properties": { "wmUplineSo": "REMER", "wmType": "Overhead" }, "geometry": { "type": "LineString", "coordinates": [ [ -93.958360454439401, 47.076077595843401 ], [ -93.958406783049099, 47.075648642603802 ], [ -93.958421206184497, 47.0752764634926 ] ] } },
{ "type": "Feature", "properties": { "wmUplineSo": "REMER", "wmType": "Overhead" }, "geometry": { "type": "LineString", "coordinates": [ [ -93.959517887679297, 47.078125336068098 ], [ -93.963017085532101, 47.078122155585397 ] ] } },
{ "type": "Feature", "properties": { "wmUplineSo": "REMER", "wmType": "Overhead" }, "geometry": { "type": "LineString", "coordinates": [ [ -93.958169102977493, 47.078127104892403 ], [ -93.959517887679297, 47.078125336068098 ] ] } },
{ "type": "Feature", "properties": { "wmUplineSo": "REMER", "wmType": "Overhead" }, "geometry": { "type": "LineString", "coordinates": [ [ -93.971260152065497, 47.080553412209397 ], [ -93.972081184754899, 47.080392162785202 ] ] } },
{ "type": "Feature", "properties": { "wmUplineSo": "REMER", "wmType": "Overhead" }, "geometry": { "type": "LineString", "coordinates": [ [ -93.972081184754899, 47.080392162785202 ], [ -93.972981708122006, 47.080281646057102 ], [ -93.973514742716205, 47.080142727355501 ] ] } },
{ "type": "Feature", "properties": { "wmUplineSo": "REMER", "wmType": "Overhead" }, "geometry": { "type": "LineString", "coordinates": [ [ -93.944451229718297, 47.078158355996102 ], [ -93.9444614607918, 47.078113101486601 ] ] } },
{ "type": "Feature", "properties": { "wmUplineSo": "REMER", "wmType": "Overhead" }, "geometry": { "type": "LineString", "coordinates": [ [ -93.9444614607918, 47.078113101486601 ], [ -93.944473771295094, 47.077303896634199 ], [ -93.944548171776901, 47.076466189150203 ], [ -93.9446002193514, 47.075606194700001 ], [ -93.944587264211805, 47.0747701982149 ], [ -93.944667307748503, 47.073930202672599 ] ] } },
{ "type": "Feature", "properties": { "wmUplineSo": "REMER", "wmType": "Overhead" }, "geometry": { "type": "LineString", "coordinates": [ [ -93.946810024211601, 47.078154593587598 ], [ -93.948035129081305, 47.078135887469301 ], [ -93.949128634296997, 47.078125401706203 ] ] } },
{ "type": "Feature", "properties": { "wmUplineSo": "REMER", "wmType": "Overhead" }, "geometry": { "type": "LineString", "coordinates": [ [ -93.930636699626106, 47.078466416725497 ], [ -93.930660180210197, 47.078266892805502 ], [ -93.930547162242206, 47.077996909461397 ] ] } },
{ "type": "Feature", "properties": { "wmUplineSo": "REMER", "wmType": "Overhead" }, "geometry": { "type": "LineString", "coordinates": [ [ -93.930636699626106, 47.078466416725497 ], [ -93.930636699626106, 47.078466416725497 ] ] } },
{ "type": "Feature", "properties": { "wmUplineSo": "REMER", "wmType": "Overhead" }, "geometry": { "type": "LineString", "coordinates": [ [ -93.987023318228495, 47.094660235999299 ], [ -93.987326357960399, 47.094810307386901 ] ] } }
]
}
