{
"type": "FeatureCollection",
"crs": { "type": "name", "properties": { "name": "urn:ogc:def:crs:OGC:1.3:CRS84" } },
"features": [
{ "type": "Feature", "properties": { "wmUplineSo": "ROUND LAKE", "wmType": "Overhead" }, "geometry": { "type": "LineString", "coordinates": [ [ -93.312635956822106, 46.695686472734899 ], [ -93.312919277358603, 46.695917307386999 ] ] } },
{ "type": "Feature", "properties": { "wmUplineSo": "ROUND LAKE", "wmType": "Overhead" }, "geometry": { "type": "LineString", "coordinates": [ [ -93.313861100923305, 46.695701350639901 ], [ -93.313865008353304, 46.6959414349176 ], [ -93.313844545962596, 46.696726440971901 ] ] } },
{ "type": "Feature", "properties": { "wmUplineSo": "ROUND LAKE", "wmType": "Overhead" }, "geometry": { "type": "LineString", "coordinates": [ [ -93.3151429764482, 46.695653777908099 ], [ -93.315107128483305, 46.696630109911197 ] ] } },
{ "type": "Feature", "properties": { "wmUplineSo": "ROUND LAKE", "wmType": "Overhead" }, "geometry": { "type": "LineString", "coordinates": [ [ -93.317578967610004, 46.695345804902303 ], [ -93.317652860767694, 46.696149361261803 ] ] } },
{ "type": "Feature", "properties": { "wmUplineSo": "ROUND LAKE", "wmType": "Overhead" }, "geometry": { "type": "LineString", "coordinates": [ [ -93.317359300937298, 46.681179964536199 ], [ -93.317394360954594, 46.681244153088798 ] ] } },
{ "type": "Feature", "properties": { "wmUplineSo": "ROUND LAKE", "wmType": "Overhead" }, "geometry": { "type": "LineString", "coordinates": [ [ -93.3178916008616, 46.696977463561502 ], [ -93.317809849784496, 46.697654172801002 ], [ -93.317809849784496, 46.697654172801002 ] ] } },
{ "type": "Feature", "properties": { "wmUplineSo": "ROUND LAKE", "wmType": "Overhead" }, "geometry": { "type": "LineString", "coordinates": [ [ -93.317809849784496, 46.697654172801002 ], [ -93.318597379364505, 46.697690675007799 ] ] } },
{ "type": "Feature", "properties": { "wmUplineSo": "ROUND LAKE", "wmType": "Overhead" }, "geometry": { "type": "LineString", "coordinates": [ [ -93.315899999872698, 46.681205928240303 ], [ -93.316658269624895, 46.681190391659896 ], [ -93.316658269624895, 46.681190391659797 ] ] } },
{ "type": "Feature", "properties": { "wmUplineSo": "ROUND LAKE", "wmType": "Overhead" }, "geometry": { "type": "LineString", "coordinates": [ [ -93.310022567276306, 46.695752454347002 ], [ -93.310058952513302, 46.696462338041201 ], [ -93.310086936662998, 46.696994340222901 ] ] } },
{ "type": "Feature", "properties": { "wmUplineSo": "ROUND LAKE", "wmType": "Overhead" }, "geometry": { "type": "LineString", "coordinates": [ [ -93.307654926985293, 46.7006380944322 ], [ -93.308633000056801, 46.700747291043399 ] ] } },
{ "type": "Feature", "properties": { "wmUplineSo": "ROUND LAKE", "wmType": "Overhead" }, "geometry": { "type": "LineString", "coordinates": [ [ -93.306993088538803, 46.681337431908098 ], [ -93.3082218190047, 46.681311270525597 ] ] } },
{ "type": "Feature", "properties": { "wmUplineSo": "ROUND LAKE", "wmType": "Overhead" }, "geometry": { "type": "LineString", "coordinates": [ [ -93.274000766776396, 46.681724579210901 ], [ -93.274291367768598, 46.681721740018801 ] ] } },
{ "type": "Feature", "properties": { "wmUplineSo": "ROUND LAKE", "wmType": "Overhead" }, "geometry": { "type": "LineString", "coordinates": [ [ -93.298107275328803, 46.681145974736403 ], [ -93.299161525358201, 46.681131442592203 ] ] } },
{ "type": "Feature", "properties": { "wmUplineSo": "ROUND LAKE", "wmType": "Overhead" }, "geometry": { "type": "LineString", "coordinates": [ [ -93.299161525358201, 46.681131442592203 ], [ -93.300848609443193, 46.681064857702701 ] ] } },
{ "type": "Feature", "properties": { "wmUplineSo": "ROUND LAKE", "wmType": "Overhead" }, "geometry": { "type": "LineString", "coordinates": [ [ -93.274083044805806, 46.651799805782701 ], [ -93.274680107760602, 46.651835368229598 ] ] } },
{ "type": "Feature", "properties": { "wmUplineSo": "ROUND LAKE", "wmType": "Overhead" }, "geometry": { "type": "LineString", "coordinates": [ [ -93.274049608191802, 46.647058099478699 ], [ -93.273339390844598, 46.646774069159399 ] ] } },
{ "type": "Feature", "properties": { "wmUplineSo": "ROUND LAKE", "wmType": "Overhead" }, "geometry": { "type": "LineString", "coordinates": [ [ -93.314448660815103, 46.681225926626396 ], [ -93.315337015261306, 46.681209889134202 ] ] } },
{ "type": "Feature", "properties": { "wmUplineSo": "ROUND LAKE", "wmType": "Overhead" }, "geometry": { "type": "LineString", "coordinates": [ [ -93.315337015261306, 46.681209889134202 ], [ -93.315899999872698, 46.681205928240303 ] ] } },
{ "type": "Feature", "properties": { "wmUplineSo": "ROUND LAKE", "wmType": "Overhead" }, "geometry": { "type": "LineString", "coordinates": [ [ -93.316658269624895, 46.681190391659797 ], [ -93.316396595399397, 46.681115549150398 ] ] } },
{ "type": "Feature", "properties": { "wmUplineSo": "ROUND LAKE", "wmType": "Overhead" }, "geometry": { "type": "LineString", "coordinates": [ [ -93.316658269624895, 46.681190391659797 ], [ -93.317359300937298, 46.681179964536199 ] ] } },
{ "type": "Feature", "properties": { "wmUplineSo": "ROUND LAKE", "wmType": "Overhead" }, "geometry": { "type": "LineString", "coordinates": [ [ -93.317359300937298, 46.681179964536199 ], [ -93.317398940336204, 46.681893551248798 ] ] } },
{ "type": "Feature", "properties": { "wmUplineSo": "ROUND LAKE", "wmType": "Overhead" }, "geometry": { "type": "LineString", "coordinates": [ [ -93.317398940336204, 46.681893551248798 ], [ -93.317382938877699, 46.682264214506702 ] ] } },
{ "type": "Feature", "properties": { "wmUplineSo": "ROUND LAKE", "wmType": "Overhead" }, "geometry": { "type": "LineString", "coordinates": [ [ -93.317382938877699, 46.682264214506702 ], [ -93.317388000018198, 46.6830660034746 ] ] } },
{ "type": "Feature", "properties": { "wmUplineSo": "ROUND LAKE", "wmType": "Overhead" }, "geometry": { "type": "LineString", "coordinates": [ [ -93.317388000018198, 46.6830660034746 ], [ -93.317406000018195, 46.683878003475002 ] ] } },
{ "type": "Feature", "properties": { "wmUplineSo": "ROUND LAKE", "wmType": "Overhead" }, "geometry": { "type": "LineString", "coordinates": [ [ -93.317406000018195, 46.683878003475002 ], [ -93.317536134864, 46.684659871903101 ] ] } },
{ "type": "Feature", "properties": { "wmUplineSo": "ROUND LAKE", "wmType": "Overhead" }, "geometry": { "type": "LineString", "coordinates": [ [ -93.317536134864, 46.684659871903101 ], [ -93.317287903755101, 46.684668411493099 ] ] } },
{ "type": "Feature", "properties": { "wmUplineSo": "ROUND LAKE", "wmType": "Overhead" }, "geometry": { "type": "LineString", "coordinates": [ [ -93.317536134864, 46.684659871903101 ], [ -93.317343454604796, 46.685314928302603 ] ] } },
{ "type": "Feature", "properties": { "wmUplineSo": "ROUND LAKE", "wmType": "Overhead" }, "geometry": { "type": "LineString", "coordinates": [ [ -93.317343454604796, 46.685314928302603 ], [ -93.317170091779602, 46.686098586889798 ] ] } },
{ "type": "Feature", "properties": { "wmUplineSo": "ROUND LAKE", "wmType": "Overhead" }, "geometry": { "type": "LineString", "coordinates": [ [ -93.317170091779602, 46.686098586889798 ], [ -93.317194954037802, 46.686836918549503 ] ] } },
{ "type": "Feature", "properties": { "wmUplineSo": "ROUND LAKE", "wmType": "Overhead" }, "geometry": { "type": "LineString", "coordinates": [ [ -93.317194954037802, 46.686836918549503 ], [ -93.317219957396404, 46.687613591313699 ] ] } },
{ "type": "Feature", "properties": { "wmUplineSo": "ROUND LAKE", "wmType": "Overhead" }, "geometry": { "type": "LineString", "coordinates": [ [ -93.317219957396404, 46.687613591313699 ], [ -93.317253903861996, 46.688409003328402 ] ] } },
{ "type": "Feature", "properties": { "wmUplineSo": "ROUND LAKE", "wmType": "Overhead" }, "geometry": { "type": "LineString", "coordinates": [ [ -93.317253903861996, 46.688409003328402 ], [ -93.317274909894394, 46.6890530897346 ] ] } },
{ "type": "Feature", "properties": { "wmUplineSo": "ROUND LAKE", "wmType": "Overhead" }, "geometry": { "type": "LineString", "coordinates": [ [ -93.317274909894394, 46.6890530897346 ], [ -93.317307949305302, 46.689809122748997 ] ] } },
{ "type": "Feature", "properties": { "wmUplineSo": "ROUND LAKE", "wmType": "Overhead" }, "geometry": { "type": "LineString", "coordinates": [ [ -93.317307949305302, 46.689809122748997 ], [ -93.317333947655897, 46.6905621251749 ] ] } },
{ "type": "Feature", "properties": { "wmUplineSo": "ROUND LAKE", "wmType": "Overhead" }, "geometry": { "type": "LineString", "coordinates": [ [ -93.317333947655897, 46.6905621251749 ], [ -93.317359975818505, 46.691340509813898 ] ] } },
{ "type": "Feature", "properties": { "wmUplineSo": "ROUND LAKE", "wmType": "Overhead" }, "geometry": { "type": "LineString", "coordinates": [ [ -93.317359975818505, 46.691340509813898 ], [ -93.317391045833503, 46.6921273037905 ] ] } },
{ "type": "Feature", "properties": { "wmUplineSo": "ROUND LAKE", "wmType": "Overhead" }, "geometry": { "type": "LineString", "coordinates": [ [ -93.317391045833503, 46.6921273037905 ], [ -93.317424937385596, 46.6929080505043 ] ] } },
{ "type": "Feature", "properties": { "wmUplineSo": "ROUND LAKE", "wmType": "Overhead" }, "geometry": { "type": "LineString", "coordinates": [ [ -93.317424937385596, 46.6929080505043 ], [ -93.317447938548895, 46.693687430867499 ] ] } },
{ "type": "Feature", "properties": { "wmUplineSo": "ROUND LAKE", "wmType": "Overhead" }, "geometry": { "type": "LineString", "coordinates": [ [ -93.317447938548895, 46.693687430867499 ], [ -93.317471931370605, 46.694466323855302 ] ] } },
{ "type": "Feature", "properties": { "wmUplineSo": "ROUND LAKE", "wmType": "Overhead" }, "geometry": { "type": "LineString", "coordinates": [ [ -93.317471931370605, 46.694466323855302 ], [ -93.317563061387403, 46.695323342364503 ] ] } },
{ "type": "Feature", "properties": { "wmUplineSo": "ROUND LAKE", "wmType": "Overhead" }, "geometry": { "type": "LineString", "coordinates": [ [ -93.317563061387403, 46.695323342364503 ], [ -93.317578967610004, 46.695345804902303 ] ] } },
{ "type": "Feature", "properties": { "wmUplineSo": "ROUND LAKE", "wmType": "Overhead" }, "geometry": { "type": "LineString", "coordinates": [ [ -93.317563061387403, 46.695323342364503 ], [ -93.317254404404906, 46.6955642090917 ] ] } },
{ "type": "Feature", "properties": { "wmUplineSo": "ROUND LAKE", "wmType": "Overhead" }, "geometry": { "type": "LineString", "coordinates": [ [ -93.317254404404906, 46.6955642090917 ], [ -93.316434189352705, 46.695554394367299 ] ] } },
{ "type": "Feature", "properties": { "wmUplineSo": "ROUND LAKE", "wmType": "Overhead" }, "geometry": { "type": "LineString", "coordinates": [ [ -93.316434189352705, 46.695554394367299 ], [ -93.316146186038694, 46.695560487317998 ] ] } },
{ "type": "Feature", "properties": { "wmUplineSo": "ROUND LAKE", "wmType": "Overhead" }, "geometry": { "type": "LineString", "coordinates": [ [ -93.316146186038694, 46.695560487317998 ], [ -93.3151429764482, 46.695653777908099 ] ] } },
{ "type": "Feature", "properties": { "wmUplineSo": "ROUND LAKE", "wmType": "Overhead" }, "geometry": { "type": "LineString", "coordinates": [ [ -93.3151429764482, 46.695653777908099 ], [ -93.313861100923305, 46.695701350639901 ] ] } },
{ "type": "Feature", "properties": { "wmUplineSo": "ROUND LAKE", "wmType": "Overhead" }, "geometry": { "type": "LineString", "coordinates": [ [ -93.313861100923305, 46.695701350639901 ], [ -93.312635956822106, 46.695686472734899 ] ] } },
{ "type": "Feature", "properties": { "wmUplineSo": "ROUND LAKE", "wmType": "Overhead" }, "geometry": { "type": "LineString", "coordinates": [ [ -93.312635956822106, 46.695686472734899 ], [ -93.311660800073597, 46.695697537724797 ] ] } },
{ "type": "Feature", "properties": { "wmUplineSo": "ROUND LAKE", "wmType": "Overhead" }, "geometry": { "type": "LineString", "coordinates": [ [ -93.311660800073597, 46.695697537724797 ], [ -93.310565387240104, 46.695735416770901 ] ] } },
{ "type": "Feature", "properties": { "wmUplineSo": "ROUND LAKE", "wmType": "Overhead" }, "geometry": { "type": "LineString", "coordinates": [ [ -93.275589380881897, 46.680937656363596 ], [ -93.276946031403199, 46.680955825013001 ] ] } },
{ "type": "Feature", "properties": { "wmUplineSo": "ROUND LAKE", "wmType": "Overhead" }, "geometry": { "type": "LineString", "coordinates": [ [ -93.276946031403199, 46.680955825013001 ], [ -93.277010491798194, 46.6809035349361 ] ] } },
{ "type": "Feature", "properties": { "wmUplineSo": "ROUND LAKE", "wmType": "Overhead" }, "geometry": { "type": "LineString", "coordinates": [ [ -93.312919277358603, 46.695917307386999 ], [ -93.312983978866797, 46.696616414041998 ] ] } },
{ "type": "Feature", "properties": { "wmUplineSo": "ROUND LAKE", "wmType": "Overhead" }, "geometry": { "type": "LineString", "coordinates": [ [ -93.312635956822106, 46.695686472734899 ], [ -93.312733646186999, 46.695672888524697 ] ] } },
{ "type": "Feature", "properties": { "wmUplineSo": "ROUND LAKE", "wmType": "Overhead" }, "geometry": { "type": "LineString", "coordinates": [ [ -93.312733646186999, 46.695672888524697 ], [ -93.312635956822106, 46.695686472734899 ] ] } },
{ "type": "Feature", "properties": { "wmUplineSo": "ROUND LAKE", "wmType": "Overhead" }, "geometry": { "type": "LineString", "coordinates": [ [ -93.307615144373798, 46.699953883135699 ], [ -93.307654926985293, 46.7006380944322 ] ] } },
{ "type": "Feature", "properties": { "wmUplineSo": "ROUND LAKE", "wmType": "Overhead" }, "geometry": { "type": "LineString", "coordinates": [ [ -93.307654926985293, 46.7006380944322 ], [ -93.307671916560295, 46.701398292465498 ] ] } },
{ "type": "Feature", "properties": { "wmUplineSo": "ROUND LAKE", "wmType": "Overhead" }, "geometry": { "type": "LineString", "coordinates": [ [ -93.274291367768598, 46.681721740018801 ], [ -93.274292528579906, 46.681746024071501 ] ] } },
{ "type": "Feature", "properties": { "wmUplineSo": "ROUND LAKE", "wmType": "Overhead" }, "geometry": { "type": "LineString", "coordinates": [ [ -93.307444636719595, 46.696445205062702 ], [ -93.307515655197193, 46.6971599982787 ] ] } },
{ "type": "Feature", "properties": { "wmUplineSo": "ROUND LAKE", "wmType": "Overhead" }, "geometry": { "type": "LineString", "coordinates": [ [ -93.307515655197193, 46.6971599982787 ], [ -93.3075100000177, 46.697842003478698 ] ] } },
{ "type": "Feature", "properties": { "wmUplineSo": "ROUND LAKE", "wmType": "Overhead" }, "geometry": { "type": "LineString", "coordinates": [ [ -93.317652860767694, 46.696149361261803 ], [ -93.3178916008616, 46.696977463561502 ] ] } },
{ "type": "Feature", "properties": { "wmUplineSo": "ROUND LAKE", "wmType": "Overhead" }, "geometry": { "type": "LineString", "coordinates": [ [ -93.274083044805806, 46.651799805782701 ], [ -93.273474100000101, 46.651705600008398 ] ] } },
{ "type": "Feature", "properties": { "wmUplineSo": "ROUND LAKE", "wmType": "Overhead" }, "geometry": { "type": "LineString", "coordinates": [ [ -93.293723014295907, 46.681449386352298 ], [ -93.293396676035201, 46.681788109499898 ] ] } },
{ "type": "Feature", "properties": { "wmUplineSo": "ROUND LAKE", "wmType": "Overhead" }, "geometry": { "type": "LineString", "coordinates": [ [ -93.306471106662897, 46.705968219052401 ], [ -93.306638970001799, 46.706724215345098 ] ] } },
{ "type": "Feature", "properties": { "wmUplineSo": "ROUND LAKE", "wmType": "Overhead" }, "geometry": { "type": "LineString", "coordinates": [ [ -93.306574065399502, 46.703107631053697 ], [ -93.306576963410507, 46.703776003463503 ] ] } },
{ "type": "Feature", "properties": { "wmUplineSo": "ROUND LAKE", "wmType": "Overhead" }, "geometry": { "type": "LineString", "coordinates": [ [ -93.306856883736103, 46.708443731189298 ], [ -93.306721306357701, 46.709298721738897 ] ] } },
{ "type": "Feature", "properties": { "wmUplineSo": "ROUND LAKE", "wmType": "Overhead" }, "geometry": { "type": "LineString", "coordinates": [ [ -93.274084675053203, 46.660113337012703 ], [ -93.274077413632298, 46.659273789357997 ] ] } },
{ "type": "Feature", "properties": { "wmUplineSo": "ROUND LAKE", "wmType": "Overhead" }, "geometry": { "type": "LineString", "coordinates": [ [ -93.274077413632298, 46.659273789357997 ], [ -93.274073267897293, 46.658611736332503 ] ] } },
{ "type": "Feature", "properties": { "wmUplineSo": "ROUND LAKE", "wmType": "Overhead" }, "geometry": { "type": "LineString", "coordinates": [ [ -93.310565387240104, 46.695735416770901 ], [ -93.310022567276306, 46.695752454347002 ] ] } },
{ "type": "Feature", "properties": { "wmUplineSo": "ROUND LAKE", "wmType": "Overhead" }, "geometry": { "type": "LineString", "coordinates": [ [ -93.317274909894394, 46.6890530897346 ], [ -93.318052300000105, 46.689127600008398 ] ] } },
{ "type": "Feature", "properties": { "wmUplineSo": "ROUND LAKE", "wmType": "Overhead" }, "geometry": { "type": "LineString", "coordinates": [ [ -93.313844545962596, 46.696726440971901 ], [ -93.313639800000104, 46.696799100008398 ] ] } },
{ "type": "Feature", "properties": { "wmUplineSo": "ROUND LAKE", "wmType": "Overhead" }, "geometry": { "type": "LineString", "coordinates": [ [ -93.306638970001799, 46.706724215345098 ], [ -93.306750081807607, 46.707558735764302 ] ] } },
{ "type": "Feature", "properties": { "wmUplineSo": "ROUND LAKE", "wmType": "Overhead" }, "geometry": { "type": "LineString", "coordinates": [ [ -93.304427334472805, 46.681552140224902 ], [ -93.304058500000096, 46.681648300008398 ] ] } },
{ "type": "Feature", "properties": { "wmUplineSo": "ROUND LAKE", "wmType": "Overhead" }, "geometry": { "type": "LineString", "coordinates": [ [ -93.309153094060605, 46.695772555352903 ], [ -93.308061026809696, 46.695811798886602 ] ] } },
{ "type": "Feature", "properties": { "wmUplineSo": "ROUND LAKE", "wmType": "Overhead" }, "geometry": { "type": "LineString", "coordinates": [ [ -93.306576963410507, 46.703776003463503 ], [ -93.306559897301398, 46.7044420034334 ] ] } },
{ "type": "Feature", "properties": { "wmUplineSo": "ROUND LAKE", "wmType": "Overhead" }, "geometry": { "type": "LineString", "coordinates": [ [ -93.307693307569906, 46.702941114087103 ], [ -93.306574065399502, 46.703107631053697 ] ] } },
{ "type": "Feature", "properties": { "wmUplineSo": "ROUND LAKE", "wmType": "Overhead" }, "geometry": { "type": "LineString", "coordinates": [ [ -93.310005176883394, 46.700548047668498 ], [ -93.310167800000102, 46.700608100008402 ] ] } },
{ "type": "Feature", "properties": { "wmUplineSo": "ROUND LAKE", "wmType": "Overhead" }, "geometry": { "type": "LineString", "coordinates": [ [ -93.309683797862505, 46.701537344621499 ], [ -93.3096138132709, 46.701011340703197 ], [ -93.3101075000001, 46.700928600008403 ] ] } },
{ "type": "Feature", "properties": { "wmUplineSo": "ROUND LAKE", "wmType": "Overhead" }, "geometry": { "type": "LineString", "coordinates": [ [ -93.309683797862505, 46.701537344621499 ], [ -93.309849800000094, 46.701468400008402 ] ] } },
{ "type": "Feature", "properties": { "wmUplineSo": "ROUND LAKE", "wmType": "Overhead" }, "geometry": { "type": "LineString", "coordinates": [ [ -93.309498025339394, 46.702280283096002 ], [ -93.309853500000102, 46.702109900008402 ] ] } },
{ "type": "Feature", "properties": { "wmUplineSo": "ROUND LAKE", "wmType": "Overhead" }, "geometry": { "type": "LineString", "coordinates": [ [ -93.309498025339394, 46.702280283096002 ], [ -93.3097481, 46.702543800008399 ] ] } },
{ "type": "Feature", "properties": { "wmUplineSo": "ROUND LAKE", "wmType": "Overhead" }, "geometry": { "type": "LineString", "coordinates": [ [ -93.313541160293894, 46.681247722175598 ], [ -93.3134904343719, 46.681581376532797 ] ] } },
{ "type": "Feature", "properties": { "wmUplineSo": "ROUND LAKE", "wmType": "Overhead" }, "geometry": { "type": "LineString", "coordinates": [ [ -93.313541160293894, 46.681247722175598 ], [ -93.313859300000104, 46.680485500008402 ] ] } },
{ "type": "Feature", "properties": { "wmUplineSo": "ROUND LAKE", "wmType": "Overhead" }, "geometry": { "type": "LineString", "coordinates": [ [ -93.312922926113202, 46.681260925634199 ], [ -93.312709100000106, 46.681661400008402 ] ] } },
{ "type": "Feature", "properties": { "wmUplineSo": "ROUND LAKE", "wmType": "Overhead" }, "geometry": { "type": "LineString", "coordinates": [ [ -93.312922926113202, 46.681260925634199 ], [ -93.312996900000101, 46.680524800008399 ] ] } },
{ "type": "Feature", "properties": { "wmUplineSo": "ROUND LAKE", "wmType": "Overhead" }, "geometry": { "type": "LineString", "coordinates": [ [ -93.312922926113202, 46.681260925634199 ], [ -93.312938100000096, 46.680440300008399 ] ] } },
{ "type": "Feature", "properties": { "wmUplineSo": "ROUND LAKE", "wmType": "Overhead" }, "geometry": { "type": "LineString", "coordinates": [ [ -93.310647742628802, 46.680277793320698 ], [ -93.310382000000104, 46.679949600008399 ] ] } },
{ "type": "Feature", "properties": { "wmUplineSo": "ROUND LAKE", "wmType": "Overhead" }, "geometry": { "type": "LineString", "coordinates": [ [ -93.304608337637703, 46.681361472631302 ], [ -93.304427334472805, 46.681552140224902 ] ] } },
{ "type": "Feature", "properties": { "wmUplineSo": "ROUND LAKE", "wmType": "Overhead" }, "geometry": { "type": "LineString", "coordinates": [ [ -93.301614295265594, 46.681851068531103 ], [ -93.302040300000101, 46.6818108000084 ] ] } },
{ "type": "Feature", "properties": { "wmUplineSo": "ROUND LAKE", "wmType": "Overhead" }, "geometry": { "type": "LineString", "coordinates": [ [ -93.301614295265594, 46.681851068531103 ], [ -93.301643800000093, 46.682092100008397 ] ] } },
{ "type": "Feature", "properties": { "wmUplineSo": "ROUND LAKE", "wmType": "Overhead" }, "geometry": { "type": "LineString", "coordinates": [ [ -93.298369266018597, 46.681600983047403 ], [ -93.298464900000099, 46.681880500008397 ] ] } },
{ "type": "Feature", "properties": { "wmUplineSo": "ROUND LAKE", "wmType": "Overhead" }, "geometry": { "type": "LineString", "coordinates": [ [ -93.297934255623403, 46.681775972957503 ], [ -93.297613600000105, 46.6818048000084 ] ] } },
{ "type": "Feature", "properties": { "wmUplineSo": "ROUND LAKE", "wmType": "Overhead" }, "geometry": { "type": "LineString", "coordinates": [ [ -93.297032158565301, 46.684748959529898 ], [ -93.296941, 46.684731600008398 ] ] } },
{ "type": "Feature", "properties": { "wmUplineSo": "ROUND LAKE", "wmType": "Overhead" }, "geometry": { "type": "LineString", "coordinates": [ [ -93.293396676035201, 46.681788109499898 ], [ -93.2932, 46.682100000008397 ] ] } },
{ "type": "Feature", "properties": { "wmUplineSo": "ROUND LAKE", "wmType": "Overhead" }, "geometry": { "type": "LineString", "coordinates": [ [ -93.294219248538795, 46.6806168728071 ], [ -93.294408430000104, 46.680488340008402 ] ] } },
{ "type": "Feature", "properties": { "wmUplineSo": "ROUND LAKE", "wmType": "Overhead" }, "geometry": { "type": "LineString", "coordinates": [ [ -93.274051521793893, 46.664874721888197 ], [ -93.273504500000101, 46.664732000008399 ] ] } },
{ "type": "Feature", "properties": { "wmUplineSo": "ROUND LAKE", "wmType": "Overhead" }, "geometry": { "type": "LineString", "coordinates": [ [ -93.275552541772697, 46.6631642894545 ], [ -93.275269800000103, 46.663109300008401 ] ] } },
{ "type": "Feature", "properties": { "wmUplineSo": "ROUND LAKE", "wmType": "Overhead" }, "geometry": { "type": "LineString", "coordinates": [ [ -93.274020518134094, 46.663043339070597 ], [ -93.273463600000099, 46.662987900008403 ] ] } },
{ "type": "Feature", "properties": { "wmUplineSo": "ROUND LAKE", "wmType": "Overhead" }, "geometry": { "type": "LineString", "coordinates": [ [ -93.274121073361002, 46.661340855588598 ], [ -93.2736539, 46.6611307000084 ] ] } },
{ "type": "Feature", "properties": { "wmUplineSo": "ROUND LAKE", "wmType": "Overhead" }, "geometry": { "type": "LineString", "coordinates": [ [ -93.274073267897293, 46.658611736332503 ], [ -93.274748403840505, 46.658717439855799 ] ] } },
{ "type": "Feature", "properties": { "wmUplineSo": "ROUND LAKE", "wmType": "Overhead" }, "geometry": { "type": "LineString", "coordinates": [ [ -93.273328476252104, 46.649956731985299 ], [ -93.2731929, 46.649912400008397 ] ] } },
{ "type": "Feature", "properties": { "wmUplineSo": "ROUND LAKE", "wmType": "Overhead" }, "geometry": { "type": "LineString", "coordinates": [ [ -93.274104055705493, 46.648049671702999 ], [ -93.2737821, 46.648135000008402 ] ] } },
{ "type": "Feature", "properties": { "wmUplineSo": "ROUND LAKE", "wmType": "Overhead" }, "geometry": { "type": "LineString", "coordinates": [ [ -93.274104055705493, 46.648049671702999 ], [ -93.273765400000102, 46.648149800008397 ] ] } },
{ "type": "Feature", "properties": { "wmUplineSo": "ROUND LAKE", "wmType": "Overhead" }, "geometry": { "type": "LineString", "coordinates": [ [ -93.273339390844598, 46.646774069159399 ], [ -93.2732653, 46.646727100008398 ] ] } },
{ "type": "Feature", "properties": { "wmUplineSo": "ROUND LAKE", "wmType": "Overhead" }, "geometry": { "type": "LineString", "coordinates": [ [ -93.315107128483305, 46.696630109911197 ], [ -93.314798100000104, 46.696937400008402 ] ] } },
{ "type": "Feature", "properties": { "wmUplineSo": "ROUND LAKE", "wmType": "Overhead" }, "geometry": { "type": "LineString", "coordinates": [ [ -93.315107128483305, 46.696630109911197 ], [ -93.315136100000103, 46.696712600008397 ] ] } },
{ "type": "Feature", "properties": { "wmUplineSo": "ROUND LAKE", "wmType": "Overhead" }, "geometry": { "type": "LineString", "coordinates": [ [ -93.318762681706204, 46.697819847227002 ], [ -93.318819493259298, 46.697841035122501 ] ] } },
{ "type": "Feature", "properties": { "wmUplineSo": "ROUND LAKE", "wmType": "Overhead" }, "geometry": { "type": "LineString", "coordinates": [ [ -93.318597379364505, 46.697690675007799 ], [ -93.318600500000102, 46.6976876000084 ] ] } },
{ "type": "Feature", "properties": { "wmUplineSo": "ROUND LAKE", "wmType": "Overhead" }, "geometry": { "type": "LineString", "coordinates": [ [ -93.319075997715402, 46.697731762023302 ], [ -93.319043300000104, 46.697751800008398 ] ] } },
{ "type": "Feature", "properties": { "wmUplineSo": "ROUND LAKE", "wmType": "Overhead" }, "geometry": { "type": "LineString", "coordinates": [ [ -93.3198400139688, 46.697822597189599 ], [ -93.319733300000095, 46.698042100008401 ] ] } },
{ "type": "Feature", "properties": { "wmUplineSo": "ROUND LAKE", "wmType": "Overhead" }, "geometry": { "type": "LineString", "coordinates": [ [ -93.317343454604796, 46.685314928302603 ], [ -93.317749800000101, 46.685633600008401 ] ] } },
{ "type": "Feature", "properties": { "wmUplineSo": "ROUND LAKE", "wmType": "Overhead" }, "geometry": { "type": "LineString", "coordinates": [ [ -93.315782431887001, 46.680828206265197 ], [ -93.316090900000106, 46.680558500008402 ] ] } },
{ "type": "Feature", "properties": { "wmUplineSo": "ROUND LAKE", "wmType": "Overhead" }, "geometry": { "type": "LineString", "coordinates": [ [ -93.315782431887001, 46.680828206265197 ], [ -93.3158363000001, 46.680663900008398 ] ] } },
{ "type": "Feature", "properties": { "wmUplineSo": "ROUND LAKE", "wmType": "Overhead" }, "geometry": { "type": "LineString", "coordinates": [ [ -93.312983978866797, 46.696616414041998 ], [ -93.312945570000096, 46.696622430008397 ] ] } },
{ "type": "Feature", "properties": { "wmUplineSo": "ROUND LAKE", "wmType": "Overhead" }, "geometry": { "type": "LineString", "coordinates": [ [ -93.313844545962596, 46.696726440971901 ], [ -93.313947600000105, 46.696831600008402 ] ] } },
{ "type": "Feature", "properties": { "wmUplineSo": "ROUND LAKE", "wmType": "Overhead" }, "geometry": { "type": "LineString", "coordinates": [ [ -93.314798100000104, 46.696937400008402 ], [ -93.314584879625599, 46.696981562161298 ] ] } },
{ "type": "Feature", "properties": { "wmUplineSo": "ROUND LAKE", "wmType": "Overhead" }, "geometry": { "type": "LineString", "coordinates": [ [ -93.317652860767694, 46.696149361261803 ], [ -93.3169350000001, 46.696429500008399 ] ] } },
{ "type": "Feature", "properties": { "wmUplineSo": "ROUND LAKE", "wmType": "Overhead" }, "geometry": { "type": "LineString", "coordinates": [ [ -93.316434189352705, 46.695554394367299 ], [ -93.316111600000099, 46.696317300008403 ] ] } },
{ "type": "Feature", "properties": { "wmUplineSo": "ROUND LAKE", "wmType": "Overhead" }, "geometry": { "type": "LineString", "coordinates": [ [ -93.312983978866797, 46.696616414041998 ], [ -93.312454300000098, 46.696544600008401 ] ] } },
{ "type": "Feature", "properties": { "wmUplineSo": "ROUND LAKE", "wmType": "Overhead" }, "geometry": { "type": "LineString", "coordinates": [ [ -93.316427379621103, 46.684481462672302 ], [ -93.316277200000101, 46.684451100008403 ] ] } },
{ "type": "Feature", "properties": { "wmUplineSo": "ROUND LAKE", "wmType": "Overhead" }, "geometry": { "type": "LineString", "coordinates": [ [ -93.317809849784496, 46.697654172801002 ], [ -93.317788520000093, 46.697908670008403 ] ] } },
{ "type": "Feature", "properties": { "wmUplineSo": "ROUND LAKE", "wmType": "Overhead" }, "geometry": { "type": "LineString", "coordinates": [ [ -93.306211935065093, 46.709233561626199 ], [ -93.306215300000105, 46.709053800008398 ] ] } },
{ "type": "Feature", "properties": { "wmUplineSo": "ROUND LAKE", "wmType": "Overhead" }, "geometry": { "type": "LineString", "coordinates": [ [ -93.316658269624895, 46.681190391659797 ], [ -93.3167234000001, 46.681161800008397 ] ] } },
{ "type": "Feature", "properties": { "wmUplineSo": "ROUND LAKE", "wmType": "Overhead" }, "geometry": { "type": "LineString", "coordinates": [ [ -93.312983978866797, 46.696616414041998 ], [ -93.312945570000096, 46.696622430008397 ] ] } },
{ "type": "Feature", "properties": { "wmUplineSo": "ROUND LAKE", "wmType": "Overhead" }, "geometry": { "type": "LineString", "coordinates": [ [ -93.3178916008616, 46.696977463561502 ], [ -93.317636000000107, 46.696983100008403 ] ] } },
{ "type": "Feature", "properties": { "wmUplineSo": "ROUND LAKE", "wmType": "Overhead" }, "geometry": { "type": "LineString", "coordinates": [ [ -93.3178916008616, 46.696977463561502 ], [ -93.318232919458097, 46.696962697346002 ] ] } },
{ "type": "Feature", "properties": { "wmUplineSo": "ROUND LAKE", "wmType": "Overhead" }, "geometry": { "type": "LineString", "coordinates": [ [ -93.317359300937298, 46.681179964536199 ], [ -93.317342932198699, 46.681112322170698 ] ] } },
{ "type": "Feature", "properties": { "wmUplineSo": "ROUND LAKE", "wmType": "Overhead" }, "geometry": { "type": "LineString", "coordinates": [ [ -93.306750081807607, 46.707558735764302 ], [ -93.306856883736103, 46.708443731189298 ] ] } },
{ "type": "Feature", "properties": { "wmUplineSo": "ROUND LAKE", "wmType": "Overhead" }, "geometry": { "type": "LineString", "coordinates": [ [ -93.318597379364505, 46.697690675007799 ], [ -93.318762681706204, 46.697819847227002 ] ] } },
{ "type": "Feature", "properties": { "wmUplineSo": "ROUND LAKE", "wmType": "Overhead" }, "geometry": { "type": "LineString", "coordinates": [ [ -93.306559897301398, 46.7044420034334 ], [ -93.306521504484806, 46.705209877307702 ] ] } },
{ "type": "Feature", "properties": { "wmUplineSo": "ROUND LAKE", "wmType": "Overhead" }, "geometry": { "type": "LineString", "coordinates": [ [ -93.308633000056801, 46.700747291043399 ], [ -93.309713868131198, 46.700581700828401 ] ] } },
{ "type": "Feature", "properties": { "wmUplineSo": "ROUND LAKE", "wmType": "Overhead" }, "geometry": { "type": "LineString", "coordinates": [ [ -93.307671916560295, 46.701398292465498 ], [ -93.307692304147395, 46.702213348700496 ] ] } },
{ "type": "Feature", "properties": { "wmUplineSo": "ROUND LAKE", "wmType": "Overhead" }, "geometry": { "type": "LineString", "coordinates": [ [ -93.307563011686398, 46.699247137483901 ], [ -93.307615144373798, 46.699953883135699 ] ] } },
{ "type": "Feature", "properties": { "wmUplineSo": "ROUND LAKE", "wmType": "Overhead" }, "geometry": { "type": "LineString", "coordinates": [ [ -93.306856883736103, 46.708443731189298 ], [ -93.306211935065093, 46.709233561626199 ] ] } },
{ "type": "Feature", "properties": { "wmUplineSo": "ROUND LAKE", "wmType": "Overhead" }, "geometry": { "type": "LineString", "coordinates": [ [ -93.307692304147395, 46.702213348700496 ], [ -93.307693307569906, 46.702941114087103 ] ] } },
{ "type": "Feature", "properties": { "wmUplineSo": "ROUND LAKE", "wmType": "Overhead" }, "geometry": { "type": "LineString", "coordinates": [ [ -93.308061026809696, 46.695811798886602 ], [ -93.307444636719595, 46.696445205062702 ] ] } },
{ "type": "Feature", "properties": { "wmUplineSo": "ROUND LAKE", "wmType": "Overhead" }, "geometry": { "type": "LineString", "coordinates": [ [ -93.3075100000177, 46.697842003478698 ], [ -93.3075338368986, 46.698538625663303 ] ] } },
{ "type": "Feature", "properties": { "wmUplineSo": "ROUND LAKE", "wmType": "Overhead" }, "geometry": { "type": "LineString", "coordinates": [ [ -93.311400458473997, 46.6809233965187 ], [ -93.310647742628802, 46.680277793320698 ] ] } },
{ "type": "Feature", "properties": { "wmUplineSo": "ROUND LAKE", "wmType": "Overhead" }, "geometry": { "type": "LineString", "coordinates": [ [ -93.316658269624895, 46.681190391659797 ], [ -93.316300304418704, 46.6812607880454 ] ] } },
{ "type": "Feature", "properties": { "wmUplineSo": "ROUND LAKE", "wmType": "Overhead" }, "geometry": { "type": "LineString", "coordinates": [ [ -93.310022567276306, 46.695752454347002 ], [ -93.309153094060605, 46.695772555352903 ] ] } },
{ "type": "Feature", "properties": { "wmUplineSo": "ROUND LAKE", "wmType": "Overhead" }, "geometry": { "type": "LineString", "coordinates": [ [ -93.308612153440805, 46.702236681040098 ], [ -93.309498025339394, 46.702280283096002 ] ] } },
{ "type": "Feature", "properties": { "wmUplineSo": "ROUND LAKE", "wmType": "Overhead" }, "geometry": { "type": "LineString", "coordinates": [ [ -93.3075338368986, 46.698538625663303 ], [ -93.307563011686398, 46.699247137483901 ] ] } },
{ "type": "Feature", "properties": { "wmUplineSo": "ROUND LAKE", "wmType": "Overhead" }, "geometry": { "type": "LineString", "coordinates": [ [ -93.306521504484806, 46.705209877307702 ], [ -93.306471106662897, 46.705968219052401 ] ] } },
{ "type": "Feature", "properties": { "wmUplineSo": "ROUND LAKE", "wmType": "Overhead" }, "geometry": { "type": "LineString", "coordinates": [ [ -93.309713868131198, 46.700581700828401 ], [ -93.310005176883394, 46.700548047668498 ] ] } },
{ "type": "Feature", "properties": { "wmUplineSo": "ROUND LAKE", "wmType": "Overhead" }, "geometry": { "type": "LineString", "coordinates": [ [ -93.307615144373798, 46.699953883135699 ], [ -93.308608835181502, 46.699881311339901 ], [ -93.309278844606098, 46.699844328600904 ] ] } },
{ "type": "Feature", "properties": { "wmUplineSo": "ROUND LAKE", "wmType": "Overhead" }, "geometry": { "type": "LineString", "coordinates": [ [ -93.309498025339394, 46.702280283096002 ], [ -93.309683797862505, 46.701537344621499 ] ] } },
{ "type": "Feature", "properties": { "wmUplineSo": "ROUND LAKE", "wmType": "Overhead" }, "geometry": { "type": "LineString", "coordinates": [ [ -93.308612153440805, 46.702236681040098 ], [ -93.308601095905999, 46.704051685951299 ], [ -93.308601095905999, 46.7040516859512 ] ] } },
{ "type": "Feature", "properties": { "wmUplineSo": "ROUND LAKE", "wmType": "Overhead" }, "geometry": { "type": "LineString", "coordinates": [ [ -93.307692304147395, 46.702213348700496 ], [ -93.308612153440805, 46.702236681040098 ] ] } },
{ "type": "Feature", "properties": { "wmUplineSo": "ROUND LAKE", "wmType": "Overhead" }, "geometry": { "type": "LineString", "coordinates": [ [ -93.319075997715402, 46.697731762023302 ], [ -93.3198400139688, 46.697822597189599 ] ] } },
{ "type": "Feature", "properties": { "wmUplineSo": "ROUND LAKE", "wmType": "Overhead" }, "geometry": { "type": "LineString", "coordinates": [ [ -93.318597379364505, 46.697690675007799 ], [ -93.319075997715402, 46.697731762023302 ] ] } },
{ "type": "Feature", "properties": { "wmUplineSo": "ROUND LAKE", "wmType": "Overhead" }, "geometry": { "type": "LineString", "coordinates": [ [ -93.317287903755101, 46.684668411493099 ], [ -93.316427379621103, 46.684481462672302 ] ] } },
{ "type": "Feature", "properties": { "wmUplineSo": "ROUND LAKE", "wmType": "Overhead" }, "geometry": { "type": "LineString", "coordinates": [ [ -93.315337015261306, 46.681209889134202 ], [ -93.315782431887001, 46.680828206265197 ] ] } },
{ "type": "Feature", "properties": { "wmUplineSo": "ROUND LAKE", "wmType": "Overhead" }, "geometry": { "type": "LineString", "coordinates": [ [ -93.313541160293894, 46.681247722175598 ], [ -93.314448660815103, 46.681225926626396 ] ] } },
{ "type": "Feature", "properties": { "wmUplineSo": "ROUND LAKE", "wmType": "Overhead" }, "geometry": { "type": "LineString", "coordinates": [ [ -93.312922926113202, 46.681260925634199 ], [ -93.313541160293894, 46.681247722175598 ] ] } },
{ "type": "Feature", "properties": { "wmUplineSo": "ROUND LAKE", "wmType": "Overhead" }, "geometry": { "type": "LineString", "coordinates": [ [ -93.311761280367193, 46.681269252900599 ], [ -93.312922926113202, 46.681260925634199 ] ] } },
{ "type": "Feature", "properties": { "wmUplineSo": "ROUND LAKE", "wmType": "Overhead" }, "geometry": { "type": "LineString", "coordinates": [ [ -93.311761280367193, 46.681269252900599 ], [ -93.311400458473997, 46.6809233965187 ] ] } },
{ "type": "Feature", "properties": { "wmUplineSo": "ROUND LAKE", "wmType": "Overhead" }, "geometry": { "type": "LineString", "coordinates": [ [ -93.3082218190047, 46.681311270525597 ], [ -93.311761280367193, 46.681269252900599 ] ] } },
{ "type": "Feature", "properties": { "wmUplineSo": "ROUND LAKE", "wmType": "Overhead" }, "geometry": { "type": "LineString", "coordinates": [ [ -93.304608337637703, 46.681361472631302 ], [ -93.306993088538803, 46.681337431908098 ] ] } },
{ "type": "Feature", "properties": { "wmUplineSo": "ROUND LAKE", "wmType": "Overhead" }, "geometry": { "type": "LineString", "coordinates": [ [ -93.301921306463299, 46.6814256252012 ], [ -93.304608337637703, 46.681361472631302 ] ] } },
{ "type": "Feature", "properties": { "wmUplineSo": "ROUND LAKE", "wmType": "Overhead" }, "geometry": { "type": "LineString", "coordinates": [ [ -93.298173445498406, 46.68117746691 ], [ -93.298369266018597, 46.681600983047403 ] ] } },
{ "type": "Feature", "properties": { "wmUplineSo": "ROUND LAKE", "wmType": "Overhead" }, "geometry": { "type": "LineString", "coordinates": [ [ -93.298107275328803, 46.681145974736403 ], [ -93.298173445498406, 46.68117746691 ] ] } },
{ "type": "Feature", "properties": { "wmUplineSo": "ROUND LAKE", "wmType": "Overhead" }, "geometry": { "type": "LineString", "coordinates": [ [ -93.297866204953294, 46.681530597578302 ], [ -93.297934255623403, 46.681775972957503 ] ] } },
{ "type": "Feature", "properties": { "wmUplineSo": "ROUND LAKE", "wmType": "Overhead" }, "geometry": { "type": "LineString", "coordinates": [ [ -93.298107275328803, 46.681145974736403 ], [ -93.297866204953294, 46.681530597578302 ] ] } },
{ "type": "Feature", "properties": { "wmUplineSo": "ROUND LAKE", "wmType": "Overhead" }, "geometry": { "type": "LineString", "coordinates": [ [ -93.297022263462495, 46.681155946667801 ], [ -93.297553577776995, 46.681150874033399 ] ] } },
{ "type": "Feature", "properties": { "wmUplineSo": "ROUND LAKE", "wmType": "Overhead" }, "geometry": { "type": "LineString", "coordinates": [ [ -93.294083297118704, 46.681151299569301 ], [ -93.294219248538795, 46.6806168728071 ] ] } },
{ "type": "Feature", "properties": { "wmUplineSo": "ROUND LAKE", "wmType": "Overhead" }, "geometry": { "type": "LineString", "coordinates": [ [ -93.2742369932282, 46.680924125133799 ], [ -93.274133470313402, 46.679057380149601 ] ] } },
{ "type": "Feature", "properties": { "wmUplineSo": "ROUND LAKE", "wmType": "Overhead" }, "geometry": { "type": "LineString", "coordinates": [ [ -93.297022263462495, 46.681155946667801 ], [ -93.297071534148401, 46.6815218731345 ], [ -93.297390006825594, 46.682677137686603 ], [ -93.297342197738104, 46.6835319630787 ], [ -93.296828529613194, 46.684390579017503 ], [ -93.297032158565301, 46.684748959529898 ] ] } },
{ "type": "Feature", "properties": { "wmUplineSo": "ROUND LAKE", "wmType": "Overhead" }, "geometry": { "type": "LineString", "coordinates": [ [ -93.297553577776995, 46.681150874033399 ], [ -93.298107275328803, 46.681145974736403 ] ] } },
{ "type": "Feature", "properties": { "wmUplineSo": "ROUND LAKE", "wmType": "Overhead" }, "geometry": { "type": "LineString", "coordinates": [ [ -93.294083297118704, 46.681151299569301 ], [ -93.293723014295907, 46.681449386352298 ] ] } },
{ "type": "Feature", "properties": { "wmUplineSo": "ROUND LAKE", "wmType": "Overhead" }, "geometry": { "type": "LineString", "coordinates": [ [ -93.294083297118704, 46.681151299569301 ], [ -93.297022263462495, 46.681155946667801 ] ] } },
{ "type": "Feature", "properties": { "wmUplineSo": "ROUND LAKE", "wmType": "Overhead" }, "geometry": { "type": "LineString", "coordinates": [ [ -93.292848231742994, 46.681146935041099 ], [ -93.294083297118704, 46.681151299569301 ] ] } },
{ "type": "Feature", "properties": { "wmUplineSo": "ROUND LAKE", "wmType": "Overhead" }, "geometry": { "type": "LineString", "coordinates": [ [ -93.2742369932282, 46.680924125133799 ], [ -93.275589380881897, 46.680937656363596 ] ] } },
{ "type": "Feature", "properties": { "wmUplineSo": "ROUND LAKE", "wmType": "Overhead" }, "geometry": { "type": "LineString", "coordinates": [ [ -93.276946031403199, 46.680955825013001 ], [ -93.292848231742994, 46.681146935041099 ] ] } },
{ "type": "Feature", "properties": { "wmUplineSo": "ROUND LAKE", "wmType": "Overhead" }, "geometry": { "type": "LineString", "coordinates": [ [ -93.274291367768598, 46.681721740018801 ], [ -93.274268891441807, 46.681245492126301 ] ] } },
{ "type": "Feature", "properties": { "wmUplineSo": "ROUND LAKE", "wmType": "Overhead" }, "geometry": { "type": "LineString", "coordinates": [ [ -93.274268891441807, 46.681245492126301 ], [ -93.2742369932282, 46.680924125133799 ] ] } },
{ "type": "Feature", "properties": { "wmUplineSo": "ROUND LAKE", "wmType": "Overhead" }, "geometry": { "type": "LineString", "coordinates": [ [ -93.274133470313402, 46.679057380149601 ], [ -93.274133337098505, 46.679052582302504 ], [ -93.273974505380096, 46.673331465660901 ] ] } },
{ "type": "Feature", "properties": { "wmUplineSo": "ROUND LAKE", "wmType": "Overhead" }, "geometry": { "type": "LineString", "coordinates": [ [ -93.273974505380096, 46.673331465660901 ], [ -93.274051521793893, 46.664874721888197 ] ] } },
{ "type": "Feature", "properties": { "wmUplineSo": "ROUND LAKE", "wmType": "Overhead" }, "geometry": { "type": "LineString", "coordinates": [ [ -93.274020518134094, 46.663043339070597 ], [ -93.275552541772697, 46.6631642894545 ] ] } },
{ "type": "Feature", "properties": { "wmUplineSo": "ROUND LAKE", "wmType": "Overhead" }, "geometry": { "type": "LineString", "coordinates": [ [ -93.274020518134094, 46.663043339070597 ], [ -93.274121073361002, 46.661340855588598 ] ] } },
{ "type": "Feature", "properties": { "wmUplineSo": "ROUND LAKE", "wmType": "Overhead" }, "geometry": { "type": "LineString", "coordinates": [ [ -93.274051521793893, 46.664874721888197 ], [ -93.274020518134094, 46.663043339070597 ] ] } },
{ "type": "Feature", "properties": { "wmUplineSo": "ROUND LAKE", "wmType": "Overhead" }, "geometry": { "type": "LineString", "coordinates": [ [ -93.274121073361002, 46.661340855588598 ], [ -93.274084675053203, 46.660113337012703 ] ] } },
{ "type": "Feature", "properties": { "wmUplineSo": "ROUND LAKE", "wmType": "Overhead" }, "geometry": { "type": "LineString", "coordinates": [ [ -93.274073267897293, 46.658611736332503 ], [ -93.274085091568907, 46.6557088193846 ] ] } },
{ "type": "Feature", "properties": { "wmUplineSo": "ROUND LAKE", "wmType": "Overhead" }, "geometry": { "type": "LineString", "coordinates": [ [ -93.274113084307103, 46.653707935405698 ], [ -93.274083044805806, 46.651799805782701 ] ] } },
{ "type": "Feature", "properties": { "wmUplineSo": "ROUND LAKE", "wmType": "Overhead" }, "geometry": { "type": "LineString", "coordinates": [ [ -93.274085091568907, 46.6557088193846 ], [ -93.274113084307103, 46.653707935405698 ] ] } },
{ "type": "Feature", "properties": { "wmUplineSo": "ROUND LAKE", "wmType": "Overhead" }, "geometry": { "type": "LineString", "coordinates": [ [ -93.274083044805806, 46.651799805782701 ], [ -93.274120900366398, 46.649976473818597 ] ] } },
{ "type": "Feature", "properties": { "wmUplineSo": "ROUND LAKE", "wmType": "Overhead" }, "geometry": { "type": "LineString", "coordinates": [ [ -93.274120900366398, 46.649976473818597 ], [ -93.273328476252104, 46.649956731985299 ] ] } },
{ "type": "Feature", "properties": { "wmUplineSo": "ROUND LAKE", "wmType": "Overhead" }, "geometry": { "type": "LineString", "coordinates": [ [ -93.274120900366398, 46.649976473818597 ], [ -93.274104055705493, 46.648049671702999 ] ] } },
{ "type": "Feature", "properties": { "wmUplineSo": "ROUND LAKE", "wmType": "Overhead" }, "geometry": { "type": "LineString", "coordinates": [ [ -93.274104055705493, 46.648049671702999 ], [ -93.274049608191802, 46.647058099478699 ] ] } }
]
}
