{
"type": "FeatureCollection",
"crs": { "type": "name", "properties": { "name": "urn:ogc:def:crs:OGC:1.3:CRS84" } },
"features": [
{ "type": "Feature", "properties": { "wmUplineSo": "ROUND LAKE", "wmType": "Underground" }, "geometry": { "type": "LineString", "coordinates": [ [ -93.299161525358201, 46.681131442592203 ], [ -93.299629337394194, 46.681608651970201 ] ] } },
{ "type": "Feature", "properties": { "wmUplineSo": "ROUND LAKE", "wmType": "Underground" }, "geometry": { "type": "LineString", "coordinates": [ [ -93.299629337394194, 46.681608651970201 ], [ -93.299657838842904, 46.681626578593701 ] ] } },
{ "type": "Feature", "properties": { "wmUplineSo": "ROUND LAKE", "wmType": "Underground" }, "geometry": { "type": "LineString", "coordinates": [ [ -93.299629337394194, 46.681608651970201 ], [ -93.299657838842904, 46.681626578593701 ] ] } },
{ "type": "Feature", "properties": { "wmUplineSo": "ROUND LAKE", "wmType": "Underground" }, "geometry": { "type": "LineString", "coordinates": [ [ -93.315899999872698, 46.681205928240303 ], [ -93.315899999718894, 46.681348478555499 ] ] } },
{ "type": "Feature", "properties": { "wmUplineSo": "ROUND LAKE", "wmType": "Underground" }, "geometry": { "type": "LineString", "coordinates": [ [ -93.315899999718894, 46.681348478555499 ], [ -93.315867999797902, 46.681345736676001 ] ] } },
{ "type": "Feature", "properties": { "wmUplineSo": "ROUND LAKE", "wmType": "Underground" }, "geometry": { "type": "LineString", "coordinates": [ [ -93.315899999718894, 46.681348478555499 ], [ -93.315966470435995, 46.681346378858798 ] ] } },
{ "type": "Feature", "properties": { "wmUplineSo": "ROUND LAKE", "wmType": "Underground" }, "geometry": { "type": "LineString", "coordinates": [ [ -93.3178916008616, 46.696977463561502 ], [ -93.317771521869901, 46.697056966688599 ], [ -93.3177485917995, 46.697293558815197 ], [ -93.317760980448796, 46.697292258124001 ] ] } },
{ "type": "Feature", "properties": { "wmUplineSo": "ROUND LAKE", "wmType": "Underground" }, "geometry": { "type": "LineString", "coordinates": [ [ -93.306343326174598, 46.702975194546198 ], [ -93.306229583063001, 46.702815023863003 ], [ -93.302262513380498, 46.702779529411799 ] ] } },
{ "type": "Feature", "properties": { "wmUplineSo": "ROUND LAKE", "wmType": "Underground" }, "geometry": { "type": "LineString", "coordinates": [ [ -93.302262513380498, 46.702779529411799 ], [ -93.3021983000001, 46.702808900008399 ] ] } },
{ "type": "Feature", "properties": { "wmUplineSo": "ROUND LAKE", "wmType": "Underground" }, "geometry": { "type": "LineString", "coordinates": [ [ -93.314971967553802, 46.680837426691099 ], [ -93.314970000000102, 46.680761600008402 ] ] } },
{ "type": "Feature", "properties": { "wmUplineSo": "ROUND LAKE", "wmType": "Underground" }, "geometry": { "type": "LineString", "coordinates": [ [ -93.274077413632298, 46.659273789357997 ], [ -93.274002759486706, 46.659158991344 ] ] } },
{ "type": "Feature", "properties": { "wmUplineSo": "ROUND LAKE", "wmType": "Underground" }, "geometry": { "type": "LineString", "coordinates": [ [ -93.274002759486706, 46.659158991344 ], [ -93.273817517961405, 46.658978187930799 ] ] } },
{ "type": "Feature", "properties": { "wmUplineSo": "ROUND LAKE", "wmType": "Underground" }, "geometry": { "type": "LineString", "coordinates": [ [ -93.273817517961405, 46.658978187930799 ], [ -93.273788884491594, 46.658977639370697 ] ] } },
{ "type": "Feature", "properties": { "wmUplineSo": "ROUND LAKE", "wmType": "Underground" }, "geometry": { "type": "LineString", "coordinates": [ [ -93.309298841511506, 46.697963535185103 ], [ -93.309247800000094, 46.697878800008397 ] ] } },
{ "type": "Feature", "properties": { "wmUplineSo": "ROUND LAKE", "wmType": "Underground" }, "geometry": { "type": "LineString", "coordinates": [ [ -93.309027273498302, 46.698503719961103 ], [ -93.3089709, 46.698514300008398 ] ] } },
{ "type": "Feature", "properties": { "wmUplineSo": "ROUND LAKE", "wmType": "Underground" }, "geometry": { "type": "LineString", "coordinates": [ [ -93.309027273498302, 46.698503719961103 ], [ -93.309162600000107, 46.698552500008397 ] ] } },
{ "type": "Feature", "properties": { "wmUplineSo": "ROUND LAKE", "wmType": "Underground" }, "geometry": { "type": "LineString", "coordinates": [ [ -93.309027273498302, 46.698503719961103 ], [ -93.309210800000102, 46.698446800008398 ] ] } },
{ "type": "Feature", "properties": { "wmUplineSo": "ROUND LAKE", "wmType": "Underground" }, "geometry": { "type": "LineString", "coordinates": [ [ -93.309027273498302, 46.698503719961103 ], [ -93.3092441000001, 46.698309300008397 ] ] } },
{ "type": "Feature", "properties": { "wmUplineSo": "ROUND LAKE", "wmType": "Underground" }, "geometry": { "type": "LineString", "coordinates": [ [ -93.309834333313901, 46.697386982674303 ], [ -93.310119800000095, 46.697271000008399 ] ] } },
{ "type": "Feature", "properties": { "wmUplineSo": "ROUND LAKE", "wmType": "Underground" }, "geometry": { "type": "LineString", "coordinates": [ [ -93.309834333313901, 46.697386982674303 ], [ -93.309833100000105, 46.6974091000084 ] ] } },
{ "type": "Feature", "properties": { "wmUplineSo": "ROUND LAKE", "wmType": "Underground" }, "geometry": { "type": "LineString", "coordinates": [ [ -93.309834333313901, 46.697386982674303 ], [ -93.309856887758102, 46.697573612087901 ] ] } },
{ "type": "Feature", "properties": { "wmUplineSo": "ROUND LAKE", "wmType": "Underground" }, "geometry": { "type": "LineString", "coordinates": [ [ -93.309834333313901, 46.697386982674303 ], [ -93.310137, 46.697409000008399 ] ] } },
{ "type": "Feature", "properties": { "wmUplineSo": "ROUND LAKE", "wmType": "Underground" }, "geometry": { "type": "LineString", "coordinates": [ [ -93.309834333313901, 46.697386982674303 ], [ -93.310368108236702, 46.697369244515997 ] ] } },
{ "type": "Feature", "properties": { "wmUplineSo": "ROUND LAKE", "wmType": "Underground" }, "geometry": { "type": "LineString", "coordinates": [ [ -93.309834333313901, 46.697386982674303 ], [ -93.310385, 46.697191600008402 ] ] } },
{ "type": "Feature", "properties": { "wmUplineSo": "ROUND LAKE", "wmType": "Underground" }, "geometry": { "type": "LineString", "coordinates": [ [ -93.309298841511506, 46.697963535185103 ], [ -93.309519800000103, 46.6978578000084 ] ] } },
{ "type": "Feature", "properties": { "wmUplineSo": "ROUND LAKE", "wmType": "Underground" }, "geometry": { "type": "LineString", "coordinates": [ [ -93.309298841511506, 46.697963535185103 ], [ -93.309430400000096, 46.697997500008398 ] ] } },
{ "type": "Feature", "properties": { "wmUplineSo": "ROUND LAKE", "wmType": "Underground" }, "geometry": { "type": "LineString", "coordinates": [ [ -93.309298841511506, 46.697963535185103 ], [ -93.309676300000106, 46.697715300008397 ] ] } },
{ "type": "Feature", "properties": { "wmUplineSo": "ROUND LAKE", "wmType": "Underground" }, "geometry": { "type": "LineString", "coordinates": [ [ -93.309298841511506, 46.697963535185103 ], [ -93.309321100000105, 46.698172100008399 ] ] } },
{ "type": "Feature", "properties": { "wmUplineSo": "ROUND LAKE", "wmType": "Underground" }, "geometry": { "type": "LineString", "coordinates": [ [ -93.309834333313901, 46.697386982674303 ], [ -93.310570100000106, 46.697152300008398 ] ] } },
{ "type": "Feature", "properties": { "wmUplineSo": "ROUND LAKE", "wmType": "Underground" }, "geometry": { "type": "LineString", "coordinates": [ [ -93.310086936662998, 46.696994340222901 ], [ -93.309990300000095, 46.696951600008397 ] ] } },
{ "type": "Feature", "properties": { "wmUplineSo": "ROUND LAKE", "wmType": "Underground" }, "geometry": { "type": "LineString", "coordinates": [ [ -93.273454393716406, 46.655689586342902 ], [ -93.273326306726801, 46.655711059939797 ] ] } },
{ "type": "Feature", "properties": { "wmUplineSo": "ROUND LAKE", "wmType": "Underground" }, "geometry": { "type": "LineString", "coordinates": [ [ -93.308621782103401, 46.704262217168399 ], [ -93.308646784849799, 46.704319158796203 ] ] } },
{ "type": "Feature", "properties": { "wmUplineSo": "ROUND LAKE", "wmType": "Underground" }, "geometry": { "type": "LineString", "coordinates": [ [ -93.316078, 46.682082000000101 ], [ -93.316099400000098, 46.682054900008403 ] ] } },
{ "type": "Feature", "properties": { "wmUplineSo": "ROUND LAKE", "wmType": "Underground" }, "geometry": { "type": "LineString", "coordinates": [ [ -93.316078, 46.682082000000101 ], [ -93.316081500000095, 46.682080400008402 ] ] } },
{ "type": "Feature", "properties": { "wmUplineSo": "ROUND LAKE", "wmType": "Underground" }, "geometry": { "type": "LineString", "coordinates": [ [ -93.314971967553802, 46.680837426691099 ], [ -93.315399100000107, 46.680462900008401 ] ] } },
{ "type": "Feature", "properties": { "wmUplineSo": "ROUND LAKE", "wmType": "Underground" }, "geometry": { "type": "LineString", "coordinates": [ [ -93.311400458473997, 46.6809233965187 ], [ -93.311580010692694, 46.680523923583699 ] ] } },
{ "type": "Feature", "properties": { "wmUplineSo": "ROUND LAKE", "wmType": "Underground" }, "geometry": { "type": "LineString", "coordinates": [ [ -93.2767613172811, 46.680340242986098 ], [ -93.2764781, 46.680363000008398 ] ] } },
{ "type": "Feature", "properties": { "wmUplineSo": "ROUND LAKE", "wmType": "Underground" }, "geometry": { "type": "LineString", "coordinates": [ [ -93.307592177273904, 46.680340169190899 ], [ -93.307684100000102, 46.680282600008397 ] ] } },
{ "type": "Feature", "properties": { "wmUplineSo": "ROUND LAKE", "wmType": "Underground" }, "geometry": { "type": "LineString", "coordinates": [ [ -93.317760980448796, 46.697292258124001 ], [ -93.317777900000095, 46.697276300008397 ] ] } },
{ "type": "Feature", "properties": { "wmUplineSo": "ROUND LAKE", "wmType": "Underground" }, "geometry": { "type": "LineString", "coordinates": [ [ -93.315966470435995, 46.681346378858798 ], [ -93.315944877987604, 46.681880450409302 ] ] } },
{ "type": "Feature", "properties": { "wmUplineSo": "ROUND LAKE", "wmType": "Underground" }, "geometry": { "type": "LineString", "coordinates": [ [ -93.317809849784496, 46.697654172801002 ], [ -93.318172800000099, 46.697891300008401 ] ] } },
{ "type": "Feature", "properties": { "wmUplineSo": "ROUND LAKE", "wmType": "Underground" }, "geometry": { "type": "LineString", "coordinates": [ [ -93.307515655197193, 46.6971599982787 ], [ -93.307506, 46.697499 ] ] } },
{ "type": "Feature", "properties": { "wmUplineSo": "ROUND LAKE", "wmType": "Underground" }, "geometry": { "type": "LineString", "coordinates": [ [ -93.307506, 46.697499 ], [ -93.306419, 46.697501 ] ] } },
{ "type": "Feature", "properties": { "wmUplineSo": "ROUND LAKE", "wmType": "Underground" }, "geometry": { "type": "LineString", "coordinates": [ [ -93.309278844606098, 46.699844328600904 ], [ -93.309977500000102, 46.699790300008402 ] ] } },
{ "type": "Feature", "properties": { "wmUplineSo": "ROUND LAKE", "wmType": "Underground" }, "geometry": { "type": "LineString", "coordinates": [ [ -93.301614295265594, 46.681851068531103 ], [ -93.301231617420797, 46.681782092524003 ] ] } },
{ "type": "Feature", "properties": { "wmUplineSo": "ROUND LAKE", "wmType": "Underground" }, "geometry": { "type": "LineString", "coordinates": [ [ -93.306419, 46.697501 ], [ -93.305352, 46.697519 ] ] } },
{ "type": "Feature", "properties": { "wmUplineSo": "ROUND LAKE", "wmType": "Underground" }, "geometry": { "type": "LineString", "coordinates": [ [ -93.306574065399502, 46.703107631053697 ], [ -93.306343326174598, 46.702975194546198 ] ] } },
{ "type": "Feature", "properties": { "wmUplineSo": "ROUND LAKE", "wmType": "Underground" }, "geometry": { "type": "LineString", "coordinates": [ [ -93.310086936662998, 46.696994340222901 ], [ -93.310183426483505, 46.697125673246902 ], [ -93.310040188425504, 46.697283723608997 ], [ -93.309834333313901, 46.697386982674303 ] ] } },
{ "type": "Feature", "properties": { "wmUplineSo": "ROUND LAKE", "wmType": "Underground" }, "geometry": { "type": "LineString", "coordinates": [ [ -93.309298841511506, 46.697963535185103 ], [ -93.309027273498302, 46.698503719961103 ] ] } },
{ "type": "Feature", "properties": { "wmUplineSo": "ROUND LAKE", "wmType": "Underground" }, "geometry": { "type": "LineString", "coordinates": [ [ -93.309834333313901, 46.697386982674303 ], [ -93.309429646644205, 46.697699526788597 ], [ -93.309298841511506, 46.697963535185103 ] ] } },
{ "type": "Feature", "properties": { "wmUplineSo": "ROUND LAKE", "wmType": "Underground" }, "geometry": { "type": "LineString", "coordinates": [ [ -93.308601095905999, 46.7040516859512 ], [ -93.308601095905999, 46.704051685951299 ] ] } },
{ "type": "Feature", "properties": { "wmUplineSo": "ROUND LAKE", "wmType": "Underground" }, "geometry": { "type": "LineString", "coordinates": [ [ -93.315782431887001, 46.680828206265197 ], [ -93.314971967553802, 46.680837426691099 ] ] } },
{ "type": "Feature", "properties": { "wmUplineSo": "ROUND LAKE", "wmType": "Underground" }, "geometry": { "type": "LineString", "coordinates": [ [ -93.300848609443193, 46.681064857702701 ], [ -93.301921306463299, 46.6814256252012 ] ] } },
{ "type": "Feature", "properties": { "wmUplineSo": "ROUND LAKE", "wmType": "Underground" }, "geometry": { "type": "LineString", "coordinates": [ [ -93.276946031403199, 46.680955825013001 ], [ -93.276747390234107, 46.680803414459497 ] ] } },
{ "type": "Feature", "properties": { "wmUplineSo": "ROUND LAKE", "wmType": "Underground" }, "geometry": { "type": "LineString", "coordinates": [ [ -93.276747390234107, 46.680803414459497 ], [ -93.2767613172811, 46.680340242986098 ] ] } },
{ "type": "Feature", "properties": { "wmUplineSo": "ROUND LAKE", "wmType": "Underground" }, "geometry": { "type": "LineString", "coordinates": [ [ -93.274085091568907, 46.6557088193846 ], [ -93.273454393716406, 46.655689586342902 ] ] } },
{ "type": "Feature", "properties": { "wmUplineSo": "ROUND LAKE", "wmType": "Underground" }, "geometry": { "type": "LineString", "coordinates": [ [ -93.3082218190047, 46.681311270525597 ], [ -93.307592177273904, 46.680340169190899 ] ] } },
{ "type": "Feature", "properties": { "wmUplineSo": "ROUND LAKE", "wmType": "Underground" }, "geometry": { "type": "LineString", "coordinates": [ [ -93.315944877987604, 46.681880450409302 ], [ -93.316078, 46.682082000000101 ] ] } },
{ "type": "Feature", "properties": { "wmUplineSo": "ROUND LAKE", "wmType": "Underground" }, "geometry": { "type": "LineString", "coordinates": [ [ -93.305352, 46.697519 ], [ -93.305354, 46.697536999999897 ] ] } },
{ "type": "Feature", "properties": { "wmUplineSo": "ROUND LAKE", "wmType": "Underground" }, "geometry": { "type": "LineString", "coordinates": [ [ -93.301921306463299, 46.6814256252012 ], [ -93.301921306463299, 46.6814256252012 ] ] } },
{ "type": "Feature", "properties": { "wmUplineSo": "ROUND LAKE", "wmType": "Underground" }, "geometry": { "type": "LineString", "coordinates": [ [ -93.301921306463299, 46.6814256252012 ], [ -93.301614295265594, 46.681851068531103 ] ] } },
{ "type": "Feature", "properties": { "wmUplineSo": "ROUND LAKE", "wmType": "Underground" }, "geometry": { "type": "LineString", "coordinates": [ [ -93.308601095905999, 46.7040516859512 ], [ -93.308621782103401, 46.704262217168399 ] ] } }
]
}
