{
"type": "FeatureCollection",
"crs": { "type": "name", "properties": { "name": "urn:ogc:def:crs:OGC:1.3:CRS84" } },
"features": [
{ "type": "Feature", "properties": { "wmUplineSo": "SAND LAKE", "wmType": "Overhead" }, "geometry": { "type": "LineString", "coordinates": [ [ -92.649327854172498, 47.665871730145398 ], [ -92.6500355572758, 47.665831377411699 ] ] } },
{ "type": "Feature", "properties": { "wmUplineSo": "SAND LAKE", "wmType": "Overhead" }, "geometry": { "type": "LineString", "coordinates": [ [ -92.650353910970793, 47.664664411137601 ], [ -92.650496899916405, 47.6643613133499 ], [ -92.651270996860205, 47.663881586187799 ] ] } },
{ "type": "Feature", "properties": { "wmUplineSo": "SAND LAKE", "wmType": "Overhead" }, "geometry": { "type": "LineString", "coordinates": [ [ -92.644744986001001, 47.664927946997999 ], [ -92.645320612017301, 47.664551179232397 ] ] } },
{ "type": "Feature", "properties": { "wmUplineSo": "SAND LAKE", "wmType": "Overhead" }, "geometry": { "type": "LineString", "coordinates": [ [ -92.643081484426503, 47.663883956131997 ], [ -92.643126641468101, 47.663917838755502 ], [ -92.643830742184804, 47.664440219503902 ] ] } },
{ "type": "Feature", "properties": { "wmUplineSo": "SAND LAKE", "wmType": "Overhead" }, "geometry": { "type": "LineString", "coordinates": [ [ -92.639359529306205, 47.662344943114398 ], [ -92.639451558010194, 47.662373849462298 ] ] } },
{ "type": "Feature", "properties": { "wmUplineSo": "SAND LAKE", "wmType": "Overhead" }, "geometry": { "type": "LineString", "coordinates": [ [ -92.637779239999901, 47.663036350009499 ], [ -92.637611389999904, 47.662952420009503 ] ] } },
{ "type": "Feature", "properties": { "wmUplineSo": "SAND LAKE", "wmType": "Overhead" }, "geometry": { "type": "LineString", "coordinates": [ [ -92.640310079363601, 47.662685027784804 ], [ -92.6399748, 47.662895900009502 ] ] } },
{ "type": "Feature", "properties": { "wmUplineSo": "SAND LAKE", "wmType": "Overhead" }, "geometry": { "type": "LineString", "coordinates": [ [ -92.641142046079295, 47.662907967256601 ], [ -92.6411897, 47.663421200009502 ] ] } },
{ "type": "Feature", "properties": { "wmUplineSo": "SAND LAKE", "wmType": "Overhead" }, "geometry": { "type": "LineString", "coordinates": [ [ -92.642325241322595, 47.663316516075497 ], [ -92.642625199999898, 47.663471400009499 ] ] } },
{ "type": "Feature", "properties": { "wmUplineSo": "SAND LAKE", "wmType": "Overhead" }, "geometry": { "type": "LineString", "coordinates": [ [ -92.642325241322595, 47.663316516075497 ], [ -92.64227295, 47.663646700009501 ] ] } },
{ "type": "Feature", "properties": { "wmUplineSo": "SAND LAKE", "wmType": "Overhead" }, "geometry": { "type": "LineString", "coordinates": [ [ -92.6438446, 47.666614530009497 ], [ -92.6439131, 47.666533100009502 ] ] } },
{ "type": "Feature", "properties": { "wmUplineSo": "SAND LAKE", "wmType": "Overhead" }, "geometry": { "type": "LineString", "coordinates": [ [ -92.6429443399999, 47.666866300009502 ], [ -92.643508499999896, 47.667029500009498 ] ] } },
{ "type": "Feature", "properties": { "wmUplineSo": "SAND LAKE", "wmType": "Overhead" }, "geometry": { "type": "LineString", "coordinates": [ [ -92.644941782257206, 47.665165336614699 ], [ -92.645472599011399, 47.6649453472331 ], [ -92.645448376697203, 47.664851606386797 ] ] } },
{ "type": "Feature", "properties": { "wmUplineSo": "SAND LAKE", "wmType": "Overhead" }, "geometry": { "type": "LineString", "coordinates": [ [ -92.644941782257206, 47.665165336614699 ], [ -92.646071, 47.665263900009499 ] ] } },
{ "type": "Feature", "properties": { "wmUplineSo": "SAND LAKE", "wmType": "Overhead" }, "geometry": { "type": "LineString", "coordinates": [ [ -92.64687347, 47.666824340009498 ], [ -92.6469056, 47.666862100009503 ] ] } },
{ "type": "Feature", "properties": { "wmUplineSo": "SAND LAKE", "wmType": "Overhead" }, "geometry": { "type": "LineString", "coordinates": [ [ -92.64735413, 47.667587280009499 ], [ -92.6476305, 47.667670600009501 ] ] } },
{ "type": "Feature", "properties": { "wmUplineSo": "SAND LAKE", "wmType": "Overhead" }, "geometry": { "type": "LineString", "coordinates": [ [ -92.647590639999905, 47.6685028100095 ], [ -92.647875599999907, 47.668795800009498 ] ] } },
{ "type": "Feature", "properties": { "wmUplineSo": "SAND LAKE", "wmType": "Overhead" }, "geometry": { "type": "LineString", "coordinates": [ [ -92.648628848338305, 47.665911582619202 ], [ -92.648487707832899, 47.665300712751602 ] ] } },
{ "type": "Feature", "properties": { "wmUplineSo": "SAND LAKE", "wmType": "Overhead" }, "geometry": { "type": "LineString", "coordinates": [ [ -92.648628848338305, 47.665911582619202 ], [ -92.648485499999893, 47.663849600009499 ] ] } },
{ "type": "Feature", "properties": { "wmUplineSo": "SAND LAKE", "wmType": "Overhead" }, "geometry": { "type": "LineString", "coordinates": [ [ -92.656039339421895, 47.663514738889603 ], [ -92.6560969, 47.663436500009503 ] ] } },
{ "type": "Feature", "properties": { "wmUplineSo": "SAND LAKE", "wmType": "Overhead" }, "geometry": { "type": "LineString", "coordinates": [ [ -92.655788923952898, 47.662725776355401 ], [ -92.655789720188395, 47.662722026470803 ], [ -92.655787387984105, 47.662717277521097 ], [ -92.6556467, 47.662430800009503 ] ] } },
{ "type": "Feature", "properties": { "wmUplineSo": "SAND LAKE", "wmType": "Overhead" }, "geometry": { "type": "LineString", "coordinates": [ [ -92.6570303875219, 47.664361340412 ], [ -92.6568117999999, 47.664246600009498 ], [ -92.6568118, 47.664246600009498 ] ] } },
{ "type": "Feature", "properties": { "wmUplineSo": "SAND LAKE", "wmType": "Overhead" }, "geometry": { "type": "LineString", "coordinates": [ [ -92.6570303875219, 47.664361340412 ], [ -92.656802699999901, 47.664313500009499 ] ] } },
{ "type": "Feature", "properties": { "wmUplineSo": "SAND LAKE", "wmType": "Overhead" }, "geometry": { "type": "LineString", "coordinates": [ [ -92.6570303875219, 47.664361340412 ], [ -92.657031931752996, 47.664359752655102 ], [ -92.6571444, 47.664644800009498 ] ] } },
{ "type": "Feature", "properties": { "wmUplineSo": "SAND LAKE", "wmType": "Overhead" }, "geometry": { "type": "LineString", "coordinates": [ [ -92.6570303875219, 47.664361340412 ], [ -92.657266363009697, 47.6646112034162 ], [ -92.657159199999896, 47.664779200009498 ] ] } },
{ "type": "Feature", "properties": { "wmUplineSo": "SAND LAKE", "wmType": "Overhead" }, "geometry": { "type": "LineString", "coordinates": [ [ -92.657531739999897, 47.665470120009502 ], [ -92.657634199999904, 47.665559600009502 ] ] } },
{ "type": "Feature", "properties": { "wmUplineSo": "SAND LAKE", "wmType": "Overhead" }, "geometry": { "type": "LineString", "coordinates": [ [ -92.65844727, 47.666866300009502 ], [ -92.658441399999901, 47.666648600009502 ] ] } },
{ "type": "Feature", "properties": { "wmUplineSo": "SAND LAKE", "wmType": "Overhead" }, "geometry": { "type": "LineString", "coordinates": [ [ -92.66062164, 47.667068480009497 ], [ -92.6604204, 47.666740400009502 ] ] } },
{ "type": "Feature", "properties": { "wmUplineSo": "SAND LAKE", "wmType": "Overhead" }, "geometry": { "type": "LineString", "coordinates": [ [ -92.661697389999901, 47.666427610009499 ], [ -92.661143599999903, 47.666524600009502 ] ] } },
{ "type": "Feature", "properties": { "wmUplineSo": "SAND LAKE", "wmType": "Overhead" }, "geometry": { "type": "LineString", "coordinates": [ [ -92.661697389999901, 47.666427610009499 ], [ -92.661781309999895, 47.666198730009498 ] ] } },
{ "type": "Feature", "properties": { "wmUplineSo": "SAND LAKE", "wmType": "Overhead" }, "geometry": { "type": "LineString", "coordinates": [ [ -92.66313934, 47.666378020009503 ], [ -92.662699599999897, 47.666307600009503 ] ] } },
{ "type": "Feature", "properties": { "wmUplineSo": "SAND LAKE", "wmType": "Overhead" }, "geometry": { "type": "LineString", "coordinates": [ [ -92.664373853911101, 47.6642835461017 ], [ -92.6641007999999, 47.6643148000095 ] ] } },
{ "type": "Feature", "properties": { "wmUplineSo": "SAND LAKE", "wmType": "Overhead" }, "geometry": { "type": "LineString", "coordinates": [ [ -92.66313934, 47.666378020009503 ], [ -92.662875099999894, 47.666247400009503 ] ] } },
{ "type": "Feature", "properties": { "wmUplineSo": "SAND LAKE", "wmType": "Overhead" }, "geometry": { "type": "LineString", "coordinates": [ [ -92.653793674170998, 47.665433675317203 ], [ -92.654690999977305, 47.665388003745001 ] ] } },
{ "type": "Feature", "properties": { "wmUplineSo": "SAND LAKE", "wmType": "Overhead" }, "geometry": { "type": "LineString", "coordinates": [ [ -92.661517274988796, 47.667056195540603 ], [ -92.662366608835697, 47.667044539670599 ], [ -92.662755180946604, 47.666631448790703 ] ] } },
{ "type": "Feature", "properties": { "wmUplineSo": "SAND LAKE", "wmType": "Overhead" }, "geometry": { "type": "LineString", "coordinates": [ [ -92.640310079363601, 47.662685027784804 ], [ -92.641142046079295, 47.662907967256601 ] ] } },
{ "type": "Feature", "properties": { "wmUplineSo": "SAND LAKE", "wmType": "Overhead" }, "geometry": { "type": "LineString", "coordinates": [ [ -92.641142046079295, 47.662907967256601 ], [ -92.642325241322595, 47.663316516075497 ], [ -92.642325241322595, 47.663316516075497 ] ] } },
{ "type": "Feature", "properties": { "wmUplineSo": "SAND LAKE", "wmType": "Overhead" }, "geometry": { "type": "LineString", "coordinates": [ [ -92.63860321, 47.662677760009501 ], [ -92.637779239999901, 47.663036350009499 ] ] } },
{ "type": "Feature", "properties": { "wmUplineSo": "SAND LAKE", "wmType": "Overhead" }, "geometry": { "type": "LineString", "coordinates": [ [ -92.6438446, 47.666614530009497 ], [ -92.6429443399999, 47.666866300009502 ] ] } },
{ "type": "Feature", "properties": { "wmUplineSo": "SAND LAKE", "wmType": "Overhead" }, "geometry": { "type": "LineString", "coordinates": [ [ -92.645591739999901, 47.666187290009503 ], [ -92.6438446, 47.666614530009497 ] ] } },
{ "type": "Feature", "properties": { "wmUplineSo": "SAND LAKE", "wmType": "Overhead" }, "geometry": { "type": "LineString", "coordinates": [ [ -92.646123266670003, 47.666077206206602 ], [ -92.645591739999901, 47.666187290009503 ] ] } },
{ "type": "Feature", "properties": { "wmUplineSo": "SAND LAKE", "wmType": "Overhead" }, "geometry": { "type": "LineString", "coordinates": [ [ -92.644941782257206, 47.665165336614699 ], [ -92.646123266670003, 47.666077206206602 ] ] } },
{ "type": "Feature", "properties": { "wmUplineSo": "SAND LAKE", "wmType": "Overhead" }, "geometry": { "type": "LineString", "coordinates": [ [ -92.646123266670003, 47.666077206206602 ], [ -92.647345477246404, 47.665968602835001 ] ] } },
{ "type": "Feature", "properties": { "wmUplineSo": "SAND LAKE", "wmType": "Overhead" }, "geometry": { "type": "LineString", "coordinates": [ [ -92.646123266670003, 47.666077206206602 ], [ -92.646215708590205, 47.666155496959703 ] ] } },
{ "type": "Feature", "properties": { "wmUplineSo": "SAND LAKE", "wmType": "Overhead" }, "geometry": { "type": "LineString", "coordinates": [ [ -92.64687347, 47.666824340009498 ], [ -92.64735413, 47.667587280009499 ] ] } },
{ "type": "Feature", "properties": { "wmUplineSo": "SAND LAKE", "wmType": "Overhead" }, "geometry": { "type": "LineString", "coordinates": [ [ -92.64735413, 47.667587280009499 ], [ -92.647590639999905, 47.6685028100095 ] ] } },
{ "type": "Feature", "properties": { "wmUplineSo": "SAND LAKE", "wmType": "Overhead" }, "geometry": { "type": "LineString", "coordinates": [ [ -92.647590639999905, 47.6685028100095 ], [ -92.647590640017896, 47.669081291504703 ], [ -92.647590639999905, 47.669662480009499 ] ] } },
{ "type": "Feature", "properties": { "wmUplineSo": "SAND LAKE", "wmType": "Overhead" }, "geometry": { "type": "LineString", "coordinates": [ [ -92.647345477246404, 47.665968602835001 ], [ -92.647360310780897, 47.665967629273403 ], [ -92.648628848338305, 47.665911582619202 ] ] } },
{ "type": "Feature", "properties": { "wmUplineSo": "SAND LAKE", "wmType": "Overhead" }, "geometry": { "type": "LineString", "coordinates": [ [ -92.648628848338305, 47.665911582619202 ], [ -92.649327854172498, 47.665871730145398 ] ] } },
{ "type": "Feature", "properties": { "wmUplineSo": "SAND LAKE", "wmType": "Overhead" }, "geometry": { "type": "LineString", "coordinates": [ [ -92.6500355572758, 47.665831377411699 ], [ -92.650353910970793, 47.664664411137601 ] ] } },
{ "type": "Feature", "properties": { "wmUplineSo": "SAND LAKE", "wmType": "Overhead" }, "geometry": { "type": "LineString", "coordinates": [ [ -92.6500355572758, 47.665831377411699 ], [ -92.651341550315607, 47.665781235859697 ] ] } },
{ "type": "Feature", "properties": { "wmUplineSo": "SAND LAKE", "wmType": "Overhead" }, "geometry": { "type": "LineString", "coordinates": [ [ -92.652279999977097, 47.665545003745301 ], [ -92.653793674170998, 47.665433675317203 ] ] } },
{ "type": "Feature", "properties": { "wmUplineSo": "SAND LAKE", "wmType": "Overhead" }, "geometry": { "type": "LineString", "coordinates": [ [ -92.654690999977305, 47.665388003745001 ], [ -92.655721373354297, 47.665327386609697 ] ] } },
{ "type": "Feature", "properties": { "wmUplineSo": "SAND LAKE", "wmType": "Overhead" }, "geometry": { "type": "LineString", "coordinates": [ [ -92.655721373354297, 47.665327386609697 ], [ -92.655741544592601, 47.665312600457497 ], [ -92.656334382336198, 47.664878026399798 ], [ -92.656451883592098, 47.6647918919966 ], [ -92.6570303875219, 47.664361340412 ] ] } },
{ "type": "Feature", "properties": { "wmUplineSo": "SAND LAKE", "wmType": "Overhead" }, "geometry": { "type": "LineString", "coordinates": [ [ -92.6570303875219, 47.664361340412 ], [ -92.656381843521501, 47.663840417288498 ] ] } },
{ "type": "Feature", "properties": { "wmUplineSo": "SAND LAKE", "wmType": "Overhead" }, "geometry": { "type": "LineString", "coordinates": [ [ -92.656381843521501, 47.663840417288498 ], [ -92.656039339421895, 47.663514738889603 ] ] } },
{ "type": "Feature", "properties": { "wmUplineSo": "SAND LAKE", "wmType": "Overhead" }, "geometry": { "type": "LineString", "coordinates": [ [ -92.655721373354297, 47.665327386609697 ], [ -92.6569519, 47.665626530009497 ] ] } },
{ "type": "Feature", "properties": { "wmUplineSo": "SAND LAKE", "wmType": "Overhead" }, "geometry": { "type": "LineString", "coordinates": [ [ -92.6569519, 47.665626530009497 ], [ -92.657531739999897, 47.665470120009502 ] ] } },
{ "type": "Feature", "properties": { "wmUplineSo": "SAND LAKE", "wmType": "Overhead" }, "geometry": { "type": "LineString", "coordinates": [ [ -92.6569519, 47.665626530009497 ], [ -92.657497856213496, 47.666248496770798 ], [ -92.65844727, 47.666866300009502 ] ] } },
{ "type": "Feature", "properties": { "wmUplineSo": "SAND LAKE", "wmType": "Overhead" }, "geometry": { "type": "LineString", "coordinates": [ [ -92.65844727, 47.666866300009502 ], [ -92.659487540968797, 47.666963033124503 ], [ -92.66062164, 47.667068480009497 ] ] } },
{ "type": "Feature", "properties": { "wmUplineSo": "SAND LAKE", "wmType": "Overhead" }, "geometry": { "type": "LineString", "coordinates": [ [ -92.66062164, 47.667068480009497 ], [ -92.661517274988796, 47.667056195540603 ] ] } },
{ "type": "Feature", "properties": { "wmUplineSo": "SAND LAKE", "wmType": "Overhead" }, "geometry": { "type": "LineString", "coordinates": [ [ -92.661517274988796, 47.667056195540603 ], [ -92.661605605549994, 47.666747931607297 ], [ -92.661697389999901, 47.666427610009499 ] ] } },
{ "type": "Feature", "properties": { "wmUplineSo": "SAND LAKE", "wmType": "Overhead" }, "geometry": { "type": "LineString", "coordinates": [ [ -92.662755180946604, 47.666631448790703 ], [ -92.66313934, 47.666378020009503 ] ] } },
{ "type": "Feature", "properties": { "wmUplineSo": "SAND LAKE", "wmType": "Overhead" }, "geometry": { "type": "LineString", "coordinates": [ [ -92.66313934, 47.666378020009503 ], [ -92.663656690770495, 47.666233995282802 ], [ -92.664265443996698, 47.666064521112403 ] ] } },
{ "type": "Feature", "properties": { "wmUplineSo": "SAND LAKE", "wmType": "Overhead" }, "geometry": { "type": "LineString", "coordinates": [ [ -92.664265443996698, 47.666064521112403 ], [ -92.664359718956803, 47.6656194412353 ], [ -92.6644543293542, 47.665172769913198 ] ] } },
{ "type": "Feature", "properties": { "wmUplineSo": "SAND LAKE", "wmType": "Overhead" }, "geometry": { "type": "LineString", "coordinates": [ [ -92.6644543293542, 47.665172769913198 ], [ -92.6643978492869, 47.664539273547803 ], [ -92.664373853911101, 47.6642835461017 ] ] } },
{ "type": "Feature", "properties": { "wmUplineSo": "SAND LAKE", "wmType": "Overhead" }, "geometry": { "type": "LineString", "coordinates": [ [ -92.654690999977305, 47.665388003745001 ], [ -92.6543029, 47.665119600009497 ] ] } },
{ "type": "Feature", "properties": { "wmUplineSo": "SAND LAKE", "wmType": "Overhead" }, "geometry": { "type": "LineString", "coordinates": [ [ -92.641142046079295, 47.662907967256601 ], [ -92.6418293, 47.662984400009499 ] ] } },
{ "type": "Feature", "properties": { "wmUplineSo": "SAND LAKE", "wmType": "Overhead" }, "geometry": { "type": "LineString", "coordinates": [ [ -92.643830742184804, 47.664440219503902 ], [ -92.644744986001001, 47.664927946997999 ] ] } },
{ "type": "Feature", "properties": { "wmUplineSo": "SAND LAKE", "wmType": "Overhead" }, "geometry": { "type": "LineString", "coordinates": [ [ -92.642325241322595, 47.663316516075497 ], [ -92.643081484426503, 47.663883956131997 ] ] } },
{ "type": "Feature", "properties": { "wmUplineSo": "SAND LAKE", "wmType": "Overhead" }, "geometry": { "type": "LineString", "coordinates": [ [ -92.646215708590205, 47.666155496959703 ], [ -92.64687347, 47.666824340009498 ] ] } },
{ "type": "Feature", "properties": { "wmUplineSo": "SAND LAKE", "wmType": "Overhead" }, "geometry": { "type": "LineString", "coordinates": [ [ -92.656039339421895, 47.663514738889603 ], [ -92.655890053155701, 47.663213928977299 ], [ -92.655868209462199, 47.663169913909201 ], [ -92.655788923952898, 47.662725776355401 ] ] } },
{ "type": "Feature", "properties": { "wmUplineSo": "SAND LAKE", "wmType": "Overhead" }, "geometry": { "type": "LineString", "coordinates": [ [ -92.651341550315607, 47.665781235859697 ], [ -92.652279999977097, 47.665545003745301 ] ] } },
{ "type": "Feature", "properties": { "wmUplineSo": "SAND LAKE", "wmType": "Overhead" }, "geometry": { "type": "LineString", "coordinates": [ [ -92.652279999977097, 47.665545003745301 ], [ -92.652241999977093, 47.665410003745102 ] ] } },
{ "type": "Feature", "properties": { "wmUplineSo": "SAND LAKE", "wmType": "Overhead" }, "geometry": { "type": "LineString", "coordinates": [ [ -92.652279999977097, 47.665545003745301 ], [ -92.652406612435797, 47.665746675430498 ] ] } },
{ "type": "Feature", "properties": { "wmUplineSo": "SAND LAKE", "wmType": "Overhead" }, "geometry": { "type": "LineString", "coordinates": [ [ -92.644744986001001, 47.664927946997999 ], [ -92.644941782257206, 47.665165336614699 ] ] } },
{ "type": "Feature", "properties": { "wmUplineSo": "SAND LAKE", "wmType": "Overhead" }, "geometry": { "type": "LineString", "coordinates": [ [ -92.64227295, 47.663646700009501 ], [ -92.64241028, 47.663829800009502 ] ] } },
{ "type": "Feature", "properties": { "wmUplineSo": "SAND LAKE", "wmType": "Overhead" }, "geometry": { "type": "LineString", "coordinates": [ [ -92.647590639999905, 47.669662480009499 ], [ -92.647581005675704, 47.6709928031581 ] ] } }
]
}
