{
"type": "FeatureCollection",
"crs": { "type": "name", "properties": { "name": "urn:ogc:def:crs:OGC:1.3:CRS84" } },
"features": [
{ "type": "Feature", "properties": { "wmUplineSo": "SAND LAKE", "wmType": "Underground" }, "geometry": { "type": "LineString", "coordinates": [ [ -92.623823867154996, 47.642700686120499 ], [ -92.623901, 47.643273 ] ] } },
{ "type": "Feature", "properties": { "wmUplineSo": "SAND LAKE", "wmType": "Underground" }, "geometry": { "type": "LineString", "coordinates": [ [ -92.623901, 47.643273 ], [ -92.623963170796699, 47.643261987081601 ] ] } },
{ "type": "Feature", "properties": { "wmUplineSo": "SAND LAKE", "wmType": "Underground" }, "geometry": { "type": "LineString", "coordinates": [ [ -92.5974, 47.652483 ], [ -92.597388806992299, 47.652478415828298 ], [ -92.597361446361404, 47.652050581317297 ], [ -92.597230979831494, 47.651819933348001 ], [ -92.597214974356007, 47.651695867034597 ], [ -92.597217638342897, 47.651552910776097 ], [ -92.597294350583994, 47.651343920032303 ], [ -92.597309, 47.651327 ] ] } },
{ "type": "Feature", "properties": { "wmUplineSo": "SAND LAKE", "wmType": "Underground" }, "geometry": { "type": "LineString", "coordinates": [ [ -92.581988229237794, 47.652469685454399 ], [ -92.581690322976499, 47.652244469675999 ] ] } },
{ "type": "Feature", "properties": { "wmUplineSo": "SAND LAKE", "wmType": "Underground" }, "geometry": { "type": "LineString", "coordinates": [ [ -92.581690322976499, 47.652244469675999 ], [ -92.581185658071703, 47.6522377065833 ] ] } },
{ "type": "Feature", "properties": { "wmUplineSo": "SAND LAKE", "wmType": "Underground" }, "geometry": { "type": "LineString", "coordinates": [ [ -92.581185658071703, 47.6522377065833 ], [ -92.579915713003999, 47.652248456625202 ] ] } },
{ "type": "Feature", "properties": { "wmUplineSo": "SAND LAKE", "wmType": "Underground" }, "geometry": { "type": "LineString", "coordinates": [ [ -92.596128030853095, 47.655883794368101 ], [ -92.597063955683097, 47.656159423199099 ] ] } },
{ "type": "Feature", "properties": { "wmUplineSo": "SAND LAKE", "wmType": "Underground" }, "geometry": { "type": "LineString", "coordinates": [ [ -92.582114643592405, 47.658485545199198 ], [ -92.582109, 47.658564 ] ] } },
{ "type": "Feature", "properties": { "wmUplineSo": "SAND LAKE", "wmType": "Underground" }, "geometry": { "type": "LineString", "coordinates": [ [ -92.582109, 47.658564 ], [ -92.583764, 47.658543 ] ] } },
{ "type": "Feature", "properties": { "wmUplineSo": "SAND LAKE", "wmType": "Underground" }, "geometry": { "type": "LineString", "coordinates": [ [ -92.583764, 47.658543 ], [ -92.584791680734696, 47.658529381947901 ] ] } },
{ "type": "Feature", "properties": { "wmUplineSo": "SAND LAKE", "wmType": "Underground" }, "geometry": { "type": "LineString", "coordinates": [ [ -92.584791680734696, 47.658529381947901 ], [ -92.585590664382394, 47.6585256691368 ] ] } },
{ "type": "Feature", "properties": { "wmUplineSo": "SAND LAKE", "wmType": "Underground" }, "geometry": { "type": "LineString", "coordinates": [ [ -92.585590664382394, 47.6585256691368 ], [ -92.586131312019702, 47.658529858611097 ] ] } },
{ "type": "Feature", "properties": { "wmUplineSo": "SAND LAKE", "wmType": "Underground" }, "geometry": { "type": "LineString", "coordinates": [ [ -92.586131312019702, 47.658529858611097 ], [ -92.586465, 47.658524 ] ] } },
{ "type": "Feature", "properties": { "wmUplineSo": "SAND LAKE", "wmType": "Underground" }, "geometry": { "type": "LineString", "coordinates": [ [ -92.561146082459899, 47.633057252135501 ], [ -92.562317999931395, 47.633487352327101 ] ] } },
{ "type": "Feature", "properties": { "wmUplineSo": "SAND LAKE", "wmType": "Underground" }, "geometry": { "type": "LineString", "coordinates": [ [ -92.58565, 47.640673999999898 ], [ -92.584948229109798, 47.641051256464898 ], [ -92.584915957414594, 47.641205044646703 ], [ -92.584935093887694, 47.6414027418042 ], [ -92.584972718708997, 47.641553285005998 ], [ -92.584769914762205, 47.642000274583197 ], [ -92.584780999972807, 47.642034003738402 ] ] } },
{ "type": "Feature", "properties": { "wmUplineSo": "SAND LAKE", "wmType": "Underground" }, "geometry": { "type": "LineString", "coordinates": [ [ -92.581806906207603, 47.647790081978201 ], [ -92.579248191759305, 47.645853111355997 ] ] } },
{ "type": "Feature", "properties": { "wmUplineSo": "SAND LAKE", "wmType": "Underground" }, "geometry": { "type": "LineString", "coordinates": [ [ -92.591956993715399, 47.648114903551203 ], [ -92.591919093861193, 47.648036399780899 ] ] } },
{ "type": "Feature", "properties": { "wmUplineSo": "SAND LAKE", "wmType": "Underground" }, "geometry": { "type": "LineString", "coordinates": [ [ -92.591750773689299, 47.6486430616281 ], [ -92.591776993231207, 47.6481799033524 ] ] } },
{ "type": "Feature", "properties": { "wmUplineSo": "SAND LAKE", "wmType": "Underground" }, "geometry": { "type": "LineString", "coordinates": [ [ -92.591776993231207, 47.6481799033524 ], [ -92.591956993715399, 47.648114903551203 ] ] } },
{ "type": "Feature", "properties": { "wmUplineSo": "SAND LAKE", "wmType": "Underground" }, "geometry": { "type": "LineString", "coordinates": [ [ -92.591956993715399, 47.648114903551203 ], [ -92.592065994496807, 47.647871903676197 ] ] } },
{ "type": "Feature", "properties": { "wmUplineSo": "SAND LAKE", "wmType": "Underground" }, "geometry": { "type": "LineString", "coordinates": [ [ -92.592065994496807, 47.647871903676197 ], [ -92.5921879949735, 47.647765903812498 ] ] } },
{ "type": "Feature", "properties": { "wmUplineSo": "SAND LAKE", "wmType": "Underground" }, "geometry": { "type": "LineString", "coordinates": [ [ -92.5921879949735, 47.647765903812498 ], [ -92.592628996053406, 47.647650904297898 ] ] } },
{ "type": "Feature", "properties": { "wmUplineSo": "SAND LAKE", "wmType": "Underground" }, "geometry": { "type": "LineString", "coordinates": [ [ -92.592628996053406, 47.647650904297898 ], [ -92.592591997621298, 47.646968904273599 ] ] } },
{ "type": "Feature", "properties": { "wmUplineSo": "SAND LAKE", "wmType": "Underground" }, "geometry": { "type": "LineString", "coordinates": [ [ -92.592591997621298, 47.646968904273599 ], [ -92.592575278968795, 47.646421263859899 ] ] } },
{ "type": "Feature", "properties": { "wmUplineSo": "SAND LAKE", "wmType": "Underground" }, "geometry": { "type": "LineString", "coordinates": [ [ -92.592575278968795, 47.646421263859899 ], [ -92.592554001318803, 47.645397904268897 ] ] } },
{ "type": "Feature", "properties": { "wmUplineSo": "SAND LAKE", "wmType": "Underground" }, "geometry": { "type": "LineString", "coordinates": [ [ -92.592554001318803, 47.645397904268897 ], [ -92.592546811403494, 47.644969967762997 ] ] } },
{ "type": "Feature", "properties": { "wmUplineSo": "SAND LAKE", "wmType": "Underground" }, "geometry": { "type": "LineString", "coordinates": [ [ -92.592546811403494, 47.644969967762997 ], [ -92.592536004182193, 47.644189904277603 ] ] } },
{ "type": "Feature", "properties": { "wmUplineSo": "SAND LAKE", "wmType": "Underground" }, "geometry": { "type": "LineString", "coordinates": [ [ -92.592536004182193, 47.644189904277603 ], [ -92.592670004553597, 47.644136904425501 ] ] } },
{ "type": "Feature", "properties": { "wmUplineSo": "SAND LAKE", "wmType": "Underground" }, "geometry": { "type": "LineString", "coordinates": [ [ -92.592670004553597, 47.644136904425501 ], [ -92.593759006541703, 47.644135905617901 ] ] } },
{ "type": "Feature", "properties": { "wmUplineSo": "SAND LAKE", "wmType": "Underground" }, "geometry": { "type": "LineString", "coordinates": [ [ -92.593759006541703, 47.644135905617901 ], [ -92.594378007886107, 47.644045906297897 ] ] } },
{ "type": "Feature", "properties": { "wmUplineSo": "SAND LAKE", "wmType": "Underground" }, "geometry": { "type": "LineString", "coordinates": [ [ -92.594378007886107, 47.644045906297897 ], [ -92.594999513567004, 47.643963288717401 ] ] } },
{ "type": "Feature", "properties": { "wmUplineSo": "SAND LAKE", "wmType": "Underground" }, "geometry": { "type": "LineString", "coordinates": [ [ -92.594999513567004, 47.643963288717401 ], [ -92.595363010432493, 47.643732907383601 ] ] } },
{ "type": "Feature", "properties": { "wmUplineSo": "SAND LAKE", "wmType": "Underground" }, "geometry": { "type": "LineString", "coordinates": [ [ -92.581985469999907, 47.653083800009497 ], [ -92.582397235095797, 47.653175253932702 ] ] } },
{ "type": "Feature", "properties": { "wmUplineSo": "SAND LAKE", "wmType": "Underground" }, "geometry": { "type": "LineString", "coordinates": [ [ -92.584780999972807, 47.642034003738402 ], [ -92.584685499999907, 47.642039000009497 ] ] } },
{ "type": "Feature", "properties": { "wmUplineSo": "SAND LAKE", "wmType": "Underground" }, "geometry": { "type": "LineString", "coordinates": [ [ -92.633164999975904, 47.641826003738402 ], [ -92.633262517230094, 47.641791163084399 ] ] } },
{ "type": "Feature", "properties": { "wmUplineSo": "SAND LAKE", "wmType": "Underground" }, "geometry": { "type": "LineString", "coordinates": [ [ -92.622743999975199, 47.647148003740099 ], [ -92.622732999975199, 47.646994003739799 ] ] } },
{ "type": "Feature", "properties": { "wmUplineSo": "SAND LAKE", "wmType": "Underground" }, "geometry": { "type": "LineString", "coordinates": [ [ -92.622732999975199, 47.646994003739799 ], [ -92.622683999975195, 47.646804003739902 ] ] } },
{ "type": "Feature", "properties": { "wmUplineSo": "SAND LAKE", "wmType": "Underground" }, "geometry": { "type": "LineString", "coordinates": [ [ -92.622683999975195, 47.646804003739902 ], [ -92.622747999975203, 47.646718003739899 ] ] } },
{ "type": "Feature", "properties": { "wmUplineSo": "SAND LAKE", "wmType": "Underground" }, "geometry": { "type": "LineString", "coordinates": [ [ -92.622747999975203, 47.646718003739899 ], [ -92.622841569098398, 47.646607933002699 ] ] } },
{ "type": "Feature", "properties": { "wmUplineSo": "SAND LAKE", "wmType": "Underground" }, "geometry": { "type": "LineString", "coordinates": [ [ -92.5827906303346, 47.633420242750198 ], [ -92.582667986167905, 47.633277947039602 ] ] } },
{ "type": "Feature", "properties": { "wmUplineSo": "SAND LAKE", "wmType": "Underground" }, "geometry": { "type": "LineString", "coordinates": [ [ -92.582667986167905, 47.633277947039602 ], [ -92.582228986169099, 47.633210947039501 ] ] } },
{ "type": "Feature", "properties": { "wmUplineSo": "SAND LAKE", "wmType": "Underground" }, "geometry": { "type": "LineString", "coordinates": [ [ -92.582228986169099, 47.633210947039501 ], [ -92.582132986169498, 47.6328949470401 ] ] } },
{ "type": "Feature", "properties": { "wmUplineSo": "SAND LAKE", "wmType": "Underground" }, "geometry": { "type": "LineString", "coordinates": [ [ -92.582132986169498, 47.6328949470401 ], [ -92.581977986169903, 47.632668947040401 ] ] } },
{ "type": "Feature", "properties": { "wmUplineSo": "SAND LAKE", "wmType": "Underground" }, "geometry": { "type": "LineString", "coordinates": [ [ -92.581977986169903, 47.632668947040401 ], [ -92.581991099999897, 47.6326301000095 ] ] } },
{ "type": "Feature", "properties": { "wmUplineSo": "SAND LAKE", "wmType": "Underground" }, "geometry": { "type": "LineString", "coordinates": [ [ -92.603740999973994, 47.656838003742699 ], [ -92.603790999973995, 47.656854003742801 ] ] } },
{ "type": "Feature", "properties": { "wmUplineSo": "SAND LAKE", "wmType": "Underground" }, "geometry": { "type": "LineString", "coordinates": [ [ -92.546090446736201, 47.560392369006699 ], [ -92.546552448475893, 47.558305416110798 ] ] } },
{ "type": "Feature", "properties": { "wmUplineSo": "SAND LAKE", "wmType": "Underground" }, "geometry": { "type": "LineString", "coordinates": [ [ -92.581828911343806, 47.647772699470003 ], [ -92.581703648078403, 47.647776272694998 ] ] } },
{ "type": "Feature", "properties": { "wmUplineSo": "SAND LAKE", "wmType": "Underground" }, "geometry": { "type": "LineString", "coordinates": [ [ -92.581806906207603, 47.647790081978201 ], [ -92.581828911343806, 47.647772699470003 ] ] } },
{ "type": "Feature", "properties": { "wmUplineSo": "SAND LAKE", "wmType": "Underground" }, "geometry": { "type": "LineString", "coordinates": [ [ -92.583256350892896, 47.644759044770197 ], [ -92.583282054267698, 47.644737821995697 ] ] } },
{ "type": "Feature", "properties": { "wmUplineSo": "SAND LAKE", "wmType": "Underground" }, "geometry": { "type": "LineString", "coordinates": [ [ -92.581874855763402, 47.6477446579187 ], [ -92.582503520671494, 47.647279811353201 ], [ -92.582773458277501, 47.647004636379101 ], [ -92.582712853119205, 47.64665207777 ], [ -92.582580351131995, 47.646480187985702 ], [ -92.5828560270227, 47.645177014510097 ], [ -92.583256350892896, 47.644759044770197 ] ] } },
{ "type": "Feature", "properties": { "wmUplineSo": "SAND LAKE", "wmType": "Underground" }, "geometry": { "type": "LineString", "coordinates": [ [ -92.567890547650507, 47.638164779979903 ], [ -92.567864999971704, 47.638187003737499 ] ] } },
{ "type": "Feature", "properties": { "wmUplineSo": "SAND LAKE", "wmType": "Underground" }, "geometry": { "type": "LineString", "coordinates": [ [ -92.550511999970595, 47.636120003736899 ], [ -92.553155999970699, 47.636038003736701 ] ] } },
{ "type": "Feature", "properties": { "wmUplineSo": "SAND LAKE", "wmType": "Underground" }, "geometry": { "type": "LineString", "coordinates": [ [ -92.608011431736799, 47.656470894143098 ], [ -92.608057239183495, 47.656460304368899 ] ] } },
{ "type": "Feature", "properties": { "wmUplineSo": "SAND LAKE", "wmType": "Underground" }, "geometry": { "type": "LineString", "coordinates": [ [ -92.622663991343998, 47.647364961778599 ], [ -92.622743999975199, 47.647148003740099 ] ] } },
{ "type": "Feature", "properties": { "wmUplineSo": "SAND LAKE", "wmType": "Underground" }, "geometry": { "type": "LineString", "coordinates": [ [ -92.597390323339397, 47.655208536864201 ], [ -92.597432, 47.655143000000102 ] ] } },
{ "type": "Feature", "properties": { "wmUplineSo": "SAND LAKE", "wmType": "Underground" }, "geometry": { "type": "LineString", "coordinates": [ [ -92.607080989987494, 47.656467207768998 ], [ -92.606158497148698, 47.656464044865899 ] ] } },
{ "type": "Feature", "properties": { "wmUplineSo": "SAND LAKE", "wmType": "Underground" }, "geometry": { "type": "LineString", "coordinates": [ [ -92.580382949838594, 47.657617886907303 ], [ -92.580355949767807, 47.657626886877502 ] ] } },
{ "type": "Feature", "properties": { "wmUplineSo": "SAND LAKE", "wmType": "Underground" }, "geometry": { "type": "LineString", "coordinates": [ [ -92.582064638430793, 47.657260851538297 ], [ -92.581470952516298, 47.657328888105901 ] ] } },
{ "type": "Feature", "properties": { "wmUplineSo": "SAND LAKE", "wmType": "Underground" }, "geometry": { "type": "LineString", "coordinates": [ [ -92.581470952516298, 47.657328888105901 ], [ -92.581041951870702, 47.6572718876373 ] ] } },
{ "type": "Feature", "properties": { "wmUplineSo": "SAND LAKE", "wmType": "Underground" }, "geometry": { "type": "LineString", "coordinates": [ [ -92.581041951870702, 47.6572718876373 ], [ -92.580510950746401, 47.6573368870542 ] ] } },
{ "type": "Feature", "properties": { "wmUplineSo": "SAND LAKE", "wmType": "Underground" }, "geometry": { "type": "LineString", "coordinates": [ [ -92.580510950746401, 47.6573368870542 ], [ -92.580471950332097, 47.657479887008002 ] ] } },
{ "type": "Feature", "properties": { "wmUplineSo": "SAND LAKE", "wmType": "Underground" }, "geometry": { "type": "LineString", "coordinates": [ [ -92.580471950332097, 47.657479887008002 ], [ -92.580382949838594, 47.657617886907303 ] ] } },
{ "type": "Feature", "properties": { "wmUplineSo": "SAND LAKE", "wmType": "Underground" }, "geometry": { "type": "LineString", "coordinates": [ [ -92.624792543581904, 47.651290030267802 ], [ -92.624737, 47.651151 ] ] } },
{ "type": "Feature", "properties": { "wmUplineSo": "SAND LAKE", "wmType": "Underground" }, "geometry": { "type": "LineString", "coordinates": [ [ -92.624737, 47.651151 ], [ -92.624548, 47.651031 ] ] } },
{ "type": "Feature", "properties": { "wmUplineSo": "SAND LAKE", "wmType": "Underground" }, "geometry": { "type": "LineString", "coordinates": [ [ -92.624548, 47.651031 ], [ -92.62436, 47.650884 ] ] } },
{ "type": "Feature", "properties": { "wmUplineSo": "SAND LAKE", "wmType": "Underground" }, "geometry": { "type": "LineString", "coordinates": [ [ -92.62436, 47.650884 ], [ -92.62412, 47.65072 ] ] } },
{ "type": "Feature", "properties": { "wmUplineSo": "SAND LAKE", "wmType": "Underground" }, "geometry": { "type": "LineString", "coordinates": [ [ -92.616574827636398, 47.6420787722098 ], [ -92.616386, 47.642079000000102 ] ] } },
{ "type": "Feature", "properties": { "wmUplineSo": "SAND LAKE", "wmType": "Underground" }, "geometry": { "type": "LineString", "coordinates": [ [ -92.613091665091503, 47.654152229507901 ], [ -92.613278664203193, 47.654092969178798 ] ] } },
{ "type": "Feature", "properties": { "wmUplineSo": "SAND LAKE", "wmType": "Underground" }, "geometry": { "type": "LineString", "coordinates": [ [ -92.543963366709406, 47.594671650954403 ], [ -92.543979399999898, 47.594660900009401 ] ] } },
{ "type": "Feature", "properties": { "wmUplineSo": "SAND LAKE", "wmType": "Underground" }, "geometry": { "type": "LineString", "coordinates": [ [ -92.543822587114605, 47.593954295345299 ], [ -92.544103699999894, 47.593975200009403 ] ] } },
{ "type": "Feature", "properties": { "wmUplineSo": "SAND LAKE", "wmType": "Underground" }, "geometry": { "type": "LineString", "coordinates": [ [ -92.535123962534996, 47.596186942760397 ], [ -92.535218699999902, 47.596270100009399 ] ] } },
{ "type": "Feature", "properties": { "wmUplineSo": "SAND LAKE", "wmType": "Underground" }, "geometry": { "type": "LineString", "coordinates": [ [ -92.539489749999902, 47.594070430009403 ], [ -92.539459799999904, 47.594093000009401 ] ] } },
{ "type": "Feature", "properties": { "wmUplineSo": "SAND LAKE", "wmType": "Underground" }, "geometry": { "type": "LineString", "coordinates": [ [ -92.5396957399999, 47.5916557300094 ], [ -92.539496699999901, 47.591697200009399 ] ] } },
{ "type": "Feature", "properties": { "wmUplineSo": "SAND LAKE", "wmType": "Underground" }, "geometry": { "type": "LineString", "coordinates": [ [ -92.540820507380104, 47.591525841302698 ], [ -92.540165099999896, 47.591331700009398 ] ] } },
{ "type": "Feature", "properties": { "wmUplineSo": "SAND LAKE", "wmType": "Underground" }, "geometry": { "type": "LineString", "coordinates": [ [ -92.5408853860569, 47.590601134003798 ], [ -92.540454792614497, 47.590633550624297 ] ] } },
{ "type": "Feature", "properties": { "wmUplineSo": "SAND LAKE", "wmType": "Underground" }, "geometry": { "type": "LineString", "coordinates": [ [ -92.530148344565703, 47.592263170875199 ], [ -92.530101299999899, 47.592350000009397 ] ] } },
{ "type": "Feature", "properties": { "wmUplineSo": "SAND LAKE", "wmType": "Underground" }, "geometry": { "type": "LineString", "coordinates": [ [ -92.543412479081894, 47.578643471089997 ], [ -92.5434383999999, 47.578572200009397 ] ] } },
{ "type": "Feature", "properties": { "wmUplineSo": "SAND LAKE", "wmType": "Underground" }, "geometry": { "type": "LineString", "coordinates": [ [ -92.5455707868269, 47.585128509192401 ], [ -92.545585199999906, 47.585157500009402 ] ] } },
{ "type": "Feature", "properties": { "wmUplineSo": "SAND LAKE", "wmType": "Underground" }, "geometry": { "type": "LineString", "coordinates": [ [ -92.561704732329503, 47.5468324630762 ], [ -92.5620025999999, 47.546637300009401 ] ] } },
{ "type": "Feature", "properties": { "wmUplineSo": "SAND LAKE", "wmType": "Underground" }, "geometry": { "type": "LineString", "coordinates": [ [ -92.596013685581198, 47.654158622907602 ], [ -92.596084099999899, 47.6541292000095 ] ] } },
{ "type": "Feature", "properties": { "wmUplineSo": "SAND LAKE", "wmType": "Underground" }, "geometry": { "type": "LineString", "coordinates": [ [ -92.595648995611697, 47.654013606811098 ], [ -92.595606140016599, 47.654021313105098 ], [ -92.595582299999904, 47.654025600009497 ] ] } },
{ "type": "Feature", "properties": { "wmUplineSo": "SAND LAKE", "wmType": "Underground" }, "geometry": { "type": "LineString", "coordinates": [ [ -92.593724489542694, 47.652810200877703 ], [ -92.593721661808203, 47.652812522183702 ], [ -92.593454299999905, 47.653032000009503 ] ] } },
{ "type": "Feature", "properties": { "wmUplineSo": "SAND LAKE", "wmType": "Underground" }, "geometry": { "type": "LineString", "coordinates": [ [ -92.593713055499904, 47.652467345236602 ], [ -92.593707970465104, 47.652469466712098 ], [ -92.593669299999902, 47.652485600009499 ] ] } },
{ "type": "Feature", "properties": { "wmUplineSo": "SAND LAKE", "wmType": "Underground" }, "geometry": { "type": "LineString", "coordinates": [ [ -92.593357999999895, 47.651770900009502 ], [ -92.593256599999904, 47.651619800009499 ] ] } },
{ "type": "Feature", "properties": { "wmUplineSo": "SAND LAKE", "wmType": "Underground" }, "geometry": { "type": "LineString", "coordinates": [ [ -92.596381502415994, 47.651319017562997 ], [ -92.596467199999907, 47.651315800009499 ] ] } },
{ "type": "Feature", "properties": { "wmUplineSo": "SAND LAKE", "wmType": "Underground" }, "geometry": { "type": "LineString", "coordinates": [ [ -92.5974, 47.652483 ], [ -92.597442399999906, 47.652519700009499 ] ] } },
{ "type": "Feature", "properties": { "wmUplineSo": "SAND LAKE", "wmType": "Underground" }, "geometry": { "type": "LineString", "coordinates": [ [ -92.595930499169697, 47.652205380752299 ], [ -92.595754299999896, 47.652337500009502 ] ] } },
{ "type": "Feature", "properties": { "wmUplineSo": "SAND LAKE", "wmType": "Underground" }, "geometry": { "type": "LineString", "coordinates": [ [ -92.596325992700201, 47.6523121279807 ], [ -92.596324439170502, 47.652319179597797 ], [ -92.596266999999898, 47.652579900009499 ] ] } },
{ "type": "Feature", "properties": { "wmUplineSo": "SAND LAKE", "wmType": "Underground" }, "geometry": { "type": "LineString", "coordinates": [ [ -92.596623999973502, 47.653135003741802 ], [ -92.596660099999895, 47.653129500009499 ] ] } },
{ "type": "Feature", "properties": { "wmUplineSo": "SAND LAKE", "wmType": "Underground" }, "geometry": { "type": "LineString", "coordinates": [ [ -92.597542, 47.653154 ], [ -92.597539812532204, 47.653153832751599 ] ] } },
{ "type": "Feature", "properties": { "wmUplineSo": "SAND LAKE", "wmType": "Underground" }, "geometry": { "type": "LineString", "coordinates": [ [ -92.610851465297202, 47.6568407637806 ], [ -92.610631299999895, 47.656939900009498 ] ] } },
{ "type": "Feature", "properties": { "wmUplineSo": "SAND LAKE", "wmType": "Underground" }, "geometry": { "type": "LineString", "coordinates": [ [ -92.611309925696006, 47.656670492831303 ], [ -92.611648532280199, 47.6569311314271 ] ] } },
{ "type": "Feature", "properties": { "wmUplineSo": "SAND LAKE", "wmType": "Underground" }, "geometry": { "type": "LineString", "coordinates": [ [ -92.596571025466403, 47.654974614109697 ], [ -92.596605599999904, 47.6548035000095 ] ] } },
{ "type": "Feature", "properties": { "wmUplineSo": "SAND LAKE", "wmType": "Underground" }, "geometry": { "type": "LineString", "coordinates": [ [ -92.605726473783307, 47.656941579977797 ], [ -92.605473199999906, 47.656991500009497 ] ] } },
{ "type": "Feature", "properties": { "wmUplineSo": "SAND LAKE", "wmType": "Underground" }, "geometry": { "type": "LineString", "coordinates": [ [ -92.604309079999894, 47.655895230009499 ], [ -92.604360399999905, 47.655929500009499 ] ] } },
{ "type": "Feature", "properties": { "wmUplineSo": "SAND LAKE", "wmType": "Underground" }, "geometry": { "type": "LineString", "coordinates": [ [ -92.602558480708595, 47.6553393919136 ], [ -92.602536199999903, 47.655287000009501 ] ] } },
{ "type": "Feature", "properties": { "wmUplineSo": "SAND LAKE", "wmType": "Underground" }, "geometry": { "type": "LineString", "coordinates": [ [ -92.603650750224901, 47.654704620478498 ], [ -92.603737199999898, 47.654726000009497 ] ] } },
{ "type": "Feature", "properties": { "wmUplineSo": "SAND LAKE", "wmType": "Underground" }, "geometry": { "type": "LineString", "coordinates": [ [ -92.601092455694499, 47.6553554978858 ], [ -92.600888999999896, 47.655304200009503 ] ] } },
{ "type": "Feature", "properties": { "wmUplineSo": "SAND LAKE", "wmType": "Underground" }, "geometry": { "type": "LineString", "coordinates": [ [ -92.600449881678799, 47.654502255420198 ], [ -92.600061999999895, 47.654527800009497 ] ] } },
{ "type": "Feature", "properties": { "wmUplineSo": "SAND LAKE", "wmType": "Underground" }, "geometry": { "type": "LineString", "coordinates": [ [ -92.599218838768707, 47.655070933751297 ], [ -92.599008199999901, 47.6551373000095 ] ] } },
{ "type": "Feature", "properties": { "wmUplineSo": "SAND LAKE", "wmType": "Underground" }, "geometry": { "type": "LineString", "coordinates": [ [ -92.600226290268395, 47.653576065201797 ], [ -92.600047599999897, 47.653696700009498 ] ] } },
{ "type": "Feature", "properties": { "wmUplineSo": "SAND LAKE", "wmType": "Underground" }, "geometry": { "type": "LineString", "coordinates": [ [ -92.600599184835204, 47.656228890548199 ], [ -92.600432099999907, 47.656260800009498 ] ] } },
{ "type": "Feature", "properties": { "wmUplineSo": "SAND LAKE", "wmType": "Underground" }, "geometry": { "type": "LineString", "coordinates": [ [ -92.597432, 47.655143000000102 ], [ -92.597335099999896, 47.6548351000095 ] ] } },
{ "type": "Feature", "properties": { "wmUplineSo": "SAND LAKE", "wmType": "Underground" }, "geometry": { "type": "LineString", "coordinates": [ [ -92.621604919999896, 47.657142640009504 ], [ -92.621464, 47.657191400009502 ] ] } },
{ "type": "Feature", "properties": { "wmUplineSo": "SAND LAKE", "wmType": "Underground" }, "geometry": { "type": "LineString", "coordinates": [ [ -92.621115438881105, 47.656347677109601 ], [ -92.621077499999899, 47.656394800009501 ] ] } },
{ "type": "Feature", "properties": { "wmUplineSo": "SAND LAKE", "wmType": "Underground" }, "geometry": { "type": "LineString", "coordinates": [ [ -92.620209444256403, 47.655851696699003 ], [ -92.620497199999903, 47.655532700009502 ] ] } },
{ "type": "Feature", "properties": { "wmUplineSo": "SAND LAKE", "wmType": "Underground" }, "geometry": { "type": "LineString", "coordinates": [ [ -92.620209444256403, 47.655851696699003 ], [ -92.620058787944203, 47.655597177627698 ] ] } },
{ "type": "Feature", "properties": { "wmUplineSo": "SAND LAKE", "wmType": "Underground" }, "geometry": { "type": "LineString", "coordinates": [ [ -92.620058787944203, 47.655597177627698 ], [ -92.620065530384394, 47.655376012969597 ] ] } },
{ "type": "Feature", "properties": { "wmUplineSo": "SAND LAKE", "wmType": "Underground" }, "geometry": { "type": "LineString", "coordinates": [ [ -92.619478365971105, 47.6557740504824 ], [ -92.619421, 47.655820400009503 ] ] } },
{ "type": "Feature", "properties": { "wmUplineSo": "SAND LAKE", "wmType": "Underground" }, "geometry": { "type": "LineString", "coordinates": [ [ -92.619615004966093, 47.658141030669498 ], [ -92.619395899999901, 47.658439600009501 ] ] } },
{ "type": "Feature", "properties": { "wmUplineSo": "SAND LAKE", "wmType": "Underground" }, "geometry": { "type": "LineString", "coordinates": [ [ -92.617515675552795, 47.655995882053404 ], [ -92.617479113693804, 47.655965872107501 ] ] } },
{ "type": "Feature", "properties": { "wmUplineSo": "SAND LAKE", "wmType": "Underground" }, "geometry": { "type": "LineString", "coordinates": [ [ -92.616870483235999, 47.655966864103299 ], [ -92.616871320313194, 47.655939460722003 ] ] } },
{ "type": "Feature", "properties": { "wmUplineSo": "SAND LAKE", "wmType": "Underground" }, "geometry": { "type": "LineString", "coordinates": [ [ -92.6146766169133, 47.657882090772603 ], [ -92.614652799999902, 47.6578929000095 ] ] } },
{ "type": "Feature", "properties": { "wmUplineSo": "SAND LAKE", "wmType": "Underground" }, "geometry": { "type": "LineString", "coordinates": [ [ -92.615022039740296, 47.6550808260059 ], [ -92.614841499999898, 47.655078000009503 ] ] } },
{ "type": "Feature", "properties": { "wmUplineSo": "SAND LAKE", "wmType": "Underground" }, "geometry": { "type": "LineString", "coordinates": [ [ -92.621743012057394, 47.654462303132 ], [ -92.621357499999903, 47.654615400009497 ] ] } },
{ "type": "Feature", "properties": { "wmUplineSo": "SAND LAKE", "wmType": "Underground" }, "geometry": { "type": "LineString", "coordinates": [ [ -92.6233058791573, 47.652397740940302 ], [ -92.623333599999896, 47.6524553000095 ] ] } },
{ "type": "Feature", "properties": { "wmUplineSo": "SAND LAKE", "wmType": "Underground" }, "geometry": { "type": "LineString", "coordinates": [ [ -92.625602200031295, 47.651086086855997 ], [ -92.625628299999903, 47.651091600009501 ], [ -92.625628299999903, 47.651091600009501 ] ] } },
{ "type": "Feature", "properties": { "wmUplineSo": "SAND LAKE", "wmType": "Underground" }, "geometry": { "type": "LineString", "coordinates": [ [ -92.626281739999897, 47.650062560009502 ], [ -92.626592399999893, 47.650125300009499 ] ] } },
{ "type": "Feature", "properties": { "wmUplineSo": "SAND LAKE", "wmType": "Underground" }, "geometry": { "type": "LineString", "coordinates": [ [ -92.613187844718396, 47.654740386674703 ], [ -92.612994, 47.654862800009496 ] ] } },
{ "type": "Feature", "properties": { "wmUplineSo": "SAND LAKE", "wmType": "Underground" }, "geometry": { "type": "LineString", "coordinates": [ [ -92.613278664203193, 47.654092969178798 ], [ -92.613332299999897, 47.654077200009503 ] ] } },
{ "type": "Feature", "properties": { "wmUplineSo": "SAND LAKE", "wmType": "Underground" }, "geometry": { "type": "LineString", "coordinates": [ [ -92.620376589999907, 47.647243500009502 ], [ -92.620354099999901, 47.647255100009502 ] ] } },
{ "type": "Feature", "properties": { "wmUplineSo": "SAND LAKE", "wmType": "Underground" }, "geometry": { "type": "LineString", "coordinates": [ [ -92.619220499207103, 47.6426562513333 ], [ -92.619277499999896, 47.642614700009503 ] ] } },
{ "type": "Feature", "properties": { "wmUplineSo": "SAND LAKE", "wmType": "Underground" }, "geometry": { "type": "LineString", "coordinates": [ [ -92.610770140796404, 47.638991081925099 ], [ -92.610742099999896, 47.639145500009498 ] ] } },
{ "type": "Feature", "properties": { "wmUplineSo": "SAND LAKE", "wmType": "Underground" }, "geometry": { "type": "LineString", "coordinates": [ [ -92.622061344450401, 47.641669454318702 ], [ -92.621824, 47.641984000009501 ] ] } },
{ "type": "Feature", "properties": { "wmUplineSo": "SAND LAKE", "wmType": "Underground" }, "geometry": { "type": "LineString", "coordinates": [ [ -92.622119315592698, 47.640818122219201 ], [ -92.621875399999894, 47.640991100009501 ] ] } },
{ "type": "Feature", "properties": { "wmUplineSo": "SAND LAKE", "wmType": "Underground" }, "geometry": { "type": "LineString", "coordinates": [ [ -92.621980667056803, 47.638815385648101 ], [ -92.621664699999897, 47.638927100009496 ] ] } },
{ "type": "Feature", "properties": { "wmUplineSo": "SAND LAKE", "wmType": "Underground" }, "geometry": { "type": "LineString", "coordinates": [ [ -92.623507515500805, 47.640577638604 ], [ -92.623332099999899, 47.640779600009502 ] ] } },
{ "type": "Feature", "properties": { "wmUplineSo": "SAND LAKE", "wmType": "Underground" }, "geometry": { "type": "LineString", "coordinates": [ [ -92.626770019999896, 47.642940520009503 ], [ -92.626689099999894, 47.642963100009503 ] ] } },
{ "type": "Feature", "properties": { "wmUplineSo": "SAND LAKE", "wmType": "Underground" }, "geometry": { "type": "LineString", "coordinates": [ [ -92.626770019999896, 47.642940520009503 ], [ -92.626664299999902, 47.642941900009497 ] ] } },
{ "type": "Feature", "properties": { "wmUplineSo": "SAND LAKE", "wmType": "Underground" }, "geometry": { "type": "LineString", "coordinates": [ [ -92.626351536222899, 47.642959384990199 ], [ -92.626109499999899, 47.643083000009497 ] ] } },
{ "type": "Feature", "properties": { "wmUplineSo": "SAND LAKE", "wmType": "Underground" }, "geometry": { "type": "LineString", "coordinates": [ [ -92.627914756553395, 47.641985454003901 ], [ -92.628144299999903, 47.642255500009497 ] ] } },
{ "type": "Feature", "properties": { "wmUplineSo": "SAND LAKE", "wmType": "Underground" }, "geometry": { "type": "LineString", "coordinates": [ [ -92.627914756553395, 47.641985454003901 ], [ -92.628115299999905, 47.641969100009497 ] ] } },
{ "type": "Feature", "properties": { "wmUplineSo": "SAND LAKE", "wmType": "Underground" }, "geometry": { "type": "LineString", "coordinates": [ [ -92.630471641881797, 47.640339632656499 ], [ -92.630215199999896, 47.640507300009503 ] ] } },
{ "type": "Feature", "properties": { "wmUplineSo": "SAND LAKE", "wmType": "Underground" }, "geometry": { "type": "LineString", "coordinates": [ [ -92.632444199999895, 47.642898300009499 ], [ -92.632446, 47.642877500009497 ] ] } },
{ "type": "Feature", "properties": { "wmUplineSo": "SAND LAKE", "wmType": "Underground" }, "geometry": { "type": "LineString", "coordinates": [ [ -92.633131380881295, 47.641513977474503 ], [ -92.633099399999907, 47.641382500009499 ] ] } },
{ "type": "Feature", "properties": { "wmUplineSo": "SAND LAKE", "wmType": "Underground" }, "geometry": { "type": "LineString", "coordinates": [ [ -92.567098321889006, 47.637635919758999 ], [ -92.567031499999899, 47.6376633000095 ] ] } },
{ "type": "Feature", "properties": { "wmUplineSo": "SAND LAKE", "wmType": "Underground" }, "geometry": { "type": "LineString", "coordinates": [ [ -92.569869258851398, 47.638991411815702 ], [ -92.569499599999901, 47.639147900009498 ] ] } },
{ "type": "Feature", "properties": { "wmUplineSo": "SAND LAKE", "wmType": "Underground" }, "geometry": { "type": "LineString", "coordinates": [ [ -92.568866071840105, 47.639532449976201 ], [ -92.568621099999902, 47.639651800009503 ] ] } },
{ "type": "Feature", "properties": { "wmUplineSo": "SAND LAKE", "wmType": "Underground" }, "geometry": { "type": "LineString", "coordinates": [ [ -92.567344669999898, 47.6365470900095 ], [ -92.5673352040385, 47.636493071900802 ] ] } },
{ "type": "Feature", "properties": { "wmUplineSo": "SAND LAKE", "wmType": "Underground" }, "geometry": { "type": "LineString", "coordinates": [ [ -92.569673467269894, 47.635951646333602 ], [ -92.569358768934606, 47.635958430231 ] ] } },
{ "type": "Feature", "properties": { "wmUplineSo": "SAND LAKE", "wmType": "Underground" }, "geometry": { "type": "LineString", "coordinates": [ [ -92.567358967678501, 47.6343593045791 ], [ -92.567125, 47.634412300009501 ] ] } },
{ "type": "Feature", "properties": { "wmUplineSo": "SAND LAKE", "wmType": "Underground" }, "geometry": { "type": "LineString", "coordinates": [ [ -92.569760483496594, 47.634567328312997 ], [ -92.569825699999896, 47.634628500009498 ] ] } },
{ "type": "Feature", "properties": { "wmUplineSo": "SAND LAKE", "wmType": "Underground" }, "geometry": { "type": "LineString", "coordinates": [ [ -92.588912777357095, 47.635345747381798 ], [ -92.588678499999901, 47.635333200009498 ] ] } },
{ "type": "Feature", "properties": { "wmUplineSo": "SAND LAKE", "wmType": "Underground" }, "geometry": { "type": "LineString", "coordinates": [ [ -92.574513521106795, 47.6306414229268 ], [ -92.574274899999907, 47.630693200009503 ] ] } },
{ "type": "Feature", "properties": { "wmUplineSo": "SAND LAKE", "wmType": "Underground" }, "geometry": { "type": "LineString", "coordinates": [ [ -92.557994857411202, 47.632580016176099 ], [ -92.557713299999904, 47.632602600009498 ] ] } },
{ "type": "Feature", "properties": { "wmUplineSo": "SAND LAKE", "wmType": "Underground" }, "geometry": { "type": "LineString", "coordinates": [ [ -92.550448297515601, 47.633236074498498 ], [ -92.550597999999894, 47.633260500009499 ] ] } },
{ "type": "Feature", "properties": { "wmUplineSo": "SAND LAKE", "wmType": "Underground" }, "geometry": { "type": "LineString", "coordinates": [ [ -92.545783999999898, 47.633785250009502 ], [ -92.545606879593095, 47.634020663601902 ] ] } },
{ "type": "Feature", "properties": { "wmUplineSo": "SAND LAKE", "wmType": "Underground" }, "geometry": { "type": "LineString", "coordinates": [ [ -92.544036345775694, 47.6343912243209 ], [ -92.5437405714855, 47.6344238611808 ] ] } },
{ "type": "Feature", "properties": { "wmUplineSo": "SAND LAKE", "wmType": "Underground" }, "geometry": { "type": "LineString", "coordinates": [ [ -92.544018930785697, 47.6327415968927 ], [ -92.543854676505006, 47.632794361398702 ] ] } },
{ "type": "Feature", "properties": { "wmUplineSo": "SAND LAKE", "wmType": "Underground" }, "geometry": { "type": "LineString", "coordinates": [ [ -92.555618551909404, 47.614216898025802 ], [ -92.555659945230801, 47.614190081851802 ] ] } },
{ "type": "Feature", "properties": { "wmUplineSo": "SAND LAKE", "wmType": "Underground" }, "geometry": { "type": "LineString", "coordinates": [ [ -92.555923459999903, 47.6130371100095 ], [ -92.555993399999906, 47.6131259000095 ] ] } },
{ "type": "Feature", "properties": { "wmUplineSo": "SAND LAKE", "wmType": "Underground" }, "geometry": { "type": "LineString", "coordinates": [ [ -92.545356289719606, 47.6194895164206 ], [ -92.545070999999894, 47.619499500009503 ] ] } },
{ "type": "Feature", "properties": { "wmUplineSo": "SAND LAKE", "wmType": "Underground" }, "geometry": { "type": "LineString", "coordinates": [ [ -92.545187579474998, 47.6186485512887 ], [ -92.545107699999903, 47.618615900009502 ] ] } },
{ "type": "Feature", "properties": { "wmUplineSo": "SAND LAKE", "wmType": "Underground" }, "geometry": { "type": "LineString", "coordinates": [ [ -92.545518461952199, 47.6172365144267 ], [ -92.545230099999898, 47.617264500009497 ] ] } },
{ "type": "Feature", "properties": { "wmUplineSo": "SAND LAKE", "wmType": "Underground" }, "geometry": { "type": "LineString", "coordinates": [ [ -92.5454064756413, 47.616718961706901 ], [ -92.545437016627403, 47.616743680865 ] ] } },
{ "type": "Feature", "properties": { "wmUplineSo": "SAND LAKE", "wmType": "Underground" }, "geometry": { "type": "LineString", "coordinates": [ [ -92.545437016627403, 47.616743680865 ], [ -92.545120899999901, 47.616753200009498 ] ] } },
{ "type": "Feature", "properties": { "wmUplineSo": "SAND LAKE", "wmType": "Underground" }, "geometry": { "type": "LineString", "coordinates": [ [ -92.554649681521695, 47.606277701350898 ], [ -92.554898299999905, 47.6064930000095 ] ] } },
{ "type": "Feature", "properties": { "wmUplineSo": "SAND LAKE", "wmType": "Underground" }, "geometry": { "type": "LineString", "coordinates": [ [ -92.556642034803005, 47.604893690322498 ], [ -92.556414199999907, 47.604964800009398 ] ] } },
{ "type": "Feature", "properties": { "wmUplineSo": "SAND LAKE", "wmType": "Underground" }, "geometry": { "type": "LineString", "coordinates": [ [ -92.556389173118404, 47.601093320726001 ], [ -92.556065699999905, 47.601233000009401 ] ] } },
{ "type": "Feature", "properties": { "wmUplineSo": "SAND LAKE", "wmType": "Underground" }, "geometry": { "type": "LineString", "coordinates": [ [ -92.554188491885796, 47.599793392731598 ], [ -92.553923699999899, 47.5997645000094 ] ] } },
{ "type": "Feature", "properties": { "wmUplineSo": "SAND LAKE", "wmType": "Underground" }, "geometry": { "type": "LineString", "coordinates": [ [ -92.551826307522006, 47.598201939811702 ], [ -92.551563399999907, 47.598190800009398 ] ] } },
{ "type": "Feature", "properties": { "wmUplineSo": "SAND LAKE", "wmType": "Underground" }, "geometry": { "type": "LineString", "coordinates": [ [ -92.548833465674306, 47.596572107336399 ], [ -92.549171999999899, 47.596278300009402 ] ] } },
{ "type": "Feature", "properties": { "wmUplineSo": "SAND LAKE", "wmType": "Underground" }, "geometry": { "type": "LineString", "coordinates": [ [ -92.544866483792205, 47.597356475093903 ], [ -92.544596176560106, 47.597327065879199 ] ] } },
{ "type": "Feature", "properties": { "wmUplineSo": "SAND LAKE", "wmType": "Underground" }, "geometry": { "type": "LineString", "coordinates": [ [ -92.543861628541293, 47.596792244943202 ], [ -92.543648399999896, 47.596773200009501 ] ] } },
{ "type": "Feature", "properties": { "wmUplineSo": "SAND LAKE", "wmType": "Underground" }, "geometry": { "type": "LineString", "coordinates": [ [ -92.541671749999907, 47.594196320009402 ], [ -92.5416325999999, 47.594276100009402 ] ] } },
{ "type": "Feature", "properties": { "wmUplineSo": "SAND LAKE", "wmType": "Underground" }, "geometry": { "type": "LineString", "coordinates": [ [ -92.543933395408999, 47.594683763977699 ], [ -92.544586699999897, 47.595083900009399 ] ] } },
{ "type": "Feature", "properties": { "wmUplineSo": "SAND LAKE", "wmType": "Underground" }, "geometry": { "type": "LineString", "coordinates": [ [ -92.543385383910703, 47.594970837225297 ], [ -92.544124999999894, 47.5950286000094 ] ] } },
{ "type": "Feature", "properties": { "wmUplineSo": "SAND LAKE", "wmType": "Underground" }, "geometry": { "type": "LineString", "coordinates": [ [ -92.597542, 47.653154 ], [ -92.597490099999902, 47.653227300009497 ] ] } },
{ "type": "Feature", "properties": { "wmUplineSo": "SAND LAKE", "wmType": "Underground" }, "geometry": { "type": "LineString", "coordinates": [ [ -92.597542, 47.653154 ], [ -92.597645599999893, 47.653073500009498 ] ] } },
{ "type": "Feature", "properties": { "wmUplineSo": "SAND LAKE", "wmType": "Underground" }, "geometry": { "type": "LineString", "coordinates": [ [ -92.595683332054506, 47.658527666640097 ], [ -92.595555838200497, 47.658451599350897 ] ] } },
{ "type": "Feature", "properties": { "wmUplineSo": "SAND LAKE", "wmType": "Underground" }, "geometry": { "type": "LineString", "coordinates": [ [ -92.598348065999005, 47.655874638491397 ], [ -92.598135699999901, 47.655905700009498 ] ] } },
{ "type": "Feature", "properties": { "wmUplineSo": "SAND LAKE", "wmType": "Underground" }, "geometry": { "type": "LineString", "coordinates": [ [ -92.593355657817597, 47.657225588526799 ], [ -92.593401806900204, 47.657461701608497 ] ] } },
{ "type": "Feature", "properties": { "wmUplineSo": "SAND LAKE", "wmType": "Underground" }, "geometry": { "type": "LineString", "coordinates": [ [ -92.593013058519205, 47.655134977423998 ], [ -92.592849699999903, 47.655095900009499 ] ] } },
{ "type": "Feature", "properties": { "wmUplineSo": "SAND LAKE", "wmType": "Underground" }, "geometry": { "type": "LineString", "coordinates": [ [ -92.5935219861299, 47.65484994701 ], [ -92.593471499999893, 47.654855400009502 ] ] } },
{ "type": "Feature", "properties": { "wmUplineSo": "SAND LAKE", "wmType": "Underground" }, "geometry": { "type": "LineString", "coordinates": [ [ -92.594670472069097, 47.655417582521103 ], [ -92.594473499999907, 47.655556400009502 ] ] } },
{ "type": "Feature", "properties": { "wmUplineSo": "SAND LAKE", "wmType": "Underground" }, "geometry": { "type": "LineString", "coordinates": [ [ -92.596128030853095, 47.655883794368101 ], [ -92.5961754, 47.655758800009501 ] ] } },
{ "type": "Feature", "properties": { "wmUplineSo": "SAND LAKE", "wmType": "Underground" }, "geometry": { "type": "LineString", "coordinates": [ [ -92.596786499999894, 47.655918120009503 ], [ -92.596775199999897, 47.655761200009501 ] ] } },
{ "type": "Feature", "properties": { "wmUplineSo": "SAND LAKE", "wmType": "Underground" }, "geometry": { "type": "LineString", "coordinates": [ [ -92.596022999973499, 47.656320003742699 ], [ -92.595839427530706, 47.656555778835397 ] ] } },
{ "type": "Feature", "properties": { "wmUplineSo": "SAND LAKE", "wmType": "Underground" }, "geometry": { "type": "LineString", "coordinates": [ [ -92.596037897008401, 47.656800457673697 ], [ -92.5958566260651, 47.657160278830197 ] ] } },
{ "type": "Feature", "properties": { "wmUplineSo": "SAND LAKE", "wmType": "Underground" }, "geometry": { "type": "LineString", "coordinates": [ [ -92.596970623643401, 47.656852072408903 ], [ -92.596780529491795, 47.657166879897098 ] ] } },
{ "type": "Feature", "properties": { "wmUplineSo": "SAND LAKE", "wmType": "Underground" }, "geometry": { "type": "LineString", "coordinates": [ [ -92.596811511957497, 47.657519543570203 ], [ -92.596720952563501, 47.657659681546001 ] ] } },
{ "type": "Feature", "properties": { "wmUplineSo": "SAND LAKE", "wmType": "Underground" }, "geometry": { "type": "LineString", "coordinates": [ [ -92.596534729999902, 47.657421110009501 ], [ -92.596335550094906, 47.6578468811094 ] ] } },
{ "type": "Feature", "properties": { "wmUplineSo": "SAND LAKE", "wmType": "Underground" }, "geometry": { "type": "LineString", "coordinates": [ [ -92.591749182594299, 47.648847235350502 ], [ -92.591542791210699, 47.648855499349303 ] ] } },
{ "type": "Feature", "properties": { "wmUplineSo": "SAND LAKE", "wmType": "Underground" }, "geometry": { "type": "LineString", "coordinates": [ [ -92.585913570136498, 47.6510341694555 ], [ -92.585990374959806, 47.651409693207697 ] ] } },
{ "type": "Feature", "properties": { "wmUplineSo": "SAND LAKE", "wmType": "Underground" }, "geometry": { "type": "LineString", "coordinates": [ [ -92.5848165228456, 47.6480401174938 ], [ -92.584745980479994, 47.648162391922497 ] ] } },
{ "type": "Feature", "properties": { "wmUplineSo": "SAND LAKE", "wmType": "Underground" }, "geometry": { "type": "LineString", "coordinates": [ [ -92.581041061401393, 47.650681619155499 ], [ -92.581292267442393, 47.650972488072398 ] ] } },
{ "type": "Feature", "properties": { "wmUplineSo": "SAND LAKE", "wmType": "Underground" }, "geometry": { "type": "LineString", "coordinates": [ [ -92.582420349999893, 47.649917600009502 ], [ -92.582174771204194, 47.6500750890605 ] ] } },
{ "type": "Feature", "properties": { "wmUplineSo": "SAND LAKE", "wmType": "Underground" }, "geometry": { "type": "LineString", "coordinates": [ [ -92.580810788838207, 47.648043392263403 ], [ -92.580610172716703, 47.6482554873905 ] ] } },
{ "type": "Feature", "properties": { "wmUplineSo": "SAND LAKE", "wmType": "Underground" }, "geometry": { "type": "LineString", "coordinates": [ [ -92.573320876425001, 47.646774434069101 ], [ -92.573136562221706, 47.646951379234999 ] ] } },
{ "type": "Feature", "properties": { "wmUplineSo": "SAND LAKE", "wmType": "Underground" }, "geometry": { "type": "LineString", "coordinates": [ [ -92.575588537290898, 47.649836492790797 ], [ -92.575719754151606, 47.649867255464699 ], [ -92.575676259966897, 47.649820781948101 ] ] } },
{ "type": "Feature", "properties": { "wmUplineSo": "SAND LAKE", "wmType": "Underground" }, "geometry": { "type": "LineString", "coordinates": [ [ -92.578851856750504, 47.6457012091034 ], [ -92.579214899999897, 47.645476000009502 ] ] } },
{ "type": "Feature", "properties": { "wmUplineSo": "SAND LAKE", "wmType": "Underground" }, "geometry": { "type": "LineString", "coordinates": [ [ -92.577863366961907, 47.645031306218101 ], [ -92.577965299999903, 47.644908400009498 ] ] } },
{ "type": "Feature", "properties": { "wmUplineSo": "SAND LAKE", "wmType": "Underground" }, "geometry": { "type": "LineString", "coordinates": [ [ -92.576466290066307, 47.652324498143003 ], [ -92.576257555432903, 47.652152082528701 ] ] } },
{ "type": "Feature", "properties": { "wmUplineSo": "SAND LAKE", "wmType": "Underground" }, "geometry": { "type": "LineString", "coordinates": [ [ -92.582552746398804, 47.651628175644902 ], [ -92.582594155232499, 47.651601351404899 ] ] } },
{ "type": "Feature", "properties": { "wmUplineSo": "SAND LAKE", "wmType": "Underground" }, "geometry": { "type": "LineString", "coordinates": [ [ -92.586740588619904, 47.6550505767445 ], [ -92.586530367040297, 47.655121293710401 ] ] } },
{ "type": "Feature", "properties": { "wmUplineSo": "SAND LAKE", "wmType": "Underground" }, "geometry": { "type": "LineString", "coordinates": [ [ -92.585952759999898, 47.6552887000095 ], [ -92.585767364692899, 47.655519692865099 ] ] } },
{ "type": "Feature", "properties": { "wmUplineSo": "SAND LAKE", "wmType": "Underground" }, "geometry": { "type": "LineString", "coordinates": [ [ -92.584665562559294, 47.655571491657 ], [ -92.584518562478294, 47.6554934914979 ] ] } },
{ "type": "Feature", "properties": { "wmUplineSo": "SAND LAKE", "wmType": "Underground" }, "geometry": { "type": "LineString", "coordinates": [ [ -92.582055047935299, 47.655789306539397 ], [ -92.582114957368006, 47.655796488857803 ] ] } },
{ "type": "Feature", "properties": { "wmUplineSo": "SAND LAKE", "wmType": "Underground" }, "geometry": { "type": "LineString", "coordinates": [ [ -92.582056804263601, 47.6570778449017 ], [ -92.582438848111906, 47.6569555582699 ] ] } },
{ "type": "Feature", "properties": { "wmUplineSo": "SAND LAKE", "wmType": "Underground" }, "geometry": { "type": "LineString", "coordinates": [ [ -92.574416265389502, 47.642430450326202 ], [ -92.574513499999895, 47.6422296000095 ] ] } },
{ "type": "Feature", "properties": { "wmUplineSo": "SAND LAKE", "wmType": "Underground" }, "geometry": { "type": "LineString", "coordinates": [ [ -92.573266956499197, 47.641612798553403 ], [ -92.573247899999899, 47.641596300009503 ] ] } },
{ "type": "Feature", "properties": { "wmUplineSo": "SAND LAKE", "wmType": "Underground" }, "geometry": { "type": "LineString", "coordinates": [ [ -92.577441380505306, 47.643686221001403 ], [ -92.577071899999893, 47.6438761000095 ] ] } },
{ "type": "Feature", "properties": { "wmUplineSo": "SAND LAKE", "wmType": "Underground" }, "geometry": { "type": "LineString", "coordinates": [ [ -92.575288961854099, 47.643348069694099 ], [ -92.575433199999907, 47.643123800009498 ] ] } },
{ "type": "Feature", "properties": { "wmUplineSo": "SAND LAKE", "wmType": "Underground" }, "geometry": { "type": "LineString", "coordinates": [ [ -92.575433199999907, 47.643123800009498 ], [ -92.575504099999904, 47.6431045000095 ] ] } },
{ "type": "Feature", "properties": { "wmUplineSo": "SAND LAKE", "wmType": "Underground" }, "geometry": { "type": "LineString", "coordinates": [ [ -92.574513499999895, 47.6422296000095 ], [ -92.574457499999895, 47.642235200009502 ] ] } },
{ "type": "Feature", "properties": { "wmUplineSo": "SAND LAKE", "wmType": "Underground" }, "geometry": { "type": "LineString", "coordinates": [ [ -92.574225709932804, 47.642594574548298 ], [ -92.574416265389502, 47.642430450326202 ] ] } },
{ "type": "Feature", "properties": { "wmUplineSo": "SAND LAKE", "wmType": "Underground" }, "geometry": { "type": "LineString", "coordinates": [ [ -92.573051600675697, 47.641789612019203 ], [ -92.573266956499197, 47.641612798553403 ] ] } },
{ "type": "Feature", "properties": { "wmUplineSo": "SAND LAKE", "wmType": "Underground" }, "geometry": { "type": "LineString", "coordinates": [ [ -92.5723419199999, 47.640762330009501 ], [ -92.572333399999906, 47.640777200009502 ] ] } },
{ "type": "Feature", "properties": { "wmUplineSo": "SAND LAKE", "wmType": "Underground" }, "geometry": { "type": "LineString", "coordinates": [ [ -92.5719070399999, 47.640487670009499 ], [ -92.572257639502993, 47.640326199712398 ] ] } },
{ "type": "Feature", "properties": { "wmUplineSo": "SAND LAKE", "wmType": "Underground" }, "geometry": { "type": "LineString", "coordinates": [ [ -92.574191059226607, 47.640581595146003 ], [ -92.574196143866601, 47.640494091831599 ] ] } },
{ "type": "Feature", "properties": { "wmUplineSo": "SAND LAKE", "wmType": "Underground" }, "geometry": { "type": "LineString", "coordinates": [ [ -92.574691769999902, 47.640132900009498 ], [ -92.574734099999901, 47.6401471000095 ] ] } },
{ "type": "Feature", "properties": { "wmUplineSo": "SAND LAKE", "wmType": "Underground" }, "geometry": { "type": "LineString", "coordinates": [ [ -92.574704818938002, 47.637376251163701 ], [ -92.574399099999894, 47.637498700009502 ] ] } },
{ "type": "Feature", "properties": { "wmUplineSo": "SAND LAKE", "wmType": "Underground" }, "geometry": { "type": "LineString", "coordinates": [ [ -92.572635199999894, 47.639482600009501 ], [ -92.572744799999896, 47.639517100009499 ] ] } },
{ "type": "Feature", "properties": { "wmUplineSo": "SAND LAKE", "wmType": "Underground" }, "geometry": { "type": "LineString", "coordinates": [ [ -92.572744799999896, 47.639517100009499 ], [ -92.572388299999901, 47.639493300009498 ] ] } },
{ "type": "Feature", "properties": { "wmUplineSo": "SAND LAKE", "wmType": "Underground" }, "geometry": { "type": "LineString", "coordinates": [ [ -92.572388299999901, 47.639493300009498 ], [ -92.572436399999901, 47.639593100009499 ] ] } },
{ "type": "Feature", "properties": { "wmUplineSo": "SAND LAKE", "wmType": "Underground" }, "geometry": { "type": "LineString", "coordinates": [ [ -92.572436399999901, 47.639593100009499 ], [ -92.572403499999893, 47.639494000009499 ] ] } },
{ "type": "Feature", "properties": { "wmUplineSo": "SAND LAKE", "wmType": "Underground" }, "geometry": { "type": "LineString", "coordinates": [ [ -92.570198059999896, 47.641025540009501 ], [ -92.570477339420194, 47.640848371410101 ] ] } },
{ "type": "Feature", "properties": { "wmUplineSo": "SAND LAKE", "wmType": "Underground" }, "geometry": { "type": "LineString", "coordinates": [ [ -92.568417920470694, 47.641434678197697 ], [ -92.568363599999898, 47.641388300009503 ] ] } },
{ "type": "Feature", "properties": { "wmUplineSo": "SAND LAKE", "wmType": "Underground" }, "geometry": { "type": "LineString", "coordinates": [ [ -92.568417920470694, 47.641434678197697 ], [ -92.567991099999901, 47.641496500009502 ] ] } },
{ "type": "Feature", "properties": { "wmUplineSo": "SAND LAKE", "wmType": "Underground" }, "geometry": { "type": "LineString", "coordinates": [ [ -92.569213869999899, 47.642784120009502 ], [ -92.569141399999907, 47.642815900009502 ] ] } },
{ "type": "Feature", "properties": { "wmUplineSo": "SAND LAKE", "wmType": "Underground" }, "geometry": { "type": "LineString", "coordinates": [ [ -92.571954906365406, 47.642218064033798 ], [ -92.571965199999894, 47.642242200009498 ] ] } },
{ "type": "Feature", "properties": { "wmUplineSo": "SAND LAKE", "wmType": "Underground" }, "geometry": { "type": "LineString", "coordinates": [ [ -92.570851945173203, 47.6419533458782 ], [ -92.570876099999893, 47.6420569000095 ] ] } },
{ "type": "Feature", "properties": { "wmUplineSo": "SAND LAKE", "wmType": "Underground" }, "geometry": { "type": "LineString", "coordinates": [ [ -92.542429737891695, 47.582966853790303 ], [ -92.542351999999894, 47.583304000009399 ] ] } },
{ "type": "Feature", "properties": { "wmUplineSo": "SAND LAKE", "wmType": "Underground" }, "geometry": { "type": "LineString", "coordinates": [ [ -92.596136093636602, 47.665847985514198 ], [ -92.596369799999906, 47.664828200009502 ] ] } },
{ "type": "Feature", "properties": { "wmUplineSo": "SAND LAKE", "wmType": "Underground" }, "geometry": { "type": "LineString", "coordinates": [ [ -92.613010336376306, 47.643056170549102 ], [ -92.612641799999906, 47.643231500009499 ] ] } },
{ "type": "Feature", "properties": { "wmUplineSo": "SAND LAKE", "wmType": "Underground" }, "geometry": { "type": "LineString", "coordinates": [ [ -92.6065827525603, 47.653181031827899 ], [ -92.606650399999893, 47.6535552000095 ] ] } },
{ "type": "Feature", "properties": { "wmUplineSo": "SAND LAKE", "wmType": "Underground" }, "geometry": { "type": "LineString", "coordinates": [ [ -92.607080989987494, 47.656467207768998 ], [ -92.607060299999901, 47.656520100009502 ] ] } },
{ "type": "Feature", "properties": { "wmUplineSo": "SAND LAKE", "wmType": "Underground" }, "geometry": { "type": "LineString", "coordinates": [ [ -92.545332207103499, 47.615585234464902 ], [ -92.545335179179602, 47.615616195592303 ], [ -92.545140099999898, 47.615574300009499 ] ] } },
{ "type": "Feature", "properties": { "wmUplineSo": "SAND LAKE", "wmType": "Underground" }, "geometry": { "type": "LineString", "coordinates": [ [ -92.545332207103499, 47.615585234464902 ], [ -92.545362021482703, 47.615570369789801 ] ] } },
{ "type": "Feature", "properties": { "wmUplineSo": "SAND LAKE", "wmType": "Underground" }, "geometry": { "type": "LineString", "coordinates": [ [ -92.584780999972807, 47.642034003738402 ], [ -92.584553299999897, 47.6420745000095 ] ] } },
{ "type": "Feature", "properties": { "wmUplineSo": "SAND LAKE", "wmType": "Underground" }, "geometry": { "type": "LineString", "coordinates": [ [ -92.552382513974294, 47.630396183284098 ], [ -92.552299299999902, 47.630448300009498 ] ] } },
{ "type": "Feature", "properties": { "wmUplineSo": "SAND LAKE", "wmType": "Underground" }, "geometry": { "type": "LineString", "coordinates": [ [ -92.551406859999901, 47.617031100009498 ], [ -92.551448256315197, 47.617004285336201 ] ] } },
{ "type": "Feature", "properties": { "wmUplineSo": "SAND LAKE", "wmType": "Underground" }, "geometry": { "type": "LineString", "coordinates": [ [ -92.584780999972807, 47.642034003738402 ], [ -92.584528799999902, 47.642050500009503 ] ] } },
{ "type": "Feature", "properties": { "wmUplineSo": "SAND LAKE", "wmType": "Underground" }, "geometry": { "type": "LineString", "coordinates": [ [ -92.593824817778696, 47.649915013419502 ], [ -92.593605999999895, 47.650185900009497 ] ] } },
{ "type": "Feature", "properties": { "wmUplineSo": "SAND LAKE", "wmType": "Underground" }, "geometry": { "type": "LineString", "coordinates": [ [ -92.545246206369399, 47.560585579774099 ], [ -92.545928568052403, 47.560392719073 ] ] } },
{ "type": "Feature", "properties": { "wmUplineSo": "SAND LAKE", "wmType": "Underground" }, "geometry": { "type": "LineString", "coordinates": [ [ -92.594287153296506, 47.657557598753897 ], [ -92.594205339125907, 47.657777378756798 ] ] } },
{ "type": "Feature", "properties": { "wmUplineSo": "SAND LAKE", "wmType": "Underground" }, "geometry": { "type": "LineString", "coordinates": [ [ -92.592966746522904, 47.657072688560497 ], [ -92.592897205283805, 47.657258801394903 ] ] } },
{ "type": "Feature", "properties": { "wmUplineSo": "SAND LAKE", "wmType": "Underground" }, "geometry": { "type": "LineString", "coordinates": [ [ -92.592939374598004, 47.655989904884798 ], [ -92.592839099999907, 47.6559971000095 ] ] } },
{ "type": "Feature", "properties": { "wmUplineSo": "SAND LAKE", "wmType": "Underground" }, "geometry": { "type": "LineString", "coordinates": [ [ -92.559826757203297, 47.636903249630002 ], [ -92.559725699999902, 47.637068500009498 ] ] } },
{ "type": "Feature", "properties": { "wmUplineSo": "SAND LAKE", "wmType": "Underground" }, "geometry": { "type": "LineString", "coordinates": [ [ -92.556029391421404, 47.629901941287102 ], [ -92.555902099999898, 47.629997500009502 ] ] } },
{ "type": "Feature", "properties": { "wmUplineSo": "SAND LAKE", "wmType": "Underground" }, "geometry": { "type": "LineString", "coordinates": [ [ -92.556093370042802, 47.619702524787698 ], [ -92.557264699999905, 47.619669900009498 ] ] } },
{ "type": "Feature", "properties": { "wmUplineSo": "SAND LAKE", "wmType": "Underground" }, "geometry": { "type": "LineString", "coordinates": [ [ -92.556093370042802, 47.619702524787698 ], [ -92.557312199999899, 47.619743100009501 ] ] } },
{ "type": "Feature", "properties": { "wmUplineSo": "SAND LAKE", "wmType": "Underground" }, "geometry": { "type": "LineString", "coordinates": [ [ -92.581985469999907, 47.653083800009497 ], [ -92.582103764418804, 47.652849488916203 ] ] } },
{ "type": "Feature", "properties": { "wmUplineSo": "SAND LAKE", "wmType": "Underground" }, "geometry": { "type": "LineString", "coordinates": [ [ -92.581985469999907, 47.653083800009497 ], [ -92.582291464768502, 47.652846389121898 ] ] } },
{ "type": "Feature", "properties": { "wmUplineSo": "SAND LAKE", "wmType": "Underground" }, "geometry": { "type": "LineString", "coordinates": [ [ -92.542233881352601, 47.595951851058899 ], [ -92.539935299999897, 47.596833700009398 ] ] } },
{ "type": "Feature", "properties": { "wmUplineSo": "SAND LAKE", "wmType": "Underground" }, "geometry": { "type": "LineString", "coordinates": [ [ -92.535966198445706, 47.618003013162102 ], [ -92.535449299999897, 47.6174307000095 ] ] } },
{ "type": "Feature", "properties": { "wmUplineSo": "SAND LAKE", "wmType": "Underground" }, "geometry": { "type": "LineString", "coordinates": [ [ -92.6245961999999, 47.652009900009503 ], [ -92.624474199999895, 47.652215300009502 ] ] } },
{ "type": "Feature", "properties": { "wmUplineSo": "SAND LAKE", "wmType": "Underground" }, "geometry": { "type": "LineString", "coordinates": [ [ -92.6245961999999, 47.652009900009503 ], [ -92.624791899999906, 47.652018300009502 ] ] } },
{ "type": "Feature", "properties": { "wmUplineSo": "SAND LAKE", "wmType": "Underground" }, "geometry": { "type": "LineString", "coordinates": [ [ -92.595991477215406, 47.649113714734803 ], [ -92.595535199999901, 47.649306000009503 ] ] } },
{ "type": "Feature", "properties": { "wmUplineSo": "SAND LAKE", "wmType": "Underground" }, "geometry": { "type": "LineString", "coordinates": [ [ -92.553534456317095, 47.561746838820397 ], [ -92.553407675181205, 47.561728790843198 ] ] } },
{ "type": "Feature", "properties": { "wmUplineSo": "SAND LAKE", "wmType": "Underground" }, "geometry": { "type": "LineString", "coordinates": [ [ -92.620484528071501, 47.642816406441902 ], [ -92.619913299999894, 47.642882300009497 ] ] } },
{ "type": "Feature", "properties": { "wmUplineSo": "SAND LAKE", "wmType": "Underground" }, "geometry": { "type": "LineString", "coordinates": [ [ -92.622841569098398, 47.646607933002699 ], [ -92.622895836938099, 47.646606157463196 ] ] } },
{ "type": "Feature", "properties": { "wmUplineSo": "SAND LAKE", "wmType": "Underground" }, "geometry": { "type": "LineString", "coordinates": [ [ -92.597462, 47.653149999999897 ], [ -92.5974, 47.652483 ] ] } },
{ "type": "Feature", "properties": { "wmUplineSo": "SAND LAKE", "wmType": "Underground" }, "geometry": { "type": "LineString", "coordinates": [ [ -92.636432104407007, 47.639105851993001 ], [ -92.636435801869595, 47.6382497088523 ] ] } },
{ "type": "Feature", "properties": { "wmUplineSo": "SAND LAKE", "wmType": "Underground" }, "geometry": { "type": "LineString", "coordinates": [ [ -92.546552448475893, 47.558305416110798 ], [ -92.546935449376406, 47.557275369321303 ] ] } },
{ "type": "Feature", "properties": { "wmUplineSo": "SAND LAKE", "wmType": "Underground" }, "geometry": { "type": "LineString", "coordinates": [ [ -92.553155999970699, 47.636038003736701 ], [ -92.554067999970798, 47.635935003736797 ] ] } },
{ "type": "Feature", "properties": { "wmUplineSo": "SAND LAKE", "wmType": "Underground" }, "geometry": { "type": "LineString", "coordinates": [ [ -92.597539812532204, 47.653153832751599 ], [ -92.597462, 47.653149999999897 ] ] } },
{ "type": "Feature", "properties": { "wmUplineSo": "SAND LAKE", "wmType": "Underground" }, "geometry": { "type": "LineString", "coordinates": [ [ -92.549982999970496, 47.636011003736698 ], [ -92.550184999970597, 47.635966003736797 ] ] } },
{ "type": "Feature", "properties": { "wmUplineSo": "SAND LAKE", "wmType": "Underground" }, "geometry": { "type": "LineString", "coordinates": [ [ -92.625955734681696, 47.642250988806303 ], [ -92.625826640806693, 47.642306233442604 ] ] } },
{ "type": "Feature", "properties": { "wmUplineSo": "SAND LAKE", "wmType": "Underground" }, "geometry": { "type": "LineString", "coordinates": [ [ -92.549196187891098, 47.6360275185692 ], [ -92.549202363266801, 47.636035093597101 ], [ -92.549931439687001, 47.636140451853997 ], [ -92.5499847688871, 47.636011642299998 ], [ -92.549982999970496, 47.636011003736698 ], [ -92.549982999970496, 47.636011003736698 ] ] } },
{ "type": "Feature", "properties": { "wmUplineSo": "SAND LAKE", "wmType": "Underground" }, "geometry": { "type": "LineString", "coordinates": [ [ -92.554067999970798, 47.635935003736797 ], [ -92.554763325854196, 47.635965799595098 ] ] } },
{ "type": "Feature", "properties": { "wmUplineSo": "SAND LAKE", "wmType": "Underground" }, "geometry": { "type": "LineString", "coordinates": [ [ -92.586465, 47.658524 ], [ -92.586645, 47.658609 ] ] } },
{ "type": "Feature", "properties": { "wmUplineSo": "SAND LAKE", "wmType": "Underground" }, "geometry": { "type": "LineString", "coordinates": [ [ -92.546935449376406, 47.557275369321303 ], [ -92.547222449891194, 47.556710369425701 ] ] } },
{ "type": "Feature", "properties": { "wmUplineSo": "SAND LAKE", "wmType": "Underground" }, "geometry": { "type": "LineString", "coordinates": [ [ -92.581828911343806, 47.647772699470003 ], [ -92.581874855763402, 47.6477446579187 ] ] } },
{ "type": "Feature", "properties": { "wmUplineSo": "SAND LAKE", "wmType": "Underground" }, "geometry": { "type": "LineString", "coordinates": [ [ -92.581703648078403, 47.647776272694998 ], [ -92.578851856750504, 47.6457012091034 ] ] } },
{ "type": "Feature", "properties": { "wmUplineSo": "SAND LAKE", "wmType": "Underground" }, "geometry": { "type": "LineString", "coordinates": [ [ -92.550184999970597, 47.635966003736797 ], [ -92.550511999970595, 47.636120003736899 ] ] } },
{ "type": "Feature", "properties": { "wmUplineSo": "SAND LAKE", "wmType": "Underground" }, "geometry": { "type": "LineString", "coordinates": [ [ -92.601994120186006, 47.663819745980803 ], [ -92.600528801454402, 47.6636905759473 ], [ -92.599081768227293, 47.663791250425 ], [ -92.597834775018299, 47.664298974155898 ], [ -92.596828966969895, 47.665000111344902 ], [ -92.596136093636602, 47.665847985514198 ] ] } },
{ "type": "Feature", "properties": { "wmUplineSo": "SAND LAKE", "wmType": "Underground" }, "geometry": { "type": "LineString", "coordinates": [ [ -92.627423124266201, 47.647865414541002 ], [ -92.627431384770901, 47.647848559680298 ] ] } },
{ "type": "Feature", "properties": { "wmUplineSo": "SAND LAKE", "wmType": "Underground" }, "geometry": { "type": "LineString", "coordinates": [ [ -92.622187616171004, 47.656822705136001 ], [ -92.624037051136696, 47.657319078626003 ] ] } },
{ "type": "Feature", "properties": { "wmUplineSo": "SAND LAKE", "wmType": "Underground" }, "geometry": { "type": "LineString", "coordinates": [ [ -92.627912635014397, 47.658500368776998 ], [ -92.625961049535405, 47.657819695194803 ], [ -92.624036635619902, 47.657238480287297 ], [ -92.621967484366607, 47.656745412904698 ] ] } },
{ "type": "Feature", "properties": { "wmUplineSo": "SAND LAKE", "wmType": "Underground" }, "geometry": { "type": "LineString", "coordinates": [ [ -92.621967484366607, 47.656745412904698 ], [ -92.622187616171004, 47.656822705136001 ] ] } },
{ "type": "Feature", "properties": { "wmUplineSo": "SAND LAKE", "wmType": "Underground" }, "geometry": { "type": "LineString", "coordinates": [ [ -92.621115438881105, 47.656347677109601 ], [ -92.620209444256403, 47.655851696699003 ] ] } },
{ "type": "Feature", "properties": { "wmUplineSo": "SAND LAKE", "wmType": "Underground" }, "geometry": { "type": "LineString", "coordinates": [ [ -92.620209444256403, 47.655851696699003 ], [ -92.619478365971105, 47.6557740504824 ] ] } },
{ "type": "Feature", "properties": { "wmUplineSo": "SAND LAKE", "wmType": "Underground" }, "geometry": { "type": "LineString", "coordinates": [ [ -92.619478365971105, 47.6557740504824 ], [ -92.618121653932405, 47.6556096920934 ] ] } },
{ "type": "Feature", "properties": { "wmUplineSo": "SAND LAKE", "wmType": "Underground" }, "geometry": { "type": "LineString", "coordinates": [ [ -92.617561339999895, 47.655998230009502 ], [ -92.616961621268501, 47.656246736298101 ], [ -92.616461324920607, 47.656827111113003 ], [ -92.615522657759897, 47.656655018627902 ], [ -92.614583376154997, 47.657135701313301 ], [ -92.614643310286198, 47.657767159302701 ], [ -92.6146766169133, 47.657882090772603 ] ] } },
{ "type": "Feature", "properties": { "wmUplineSo": "SAND LAKE", "wmType": "Underground" }, "geometry": { "type": "LineString", "coordinates": [ [ -92.618121653932405, 47.6556096920934 ], [ -92.615022039740296, 47.6550808260059 ] ] } },
{ "type": "Feature", "properties": { "wmUplineSo": "SAND LAKE", "wmType": "Underground" }, "geometry": { "type": "LineString", "coordinates": [ [ -92.615022039740296, 47.6550808260059 ], [ -92.614349425679094, 47.655165880559899 ] ] } },
{ "type": "Feature", "properties": { "wmUplineSo": "SAND LAKE", "wmType": "Underground" }, "geometry": { "type": "LineString", "coordinates": [ [ -92.614003261557102, 47.655196955285803 ], [ -92.614349425679094, 47.655165880559899 ] ] } },
{ "type": "Feature", "properties": { "wmUplineSo": "SAND LAKE", "wmType": "Underground" }, "geometry": { "type": "LineString", "coordinates": [ [ -92.613933712008603, 47.655192187696997 ], [ -92.613875338964704, 47.655222047232101 ] ] } },
{ "type": "Feature", "properties": { "wmUplineSo": "SAND LAKE", "wmType": "Underground" }, "geometry": { "type": "LineString", "coordinates": [ [ -92.613865313424299, 47.655199849312403 ], [ -92.613305343456403, 47.655208205899299 ] ] } },
{ "type": "Feature", "properties": { "wmUplineSo": "SAND LAKE", "wmType": "Underground" }, "geometry": { "type": "LineString", "coordinates": [ [ -92.613305343456403, 47.655208205899299 ], [ -92.611251829999901, 47.655708310009501 ] ] } },
{ "type": "Feature", "properties": { "wmUplineSo": "SAND LAKE", "wmType": "Underground" }, "geometry": { "type": "LineString", "coordinates": [ [ -92.611251829999901, 47.655708310009501 ], [ -92.608057239183495, 47.656460304368899 ] ] } },
{ "type": "Feature", "properties": { "wmUplineSo": "SAND LAKE", "wmType": "Underground" }, "geometry": { "type": "LineString", "coordinates": [ [ -92.607970774330298, 47.6564574903067 ], [ -92.607080989987494, 47.656467207768998 ] ] } },
{ "type": "Feature", "properties": { "wmUplineSo": "SAND LAKE", "wmType": "Underground" }, "geometry": { "type": "LineString", "coordinates": [ [ -92.606153208634694, 47.656506340139103 ], [ -92.603195189999894, 47.656192780009498 ] ] } },
{ "type": "Feature", "properties": { "wmUplineSo": "SAND LAKE", "wmType": "Underground" }, "geometry": { "type": "LineString", "coordinates": [ [ -92.600270785736896, 47.655774728014599 ], [ -92.597390323339397, 47.655208536864201 ] ] } },
{ "type": "Feature", "properties": { "wmUplineSo": "SAND LAKE", "wmType": "Underground" }, "geometry": { "type": "LineString", "coordinates": [ [ -92.603195189999894, 47.656192780009498 ], [ -92.600270785736896, 47.655774728014599 ] ] } },
{ "type": "Feature", "properties": { "wmUplineSo": "SAND LAKE", "wmType": "Underground" }, "geometry": { "type": "LineString", "coordinates": [ [ -92.602558480708595, 47.6553393919136 ], [ -92.603300761424194, 47.655089974937198 ], [ -92.603303537508197, 47.6547711323607 ], [ -92.603650750224901, 47.654704620478498 ] ] } },
{ "type": "Feature", "properties": { "wmUplineSo": "SAND LAKE", "wmType": "Underground" }, "geometry": { "type": "LineString", "coordinates": [ [ -92.600270785736896, 47.655774728014599 ], [ -92.601092455694499, 47.6553554978858 ] ] } },
{ "type": "Feature", "properties": { "wmUplineSo": "SAND LAKE", "wmType": "Underground" }, "geometry": { "type": "LineString", "coordinates": [ [ -92.600270785736896, 47.655774728014599 ], [ -92.600242609999896, 47.6558418300095 ] ] } },
{ "type": "Feature", "properties": { "wmUplineSo": "SAND LAKE", "wmType": "Underground" }, "geometry": { "type": "LineString", "coordinates": [ [ -92.600270785736896, 47.655774728014599 ], [ -92.600449881678799, 47.654502255420198 ] ] } },
{ "type": "Feature", "properties": { "wmUplineSo": "SAND LAKE", "wmType": "Underground" }, "geometry": { "type": "LineString", "coordinates": [ [ -92.600449881678799, 47.654502255420198 ], [ -92.599218838768707, 47.655070933751297 ] ] } },
{ "type": "Feature", "properties": { "wmUplineSo": "SAND LAKE", "wmType": "Underground" }, "geometry": { "type": "LineString", "coordinates": [ [ -92.599218838768707, 47.655070933751297 ], [ -92.600226290268395, 47.653576065201797 ] ] } },
{ "type": "Feature", "properties": { "wmUplineSo": "SAND LAKE", "wmType": "Underground" }, "geometry": { "type": "LineString", "coordinates": [ [ -92.579915713003999, 47.652248456625202 ], [ -92.577655890237196, 47.652311799153502 ] ] } },
{ "type": "Feature", "properties": { "wmUplineSo": "SAND LAKE", "wmType": "Underground" }, "geometry": { "type": "LineString", "coordinates": [ [ -92.596128030853095, 47.655883794368101 ], [ -92.594601356941297, 47.655375426963602 ] ] } },
{ "type": "Feature", "properties": { "wmUplineSo": "SAND LAKE", "wmType": "Underground" }, "geometry": { "type": "LineString", "coordinates": [ [ -92.595758212304503, 47.6546742157824 ], [ -92.596128030853095, 47.655883794368101 ] ] } },
{ "type": "Feature", "properties": { "wmUplineSo": "SAND LAKE", "wmType": "Underground" }, "geometry": { "type": "LineString", "coordinates": [ [ -92.595558455420701, 47.654539183397901 ], [ -92.592055108717204, 47.6527905854051 ] ] } },
{ "type": "Feature", "properties": { "wmUplineSo": "SAND LAKE", "wmType": "Underground" }, "geometry": { "type": "LineString", "coordinates": [ [ -92.606158497148698, 47.656464044865899 ], [ -92.6032185268391, 47.656128840651498 ], [ -92.6032185268391, 47.656128840651498 ] ] } },
{ "type": "Feature", "properties": { "wmUplineSo": "SAND LAKE", "wmType": "Underground" }, "geometry": { "type": "LineString", "coordinates": [ [ -92.6032185268391, 47.656128840651498 ], [ -92.600295094027999, 47.655715708221202 ], [ -92.600295094027999, 47.655715708221202 ] ] } },
{ "type": "Feature", "properties": { "wmUplineSo": "SAND LAKE", "wmType": "Underground" }, "geometry": { "type": "LineString", "coordinates": [ [ -92.588894195019805, 47.651119399136697 ], [ -92.586958618779093, 47.650175951086801 ] ] } },
{ "type": "Feature", "properties": { "wmUplineSo": "SAND LAKE", "wmType": "Underground" }, "geometry": { "type": "LineString", "coordinates": [ [ -92.600295094027999, 47.655715708221202 ], [ -92.597432, 47.655143000000102 ], [ -92.596615070980903, 47.654910130443703 ], [ -92.595865881603103, 47.654609284908801 ], [ -92.595713994171405, 47.654607567421301 ] ] } },
{ "type": "Feature", "properties": { "wmUplineSo": "SAND LAKE", "wmType": "Underground" }, "geometry": { "type": "LineString", "coordinates": [ [ -92.595713994171405, 47.654607567421301 ], [ -92.595659880550201, 47.654510499373302 ], [ -92.592128134827107, 47.6527278940274 ], [ -92.591222959003204, 47.652274832144897 ], [ -92.588894195019805, 47.651119399136697 ] ] } },
{ "type": "Feature", "properties": { "wmUplineSo": "SAND LAKE", "wmType": "Underground" }, "geometry": { "type": "LineString", "coordinates": [ [ -92.595713994171405, 47.654607567421301 ], [ -92.595782426674205, 47.654627957798098 ] ] } },
{ "type": "Feature", "properties": { "wmUplineSo": "SAND LAKE", "wmType": "Underground" }, "geometry": { "type": "LineString", "coordinates": [ [ -92.595713994171405, 47.654607567421301 ], [ -92.595758212304503, 47.6546742157824 ] ] } },
{ "type": "Feature", "properties": { "wmUplineSo": "SAND LAKE", "wmType": "Underground" }, "geometry": { "type": "LineString", "coordinates": [ [ -92.595713994171405, 47.654607567421301 ], [ -92.595558455420701, 47.654539183397901 ] ] } },
{ "type": "Feature", "properties": { "wmUplineSo": "SAND LAKE", "wmType": "Underground" }, "geometry": { "type": "LineString", "coordinates": [ [ -92.586958618779093, 47.650175951086801 ], [ -92.582921864776694, 47.648318022044599 ] ] } },
{ "type": "Feature", "properties": { "wmUplineSo": "SAND LAKE", "wmType": "Underground" }, "geometry": { "type": "LineString", "coordinates": [ [ -92.578851856750504, 47.6457012091034 ], [ -92.577863366961907, 47.645031306218101 ] ] } },
{ "type": "Feature", "properties": { "wmUplineSo": "SAND LAKE", "wmType": "Underground" }, "geometry": { "type": "LineString", "coordinates": [ [ -92.577863366961907, 47.645031306218101 ], [ -92.576652529999905, 47.6442413300095 ] ] } },
{ "type": "Feature", "properties": { "wmUplineSo": "SAND LAKE", "wmType": "Underground" }, "geometry": { "type": "LineString", "coordinates": [ [ -92.576652529999905, 47.6442413300095 ], [ -92.575288961854099, 47.643348069694099 ] ] } },
{ "type": "Feature", "properties": { "wmUplineSo": "SAND LAKE", "wmType": "Underground" }, "geometry": { "type": "LineString", "coordinates": [ [ -92.575288961854099, 47.643348069694099 ], [ -92.574225709932804, 47.642594574548298 ] ] } },
{ "type": "Feature", "properties": { "wmUplineSo": "SAND LAKE", "wmType": "Underground" }, "geometry": { "type": "LineString", "coordinates": [ [ -92.574225709932804, 47.642594574548298 ], [ -92.573051600675697, 47.641789612019203 ] ] } },
{ "type": "Feature", "properties": { "wmUplineSo": "SAND LAKE", "wmType": "Underground" }, "geometry": { "type": "LineString", "coordinates": [ [ -92.582921864776694, 47.648318022044599 ], [ -92.581806906207603, 47.647790081978201 ] ] } },
{ "type": "Feature", "properties": { "wmUplineSo": "SAND LAKE", "wmType": "Underground" }, "geometry": { "type": "LineString", "coordinates": [ [ -92.573051600675697, 47.641789612019203 ], [ -92.572818206754206, 47.641649041340301 ] ] } },
{ "type": "Feature", "properties": { "wmUplineSo": "SAND LAKE", "wmType": "Underground" }, "geometry": { "type": "LineString", "coordinates": [ [ -92.569378161314603, 47.639241927545498 ], [ -92.567890547650507, 47.638164779979903 ] ] } },
{ "type": "Feature", "properties": { "wmUplineSo": "SAND LAKE", "wmType": "Underground" }, "geometry": { "type": "LineString", "coordinates": [ [ -92.579248191759305, 47.645853111355997 ], [ -92.576781110974295, 47.6440522723424 ], [ -92.573145974375606, 47.641549400559803 ], [ -92.571890531029496, 47.640613040039298 ] ] } },
{ "type": "Feature", "properties": { "wmUplineSo": "SAND LAKE", "wmType": "Underground" }, "geometry": { "type": "LineString", "coordinates": [ [ -92.571029659999894, 47.640369420009499 ], [ -92.569378161314603, 47.639241927545498 ] ] } },
{ "type": "Feature", "properties": { "wmUplineSo": "SAND LAKE", "wmType": "Underground" }, "geometry": { "type": "LineString", "coordinates": [ [ -92.571890531029496, 47.640613040039298 ], [ -92.5716887132549, 47.6405551821939 ] ] } },
{ "type": "Feature", "properties": { "wmUplineSo": "SAND LAKE", "wmType": "Underground" }, "geometry": { "type": "LineString", "coordinates": [ [ -92.5716887132549, 47.6405551821939 ], [ -92.571029659999894, 47.640369420009499 ] ] } },
{ "type": "Feature", "properties": { "wmUplineSo": "SAND LAKE", "wmType": "Underground" }, "geometry": { "type": "LineString", "coordinates": [ [ -92.571875637536706, 47.640729405781101 ], [ -92.572814209732101, 47.641651713032203 ] ] } },
{ "type": "Feature", "properties": { "wmUplineSo": "SAND LAKE", "wmType": "Underground" }, "geometry": { "type": "LineString", "coordinates": [ [ -92.571890531029496, 47.640613040039298 ], [ -92.571875637536706, 47.640729405781101 ] ] } },
{ "type": "Feature", "properties": { "wmUplineSo": "SAND LAKE", "wmType": "Underground" }, "geometry": { "type": "LineString", "coordinates": [ [ -92.571890531029496, 47.640613040039298 ], [ -92.572070919423396, 47.640621817860897 ], [ -92.572076821987196, 47.6406219779712 ] ] } },
{ "type": "Feature", "properties": { "wmUplineSo": "SAND LAKE", "wmType": "Underground" }, "geometry": { "type": "LineString", "coordinates": [ [ -92.571890531029496, 47.640613040039298 ], [ -92.569688686757999, 47.639174028684899 ] ] } },
{ "type": "Feature", "properties": { "wmUplineSo": "SAND LAKE", "wmType": "Underground" }, "geometry": { "type": "LineString", "coordinates": [ [ -92.569378161314603, 47.639241927545498 ], [ -92.569728367712202, 47.639049207629803 ] ] } },
{ "type": "Feature", "properties": { "wmUplineSo": "SAND LAKE", "wmType": "Underground" }, "geometry": { "type": "LineString", "coordinates": [ [ -92.567890547650507, 47.638164779979903 ], [ -92.567098321889006, 47.637635919758999 ] ] } },
{ "type": "Feature", "properties": { "wmUplineSo": "SAND LAKE", "wmType": "Underground" }, "geometry": { "type": "LineString", "coordinates": [ [ -92.569688686757999, 47.639174028684899 ], [ -92.568521689618393, 47.638373474168297 ] ] } },
{ "type": "Feature", "properties": { "wmUplineSo": "SAND LAKE", "wmType": "Underground" }, "geometry": { "type": "LineString", "coordinates": [ [ -92.568521689618393, 47.638373474168297 ], [ -92.564652216557803, 47.635635123184599 ] ] } },
{ "type": "Feature", "properties": { "wmUplineSo": "SAND LAKE", "wmType": "Underground" }, "geometry": { "type": "LineString", "coordinates": [ [ -92.564652216557803, 47.635635123184599 ], [ -92.558366807463699, 47.631672791069697 ] ] } },
{ "type": "Feature", "properties": { "wmUplineSo": "SAND LAKE", "wmType": "Underground" }, "geometry": { "type": "LineString", "coordinates": [ [ -92.624037051136696, 47.657319078626003 ], [ -92.625991819999896, 47.657901760009501 ] ] } },
{ "type": "Feature", "properties": { "wmUplineSo": "SAND LAKE", "wmType": "Underground" }, "geometry": { "type": "LineString", "coordinates": [ [ -92.625991819999896, 47.657901760009501 ], [ -92.627987538273999, 47.6585919548832 ] ] } },
{ "type": "Feature", "properties": { "wmUplineSo": "SAND LAKE", "wmType": "Underground" }, "geometry": { "type": "LineString", "coordinates": [ [ -92.622894289999905, 47.651962280009499 ], [ -92.6233058791573, 47.652397740940302 ] ] } },
{ "type": "Feature", "properties": { "wmUplineSo": "SAND LAKE", "wmType": "Underground" }, "geometry": { "type": "LineString", "coordinates": [ [ -92.626830434268996, 47.649302820746499 ], [ -92.627423124266201, 47.647865414541002 ] ] } },
{ "type": "Feature", "properties": { "wmUplineSo": "SAND LAKE", "wmType": "Underground" }, "geometry": { "type": "LineString", "coordinates": [ [ -92.626829170902994, 47.649319183389601 ], [ -92.626830434268996, 47.649302820746499 ] ] } },
{ "type": "Feature", "properties": { "wmUplineSo": "SAND LAKE", "wmType": "Underground" }, "geometry": { "type": "LineString", "coordinates": [ [ -92.616697992583696, 47.642786184989902 ], [ -92.616674810443698, 47.642787615610999 ] ] } },
{ "type": "Feature", "properties": { "wmUplineSo": "SAND LAKE", "wmType": "Underground" }, "geometry": { "type": "LineString", "coordinates": [ [ -92.616674810443698, 47.642787615610999 ], [ -92.613010336376306, 47.643056170549102 ] ] } },
{ "type": "Feature", "properties": { "wmUplineSo": "SAND LAKE", "wmType": "Underground" }, "geometry": { "type": "LineString", "coordinates": [ [ -92.613905834623495, 47.639462631108501 ], [ -92.610770140796404, 47.638991081925099 ] ] } },
{ "type": "Feature", "properties": { "wmUplineSo": "SAND LAKE", "wmType": "Underground" }, "geometry": { "type": "LineString", "coordinates": [ [ -92.613944475403002, 47.639468427804303 ], [ -92.613905834623495, 47.639462631108501 ] ] } },
{ "type": "Feature", "properties": { "wmUplineSo": "SAND LAKE", "wmType": "Underground" }, "geometry": { "type": "LineString", "coordinates": [ [ -92.621478014188995, 47.642401513682998 ], [ -92.621591121841405, 47.640969652828304 ] ] } },
{ "type": "Feature", "properties": { "wmUplineSo": "SAND LAKE", "wmType": "Underground" }, "geometry": { "type": "LineString", "coordinates": [ [ -92.621591121841405, 47.640969652828304 ], [ -92.622119315592698, 47.640818122219201 ] ] } },
{ "type": "Feature", "properties": { "wmUplineSo": "SAND LAKE", "wmType": "Underground" }, "geometry": { "type": "LineString", "coordinates": [ [ -92.621591121841405, 47.640969652828304 ], [ -92.621980667056803, 47.638815385648101 ] ] } },
{ "type": "Feature", "properties": { "wmUplineSo": "SAND LAKE", "wmType": "Underground" }, "geometry": { "type": "LineString", "coordinates": [ [ -92.625826640806693, 47.642306233442604 ], [ -92.626351536222899, 47.642959384990199 ] ] } },
{ "type": "Feature", "properties": { "wmUplineSo": "SAND LAKE", "wmType": "Underground" }, "geometry": { "type": "LineString", "coordinates": [ [ -92.575537294649493, 47.633474754584903 ], [ -92.574513521106795, 47.6306414229268 ] ] } },
{ "type": "Feature", "properties": { "wmUplineSo": "SAND LAKE", "wmType": "Underground" }, "geometry": { "type": "LineString", "coordinates": [ [ -92.586895668771007, 47.6502702152221 ], [ -92.588767377091898, 47.651174044427101 ], [ -92.588851412933906, 47.651214623045902 ] ] } },
{ "type": "Feature", "properties": { "wmUplineSo": "SAND LAKE", "wmType": "Underground" }, "geometry": { "type": "LineString", "coordinates": [ [ -92.588851412933906, 47.651214623045902 ], [ -92.592057440937197, 47.652794281799601 ] ] } },
{ "type": "Feature", "properties": { "wmUplineSo": "SAND LAKE", "wmType": "Underground" }, "geometry": { "type": "LineString", "coordinates": [ [ -92.545187579474998, 47.6186485512887 ], [ -92.545356289719606, 47.6194895164206 ] ] } },
{ "type": "Feature", "properties": { "wmUplineSo": "SAND LAKE", "wmType": "Underground" }, "geometry": { "type": "LineString", "coordinates": [ [ -92.545327483683195, 47.617233733691897 ], [ -92.545187579474998, 47.6186485512887 ] ] } },
{ "type": "Feature", "properties": { "wmUplineSo": "SAND LAKE", "wmType": "Underground" }, "geometry": { "type": "LineString", "coordinates": [ [ -92.545224401533304, 47.616715504513401 ], [ -92.545327483683195, 47.617233733691897 ] ] } },
{ "type": "Feature", "properties": { "wmUplineSo": "SAND LAKE", "wmType": "Underground" }, "geometry": { "type": "LineString", "coordinates": [ [ -92.545189700160407, 47.615583159224698 ], [ -92.545224401533304, 47.616715504513401 ] ] } },
{ "type": "Feature", "properties": { "wmUplineSo": "SAND LAKE", "wmType": "Underground" }, "geometry": { "type": "LineString", "coordinates": [ [ -92.545061727068102, 47.614065554384503 ], [ -92.545189700160407, 47.615583159224698 ] ] } },
{ "type": "Feature", "properties": { "wmUplineSo": "SAND LAKE", "wmType": "Underground" }, "geometry": { "type": "LineString", "coordinates": [ [ -92.545327483683195, 47.617233733691897 ], [ -92.545518461952199, 47.6172365144267 ] ] } },
{ "type": "Feature", "properties": { "wmUplineSo": "SAND LAKE", "wmType": "Underground" }, "geometry": { "type": "LineString", "coordinates": [ [ -92.545224401533304, 47.616715504513401 ], [ -92.5454064756413, 47.616718961706901 ] ] } },
{ "type": "Feature", "properties": { "wmUplineSo": "SAND LAKE", "wmType": "Underground" }, "geometry": { "type": "LineString", "coordinates": [ [ -92.613933712008603, 47.655192187696997 ], [ -92.613287920708203, 47.655173365841797 ], [ -92.611521114475195, 47.655620047178402 ] ] } },
{ "type": "Feature", "properties": { "wmUplineSo": "SAND LAKE", "wmType": "Underground" }, "geometry": { "type": "LineString", "coordinates": [ [ -92.621967484366607, 47.656745412904698 ], [ -92.621758646933301, 47.656618456008502 ], [ -92.620237585429507, 47.655806469663403 ], [ -92.618163658674106, 47.655574906525402 ] ] } },
{ "type": "Feature", "properties": { "wmUplineSo": "SAND LAKE", "wmType": "Underground" }, "geometry": { "type": "LineString", "coordinates": [ [ -92.618163658674106, 47.655574906525402 ], [ -92.615022951702599, 47.655045288688399 ], [ -92.613933712008603, 47.655192187696997 ] ] } },
{ "type": "Feature", "properties": { "wmUplineSo": "SAND LAKE", "wmType": "Underground" }, "geometry": { "type": "LineString", "coordinates": [ [ -92.613933712008603, 47.655192187696997 ], [ -92.614003261557102, 47.655196955285803 ] ] } },
{ "type": "Feature", "properties": { "wmUplineSo": "SAND LAKE", "wmType": "Underground" }, "geometry": { "type": "LineString", "coordinates": [ [ -92.613933712008603, 47.655192187696997 ], [ -92.613865313424299, 47.655199849312403 ] ] } },
{ "type": "Feature", "properties": { "wmUplineSo": "SAND LAKE", "wmType": "Underground" }, "geometry": { "type": "LineString", "coordinates": [ [ -92.582881723436799, 47.648366234395198 ], [ -92.586895668771007, 47.6502702152221 ] ] } },
{ "type": "Feature", "properties": { "wmUplineSo": "SAND LAKE", "wmType": "Underground" }, "geometry": { "type": "LineString", "coordinates": [ [ -92.621967484366607, 47.656745412904698 ], [ -92.621806881087295, 47.656684435884898 ] ] } },
{ "type": "Feature", "properties": { "wmUplineSo": "SAND LAKE", "wmType": "Underground" }, "geometry": { "type": "LineString", "coordinates": [ [ -92.621806881087295, 47.656684435884898 ], [ -92.621115438881105, 47.656347677109601 ] ] } },
{ "type": "Feature", "properties": { "wmUplineSo": "SAND LAKE", "wmType": "Underground" }, "geometry": { "type": "LineString", "coordinates": [ [ -92.596571025466403, 47.654974614109697 ], [ -92.597382396828806, 47.6552051508394 ] ] } },
{ "type": "Feature", "properties": { "wmUplineSo": "SAND LAKE", "wmType": "Underground" }, "geometry": { "type": "LineString", "coordinates": [ [ -92.595782426674205, 47.654627957798098 ], [ -92.596571025466403, 47.654974614109697 ] ] } },
{ "type": "Feature", "properties": { "wmUplineSo": "SAND LAKE", "wmType": "Underground" }, "geometry": { "type": "LineString", "coordinates": [ [ -92.581842150460801, 47.647857374728503 ], [ -92.582693447828802, 47.648294355596398 ] ] } },
{ "type": "Feature", "properties": { "wmUplineSo": "SAND LAKE", "wmType": "Underground" }, "geometry": { "type": "LineString", "coordinates": [ [ -92.581828911343806, 47.647772699470003 ], [ -92.581842150460801, 47.647857374728503 ] ] } },
{ "type": "Feature", "properties": { "wmUplineSo": "SAND LAKE", "wmType": "Underground" }, "geometry": { "type": "LineString", "coordinates": [ [ -92.607925881742304, 47.656478661528404 ], [ -92.606213714534803, 47.656506672766 ], [ -92.606153208634694, 47.656506340139103 ] ] } },
{ "type": "Feature", "properties": { "wmUplineSo": "SAND LAKE", "wmType": "Underground" }, "geometry": { "type": "LineString", "coordinates": [ [ -92.607970774330298, 47.6564574903067 ], [ -92.608011431736799, 47.656470894143098 ] ] } },
{ "type": "Feature", "properties": { "wmUplineSo": "SAND LAKE", "wmType": "Underground" }, "geometry": { "type": "LineString", "coordinates": [ [ -92.611521114475195, 47.655620047178402 ], [ -92.607970774330298, 47.6564574903067 ] ] } },
{ "type": "Feature", "properties": { "wmUplineSo": "SAND LAKE", "wmType": "Underground" }, "geometry": { "type": "LineString", "coordinates": [ [ -92.607970774330298, 47.6564574903067 ], [ -92.607955929999903, 47.656505580009501 ] ] } },
{ "type": "Feature", "properties": { "wmUplineSo": "SAND LAKE", "wmType": "Underground" }, "geometry": { "type": "LineString", "coordinates": [ [ -92.607970774330298, 47.6564574903067 ], [ -92.607925881742304, 47.656478661528404 ] ] } },
{ "type": "Feature", "properties": { "wmUplineSo": "SAND LAKE", "wmType": "Underground" }, "geometry": { "type": "LineString", "coordinates": [ [ -92.545189700160407, 47.615583159224698 ], [ -92.545332207103499, 47.615585234464902 ] ] } },
{ "type": "Feature", "properties": { "wmUplineSo": "SAND LAKE", "wmType": "Underground" }, "geometry": { "type": "LineString", "coordinates": [ [ -92.628317226114802, 47.6584365832678 ], [ -92.627912635014397, 47.658500368776998 ] ] } },
{ "type": "Feature", "properties": { "wmUplineSo": "SAND LAKE", "wmType": "Underground" }, "geometry": { "type": "LineString", "coordinates": [ [ -92.628376037863404, 47.658475747926602 ], [ -92.628317226114802, 47.6584365832678 ] ] } },
{ "type": "Feature", "properties": { "wmUplineSo": "SAND LAKE", "wmType": "Underground" }, "geometry": { "type": "LineString", "coordinates": [ [ -92.586645, 47.658609 ], [ -92.586704981836107, 47.658596071279497 ] ] } },
{ "type": "Feature", "properties": { "wmUplineSo": "SAND LAKE", "wmType": "Underground" }, "geometry": { "type": "LineString", "coordinates": [ [ -92.582693447828802, 47.648294355596398 ], [ -92.582881723436799, 47.648366234395198 ] ] } },
{ "type": "Feature", "properties": { "wmUplineSo": "SAND LAKE", "wmType": "Underground" }, "geometry": { "type": "LineString", "coordinates": [ [ -92.593683403735994, 47.651293574312497 ], [ -92.593824817778696, 47.649915013419502 ] ] } },
{ "type": "Feature", "properties": { "wmUplineSo": "SAND LAKE", "wmType": "Underground" }, "geometry": { "type": "LineString", "coordinates": [ [ -92.558429557898904, 47.631693248523298 ], [ -92.561146082459899, 47.633057252135501 ] ] } },
{ "type": "Feature", "properties": { "wmUplineSo": "SAND LAKE", "wmType": "Underground" }, "geometry": { "type": "LineString", "coordinates": [ [ -92.558366807463699, 47.631672791069697 ], [ -92.558429557898904, 47.631693248523298 ] ] } },
{ "type": "Feature", "properties": { "wmUplineSo": "SAND LAKE", "wmType": "Underground" }, "geometry": { "type": "LineString", "coordinates": [ [ -92.621604919999896, 47.657142640009504 ], [ -92.619615004966093, 47.658141030669498 ] ] } },
{ "type": "Feature", "properties": { "wmUplineSo": "SAND LAKE", "wmType": "Underground" }, "geometry": { "type": "LineString", "coordinates": [ [ -92.621967484366607, 47.656745412904698 ], [ -92.621936032810694, 47.656695607796401 ] ] } },
{ "type": "Feature", "properties": { "wmUplineSo": "SAND LAKE", "wmType": "Underground" }, "geometry": { "type": "LineString", "coordinates": [ [ -92.621936032810694, 47.656695607796401 ], [ -92.621890669172501, 47.656645085190398 ] ] } },
{ "type": "Feature", "properties": { "wmUplineSo": "SAND LAKE", "wmType": "Underground" }, "geometry": { "type": "LineString", "coordinates": [ [ -92.561146082459899, 47.633057252135501 ], [ -92.561182121155994, 47.633732513087899 ], [ -92.561341388948804, 47.634139030958302 ], [ -92.561747901820695, 47.634423381084602 ], [ -92.562536218848095, 47.634974787883202 ], [ -92.5636695497559, 47.635767492108201 ], [ -92.563856858289796, 47.636098259337402 ], [ -92.563498541249601, 47.636324586825701 ], [ -92.563219439654603, 47.636244187933499 ], [ -92.562412759818997, 47.636299545433097 ], [ -92.561723073097198, 47.6363468700102 ], [ -92.560930669616994, 47.636574882568297 ], [ -92.560140374794301, 47.636826695156799 ], [ -92.559826757203297, 47.636903249630002 ] ] } },
{ "type": "Feature", "properties": { "wmUplineSo": "SAND LAKE", "wmType": "Underground" }, "geometry": { "type": "LineString", "coordinates": [ [ -92.544084416273094, 47.596018251241901 ], [ -92.543697327178194, 47.596152490377001 ], [ -92.543425513299596, 47.596148526513801 ], [ -92.543148527394393, 47.596090931528799 ], [ -92.542909982547002, 47.596015270560301 ], [ -92.542712924602199, 47.595826121732202 ], [ -92.542473341851206, 47.595783043115397 ], [ -92.542277849007704, 47.595806138018098 ] ] } },
{ "type": "Feature", "properties": { "wmUplineSo": "SAND LAKE", "wmType": "Underground" }, "geometry": { "type": "LineString", "coordinates": [ [ -92.542277849007704, 47.595806138018098 ], [ -92.542278585437998, 47.595845396040303 ], [ -92.542218907672805, 47.595906255396102 ], [ -92.542233881352601, 47.595951851058899 ] ] } },
{ "type": "Feature", "properties": { "wmUplineSo": "SAND LAKE", "wmType": "Underground" }, "geometry": { "type": "LineString", "coordinates": [ [ -92.5370733001416, 47.616983734286897 ], [ -92.537018632952993, 47.617121479947699 ] ] } },
{ "type": "Feature", "properties": { "wmUplineSo": "SAND LAKE", "wmType": "Underground" }, "geometry": { "type": "LineString", "coordinates": [ [ -92.549982999970496, 47.636011003736698 ], [ -92.549964399999894, 47.635972200009498 ] ] } },
{ "type": "Feature", "properties": { "wmUplineSo": "SAND LAKE", "wmType": "Underground" }, "geometry": { "type": "LineString", "coordinates": [ [ -92.633262517230094, 47.641791163084399 ], [ -92.633131380881295, 47.641513977474503 ] ] } },
{ "type": "Feature", "properties": { "wmUplineSo": "SAND LAKE", "wmType": "Underground" }, "geometry": { "type": "LineString", "coordinates": [ [ -92.613048197269194, 47.651266137598803 ], [ -92.6126983080418, 47.651402386394402 ] ] } },
{ "type": "Feature", "properties": { "wmUplineSo": "SAND LAKE", "wmType": "Underground" }, "geometry": { "type": "LineString", "coordinates": [ [ -92.6126983080418, 47.651402386394402 ], [ -92.608180400242603, 47.651292385695903 ], [ -92.607365201545704, 47.651272518411403 ], [ -92.606645382949594, 47.651534138142402 ], [ -92.6065827525603, 47.653181031827899 ] ] } },
{ "type": "Feature", "properties": { "wmUplineSo": "SAND LAKE", "wmType": "Underground" }, "geometry": { "type": "LineString", "coordinates": [ [ -92.593824817778696, 47.649915013419502 ], [ -92.594021936867307, 47.649597532294798 ], [ -92.595991477215406, 47.649113714734803 ] ] } },
{ "type": "Feature", "properties": { "wmUplineSo": "SAND LAKE", "wmType": "Underground" }, "geometry": { "type": "LineString", "coordinates": [ [ -92.577655890237196, 47.652311799153502 ], [ -92.576642995751698, 47.652375782203002 ] ] } },
{ "type": "Feature", "properties": { "wmUplineSo": "SAND LAKE", "wmType": "Underground" }, "geometry": { "type": "LineString", "coordinates": [ [ -92.576642995751698, 47.652375782203002 ], [ -92.576466290066307, 47.652324498143003 ] ] } },
{ "type": "Feature", "properties": { "wmUplineSo": "SAND LAKE", "wmType": "Underground" }, "geometry": { "type": "LineString", "coordinates": [ [ -92.537018632952993, 47.617121479947699 ], [ -92.536799255948296, 47.617674239534097 ], [ -92.535966198445706, 47.618003013162102 ] ] } },
{ "type": "Feature", "properties": { "wmUplineSo": "SAND LAKE", "wmType": "Underground" }, "geometry": { "type": "LineString", "coordinates": [ [ -92.613933712008603, 47.655192187696997 ], [ -92.613872869949603, 47.655219856087001 ] ] } },
{ "type": "Feature", "properties": { "wmUplineSo": "SAND LAKE", "wmType": "Underground" }, "geometry": { "type": "LineString", "coordinates": [ [ -92.554763325854196, 47.635965799595098 ], [ -92.554781399999897, 47.635940900009501 ] ] } },
{ "type": "Feature", "properties": { "wmUplineSo": "SAND LAKE", "wmType": "Underground" }, "geometry": { "type": "LineString", "coordinates": [ [ -92.547222449891194, 47.556710369425701 ], [ -92.547621450407703, 47.556182369569598 ] ] } },
{ "type": "Feature", "properties": { "wmUplineSo": "SAND LAKE", "wmType": "Underground" }, "geometry": { "type": "LineString", "coordinates": [ [ -92.547621450407703, 47.556182369569598 ], [ -92.548118731868399, 47.556144810656498 ] ] } },
{ "type": "Feature", "properties": { "wmUplineSo": "SAND LAKE", "wmType": "Underground" }, "geometry": { "type": "LineString", "coordinates": [ [ -92.545511383325007, 47.560407880449802 ], [ -92.545246206369399, 47.560585579774099 ] ] } },
{ "type": "Feature", "properties": { "wmUplineSo": "SAND LAKE", "wmType": "Underground" }, "geometry": { "type": "LineString", "coordinates": [ [ -92.553534456317095, 47.561746838820397 ], [ -92.553879252674193, 47.561583469132401 ], [ -92.553856754532802, 47.560504924583398 ], [ -92.5453495332535, 47.560821480848503 ], [ -92.545511383325007, 47.560407880449802 ] ] } },
{ "type": "Feature", "properties": { "wmUplineSo": "SAND LAKE", "wmType": "Underground" }, "geometry": { "type": "LineString", "coordinates": [ [ -92.595363010432493, 47.643732907383601 ], [ -92.595445483267795, 47.643772837009401 ] ] } },
{ "type": "Feature", "properties": { "wmUplineSo": "SAND LAKE", "wmType": "Underground" }, "geometry": { "type": "LineString", "coordinates": [ [ -92.545511383325007, 47.560407880449802 ], [ -92.546090446736201, 47.560392369006699 ] ] } },
{ "type": "Feature", "properties": { "wmUplineSo": "SAND LAKE", "wmType": "Underground" }, "geometry": { "type": "LineString", "coordinates": [ [ -92.553518055352299, 47.561754609792203 ], [ -92.553534456317095, 47.561746838820397 ] ] } },
{ "type": "Feature", "properties": { "wmUplineSo": "SAND LAKE", "wmType": "Underground" }, "geometry": { "type": "LineString", "coordinates": [ [ -92.636432000097798, 47.639130003981698 ], [ -92.636432104407007, 47.639105851993001 ] ] } },
{ "type": "Feature", "properties": { "wmUplineSo": "SAND LAKE", "wmType": "Underground" }, "geometry": { "type": "LineString", "coordinates": [ [ -92.636435801869595, 47.6382497088523 ], [ -92.636374917680499, 47.6382522584234 ] ] } },
{ "type": "Feature", "properties": { "wmUplineSo": "SAND LAKE", "wmType": "Underground" }, "geometry": { "type": "LineString", "coordinates": [ [ -92.584780999972807, 47.642034003738402 ], [ -92.584697055648803, 47.642062815642902 ] ] } },
{ "type": "Feature", "properties": { "wmUplineSo": "SAND LAKE", "wmType": "Underground" }, "geometry": { "type": "LineString", "coordinates": [ [ -92.573266956499197, 47.641612798553403 ], [ -92.573600999999897, 47.641625600009498 ] ] } }
]
}
