{
"type": "FeatureCollection",
"crs": { "type": "name", "properties": { "name": "urn:ogc:def:crs:OGC:1.3:CRS84" } },
"features": [
{ "type": "Feature", "properties": { "wmUplineSo": "SHOAL LAKE", "wmType": "Underground" }, "geometry": { "type": "LineString", "coordinates": [ [ -93.1422741835746, 47.415821540902698 ], [ -93.142157889888693, 47.415779058722897 ] ] } },
{ "type": "Feature", "properties": { "wmUplineSo": "SHOAL LAKE", "wmType": "Underground" }, "geometry": { "type": "LineString", "coordinates": [ [ -93.204326685891303, 47.429023701842901 ], [ -93.204166159930196, 47.429031170229401 ] ] } },
{ "type": "Feature", "properties": { "wmUplineSo": "SHOAL LAKE", "wmType": "Underground" }, "geometry": { "type": "LineString", "coordinates": [ [ -93.1783371, 47.414970400009203 ], [ -93.178556987514796, 47.4156354007781 ] ] } },
{ "type": "Feature", "properties": { "wmUplineSo": "SHOAL LAKE", "wmType": "Underground" }, "geometry": { "type": "LineString", "coordinates": [ [ -93.192925169829294, 47.435633667735601 ], [ -93.193144158724905, 47.434415409463803 ] ] } },
{ "type": "Feature", "properties": { "wmUplineSo": "SHOAL LAKE", "wmType": "Underground" }, "geometry": { "type": "LineString", "coordinates": [ [ -93.195409260392495, 47.418470469279598 ], [ -93.194852042561195, 47.418379946328201 ] ] } },
{ "type": "Feature", "properties": { "wmUplineSo": "SHOAL LAKE", "wmType": "Underground" }, "geometry": { "type": "LineString", "coordinates": [ [ -93.194852042561195, 47.418379946328201 ], [ -93.191377224863302, 47.418924385691902 ] ] } },
{ "type": "Feature", "properties": { "wmUplineSo": "SHOAL LAKE", "wmType": "Underground" }, "geometry": { "type": "LineString", "coordinates": [ [ -93.1728231565762, 47.413701720996698 ], [ -93.1728013917363, 47.412345128402102 ] ] } },
{ "type": "Feature", "properties": { "wmUplineSo": "SHOAL LAKE", "wmType": "Underground" }, "geometry": { "type": "LineString", "coordinates": [ [ -93.143284582908805, 47.4156879194448 ], [ -93.1422741835746, 47.415821540902698 ] ] } },
{ "type": "Feature", "properties": { "wmUplineSo": "SHOAL LAKE", "wmType": "Underground" }, "geometry": { "type": "LineString", "coordinates": [ [ -93.151029144628495, 47.428576368892898 ], [ -93.151004923735698, 47.429033756763403 ] ] } },
{ "type": "Feature", "properties": { "wmUplineSo": "SHOAL LAKE", "wmType": "Underground" }, "geometry": { "type": "LineString", "coordinates": [ [ -93.195584768539106, 47.4084410291035 ], [ -93.196266740742701, 47.408402078054401 ], [ -93.196497383591307, 47.408094753364203 ] ] } },
{ "type": "Feature", "properties": { "wmUplineSo": "SHOAL LAKE", "wmType": "Underground" }, "geometry": { "type": "LineString", "coordinates": [ [ -93.195494760787795, 47.411723591078797 ], [ -93.195431464338498, 47.410870959875197 ], [ -93.195195473038495, 47.409946671293199 ], [ -93.194802337631998, 47.409437414012601 ], [ -93.194126823302099, 47.409026735429798 ], [ -93.193038431723807, 47.408665852402002 ], [ -93.191224489761197, 47.408123100939697 ], [ -93.184820012326, 47.406541806688203 ], [ -93.179921661293506, 47.405373667484298 ], [ -93.177793123559795, 47.404535456917799 ], [ -93.176013992403199, 47.403352474654596 ], [ -93.171002368639407, 47.3978889154615 ] ] } },
{ "type": "Feature", "properties": { "wmUplineSo": "SHOAL LAKE", "wmType": "Underground" }, "geometry": { "type": "LineString", "coordinates": [ [ -93.170482800036993, 47.398617941184497 ], [ -93.170243122209101, 47.3985498390686 ] ] } },
{ "type": "Feature", "properties": { "wmUplineSo": "SHOAL LAKE", "wmType": "Underground" }, "geometry": { "type": "LineString", "coordinates": [ [ -93.173643859222693, 47.3988082617998 ], [ -93.173856675155307, 47.398812694478799 ], [ -93.173807246611503, 47.398643001156103 ], [ -93.173617140043902, 47.3986430235963 ] ] } },
{ "type": "Feature", "properties": { "wmUplineSo": "SHOAL LAKE", "wmType": "Underground" }, "geometry": { "type": "LineString", "coordinates": [ [ -93.176132709973999, 47.4016460993438 ], [ -93.178669118342, 47.400845377397999 ] ] } },
{ "type": "Feature", "properties": { "wmUplineSo": "SHOAL LAKE", "wmType": "Underground" }, "geometry": { "type": "LineString", "coordinates": [ [ -93.174566706901004, 47.401886214957599 ], [ -93.176132709973999, 47.4016460993438 ] ] } },
{ "type": "Feature", "properties": { "wmUplineSo": "SHOAL LAKE", "wmType": "Underground" }, "geometry": { "type": "LineString", "coordinates": [ [ -93.176132709973999, 47.4016460993438 ], [ -93.177065110468604, 47.401792198380903 ], [ -93.178425614801895, 47.401766646325498 ] ] } },
{ "type": "Feature", "properties": { "wmUplineSo": "SHOAL LAKE", "wmType": "Underground" }, "geometry": { "type": "LineString", "coordinates": [ [ -93.170243122209101, 47.3985498390686 ], [ -93.170050650285006, 47.398789363245903 ] ] } },
{ "type": "Feature", "properties": { "wmUplineSo": "SHOAL LAKE", "wmType": "Underground" }, "geometry": { "type": "LineString", "coordinates": [ [ -93.180690254345905, 47.414356411042803 ], [ -93.1807122542847, 47.414531411046397 ] ] } },
{ "type": "Feature", "properties": { "wmUplineSo": "SHOAL LAKE", "wmType": "Underground" }, "geometry": { "type": "LineString", "coordinates": [ [ -93.198134260574506, 47.412539465923899 ], [ -93.197443261069296, 47.412105465832099 ] ] } },
{ "type": "Feature", "properties": { "wmUplineSo": "SHOAL LAKE", "wmType": "Underground" }, "geometry": { "type": "LineString", "coordinates": [ [ -93.185513706479895, 47.402126780941401 ], [ -93.185104630311201, 47.4014478892257 ], [ -93.184518564812507, 47.401066351385097 ], [ -93.183716867271798, 47.400959781337797 ] ] } },
{ "type": "Feature", "properties": { "wmUplineSo": "SHOAL LAKE", "wmType": "Underground" }, "geometry": { "type": "LineString", "coordinates": [ [ -93.185436617930094, 47.404207738484203 ], [ -93.184990427722994, 47.4040283852461 ], [ -93.1845693845938, 47.4040092086071 ], [ -93.184471384815694, 47.403928132981598 ] ] } },
{ "type": "Feature", "properties": { "wmUplineSo": "SHOAL LAKE", "wmType": "Underground" }, "geometry": { "type": "LineString", "coordinates": [ [ -93.184471384815694, 47.403928132981598 ], [ -93.183976909679899, 47.403906714755898 ], [ -93.183507057994902, 47.4036929426859 ], [ -93.183203649518106, 47.403434709468399 ], [ -93.183017575599195, 47.4033594170021 ], [ -93.182389095723906, 47.403376504223303 ], [ -93.181738794137502, 47.403362927652601 ], [ -93.181234130066599, 47.403358298406197 ], [ -93.180964522256303, 47.4033786700885 ] ] } },
{ "type": "Feature", "properties": { "wmUplineSo": "SHOAL LAKE", "wmType": "Underground" }, "geometry": { "type": "LineString", "coordinates": [ [ -93.181509022749296, 47.405916652081103 ], [ -93.181609883383999, 47.404497330327899 ] ] } },
{ "type": "Feature", "properties": { "wmUplineSo": "SHOAL LAKE", "wmType": "Underground" }, "geometry": { "type": "LineString", "coordinates": [ [ -93.195493869026706, 47.4075335959322 ], [ -93.194657650684704, 47.407113096187999 ] ] } },
{ "type": "Feature", "properties": { "wmUplineSo": "SHOAL LAKE", "wmType": "Underground" }, "geometry": { "type": "LineString", "coordinates": [ [ -93.195571325234795, 47.408441796961398 ], [ -93.195574094811903, 47.408441638545902 ] ] } },
{ "type": "Feature", "properties": { "wmUplineSo": "SHOAL LAKE", "wmType": "Underground" }, "geometry": { "type": "LineString", "coordinates": [ [ -93.195574094811903, 47.408441638545902 ], [ -93.195584768539106, 47.4084410291035 ] ] } },
{ "type": "Feature", "properties": { "wmUplineSo": "SHOAL LAKE", "wmType": "Underground" }, "geometry": { "type": "LineString", "coordinates": [ [ -93.204166159930196, 47.429031170229401 ], [ -93.204087889512195, 47.429014224258502 ] ] } },
{ "type": "Feature", "properties": { "wmUplineSo": "SHOAL LAKE", "wmType": "Underground" }, "geometry": { "type": "LineString", "coordinates": [ [ -93.269999016836906, 47.456946290276399 ], [ -93.268280410983195, 47.457208072186802 ] ] } },
{ "type": "Feature", "properties": { "wmUplineSo": "SHOAL LAKE", "wmType": "Underground" }, "geometry": { "type": "LineString", "coordinates": [ [ -93.196750514249104, 47.418368231201001 ], [ -93.196737195095594, 47.4179612019621 ] ] } },
{ "type": "Feature", "properties": { "wmUplineSo": "SHOAL LAKE", "wmType": "Underground" }, "geometry": { "type": "LineString", "coordinates": [ [ -93.196341776517002, 47.4223717217033 ], [ -93.197146908256599, 47.4225567142553 ], [ -93.197253202113401, 47.422839245773901 ], [ -93.1972015132595, 47.423089942479201 ] ] } },
{ "type": "Feature", "properties": { "wmUplineSo": "SHOAL LAKE", "wmType": "Underground" }, "geometry": { "type": "LineString", "coordinates": [ [ -93.203264962436094, 47.428384069849798 ], [ -93.203256624759604, 47.427110718809402 ] ] } },
{ "type": "Feature", "properties": { "wmUplineSo": "SHOAL LAKE", "wmType": "Underground" }, "geometry": { "type": "LineString", "coordinates": [ [ -93.203278589281794, 47.428525135825403 ], [ -93.203264962436094, 47.428384069849798 ] ] } },
{ "type": "Feature", "properties": { "wmUplineSo": "SHOAL LAKE", "wmType": "Underground" }, "geometry": { "type": "LineString", "coordinates": [ [ -93.201841437659098, 47.428396950296197 ], [ -93.201843348076807, 47.426511654908502 ] ] } },
{ "type": "Feature", "properties": { "wmUplineSo": "SHOAL LAKE", "wmType": "Underground" }, "geometry": { "type": "LineString", "coordinates": [ [ -93.201837326481893, 47.428491412127002 ], [ -93.201841437659098, 47.428396950296197 ] ] } },
{ "type": "Feature", "properties": { "wmUplineSo": "SHOAL LAKE", "wmType": "Underground" }, "geometry": { "type": "LineString", "coordinates": [ [ -93.180562254567903, 47.413813411024101 ], [ -93.180720254448204, 47.413934411044998 ] ] } },
{ "type": "Feature", "properties": { "wmUplineSo": "SHOAL LAKE", "wmType": "Underground" }, "geometry": { "type": "LineString", "coordinates": [ [ -93.167061130485905, 47.397982803874598 ], [ -93.166955118463605, 47.397284961733298 ], [ -93.166295731539705, 47.396856798940199 ] ] } },
{ "type": "Feature", "properties": { "wmUplineSo": "SHOAL LAKE", "wmType": "Underground" }, "geometry": { "type": "LineString", "coordinates": [ [ -93.1915147549133, 47.435606405209803 ], [ -93.191330875054106, 47.435605942370898 ] ] } },
{ "type": "Feature", "properties": { "wmUplineSo": "SHOAL LAKE", "wmType": "Underground" }, "geometry": { "type": "LineString", "coordinates": [ [ -93.191330875054106, 47.435605942370898 ], [ -93.191238147879901, 47.435446652404103 ] ] } },
{ "type": "Feature", "properties": { "wmUplineSo": "SHOAL LAKE", "wmType": "Underground" }, "geometry": { "type": "LineString", "coordinates": [ [ -93.202069114329205, 47.419098133782803 ], [ -93.202058347651899, 47.4190912434876 ] ] } },
{ "type": "Feature", "properties": { "wmUplineSo": "SHOAL LAKE", "wmType": "Underground" }, "geometry": { "type": "LineString", "coordinates": [ [ -93.202115128085595, 47.421230599866398 ], [ -93.202171531894706, 47.421035044942201 ] ] } },
{ "type": "Feature", "properties": { "wmUplineSo": "SHOAL LAKE", "wmType": "Underground" }, "geometry": { "type": "LineString", "coordinates": [ [ -93.202171531894706, 47.421035044942201 ], [ -93.202202737548205, 47.420914089613298 ] ] } },
{ "type": "Feature", "properties": { "wmUplineSo": "SHOAL LAKE", "wmType": "Underground" }, "geometry": { "type": "LineString", "coordinates": [ [ -93.202202737548205, 47.420914089613298 ], [ -93.202285229294802, 47.420747370348302 ] ] } },
{ "type": "Feature", "properties": { "wmUplineSo": "SHOAL LAKE", "wmType": "Underground" }, "geometry": { "type": "LineString", "coordinates": [ [ -93.202285229294802, 47.420747370348302 ], [ -93.202399193176106, 47.420529548666799 ] ] } },
{ "type": "Feature", "properties": { "wmUplineSo": "SHOAL LAKE", "wmType": "Underground" }, "geometry": { "type": "LineString", "coordinates": [ [ -93.202399193176106, 47.420529548666799 ], [ -93.202430356819903, 47.420397846645201 ] ] } },
{ "type": "Feature", "properties": { "wmUplineSo": "SHOAL LAKE", "wmType": "Underground" }, "geometry": { "type": "LineString", "coordinates": [ [ -93.202430356819903, 47.420397846645201 ], [ -93.202410028748801, 47.4202581755113 ] ] } },
{ "type": "Feature", "properties": { "wmUplineSo": "SHOAL LAKE", "wmType": "Underground" }, "geometry": { "type": "LineString", "coordinates": [ [ -93.202410028748801, 47.4202581755113 ], [ -93.202409431513303, 47.420102349495501 ] ] } },
{ "type": "Feature", "properties": { "wmUplineSo": "SHOAL LAKE", "wmType": "Underground" }, "geometry": { "type": "LineString", "coordinates": [ [ -93.202409431513303, 47.420102349495501 ], [ -93.202377289915503, 47.419978819247099 ] ] } },
{ "type": "Feature", "properties": { "wmUplineSo": "SHOAL LAKE", "wmType": "Underground" }, "geometry": { "type": "LineString", "coordinates": [ [ -93.202377289915503, 47.419978819247099 ], [ -93.202313377689904, 47.419828478317903 ] ] } },
{ "type": "Feature", "properties": { "wmUplineSo": "SHOAL LAKE", "wmType": "Underground" }, "geometry": { "type": "LineString", "coordinates": [ [ -93.202313377689904, 47.419828478317903 ], [ -93.202269289043699, 47.4196861623983 ] ] } },
{ "type": "Feature", "properties": { "wmUplineSo": "SHOAL LAKE", "wmType": "Underground" }, "geometry": { "type": "LineString", "coordinates": [ [ -93.202269289043699, 47.4196861623983 ], [ -93.202221303901496, 47.419559973374703 ] ] } },
{ "type": "Feature", "properties": { "wmUplineSo": "SHOAL LAKE", "wmType": "Underground" }, "geometry": { "type": "LineString", "coordinates": [ [ -93.202221303901496, 47.419559973374703 ], [ -93.202192926097396, 47.419385389618498 ] ] } },
{ "type": "Feature", "properties": { "wmUplineSo": "SHOAL LAKE", "wmType": "Underground" }, "geometry": { "type": "LineString", "coordinates": [ [ -93.202192926097396, 47.419385389618498 ], [ -93.202168764030702, 47.419277965267597 ] ] } },
{ "type": "Feature", "properties": { "wmUplineSo": "SHOAL LAKE", "wmType": "Underground" }, "geometry": { "type": "LineString", "coordinates": [ [ -93.202168764030702, 47.419277965267597 ], [ -93.202069114329205, 47.419098133782803 ] ] } },
{ "type": "Feature", "properties": { "wmUplineSo": "SHOAL LAKE", "wmType": "Underground" }, "geometry": { "type": "LineString", "coordinates": [ [ -93.171948, 47.397943 ], [ -93.172091, 47.397845000000103 ] ] } },
{ "type": "Feature", "properties": { "wmUplineSo": "SHOAL LAKE", "wmType": "Underground" }, "geometry": { "type": "LineString", "coordinates": [ [ -93.172091, 47.397845000000103 ], [ -93.1723, 47.397586000000103 ] ] } },
{ "type": "Feature", "properties": { "wmUplineSo": "SHOAL LAKE", "wmType": "Underground" }, "geometry": { "type": "LineString", "coordinates": [ [ -93.1723, 47.397586000000103 ], [ -93.172374, 47.397377999999897 ] ] } },
{ "type": "Feature", "properties": { "wmUplineSo": "SHOAL LAKE", "wmType": "Underground" }, "geometry": { "type": "LineString", "coordinates": [ [ -93.172374, 47.397377999999897 ], [ -93.172347, 47.397219 ] ] } },
{ "type": "Feature", "properties": { "wmUplineSo": "SHOAL LAKE", "wmType": "Underground" }, "geometry": { "type": "LineString", "coordinates": [ [ -93.172347, 47.397219 ], [ -93.172336, 47.397204 ] ] } },
{ "type": "Feature", "properties": { "wmUplineSo": "SHOAL LAKE", "wmType": "Underground" }, "geometry": { "type": "LineString", "coordinates": [ [ -93.204397573550295, 47.428554041298497 ], [ -93.204326685891303, 47.429023701842901 ] ] } },
{ "type": "Feature", "properties": { "wmUplineSo": "SHOAL LAKE", "wmType": "Underground" }, "geometry": { "type": "LineString", "coordinates": [ [ -93.169100934370803, 47.397938653078803 ], [ -93.1692527290881, 47.397856689561102 ], [ -93.169238563049703, 47.397174888974398 ], [ -93.169331524450101, 47.397060446180497 ], [ -93.169597369220497, 47.3968638783413 ] ] } },
{ "type": "Feature", "properties": { "wmUplineSo": "SHOAL LAKE", "wmType": "Underground" }, "geometry": { "type": "LineString", "coordinates": [ [ -93.195385915199907, 47.4258629210211 ], [ -93.196233680473597, 47.425952104889902 ] ] } },
{ "type": "Feature", "properties": { "wmUplineSo": "SHOAL LAKE", "wmType": "Underground" }, "geometry": { "type": "LineString", "coordinates": [ [ -93.171128920352402, 47.398088072054797 ], [ -93.170811296264205, 47.398495723837698 ] ] } },
{ "type": "Feature", "properties": { "wmUplineSo": "SHOAL LAKE", "wmType": "Underground" }, "geometry": { "type": "LineString", "coordinates": [ [ -93.170811296264205, 47.398495723837698 ], [ -93.170482800036993, 47.398617941184497 ] ] } },
{ "type": "Feature", "properties": { "wmUplineSo": "SHOAL LAKE", "wmType": "Underground" }, "geometry": { "type": "LineString", "coordinates": [ [ -93.170243122209101, 47.3985498390686 ], [ -93.1696311505154, 47.3984968659637 ] ] } },
{ "type": "Feature", "properties": { "wmUplineSo": "SHOAL LAKE", "wmType": "Underground" }, "geometry": { "type": "LineString", "coordinates": [ [ -93.1696311505154, 47.3984968659637 ], [ -93.169264149790394, 47.3984278651346 ] ] } },
{ "type": "Feature", "properties": { "wmUplineSo": "SHOAL LAKE", "wmType": "Underground" }, "geometry": { "type": "LineString", "coordinates": [ [ -93.169264149790394, 47.3984278651346 ], [ -93.169242766114806, 47.397917669227702 ] ] } },
{ "type": "Feature", "properties": { "wmUplineSo": "SHOAL LAKE", "wmType": "Underground" }, "geometry": { "type": "LineString", "coordinates": [ [ -93.169242766114806, 47.397917669227702 ], [ -93.169100934370803, 47.397938653078803 ] ] } },
{ "type": "Feature", "properties": { "wmUplineSo": "SHOAL LAKE", "wmType": "Underground" }, "geometry": { "type": "LineString", "coordinates": [ [ -93.169100934370803, 47.397938653078803 ], [ -93.168576150039499, 47.397970863586998 ] ] } },
{ "type": "Feature", "properties": { "wmUplineSo": "SHOAL LAKE", "wmType": "Underground" }, "geometry": { "type": "LineString", "coordinates": [ [ -93.168576150039499, 47.397970863586998 ], [ -93.167061130485905, 47.397982803874598 ] ] } },
{ "type": "Feature", "properties": { "wmUplineSo": "SHOAL LAKE", "wmType": "Underground" }, "geometry": { "type": "LineString", "coordinates": [ [ -93.203618797082797, 47.413980486240398 ], [ -93.203855244641503, 47.414441536273699 ] ] } },
{ "type": "Feature", "properties": { "wmUplineSo": "SHOAL LAKE", "wmType": "Underground" }, "geometry": { "type": "LineString", "coordinates": [ [ -93.203855244641503, 47.414441536273699 ], [ -93.2039358569032, 47.414461866694097 ] ] } },
{ "type": "Feature", "properties": { "wmUplineSo": "SHOAL LAKE", "wmType": "Underground" }, "geometry": { "type": "LineString", "coordinates": [ [ -93.197686260493995, 47.413687465872201 ], [ -93.197720260489703, 47.413637465876199 ] ] } },
{ "type": "Feature", "properties": { "wmUplineSo": "SHOAL LAKE", "wmType": "Underground" }, "geometry": { "type": "LineString", "coordinates": [ [ -93.197720260489703, 47.413637465876199 ], [ -93.1981142605092, 47.412810465922703 ] ] } },
{ "type": "Feature", "properties": { "wmUplineSo": "SHOAL LAKE", "wmType": "Underground" }, "geometry": { "type": "LineString", "coordinates": [ [ -93.1981142605092, 47.412810465922703 ], [ -93.198110758453097, 47.4128106553188 ], [ -93.1981161042021, 47.412804299710601 ], [ -93.1981413151791, 47.412755243296303 ], [ -93.1981510621479, 47.412594506499602 ], [ -93.198136181799399, 47.412534627627203 ], [ -93.198134260574506, 47.412539465923899 ] ] } },
{ "type": "Feature", "properties": { "wmUplineSo": "SHOAL LAKE", "wmType": "Underground" }, "geometry": { "type": "LineString", "coordinates": [ [ -93.195489262272005, 47.411621469250903 ], [ -93.195494760787795, 47.411723591078797 ] ] } },
{ "type": "Feature", "properties": { "wmUplineSo": "SHOAL LAKE", "wmType": "Underground" }, "geometry": { "type": "LineString", "coordinates": [ [ -93.1807122542847, 47.414531411046397 ], [ -93.180820254208697, 47.414593411060601 ] ] } },
{ "type": "Feature", "properties": { "wmUplineSo": "SHOAL LAKE", "wmType": "Underground" }, "geometry": { "type": "LineString", "coordinates": [ [ -93.178556987514796, 47.4156354007781 ], [ -93.178555670258206, 47.415694763419097 ] ] } },
{ "type": "Feature", "properties": { "wmUplineSo": "SHOAL LAKE", "wmType": "Underground" }, "geometry": { "type": "LineString", "coordinates": [ [ -93.195532254519406, 47.439139469412702 ], [ -93.195121854788098, 47.438929065685997 ] ] } },
{ "type": "Feature", "properties": { "wmUplineSo": "SHOAL LAKE", "wmType": "Underground" }, "geometry": { "type": "LineString", "coordinates": [ [ -93.193144158724905, 47.434415409463803 ], [ -93.193215857128905, 47.434263765414201 ] ] } },
{ "type": "Feature", "properties": { "wmUplineSo": "SHOAL LAKE", "wmType": "Underground" }, "geometry": { "type": "LineString", "coordinates": [ [ -93.196233680473597, 47.425952104889902 ], [ -93.196378277295295, 47.425968236874603 ] ] } },
{ "type": "Feature", "properties": { "wmUplineSo": "SHOAL LAKE", "wmType": "Underground" }, "geometry": { "type": "LineString", "coordinates": [ [ -93.1728013917363, 47.412345128402102 ], [ -93.172715574479298, 47.4118842626443 ] ] } },
{ "type": "Feature", "properties": { "wmUplineSo": "SHOAL LAKE", "wmType": "Underground" }, "geometry": { "type": "LineString", "coordinates": [ [ -93.151004923735698, 47.429033756763403 ], [ -93.151016881378794, 47.429085059935701 ] ] } },
{ "type": "Feature", "properties": { "wmUplineSo": "SHOAL LAKE", "wmType": "Underground" }, "geometry": { "type": "LineString", "coordinates": [ [ -93.196497383591307, 47.408094753364203 ], [ -93.196567062766803, 47.407742565704403 ] ] } },
{ "type": "Feature", "properties": { "wmUplineSo": "SHOAL LAKE", "wmType": "Underground" }, "geometry": { "type": "LineString", "coordinates": [ [ -93.196312006956504, 47.409587319551903 ], [ -93.196681862206503, 47.409517965728902 ] ] } },
{ "type": "Feature", "properties": { "wmUplineSo": "SHOAL LAKE", "wmType": "Underground" }, "geometry": { "type": "LineString", "coordinates": [ [ -93.197443261069296, 47.412105465832099 ], [ -93.197747760987696, 47.411810765879103 ] ] } },
{ "type": "Feature", "properties": { "wmUplineSo": "SHOAL LAKE", "wmType": "Underground" }, "geometry": { "type": "LineString", "coordinates": [ [ -93.166295731539705, 47.396856798940199 ], [ -93.165118446514697, 47.396645352128203 ] ] } },
{ "type": "Feature", "properties": { "wmUplineSo": "SHOAL LAKE", "wmType": "Underground" }, "geometry": { "type": "LineString", "coordinates": [ [ -93.173617140043902, 47.3986430235963 ], [ -93.173471452639305, 47.398590834977199 ] ] } },
{ "type": "Feature", "properties": { "wmUplineSo": "SHOAL LAKE", "wmType": "Underground" }, "geometry": { "type": "LineString", "coordinates": [ [ -93.173617140043902, 47.3986430235963 ], [ -93.173263868013905, 47.398674259102201 ] ] } },
{ "type": "Feature", "properties": { "wmUplineSo": "SHOAL LAKE", "wmType": "Underground" }, "geometry": { "type": "LineString", "coordinates": [ [ -93.178425614801895, 47.401766646325498 ], [ -93.178932952093902, 47.402477146244998 ] ] } },
{ "type": "Feature", "properties": { "wmUplineSo": "SHOAL LAKE", "wmType": "Underground" }, "geometry": { "type": "LineString", "coordinates": [ [ -93.178669118342, 47.400845377397999 ], [ -93.179182562012102, 47.400450446810098 ] ] } },
{ "type": "Feature", "properties": { "wmUplineSo": "SHOAL LAKE", "wmType": "Underground" }, "geometry": { "type": "LineString", "coordinates": [ [ -93.183716867271798, 47.400959781337797 ], [ -93.182797872353504, 47.400052963883098 ] ] } },
{ "type": "Feature", "properties": { "wmUplineSo": "SHOAL LAKE", "wmType": "Underground" }, "geometry": { "type": "LineString", "coordinates": [ [ -93.185513706479895, 47.402126780941401 ], [ -93.184803870661398, 47.402228264153997 ] ] } },
{ "type": "Feature", "properties": { "wmUplineSo": "SHOAL LAKE", "wmType": "Underground" }, "geometry": { "type": "LineString", "coordinates": [ [ -93.184471384815694, 47.403928132981598 ], [ -93.1843200704335, 47.403972464100903 ] ] } },
{ "type": "Feature", "properties": { "wmUplineSo": "SHOAL LAKE", "wmType": "Underground" }, "geometry": { "type": "LineString", "coordinates": [ [ -93.180964522256303, 47.4033786700885 ], [ -93.180567872625801, 47.403374963612798 ] ] } },
{ "type": "Feature", "properties": { "wmUplineSo": "SHOAL LAKE", "wmType": "Underground" }, "geometry": { "type": "LineString", "coordinates": [ [ -93.181609883383999, 47.404497330327899 ], [ -93.181023772107494, 47.404346563677002 ] ] } },
{ "type": "Feature", "properties": { "wmUplineSo": "SHOAL LAKE", "wmType": "Underground" }, "geometry": { "type": "LineString", "coordinates": [ [ -93.194657650684704, 47.407113096187999 ], [ -93.194521564062299, 47.407059565436199 ] ] } },
{ "type": "Feature", "properties": { "wmUplineSo": "SHOAL LAKE", "wmType": "Underground" }, "geometry": { "type": "LineString", "coordinates": [ [ -93.1728231565762, 47.413701720996698 ], [ -93.172929873636704, 47.414477962685901 ] ] } },
{ "type": "Feature", "properties": { "wmUplineSo": "SHOAL LAKE", "wmType": "Underground" }, "geometry": { "type": "LineString", "coordinates": [ [ -93.201843348076807, 47.426511654908502 ], [ -93.202231354408497, 47.426616566539401 ] ] } },
{ "type": "Feature", "properties": { "wmUplineSo": "SHOAL LAKE", "wmType": "Underground" }, "geometry": { "type": "LineString", "coordinates": [ [ -93.196737195095594, 47.4179612019621 ], [ -93.197013559727097, 47.417712365816101 ] ] } },
{ "type": "Feature", "properties": { "wmUplineSo": "SHOAL LAKE", "wmType": "Underground" }, "geometry": { "type": "LineString", "coordinates": [ [ -93.1972015132595, 47.423089942479201 ], [ -93.197194158119004, 47.4230912658685 ] ] } },
{ "type": "Feature", "properties": { "wmUplineSo": "SHOAL LAKE", "wmType": "Underground" }, "geometry": { "type": "LineString", "coordinates": [ [ -93.203256624759604, 47.427110718809402 ], [ -93.203316253670707, 47.4271573666827 ] ] } },
{ "type": "Feature", "properties": { "wmUplineSo": "SHOAL LAKE", "wmType": "Underground" }, "geometry": { "type": "LineString", "coordinates": [ [ -93.180720254448204, 47.413934411044998 ], [ -93.180690254345905, 47.414356411042803 ] ] } },
{ "type": "Feature", "properties": { "wmUplineSo": "SHOAL LAKE", "wmType": "Underground" }, "geometry": { "type": "LineString", "coordinates": [ [ -93.180820254208697, 47.414593411060601 ], [ -93.180576885574794, 47.414754685000702 ] ] } },
{ "type": "Feature", "properties": { "wmUplineSo": "SHOAL LAKE", "wmType": "Underground" }, "geometry": { "type": "LineString", "coordinates": [ [ -93.191238147879901, 47.435446652404103 ], [ -93.191013861809793, 47.434745520608601 ] ] } },
{ "type": "Feature", "properties": { "wmUplineSo": "SHOAL LAKE", "wmType": "Underground" }, "geometry": { "type": "LineString", "coordinates": [ [ -93.191013861809793, 47.434745520608601 ], [ -93.191153758149099, 47.434597065149298 ] ] } },
{ "type": "Feature", "properties": { "wmUplineSo": "SHOAL LAKE", "wmType": "Underground" }, "geometry": { "type": "LineString", "coordinates": [ [ -93.180466839827105, 47.413659978512399 ], [ -93.180562254567903, 47.413813411024101 ] ] } }
]
}
