{
"type": "FeatureCollection",
"crs": { "type": "name", "properties": { "name": "urn:ogc:def:crs:OGC:1.3:CRS84" } },
"features": [
{ "type": "Feature", "properties": { "wmUplineSo": "SIDE LAKE", "wmType": "Underground" }, "geometry": { "type": "LineString", "coordinates": [ [ -93.072084592451603, 47.6695490032808 ], [ -93.072434515654095, 47.669526672739401 ] ] } },
{ "type": "Feature", "properties": { "wmUplineSo": "SIDE LAKE", "wmType": "Underground" }, "geometry": { "type": "LineString", "coordinates": [ [ -93.052971809118503, 47.667413835953099 ], [ -93.053276, 47.667434 ] ] } },
{ "type": "Feature", "properties": { "wmUplineSo": "SIDE LAKE", "wmType": "Underground" }, "geometry": { "type": "LineString", "coordinates": [ [ -93.053276, 47.667434 ], [ -93.053803286882697, 47.667504078555403 ] ] } },
{ "type": "Feature", "properties": { "wmUplineSo": "SIDE LAKE", "wmType": "Underground" }, "geometry": { "type": "LineString", "coordinates": [ [ -93.053803286882697, 47.667504078555403 ], [ -93.054335, 47.667574 ] ] } },
{ "type": "Feature", "properties": { "wmUplineSo": "SIDE LAKE", "wmType": "Underground" }, "geometry": { "type": "LineString", "coordinates": [ [ -93.054335, 47.667574 ], [ -93.054450574494993, 47.667413150982199 ] ] } },
{ "type": "Feature", "properties": { "wmUplineSo": "SIDE LAKE", "wmType": "Underground" }, "geometry": { "type": "LineString", "coordinates": [ [ -93.054335, 47.667574 ], [ -93.054387801173903, 47.667565643768597 ] ] } },
{ "type": "Feature", "properties": { "wmUplineSo": "SIDE LAKE", "wmType": "Underground" }, "geometry": { "type": "LineString", "coordinates": [ [ -93.055462062886306, 47.640949977430097 ], [ -93.055188, 47.64158 ] ] } },
{ "type": "Feature", "properties": { "wmUplineSo": "SIDE LAKE", "wmType": "Underground" }, "geometry": { "type": "LineString", "coordinates": [ [ -93.055188, 47.64158 ], [ -93.054888, 47.641466 ] ] } },
{ "type": "Feature", "properties": { "wmUplineSo": "SIDE LAKE", "wmType": "Underground" }, "geometry": { "type": "LineString", "coordinates": [ [ -93.054888, 47.641466 ], [ -93.054794, 47.641374 ] ] } },
{ "type": "Feature", "properties": { "wmUplineSo": "SIDE LAKE", "wmType": "Underground" }, "geometry": { "type": "LineString", "coordinates": [ [ -93.054794, 47.641374 ], [ -93.054736600347894, 47.641371102001699 ] ] } },
{ "type": "Feature", "properties": { "wmUplineSo": "SIDE LAKE", "wmType": "Underground" }, "geometry": { "type": "LineString", "coordinates": [ [ -93.0647128333636, 47.629390386629098 ], [ -93.064639698526605, 47.629376535550001 ] ] } },
{ "type": "Feature", "properties": { "wmUplineSo": "SIDE LAKE", "wmType": "Underground" }, "geometry": { "type": "LineString", "coordinates": [ [ -93.0708100000044, 47.6872170037514 ], [ -93.070692000004499, 47.687183003751201 ] ] } },
{ "type": "Feature", "properties": { "wmUplineSo": "SIDE LAKE", "wmType": "Underground" }, "geometry": { "type": "LineString", "coordinates": [ [ -93.070692000004499, 47.687183003751201 ], [ -93.070632000004395, 47.6870310037514 ] ] } },
{ "type": "Feature", "properties": { "wmUplineSo": "SIDE LAKE", "wmType": "Underground" }, "geometry": { "type": "LineString", "coordinates": [ [ -93.070632000004395, 47.6870310037514 ], [ -93.070455000004401, 47.686862003751102 ] ] } },
{ "type": "Feature", "properties": { "wmUplineSo": "SIDE LAKE", "wmType": "Underground" }, "geometry": { "type": "LineString", "coordinates": [ [ -93.070455000004401, 47.686862003751102 ], [ -93.069742000004396, 47.686375003751003 ] ] } },
{ "type": "Feature", "properties": { "wmUplineSo": "SIDE LAKE", "wmType": "Underground" }, "geometry": { "type": "LineString", "coordinates": [ [ -93.069742000004396, 47.686375003751003 ], [ -93.069497000004304, 47.686262003751203 ] ] } },
{ "type": "Feature", "properties": { "wmUplineSo": "SIDE LAKE", "wmType": "Underground" }, "geometry": { "type": "LineString", "coordinates": [ [ -93.069497000004304, 47.686262003751203 ], [ -93.069454405365093, 47.686243216228704 ] ] } },
{ "type": "Feature", "properties": { "wmUplineSo": "SIDE LAKE", "wmType": "Underground" }, "geometry": { "type": "LineString", "coordinates": [ [ -93.058433000003603, 47.6727600037472 ], [ -93.058731000003604, 47.672832003747303 ] ] } },
{ "type": "Feature", "properties": { "wmUplineSo": "SIDE LAKE", "wmType": "Underground" }, "geometry": { "type": "LineString", "coordinates": [ [ -93.058731000003604, 47.672832003747303 ], [ -93.058602000003603, 47.672932003747299 ] ] } },
{ "type": "Feature", "properties": { "wmUplineSo": "SIDE LAKE", "wmType": "Underground" }, "geometry": { "type": "LineString", "coordinates": [ [ -93.058602000003603, 47.672932003747299 ], [ -93.058557000003603, 47.673043003747203 ] ] } },
{ "type": "Feature", "properties": { "wmUplineSo": "SIDE LAKE", "wmType": "Underground" }, "geometry": { "type": "LineString", "coordinates": [ [ -93.058557000003603, 47.673043003747203 ], [ -93.0585412, 47.673080300009502 ] ] } },
{ "type": "Feature", "properties": { "wmUplineSo": "SIDE LAKE", "wmType": "Underground" }, "geometry": { "type": "LineString", "coordinates": [ [ -93.056937062852896, 47.634558498880303 ], [ -93.057062900406706, 47.635039586283497 ] ] } },
{ "type": "Feature", "properties": { "wmUplineSo": "SIDE LAKE", "wmType": "Underground" }, "geometry": { "type": "LineString", "coordinates": [ [ -93.057062900406706, 47.635039586283497 ], [ -93.057499000003602, 47.635325003736703 ] ] } },
{ "type": "Feature", "properties": { "wmUplineSo": "SIDE LAKE", "wmType": "Underground" }, "geometry": { "type": "LineString", "coordinates": [ [ -93.061984330293001, 47.644351035234799 ], [ -93.061858000003895, 47.644403003739399 ] ] } },
{ "type": "Feature", "properties": { "wmUplineSo": "SIDE LAKE", "wmType": "Underground" }, "geometry": { "type": "LineString", "coordinates": [ [ -93.061858000003895, 47.644403003739399 ], [ -93.061755000003799, 47.6444590037393 ] ] } },
{ "type": "Feature", "properties": { "wmUplineSo": "SIDE LAKE", "wmType": "Underground" }, "geometry": { "type": "LineString", "coordinates": [ [ -93.055177985016897, 47.661866947018801 ], [ -93.0551799, 47.661871100009499 ] ] } },
{ "type": "Feature", "properties": { "wmUplineSo": "SIDE LAKE", "wmType": "Underground" }, "geometry": { "type": "LineString", "coordinates": [ [ -93.052120148183306, 47.639651309073301 ], [ -93.052149660348704, 47.639402583890799 ], [ -93.052421408554494, 47.637112209399902 ], [ -93.052502643772698, 47.6364274958487 ], [ -93.052537508201098, 47.6355539275865 ] ] } },
{ "type": "Feature", "properties": { "wmUplineSo": "SIDE LAKE", "wmType": "Underground" }, "geometry": { "type": "LineString", "coordinates": [ [ -93.052537508201098, 47.6355539275865 ], [ -93.0525543297545, 47.635319146055402 ], [ -93.052659332539406, 47.635105502563903 ], [ -93.053690847658103, 47.6346637120661 ] ] } },
{ "type": "Feature", "properties": { "wmUplineSo": "SIDE LAKE", "wmType": "Underground" }, "geometry": { "type": "LineString", "coordinates": [ [ -93.053690847658103, 47.6346637120661 ], [ -93.053896430040695, 47.6350738057602 ] ] } },
{ "type": "Feature", "properties": { "wmUplineSo": "SIDE LAKE", "wmType": "Underground" }, "geometry": { "type": "LineString", "coordinates": [ [ -93.056323471503703, 47.640601787173502 ], [ -93.0564309, 47.640640400009502 ] ] } },
{ "type": "Feature", "properties": { "wmUplineSo": "SIDE LAKE", "wmType": "Underground" }, "geometry": { "type": "LineString", "coordinates": [ [ -93.056287663408398, 47.640572252492298 ], [ -93.056323471503703, 47.640601787173502 ] ] } },
{ "type": "Feature", "properties": { "wmUplineSo": "SIDE LAKE", "wmType": "Underground" }, "geometry": { "type": "LineString", "coordinates": [ [ -93.055976699139407, 47.640272756824899 ], [ -93.056287663408398, 47.640572252492298 ] ] } },
{ "type": "Feature", "properties": { "wmUplineSo": "SIDE LAKE", "wmType": "Underground" }, "geometry": { "type": "LineString", "coordinates": [ [ -93.055444980762005, 47.640210248587401 ], [ -93.055976699139407, 47.640272756824899 ] ] } },
{ "type": "Feature", "properties": { "wmUplineSo": "SIDE LAKE", "wmType": "Underground" }, "geometry": { "type": "LineString", "coordinates": [ [ -93.064368705958998, 47.628920817444701 ], [ -93.064134279480498, 47.628784527610897 ] ] } },
{ "type": "Feature", "properties": { "wmUplineSo": "SIDE LAKE", "wmType": "Underground" }, "geometry": { "type": "LineString", "coordinates": [ [ -93.064134279480498, 47.628784527610897 ], [ -93.063269914897205, 47.628792241109899 ] ] } },
{ "type": "Feature", "properties": { "wmUplineSo": "SIDE LAKE", "wmType": "Underground" }, "geometry": { "type": "LineString", "coordinates": [ [ -93.063269914897205, 47.628792241109899 ], [ -93.062208978841895, 47.628801659865303 ] ] } },
{ "type": "Feature", "properties": { "wmUplineSo": "SIDE LAKE", "wmType": "Underground" }, "geometry": { "type": "LineString", "coordinates": [ [ -93.062208978841895, 47.628801659865303 ], [ -93.061176501921906, 47.628838799990604 ] ] } },
{ "type": "Feature", "properties": { "wmUplineSo": "SIDE LAKE", "wmType": "Underground" }, "geometry": { "type": "LineString", "coordinates": [ [ -93.061176501921906, 47.628838799990604 ], [ -93.060474099459796, 47.628862849081699 ] ] } },
{ "type": "Feature", "properties": { "wmUplineSo": "SIDE LAKE", "wmType": "Underground" }, "geometry": { "type": "LineString", "coordinates": [ [ -93.060474099459796, 47.628862849081699 ], [ -93.059624004037701, 47.629713617882501 ] ] } },
{ "type": "Feature", "properties": { "wmUplineSo": "SIDE LAKE", "wmType": "Underground" }, "geometry": { "type": "LineString", "coordinates": [ [ -93.059624004037701, 47.629713617882501 ], [ -93.058764727922807, 47.630539520794102 ] ] } },
{ "type": "Feature", "properties": { "wmUplineSo": "SIDE LAKE", "wmType": "Underground" }, "geometry": { "type": "LineString", "coordinates": [ [ -93.058764727922807, 47.630539520794102 ], [ -93.058672310707905, 47.630721538287098 ] ] } },
{ "type": "Feature", "properties": { "wmUplineSo": "SIDE LAKE", "wmType": "Underground" }, "geometry": { "type": "LineString", "coordinates": [ [ -93.058672310707905, 47.630721538287098 ], [ -93.058662763526698, 47.631255393594998 ] ] } },
{ "type": "Feature", "properties": { "wmUplineSo": "SIDE LAKE", "wmType": "Underground" }, "geometry": { "type": "LineString", "coordinates": [ [ -93.058662763526698, 47.631255393594998 ], [ -93.058595606793801, 47.631651735764699 ] ] } },
{ "type": "Feature", "properties": { "wmUplineSo": "SIDE LAKE", "wmType": "Underground" }, "geometry": { "type": "LineString", "coordinates": [ [ -93.058595606793801, 47.631651735764699 ], [ -93.058754944279002, 47.632037049803003 ] ] } },
{ "type": "Feature", "properties": { "wmUplineSo": "SIDE LAKE", "wmType": "Underground" }, "geometry": { "type": "LineString", "coordinates": [ [ -93.0451918, 47.657282500009501 ], [ -93.0452827, 47.657199500009497 ] ] } },
{ "type": "Feature", "properties": { "wmUplineSo": "SIDE LAKE", "wmType": "Underground" }, "geometry": { "type": "LineString", "coordinates": [ [ -93.057499000003602, 47.635325003736703 ], [ -93.058115, 47.635196 ] ] } },
{ "type": "Feature", "properties": { "wmUplineSo": "SIDE LAKE", "wmType": "Underground" }, "geometry": { "type": "LineString", "coordinates": [ [ -93.058115, 47.635196 ], [ -93.059242, 47.635684 ] ] } },
{ "type": "Feature", "properties": { "wmUplineSo": "SIDE LAKE", "wmType": "Underground" }, "geometry": { "type": "LineString", "coordinates": [ [ -93.059242, 47.635684 ], [ -93.059169972406394, 47.6356363376552 ] ] } },
{ "type": "Feature", "properties": { "wmUplineSo": "SIDE LAKE", "wmType": "Underground" }, "geometry": { "type": "LineString", "coordinates": [ [ -93.060491725478499, 47.635860448128497 ], [ -93.061012834533003, 47.636056399875201 ] ] } },
{ "type": "Feature", "properties": { "wmUplineSo": "SIDE LAKE", "wmType": "Underground" }, "geometry": { "type": "LineString", "coordinates": [ [ -93.056895344260099, 47.634010402696298 ], [ -93.056956940018594, 47.633527430762797 ], [ -93.056904882132699, 47.633170142518701 ] ] } },
{ "type": "Feature", "properties": { "wmUplineSo": "SIDE LAKE", "wmType": "Underground" }, "geometry": { "type": "LineString", "coordinates": [ [ -93.059583267015995, 47.632933708096203 ], [ -93.059628777708994, 47.633441446176001 ], [ -93.0601816228492, 47.633767575989602 ], [ -93.060600582907696, 47.633919799704302 ] ] } },
{ "type": "Feature", "properties": { "wmUplineSo": "SIDE LAKE", "wmType": "Underground" }, "geometry": { "type": "LineString", "coordinates": [ [ -93.059566689469193, 47.632872346073299 ], [ -93.059583267015995, 47.632933708096203 ] ] } },
{ "type": "Feature", "properties": { "wmUplineSo": "SIDE LAKE", "wmType": "Underground" }, "geometry": { "type": "LineString", "coordinates": [ [ -93.055709979554507, 47.662457973161999 ], [ -93.055811430456998, 47.662338793674103 ] ] } },
{ "type": "Feature", "properties": { "wmUplineSo": "SIDE LAKE", "wmType": "Underground" }, "geometry": { "type": "LineString", "coordinates": [ [ -93.055811430456998, 47.662338793674103 ], [ -93.055758758829597, 47.6622145408572 ] ] } },
{ "type": "Feature", "properties": { "wmUplineSo": "SIDE LAKE", "wmType": "Underground" }, "geometry": { "type": "LineString", "coordinates": [ [ -93.055758758829597, 47.6622145408572 ], [ -93.055757758639899, 47.662103540857601 ] ] } },
{ "type": "Feature", "properties": { "wmUplineSo": "SIDE LAKE", "wmType": "Underground" }, "geometry": { "type": "LineString", "coordinates": [ [ -93.055757758639899, 47.662103540857601 ], [ -93.055808758472395, 47.662022540817297 ] ] } },
{ "type": "Feature", "properties": { "wmUplineSo": "SIDE LAKE", "wmType": "Underground" }, "geometry": { "type": "LineString", "coordinates": [ [ -93.055808758472395, 47.662022540817297 ], [ -93.055816875448301, 47.661973753459698 ] ] } },
{ "type": "Feature", "properties": { "wmUplineSo": "SIDE LAKE", "wmType": "Underground" }, "geometry": { "type": "LineString", "coordinates": [ [ -93.058053000003596, 47.664070003744797 ], [ -93.058053871398897, 47.664042228138797 ] ] } },
{ "type": "Feature", "properties": { "wmUplineSo": "SIDE LAKE", "wmType": "Underground" }, "geometry": { "type": "LineString", "coordinates": [ [ -93.058061000003605, 47.663815003744801 ], [ -93.058156000003606, 47.663676003744698 ] ] } },
{ "type": "Feature", "properties": { "wmUplineSo": "SIDE LAKE", "wmType": "Underground" }, "geometry": { "type": "LineString", "coordinates": [ [ -93.058156000003606, 47.663676003744698 ], [ -93.058144943917199, 47.663626780388498 ] ] } },
{ "type": "Feature", "properties": { "wmUplineSo": "SIDE LAKE", "wmType": "Underground" }, "geometry": { "type": "LineString", "coordinates": [ [ -93.0599759894844, 47.664942064401203 ], [ -93.059898381935994, 47.665583324932598 ] ] } },
{ "type": "Feature", "properties": { "wmUplineSo": "SIDE LAKE", "wmType": "Underground" }, "geometry": { "type": "LineString", "coordinates": [ [ -93.058053871398897, 47.664042228138797 ], [ -93.058061000003605, 47.663815003744801 ] ] } },
{ "type": "Feature", "properties": { "wmUplineSo": "SIDE LAKE", "wmType": "Underground" }, "geometry": { "type": "LineString", "coordinates": [ [ -93.060273396359193, 47.694620483252699 ], [ -93.0602258, 47.694579800009599 ] ] } },
{ "type": "Feature", "properties": { "wmUplineSo": "SIDE LAKE", "wmType": "Underground" }, "geometry": { "type": "LineString", "coordinates": [ [ -93.059756617660497, 47.631398912950203 ], [ -93.059745750687995, 47.631453993354803 ] ] } },
{ "type": "Feature", "properties": { "wmUplineSo": "SIDE LAKE", "wmType": "Underground" }, "geometry": { "type": "LineString", "coordinates": [ [ -93.06175995, 47.652698520009501 ], [ -93.062242487565499, 47.6528089272202 ] ] } },
{ "type": "Feature", "properties": { "wmUplineSo": "SIDE LAKE", "wmType": "Underground" }, "geometry": { "type": "LineString", "coordinates": [ [ -93.074336307258704, 47.652228938749097 ], [ -93.0739442, 47.652259800009503 ] ] } },
{ "type": "Feature", "properties": { "wmUplineSo": "SIDE LAKE", "wmType": "Underground" }, "geometry": { "type": "LineString", "coordinates": [ [ -93.066498819868102, 47.654167920385902 ], [ -93.0660151, 47.654253200009499 ] ] } },
{ "type": "Feature", "properties": { "wmUplineSo": "SIDE LAKE", "wmType": "Underground" }, "geometry": { "type": "LineString", "coordinates": [ [ -93.064164990325594, 47.655537728423099 ], [ -93.0641592, 47.655592900009502 ] ] } },
{ "type": "Feature", "properties": { "wmUplineSo": "SIDE LAKE", "wmType": "Underground" }, "geometry": { "type": "LineString", "coordinates": [ [ -93.063219818591605, 47.657570692815 ], [ -93.063277, 47.657689500009504 ] ] } },
{ "type": "Feature", "properties": { "wmUplineSo": "SIDE LAKE", "wmType": "Underground" }, "geometry": { "type": "LineString", "coordinates": [ [ -93.0680168, 47.660740800009499 ], [ -93.0680168, 47.660740800009499 ] ] } },
{ "type": "Feature", "properties": { "wmUplineSo": "SIDE LAKE", "wmType": "Underground" }, "geometry": { "type": "LineString", "coordinates": [ [ -93.0680168, 47.660740800009499 ], [ -93.0678196, 47.660702900009497 ] ] } },
{ "type": "Feature", "properties": { "wmUplineSo": "SIDE LAKE", "wmType": "Underground" }, "geometry": { "type": "LineString", "coordinates": [ [ -93.0707989030617, 47.659007401059803 ], [ -93.071393, 47.6589837000095 ] ] } },
{ "type": "Feature", "properties": { "wmUplineSo": "SIDE LAKE", "wmType": "Underground" }, "geometry": { "type": "LineString", "coordinates": [ [ -93.066856397221798, 47.663729809391903 ], [ -93.0668431, 47.663607800009501 ] ] } },
{ "type": "Feature", "properties": { "wmUplineSo": "SIDE LAKE", "wmType": "Underground" }, "geometry": { "type": "LineString", "coordinates": [ [ -93.068739568924897, 47.664003652990701 ], [ -93.068745, 47.663971700009498 ] ] } },
{ "type": "Feature", "properties": { "wmUplineSo": "SIDE LAKE", "wmType": "Underground" }, "geometry": { "type": "LineString", "coordinates": [ [ -93.065993959492701, 47.664462433093398 ], [ -93.0660676, 47.6643896000095 ] ] } },
{ "type": "Feature", "properties": { "wmUplineSo": "SIDE LAKE", "wmType": "Underground" }, "geometry": { "type": "LineString", "coordinates": [ [ -93.065494965361296, 47.664140288724397 ], [ -93.0651712, 47.6643136000095 ] ] } },
{ "type": "Feature", "properties": { "wmUplineSo": "SIDE LAKE", "wmType": "Underground" }, "geometry": { "type": "LineString", "coordinates": [ [ -93.067352098742106, 47.6643752207764 ], [ -93.0673432, 47.664335200009504 ] ] } },
{ "type": "Feature", "properties": { "wmUplineSo": "SIDE LAKE", "wmType": "Underground" }, "geometry": { "type": "LineString", "coordinates": [ [ -93.066864058696396, 47.665256696998398 ], [ -93.0669212, 47.665249700009497 ] ] } },
{ "type": "Feature", "properties": { "wmUplineSo": "SIDE LAKE", "wmType": "Underground" }, "geometry": { "type": "LineString", "coordinates": [ [ -93.069859229629103, 47.665756783835697 ], [ -93.0696388, 47.665715900009502 ] ] } },
{ "type": "Feature", "properties": { "wmUplineSo": "SIDE LAKE", "wmType": "Underground" }, "geometry": { "type": "LineString", "coordinates": [ [ -93.069275439347507, 47.665849771192697 ], [ -93.0691039, 47.665800800009499 ] ] } },
{ "type": "Feature", "properties": { "wmUplineSo": "SIDE LAKE", "wmType": "Underground" }, "geometry": { "type": "LineString", "coordinates": [ [ -93.068496294404497, 47.666522445709901 ], [ -93.0689968, 47.666588700009498 ] ] } },
{ "type": "Feature", "properties": { "wmUplineSo": "SIDE LAKE", "wmType": "Underground" }, "geometry": { "type": "LineString", "coordinates": [ [ -93.068704193854799, 47.667352467294599 ], [ -93.0689078, 47.667328400009502 ] ] } },
{ "type": "Feature", "properties": { "wmUplineSo": "SIDE LAKE", "wmType": "Underground" }, "geometry": { "type": "LineString", "coordinates": [ [ -93.070453279144402, 47.669220577181399 ], [ -93.0705053, 47.669192600009502 ] ] } },
{ "type": "Feature", "properties": { "wmUplineSo": "SIDE LAKE", "wmType": "Underground" }, "geometry": { "type": "LineString", "coordinates": [ [ -93.069912061559805, 47.668554522873997 ], [ -93.0696358, 47.668597200009501 ] ] } },
{ "type": "Feature", "properties": { "wmUplineSo": "SIDE LAKE", "wmType": "Underground" }, "geometry": { "type": "LineString", "coordinates": [ [ -93.068908129740507, 47.668187863874401 ], [ -93.068974, 47.6680505000095 ] ] } },
{ "type": "Feature", "properties": { "wmUplineSo": "SIDE LAKE", "wmType": "Underground" }, "geometry": { "type": "LineString", "coordinates": [ [ -93.066738606534798, 47.668116087373399 ], [ -93.0665445, 47.668198700009498 ] ] } },
{ "type": "Feature", "properties": { "wmUplineSo": "SIDE LAKE", "wmType": "Underground" }, "geometry": { "type": "LineString", "coordinates": [ [ -93.0636274179829, 47.668099127262501 ], [ -93.0634624, 47.668056500009499 ] ] } },
{ "type": "Feature", "properties": { "wmUplineSo": "SIDE LAKE", "wmType": "Underground" }, "geometry": { "type": "LineString", "coordinates": [ [ -93.064888000004103, 47.668631003746 ], [ -93.0649135, 47.668493900009501 ] ] } },
{ "type": "Feature", "properties": { "wmUplineSo": "SIDE LAKE", "wmType": "Underground" }, "geometry": { "type": "LineString", "coordinates": [ [ -93.065330472364707, 47.668391910312302 ], [ -93.0653919, 47.668379000009502 ] ] } },
{ "type": "Feature", "properties": { "wmUplineSo": "SIDE LAKE", "wmType": "Underground" }, "geometry": { "type": "LineString", "coordinates": [ [ -93.064950166705202, 47.669059051233504 ], [ -93.0647195, 47.669169800009499 ] ] } },
{ "type": "Feature", "properties": { "wmUplineSo": "SIDE LAKE", "wmType": "Underground" }, "geometry": { "type": "LineString", "coordinates": [ [ -93.0647439, 47.6705586000095 ], [ -93.0647576, 47.670590800009499 ] ] } },
{ "type": "Feature", "properties": { "wmUplineSo": "SIDE LAKE", "wmType": "Underground" }, "geometry": { "type": "LineString", "coordinates": [ [ -93.062460252308597, 47.675520979022899 ], [ -93.0623095, 47.6758144000095 ] ] } },
{ "type": "Feature", "properties": { "wmUplineSo": "SIDE LAKE", "wmType": "Underground" }, "geometry": { "type": "LineString", "coordinates": [ [ -93.061757, 47.676066200009501 ], [ -93.0618647, 47.676087700009496 ] ] } },
{ "type": "Feature", "properties": { "wmUplineSo": "SIDE LAKE", "wmType": "Underground" }, "geometry": { "type": "LineString", "coordinates": [ [ -93.060619054181004, 47.676029554186599 ], [ -93.0605264, 47.676177700009497 ] ] } },
{ "type": "Feature", "properties": { "wmUplineSo": "SIDE LAKE", "wmType": "Underground" }, "geometry": { "type": "LineString", "coordinates": [ [ -93.053610253004194, 47.673348297906003 ], [ -93.0537459, 47.673267300009499 ] ] } },
{ "type": "Feature", "properties": { "wmUplineSo": "SIDE LAKE", "wmType": "Underground" }, "geometry": { "type": "LineString", "coordinates": [ [ -93.054978397573393, 47.671570875969401 ], [ -93.0549152, 47.671777500009497 ] ] } },
{ "type": "Feature", "properties": { "wmUplineSo": "SIDE LAKE", "wmType": "Underground" }, "geometry": { "type": "LineString", "coordinates": [ [ -93.06125641, 47.671333310009501 ], [ -93.0609787, 47.671143800009503 ] ] } },
{ "type": "Feature", "properties": { "wmUplineSo": "SIDE LAKE", "wmType": "Underground" }, "geometry": { "type": "LineString", "coordinates": [ [ -93.059410617687703, 47.679379671490999 ], [ -93.0593865, 47.679388400009501 ] ] } },
{ "type": "Feature", "properties": { "wmUplineSo": "SIDE LAKE", "wmType": "Underground" }, "geometry": { "type": "LineString", "coordinates": [ [ -93.076306233886996, 47.668653507909703 ], [ -93.0759868, 47.668670900009502 ] ] } },
{ "type": "Feature", "properties": { "wmUplineSo": "SIDE LAKE", "wmType": "Underground" }, "geometry": { "type": "LineString", "coordinates": [ [ -93.075603686069201, 47.6690234501974 ], [ -93.0755997, 47.669066600009501 ] ] } },
{ "type": "Feature", "properties": { "wmUplineSo": "SIDE LAKE", "wmType": "Underground" }, "geometry": { "type": "LineString", "coordinates": [ [ -93.054922143657805, 47.666483942621099 ], [ -93.0547049, 47.666618500009498 ] ] } },
{ "type": "Feature", "properties": { "wmUplineSo": "SIDE LAKE", "wmType": "Underground" }, "geometry": { "type": "LineString", "coordinates": [ [ -93.057203175666501, 47.664829881692398 ], [ -93.0571295, 47.6648098000095 ] ] } },
{ "type": "Feature", "properties": { "wmUplineSo": "SIDE LAKE", "wmType": "Underground" }, "geometry": { "type": "LineString", "coordinates": [ [ -93.059330716612806, 47.661867104628001 ], [ -93.0594353, 47.661789900009502 ] ] } },
{ "type": "Feature", "properties": { "wmUplineSo": "SIDE LAKE", "wmType": "Underground" }, "geometry": { "type": "LineString", "coordinates": [ [ -93.058952592150504, 47.662030315838201 ], [ -93.0589573, 47.662061100009502 ] ] } },
{ "type": "Feature", "properties": { "wmUplineSo": "SIDE LAKE", "wmType": "Underground" }, "geometry": { "type": "LineString", "coordinates": [ [ -93.057774000003604, 47.662018003744301 ], [ -93.0577248, 47.662041600009502 ] ] } },
{ "type": "Feature", "properties": { "wmUplineSo": "SIDE LAKE", "wmType": "Underground" }, "geometry": { "type": "LineString", "coordinates": [ [ -93.0547791209693, 47.661484116243201 ], [ -93.0547775, 47.6615538000095 ] ] } },
{ "type": "Feature", "properties": { "wmUplineSo": "SIDE LAKE", "wmType": "Underground" }, "geometry": { "type": "LineString", "coordinates": [ [ -93.053243879335398, 47.661352141259002 ], [ -93.053321517330701, 47.661404117347203 ], [ -93.0532995, 47.661375400009497 ] ] } },
{ "type": "Feature", "properties": { "wmUplineSo": "SIDE LAKE", "wmType": "Underground" }, "geometry": { "type": "LineString", "coordinates": [ [ -93.052255164762002, 47.660965312421197 ], [ -93.052288267545606, 47.6609435143749 ] ] } },
{ "type": "Feature", "properties": { "wmUplineSo": "SIDE LAKE", "wmType": "Underground" }, "geometry": { "type": "LineString", "coordinates": [ [ -93.058981303605293, 47.665227248897097 ], [ -93.0586986, 47.665190100009497 ] ] } },
{ "type": "Feature", "properties": { "wmUplineSo": "SIDE LAKE", "wmType": "Underground" }, "geometry": { "type": "LineString", "coordinates": [ [ -93.060379290386194, 47.6655979379182 ], [ -93.0601543, 47.665681900009503 ] ] } },
{ "type": "Feature", "properties": { "wmUplineSo": "SIDE LAKE", "wmType": "Underground" }, "geometry": { "type": "LineString", "coordinates": [ [ -93.060348102192904, 47.6660574197657 ], [ -93.0607252, 47.666273700009498 ] ] } },
{ "type": "Feature", "properties": { "wmUplineSo": "SIDE LAKE", "wmType": "Underground" }, "geometry": { "type": "LineString", "coordinates": [ [ -93.062144388677396, 47.6644811981622 ], [ -93.062398096194997, 47.664573654920602 ] ] } },
{ "type": "Feature", "properties": { "wmUplineSo": "SIDE LAKE", "wmType": "Underground" }, "geometry": { "type": "LineString", "coordinates": [ [ -93.062043740927905, 47.662898539520597 ], [ -93.062131, 47.662961200009498 ] ] } },
{ "type": "Feature", "properties": { "wmUplineSo": "SIDE LAKE", "wmType": "Underground" }, "geometry": { "type": "LineString", "coordinates": [ [ -93.062662857010906, 47.660410610751597 ], [ -93.062704, 47.660423100009503 ] ] } },
{ "type": "Feature", "properties": { "wmUplineSo": "SIDE LAKE", "wmType": "Underground" }, "geometry": { "type": "LineString", "coordinates": [ [ -93.061214392272305, 47.661967120924302 ], [ -93.0607774, 47.661861900009498 ] ] } },
{ "type": "Feature", "properties": { "wmUplineSo": "SIDE LAKE", "wmType": "Underground" }, "geometry": { "type": "LineString", "coordinates": [ [ -93.0338502422685, 47.666926800988499 ], [ -93.0339359, 47.6669251000095 ] ] } },
{ "type": "Feature", "properties": { "wmUplineSo": "SIDE LAKE", "wmType": "Underground" }, "geometry": { "type": "LineString", "coordinates": [ [ -93.039556374888903, 47.6644871281704 ], [ -93.0396376, 47.6643872000095 ] ] } },
{ "type": "Feature", "properties": { "wmUplineSo": "SIDE LAKE", "wmType": "Underground" }, "geometry": { "type": "LineString", "coordinates": [ [ -93.040352043766902, 47.666954575723601 ], [ -93.0403855, 47.666945800009501 ] ] } },
{ "type": "Feature", "properties": { "wmUplineSo": "SIDE LAKE", "wmType": "Underground" }, "geometry": { "type": "LineString", "coordinates": [ [ -93.036947804308497, 47.668001624833501 ], [ -93.0371173, 47.6679691000095 ] ] } },
{ "type": "Feature", "properties": { "wmUplineSo": "SIDE LAKE", "wmType": "Underground" }, "geometry": { "type": "LineString", "coordinates": [ [ -93.046679512332503, 47.667225475288397 ], [ -93.046498, 47.667090300009498 ] ] } },
{ "type": "Feature", "properties": { "wmUplineSo": "SIDE LAKE", "wmType": "Underground" }, "geometry": { "type": "LineString", "coordinates": [ [ -93.042103582214395, 47.6666701008375 ], [ -93.0422861, 47.666719800009503 ] ] } },
{ "type": "Feature", "properties": { "wmUplineSo": "SIDE LAKE", "wmType": "Underground" }, "geometry": { "type": "LineString", "coordinates": [ [ -93.047382188971994, 47.663215752607599 ], [ -93.0472737, 47.663116100009503 ] ] } },
{ "type": "Feature", "properties": { "wmUplineSo": "SIDE LAKE", "wmType": "Underground" }, "geometry": { "type": "LineString", "coordinates": [ [ -93.043392897035901, 47.6627502020105 ], [ -93.0430834, 47.662797100009499 ] ] } },
{ "type": "Feature", "properties": { "wmUplineSo": "SIDE LAKE", "wmType": "Underground" }, "geometry": { "type": "LineString", "coordinates": [ [ -93.042646173517696, 47.663065032399601 ], [ -93.0424371, 47.6629808000095 ] ] } },
{ "type": "Feature", "properties": { "wmUplineSo": "SIDE LAKE", "wmType": "Underground" }, "geometry": { "type": "LineString", "coordinates": [ [ -93.042317545881204, 47.663306622754 ], [ -93.0420866, 47.6633602000095 ] ] } },
{ "type": "Feature", "properties": { "wmUplineSo": "SIDE LAKE", "wmType": "Underground" }, "geometry": { "type": "LineString", "coordinates": [ [ -93.041049802123098, 47.663811638477902 ], [ -93.0409992, 47.6639962000095 ] ] } },
{ "type": "Feature", "properties": { "wmUplineSo": "SIDE LAKE", "wmType": "Underground" }, "geometry": { "type": "LineString", "coordinates": [ [ -93.0482085938457, 47.667105252270701 ], [ -93.0481821, 47.666958700009502 ] ] } },
{ "type": "Feature", "properties": { "wmUplineSo": "SIDE LAKE", "wmType": "Underground" }, "geometry": { "type": "LineString", "coordinates": [ [ -93.053950565234501, 47.6687028204352 ], [ -93.0540396, 47.668640100009497 ] ] } },
{ "type": "Feature", "properties": { "wmUplineSo": "SIDE LAKE", "wmType": "Underground" }, "geometry": { "type": "LineString", "coordinates": [ [ -93.0540017, 47.668765300009497 ], [ -93.0540844, 47.668903100009501 ] ] } },
{ "type": "Feature", "properties": { "wmUplineSo": "SIDE LAKE", "wmType": "Underground" }, "geometry": { "type": "LineString", "coordinates": [ [ -93.06372833, 47.659973140009498 ], [ -93.064125920471994, 47.6599932693467 ] ] } },
{ "type": "Feature", "properties": { "wmUplineSo": "SIDE LAKE", "wmType": "Underground" }, "geometry": { "type": "LineString", "coordinates": [ [ -93.065115505996204, 47.660174664671203 ], [ -93.0649231, 47.660408600009497 ] ] } },
{ "type": "Feature", "properties": { "wmUplineSo": "SIDE LAKE", "wmType": "Underground" }, "geometry": { "type": "LineString", "coordinates": [ [ -93.036635856783306, 47.664211228207897 ], [ -93.0365621, 47.6640704000095 ] ] } },
{ "type": "Feature", "properties": { "wmUplineSo": "SIDE LAKE", "wmType": "Underground" }, "geometry": { "type": "LineString", "coordinates": [ [ -93.036630915300194, 47.661950143627003 ], [ -93.0364313, 47.661867400009498 ] ] } },
{ "type": "Feature", "properties": { "wmUplineSo": "SIDE LAKE", "wmType": "Underground" }, "geometry": { "type": "LineString", "coordinates": [ [ -93.035801627547698, 47.6644308782598 ], [ -93.0358939, 47.664287100009503 ] ] } },
{ "type": "Feature", "properties": { "wmUplineSo": "SIDE LAKE", "wmType": "Underground" }, "geometry": { "type": "LineString", "coordinates": [ [ -93.039287117438604, 47.6631012253862 ], [ -93.0393799, 47.6629456000095 ] ] } },
{ "type": "Feature", "properties": { "wmUplineSo": "SIDE LAKE", "wmType": "Underground" }, "geometry": { "type": "LineString", "coordinates": [ [ -93.040259088692096, 47.661944903994502 ], [ -93.0402523, 47.661982700009503 ] ] } },
{ "type": "Feature", "properties": { "wmUplineSo": "SIDE LAKE", "wmType": "Underground" }, "geometry": { "type": "LineString", "coordinates": [ [ -93.0433783, 47.658311600009498 ], [ -93.043335, 47.658271200009501 ] ] } },
{ "type": "Feature", "properties": { "wmUplineSo": "SIDE LAKE", "wmType": "Underground" }, "geometry": { "type": "LineString", "coordinates": [ [ -93.040652000002495, 47.659632003743603 ], [ -93.0406788, 47.659580100009499 ] ] } },
{ "type": "Feature", "properties": { "wmUplineSo": "SIDE LAKE", "wmType": "Underground" }, "geometry": { "type": "LineString", "coordinates": [ [ -93.041361741440099, 47.659094346422599 ], [ -93.0414935, 47.659053200009502 ] ] } },
{ "type": "Feature", "properties": { "wmUplineSo": "SIDE LAKE", "wmType": "Underground" }, "geometry": { "type": "LineString", "coordinates": [ [ -93.041361741440099, 47.659094346422599 ], [ -93.0415164, 47.659083000009502 ] ] } },
{ "type": "Feature", "properties": { "wmUplineSo": "SIDE LAKE", "wmType": "Underground" }, "geometry": { "type": "LineString", "coordinates": [ [ -93.045439062981302, 47.656487486656303 ], [ -93.0454955, 47.656596100009502 ] ] } },
{ "type": "Feature", "properties": { "wmUplineSo": "SIDE LAKE", "wmType": "Underground" }, "geometry": { "type": "LineString", "coordinates": [ [ -93.0463069, 47.656244000009501 ], [ -93.0462576, 47.656286700009503 ] ] } },
{ "type": "Feature", "properties": { "wmUplineSo": "SIDE LAKE", "wmType": "Underground" }, "geometry": { "type": "LineString", "coordinates": [ [ -93.047630758568204, 47.655737569826101 ], [ -93.0475584, 47.655768200009497 ] ] } },
{ "type": "Feature", "properties": { "wmUplineSo": "SIDE LAKE", "wmType": "Underground" }, "geometry": { "type": "LineString", "coordinates": [ [ -93.048803106862195, 47.655544107591901 ], [ -93.048798977591602, 47.655569995732399 ] ] } },
{ "type": "Feature", "properties": { "wmUplineSo": "SIDE LAKE", "wmType": "Underground" }, "geometry": { "type": "LineString", "coordinates": [ [ -93.049932659379806, 47.655341666583098 ], [ -93.0499904, 47.655456400009498 ] ] } },
{ "type": "Feature", "properties": { "wmUplineSo": "SIDE LAKE", "wmType": "Underground" }, "geometry": { "type": "LineString", "coordinates": [ [ -93.0524242, 47.653900300009497 ], [ -93.052401815492601, 47.653963465142397 ] ] } },
{ "type": "Feature", "properties": { "wmUplineSo": "SIDE LAKE", "wmType": "Underground" }, "geometry": { "type": "LineString", "coordinates": [ [ -93.052463720238606, 47.651597005242699 ], [ -93.0524693, 47.651623800009503 ] ] } },
{ "type": "Feature", "properties": { "wmUplineSo": "SIDE LAKE", "wmType": "Underground" }, "geometry": { "type": "LineString", "coordinates": [ [ -93.057929, 47.652809 ], [ -93.057907075327705, 47.652875943318897 ] ] } },
{ "type": "Feature", "properties": { "wmUplineSo": "SIDE LAKE", "wmType": "Underground" }, "geometry": { "type": "LineString", "coordinates": [ [ -93.057563766090894, 47.651373377998702 ], [ -93.0568916, 47.651381200009503 ] ] } },
{ "type": "Feature", "properties": { "wmUplineSo": "SIDE LAKE", "wmType": "Underground" }, "geometry": { "type": "LineString", "coordinates": [ [ -93.061679904881501, 47.651910472843703 ], [ -93.061680514174796, 47.651883067165699 ] ] } },
{ "type": "Feature", "properties": { "wmUplineSo": "SIDE LAKE", "wmType": "Underground" }, "geometry": { "type": "LineString", "coordinates": [ [ -93.050302389429405, 47.647971973367397 ], [ -93.050303005004096, 47.647944567099202 ] ] } },
{ "type": "Feature", "properties": { "wmUplineSo": "SIDE LAKE", "wmType": "Underground" }, "geometry": { "type": "LineString", "coordinates": [ [ -93.056919154593999, 47.640058806308701 ], [ -93.0570345, 47.640142300009501 ] ] } },
{ "type": "Feature", "properties": { "wmUplineSo": "SIDE LAKE", "wmType": "Underground" }, "geometry": { "type": "LineString", "coordinates": [ [ -93.057059782539298, 47.641707070135602 ], [ -93.0571581, 47.641577500009497 ] ] } },
{ "type": "Feature", "properties": { "wmUplineSo": "SIDE LAKE", "wmType": "Underground" }, "geometry": { "type": "LineString", "coordinates": [ [ -93.057059782539298, 47.641707070135602 ], [ -93.0571885, 47.641719100009503 ] ] } },
{ "type": "Feature", "properties": { "wmUplineSo": "SIDE LAKE", "wmType": "Underground" }, "geometry": { "type": "LineString", "coordinates": [ [ -93.058055341203399, 47.643286272495303 ], [ -93.058169, 47.643337100009497 ] ] } },
{ "type": "Feature", "properties": { "wmUplineSo": "SIDE LAKE", "wmType": "Underground" }, "geometry": { "type": "LineString", "coordinates": [ [ -93.057537784095402, 47.642593398806298 ], [ -93.0576636, 47.6425324000095 ] ] } },
{ "type": "Feature", "properties": { "wmUplineSo": "SIDE LAKE", "wmType": "Underground" }, "geometry": { "type": "LineString", "coordinates": [ [ -93.057540009825701, 47.634245797755398 ], [ -93.057558033195306, 47.634303362896297 ] ] } },
{ "type": "Feature", "properties": { "wmUplineSo": "SIDE LAKE", "wmType": "Underground" }, "geometry": { "type": "LineString", "coordinates": [ [ -93.062418596694798, 47.6458386689619 ], [ -93.062459761965698, 47.6458116748395 ] ] } },
{ "type": "Feature", "properties": { "wmUplineSo": "SIDE LAKE", "wmType": "Underground" }, "geometry": { "type": "LineString", "coordinates": [ [ -93.062418596694798, 47.6458386689619 ], [ -93.062419206073102, 47.645811263141702 ] ] } },
{ "type": "Feature", "properties": { "wmUplineSo": "SIDE LAKE", "wmType": "Underground" }, "geometry": { "type": "LineString", "coordinates": [ [ -93.062729278459798, 47.644727960139001 ], [ -93.0628565, 47.6448678000095 ] ] } },
{ "type": "Feature", "properties": { "wmUplineSo": "SIDE LAKE", "wmType": "Underground" }, "geometry": { "type": "LineString", "coordinates": [ [ -93.065700628691005, 47.641887541594997 ], [ -93.0656696, 47.641878200009501 ] ] } },
{ "type": "Feature", "properties": { "wmUplineSo": "SIDE LAKE", "wmType": "Underground" }, "geometry": { "type": "LineString", "coordinates": [ [ -93.064809545749199, 47.639817839804302 ], [ -93.064850703616401, 47.639790844126097 ] ] } },
{ "type": "Feature", "properties": { "wmUplineSo": "SIDE LAKE", "wmType": "Underground" }, "geometry": { "type": "LineString", "coordinates": [ [ -93.064809545749199, 47.639817839804302 ], [ -93.064850703616401, 47.639790844126097 ] ] } },
{ "type": "Feature", "properties": { "wmUplineSo": "SIDE LAKE", "wmType": "Underground" }, "geometry": { "type": "LineString", "coordinates": [ [ -93.066670721993702, 47.638673367083797 ], [ -93.066469453312095, 47.638733391768596 ] ] } },
{ "type": "Feature", "properties": { "wmUplineSo": "SIDE LAKE", "wmType": "Underground" }, "geometry": { "type": "LineString", "coordinates": [ [ -93.067776387940796, 47.638411920029199 ], [ -93.0672574, 47.638466900009497 ] ] } },
{ "type": "Feature", "properties": { "wmUplineSo": "SIDE LAKE", "wmType": "Underground" }, "geometry": { "type": "LineString", "coordinates": [ [ -93.067859234020901, 47.638661923983101 ], [ -93.0677902, 47.638626000009502 ] ] } },
{ "type": "Feature", "properties": { "wmUplineSo": "SIDE LAKE", "wmType": "Underground" }, "geometry": { "type": "LineString", "coordinates": [ [ -93.070201624021493, 47.636726111016102 ], [ -93.0702461, 47.636745600009498 ] ] } },
{ "type": "Feature", "properties": { "wmUplineSo": "SIDE LAKE", "wmType": "Underground" }, "geometry": { "type": "LineString", "coordinates": [ [ -93.070139103830101, 47.635804832940302 ], [ -93.0700638, 47.635783800009499 ] ] } },
{ "type": "Feature", "properties": { "wmUplineSo": "SIDE LAKE", "wmType": "Underground" }, "geometry": { "type": "LineString", "coordinates": [ [ -93.069521670810602, 47.634815844677497 ], [ -93.0693384, 47.634848300009502 ] ] } },
{ "type": "Feature", "properties": { "wmUplineSo": "SIDE LAKE", "wmType": "Underground" }, "geometry": { "type": "LineString", "coordinates": [ [ -93.069582456111604, 47.634167293185001 ], [ -93.0690375, 47.633981500009497 ] ] } },
{ "type": "Feature", "properties": { "wmUplineSo": "SIDE LAKE", "wmType": "Underground" }, "geometry": { "type": "LineString", "coordinates": [ [ -93.069582456111604, 47.634167293185001 ], [ -93.0689818, 47.634040900009502 ] ] } },
{ "type": "Feature", "properties": { "wmUplineSo": "SIDE LAKE", "wmType": "Underground" }, "geometry": { "type": "LineString", "coordinates": [ [ -93.0680286, 47.634775100009499 ], [ -93.0681039, 47.634733800009499 ] ] } },
{ "type": "Feature", "properties": { "wmUplineSo": "SIDE LAKE", "wmType": "Underground" }, "geometry": { "type": "LineString", "coordinates": [ [ -93.067398769449397, 47.6345014393196 ], [ -93.0676172, 47.634416800009497 ] ] } },
{ "type": "Feature", "properties": { "wmUplineSo": "SIDE LAKE", "wmType": "Underground" }, "geometry": { "type": "LineString", "coordinates": [ [ -93.0640031, 47.629671900009498 ], [ -93.0638275, 47.629729900009501 ] ] } },
{ "type": "Feature", "properties": { "wmUplineSo": "SIDE LAKE", "wmType": "Underground" }, "geometry": { "type": "LineString", "coordinates": [ [ -93.059756617660497, 47.631398912950203 ], [ -93.059785432246798, 47.6313987300272 ] ] } },
{ "type": "Feature", "properties": { "wmUplineSo": "SIDE LAKE", "wmType": "Underground" }, "geometry": { "type": "LineString", "coordinates": [ [ -93.073223566913896, 47.6694332782983 ], [ -93.0733033, 47.669228000009497 ] ] } },
{ "type": "Feature", "properties": { "wmUplineSo": "SIDE LAKE", "wmType": "Underground" }, "geometry": { "type": "LineString", "coordinates": [ [ -93.076570935865703, 47.665245796279201 ], [ -93.0759149, 47.6653217000095 ] ] } },
{ "type": "Feature", "properties": { "wmUplineSo": "SIDE LAKE", "wmType": "Underground" }, "geometry": { "type": "LineString", "coordinates": [ [ -93.076306233886996, 47.668653507909703 ], [ -93.0763297, 47.6686932000095 ] ] } },
{ "type": "Feature", "properties": { "wmUplineSo": "SIDE LAKE", "wmType": "Underground" }, "geometry": { "type": "LineString", "coordinates": [ [ -93.074437908917204, 47.663582337885998 ], [ -93.0743754, 47.663634800009497 ] ] } },
{ "type": "Feature", "properties": { "wmUplineSo": "SIDE LAKE", "wmType": "Underground" }, "geometry": { "type": "LineString", "coordinates": [ [ -93.076129607954996, 47.662254874853801 ], [ -93.0756742, 47.662393300009498 ] ] } },
{ "type": "Feature", "properties": { "wmUplineSo": "SIDE LAKE", "wmType": "Underground" }, "geometry": { "type": "LineString", "coordinates": [ [ -93.077238551165195, 47.661501090564499 ], [ -93.0771772, 47.661239900009498 ] ] } },
{ "type": "Feature", "properties": { "wmUplineSo": "SIDE LAKE", "wmType": "Underground" }, "geometry": { "type": "LineString", "coordinates": [ [ -93.070592599157607, 47.677204951105097 ], [ -93.070406017429207, 47.677172136953402 ] ] } },
{ "type": "Feature", "properties": { "wmUplineSo": "SIDE LAKE", "wmType": "Underground" }, "geometry": { "type": "LineString", "coordinates": [ [ -93.063715130858, 47.691936343817297 ], [ -93.0637462, 47.692161900009602 ] ] } },
{ "type": "Feature", "properties": { "wmUplineSo": "SIDE LAKE", "wmType": "Underground" }, "geometry": { "type": "LineString", "coordinates": [ [ -93.064477930222395, 47.661284524181802 ], [ -93.0645392, 47.661302200009501 ] ] } },
{ "type": "Feature", "properties": { "wmUplineSo": "SIDE LAKE", "wmType": "Underground" }, "geometry": { "type": "LineString", "coordinates": [ [ -93.040425563361893, 47.665668313861602 ], [ -93.040356007912294, 47.665618382025698 ] ] } },
{ "type": "Feature", "properties": { "wmUplineSo": "SIDE LAKE", "wmType": "Underground" }, "geometry": { "type": "LineString", "coordinates": [ [ -93.040094940866993, 47.661216164662697 ], [ -93.0401181, 47.661239200009497 ] ] } },
{ "type": "Feature", "properties": { "wmUplineSo": "SIDE LAKE", "wmType": "Underground" }, "geometry": { "type": "LineString", "coordinates": [ [ -93.062623706581505, 47.661695530872201 ], [ -93.0626647, 47.661917700009496 ] ] } },
{ "type": "Feature", "properties": { "wmUplineSo": "SIDE LAKE", "wmType": "Underground" }, "geometry": { "type": "LineString", "coordinates": [ [ -93.036106731963997, 47.640347850920001 ], [ -93.0361726, 47.640393800009498 ] ] } },
{ "type": "Feature", "properties": { "wmUplineSo": "SIDE LAKE", "wmType": "Underground" }, "geometry": { "type": "LineString", "coordinates": [ [ -93.036106731963997, 47.640347850920001 ], [ -93.0360964, 47.640364900009502 ] ] } },
{ "type": "Feature", "properties": { "wmUplineSo": "SIDE LAKE", "wmType": "Underground" }, "geometry": { "type": "LineString", "coordinates": [ [ -93.036106731963997, 47.640347850920001 ], [ -93.0360798, 47.640408400009498 ] ] } },
{ "type": "Feature", "properties": { "wmUplineSo": "SIDE LAKE", "wmType": "Underground" }, "geometry": { "type": "LineString", "coordinates": [ [ -93.055120530030393, 47.672079717685399 ], [ -93.0549136, 47.672698000009497 ] ] } },
{ "type": "Feature", "properties": { "wmUplineSo": "SIDE LAKE", "wmType": "Underground" }, "geometry": { "type": "LineString", "coordinates": [ [ -93.057321996316205, 47.632971128530997 ], [ -93.0575026, 47.633054600009501 ] ] } },
{ "type": "Feature", "properties": { "wmUplineSo": "SIDE LAKE", "wmType": "Underground" }, "geometry": { "type": "LineString", "coordinates": [ [ -93.051576514667502, 47.653683323970299 ], [ -93.0512877, 47.653456600009498 ] ] } },
{ "type": "Feature", "properties": { "wmUplineSo": "SIDE LAKE", "wmType": "Underground" }, "geometry": { "type": "LineString", "coordinates": [ [ -93.0739395165524, 47.680856172311898 ], [ -93.0741079, 47.680816500009499 ] ] } },
{ "type": "Feature", "properties": { "wmUplineSo": "SIDE LAKE", "wmType": "Underground" }, "geometry": { "type": "LineString", "coordinates": [ [ -93.036106731963997, 47.640347850920001 ], [ -93.0361057, 47.640341000009499 ] ] } },
{ "type": "Feature", "properties": { "wmUplineSo": "SIDE LAKE", "wmType": "Underground" }, "geometry": { "type": "LineString", "coordinates": [ [ -93.0381740000023, 47.6644570037449 ], [ -93.038235817949499, 47.664456792681499 ] ] } },
{ "type": "Feature", "properties": { "wmUplineSo": "SIDE LAKE", "wmType": "Underground" }, "geometry": { "type": "LineString", "coordinates": [ [ -93.052091000003202, 47.661109003743803 ], [ -93.052083203059397, 47.661080578558902 ] ] } },
{ "type": "Feature", "properties": { "wmUplineSo": "SIDE LAKE", "wmType": "Underground" }, "geometry": { "type": "LineString", "coordinates": [ [ -93.061877287350001, 47.636074860092997 ], [ -93.0618964, 47.636063700009501 ] ] } },
{ "type": "Feature", "properties": { "wmUplineSo": "SIDE LAKE", "wmType": "Underground" }, "geometry": { "type": "LineString", "coordinates": [ [ -93.058115, 47.635196 ], [ -93.0580362, 47.635238700009502 ] ] } },
{ "type": "Feature", "properties": { "wmUplineSo": "SIDE LAKE", "wmType": "Underground" }, "geometry": { "type": "LineString", "coordinates": [ [ -93.061012834533003, 47.636056399875201 ], [ -93.0610476, 47.636036300009501 ] ] } },
{ "type": "Feature", "properties": { "wmUplineSo": "SIDE LAKE", "wmType": "Underground" }, "geometry": { "type": "LineString", "coordinates": [ [ -93.060600582907696, 47.633919799704302 ], [ -93.0606941, 47.633934400009501 ] ] } },
{ "type": "Feature", "properties": { "wmUplineSo": "SIDE LAKE", "wmType": "Underground" }, "geometry": { "type": "LineString", "coordinates": [ [ -93.057345282719496, 47.670995276714898 ], [ -93.057361110122301, 47.670920045282799 ] ] } },
{ "type": "Feature", "properties": { "wmUplineSo": "SIDE LAKE", "wmType": "Underground" }, "geometry": { "type": "LineString", "coordinates": [ [ -93.060268665222196, 47.6626410557746 ], [ -93.0600024, 47.662671000009503 ] ] } },
{ "type": "Feature", "properties": { "wmUplineSo": "SIDE LAKE", "wmType": "Underground" }, "geometry": { "type": "LineString", "coordinates": [ [ -93.058919048617099, 47.664035490902101 ], [ -93.0590321, 47.664016200009499 ] ] } },
{ "type": "Feature", "properties": { "wmUplineSo": "SIDE LAKE", "wmType": "Underground" }, "geometry": { "type": "LineString", "coordinates": [ [ -93.067950149880701, 47.688439088024403 ], [ -93.0678599, 47.688377700009603 ] ] } },
{ "type": "Feature", "properties": { "wmUplineSo": "SIDE LAKE", "wmType": "Underground" }, "geometry": { "type": "LineString", "coordinates": [ [ -93.037836625095693, 47.664344888470197 ], [ -93.0375857, 47.664592000009499 ] ] } },
{ "type": "Feature", "properties": { "wmUplineSo": "SIDE LAKE", "wmType": "Underground" }, "geometry": { "type": "LineString", "coordinates": [ [ -93.037836625095693, 47.664344888470197 ], [ -93.0375289, 47.664356400009503 ] ] } },
{ "type": "Feature", "properties": { "wmUplineSo": "SIDE LAKE", "wmType": "Underground" }, "geometry": { "type": "LineString", "coordinates": [ [ -93.054966072232503, 47.6337193765359 ], [ -93.0546777, 47.633616000009503 ] ] } },
{ "type": "Feature", "properties": { "wmUplineSo": "SIDE LAKE", "wmType": "Underground" }, "geometry": { "type": "LineString", "coordinates": [ [ -93.053896430040695, 47.6350738057602 ], [ -93.0539822, 47.635028500009497 ] ] } },
{ "type": "Feature", "properties": { "wmUplineSo": "SIDE LAKE", "wmType": "Underground" }, "geometry": { "type": "LineString", "coordinates": [ [ -93.075061558483995, 47.682302148580398 ], [ -93.0750309, 47.6821543000096 ] ] } },
{ "type": "Feature", "properties": { "wmUplineSo": "SIDE LAKE", "wmType": "Underground" }, "geometry": { "type": "LineString", "coordinates": [ [ -93.054978397573393, 47.671570875969401 ], [ -93.0549442, 47.671826500009502 ] ] } },
{ "type": "Feature", "properties": { "wmUplineSo": "SIDE LAKE", "wmType": "Underground" }, "geometry": { "type": "LineString", "coordinates": [ [ -93.059898381935994, 47.665583324932598 ], [ -93.0596048, 47.6654421000095 ] ] } },
{ "type": "Feature", "properties": { "wmUplineSo": "SIDE LAKE", "wmType": "Underground" }, "geometry": { "type": "LineString", "coordinates": [ [ -93.068283497739003, 47.661607106021499 ], [ -93.0681391, 47.661509300009499 ] ] } },
{ "type": "Feature", "properties": { "wmUplineSo": "SIDE LAKE", "wmType": "Underground" }, "geometry": { "type": "LineString", "coordinates": [ [ -93.059242, 47.635684 ], [ -93.0592759, 47.635723600009499 ] ] } },
{ "type": "Feature", "properties": { "wmUplineSo": "SIDE LAKE", "wmType": "Underground" }, "geometry": { "type": "LineString", "coordinates": [ [ -93.060491725478499, 47.635860448128497 ], [ -93.0604397, 47.635850400009502 ] ] } },
{ "type": "Feature", "properties": { "wmUplineSo": "SIDE LAKE", "wmType": "Underground" }, "geometry": { "type": "LineString", "coordinates": [ [ -93.060745531113696, 47.650629476428399 ], [ -93.0606593, 47.650613500009499 ] ] } },
{ "type": "Feature", "properties": { "wmUplineSo": "SIDE LAKE", "wmType": "Underground" }, "geometry": { "type": "LineString", "coordinates": [ [ -93.053868702385898, 47.667945328652898 ], [ -93.0538818, 47.668013700009503 ] ] } },
{ "type": "Feature", "properties": { "wmUplineSo": "SIDE LAKE", "wmType": "Underground" }, "geometry": { "type": "LineString", "coordinates": [ [ -93.053868702385898, 47.667945328652898 ], [ -93.0538793, 47.6678760000095 ] ] } },
{ "type": "Feature", "properties": { "wmUplineSo": "SIDE LAKE", "wmType": "Underground" }, "geometry": { "type": "LineString", "coordinates": [ [ -93.059576661127394, 47.670980944165898 ], [ -93.0594947, 47.670997200009502 ] ] } },
{ "type": "Feature", "properties": { "wmUplineSo": "SIDE LAKE", "wmType": "Underground" }, "geometry": { "type": "LineString", "coordinates": [ [ -93.064862426605103, 47.6550527014548 ], [ -93.0647326, 47.654981400009497 ] ] } },
{ "type": "Feature", "properties": { "wmUplineSo": "SIDE LAKE", "wmType": "Underground" }, "geometry": { "type": "LineString", "coordinates": [ [ -93.036106731963997, 47.640347850920001 ], [ -93.03612327, 47.640357250009501 ] ] } },
{ "type": "Feature", "properties": { "wmUplineSo": "SIDE LAKE", "wmType": "Underground" }, "geometry": { "type": "LineString", "coordinates": [ [ -93.056628043159506, 47.652807418772298 ], [ -93.0563066, 47.6526669000095 ] ] } },
{ "type": "Feature", "properties": { "wmUplineSo": "SIDE LAKE", "wmType": "Underground" }, "geometry": { "type": "LineString", "coordinates": [ [ -93.066669, 47.628960999999897 ], [ -93.066271967747696, 47.628989218103399 ] ] } },
{ "type": "Feature", "properties": { "wmUplineSo": "SIDE LAKE", "wmType": "Underground" }, "geometry": { "type": "LineString", "coordinates": [ [ -93.059447968091504, 47.672486911059799 ], [ -93.059417203780399, 47.672507721944498 ] ] } },
{ "type": "Feature", "properties": { "wmUplineSo": "SIDE LAKE", "wmType": "Underground" }, "geometry": { "type": "LineString", "coordinates": [ [ -93.066383, 47.629249000000101 ], [ -93.066459245770204, 47.629641436059799 ] ] } },
{ "type": "Feature", "properties": { "wmUplineSo": "SIDE LAKE", "wmType": "Underground" }, "geometry": { "type": "LineString", "coordinates": [ [ -93.056822068569303, 47.634253141891101 ], [ -93.056937062852896, 47.634558498880303 ] ] } },
{ "type": "Feature", "properties": { "wmUplineSo": "SIDE LAKE", "wmType": "Underground" }, "geometry": { "type": "LineString", "coordinates": [ [ -93.035014933766405, 47.6685698714114 ], [ -93.034997868588903, 47.668604431994297 ] ] } },
{ "type": "Feature", "properties": { "wmUplineSo": "SIDE LAKE", "wmType": "Underground" }, "geometry": { "type": "LineString", "coordinates": [ [ -93.0338502422685, 47.666926800988499 ], [ -93.034633106235205, 47.667223240874101 ] ] } },
{ "type": "Feature", "properties": { "wmUplineSo": "SIDE LAKE", "wmType": "Underground" }, "geometry": { "type": "LineString", "coordinates": [ [ -93.0647128333636, 47.629390386629098 ], [ -93.064636961181904, 47.629391038493097 ] ] } },
{ "type": "Feature", "properties": { "wmUplineSo": "SIDE LAKE", "wmType": "Underground" }, "geometry": { "type": "LineString", "coordinates": [ [ -93.034633106235205, 47.667223240874101 ], [ -93.035122469648599, 47.667478314933902 ] ] } },
{ "type": "Feature", "properties": { "wmUplineSo": "SIDE LAKE", "wmType": "Underground" }, "geometry": { "type": "LineString", "coordinates": [ [ -93.035122469648599, 47.667478314933902 ], [ -93.0349520117949, 47.668319258911801 ] ] } },
{ "type": "Feature", "properties": { "wmUplineSo": "SIDE LAKE", "wmType": "Underground" }, "geometry": { "type": "LineString", "coordinates": [ [ -93.036896885948096, 47.664584792550301 ], [ -93.0369401441435, 47.664522269516503 ] ] } },
{ "type": "Feature", "properties": { "wmUplineSo": "SIDE LAKE", "wmType": "Underground" }, "geometry": { "type": "LineString", "coordinates": [ [ -93.057774000003604, 47.662018003744301 ], [ -93.0577637, 47.661991500009499 ] ] } },
{ "type": "Feature", "properties": { "wmUplineSo": "SIDE LAKE", "wmType": "Underground" }, "geometry": { "type": "LineString", "coordinates": [ [ -93.059333990891005, 47.678568331377697 ], [ -93.059277000003704, 47.678580003748799 ] ] } },
{ "type": "Feature", "properties": { "wmUplineSo": "SIDE LAKE", "wmType": "Underground" }, "geometry": { "type": "LineString", "coordinates": [ [ -93.0349520117949, 47.668319258911801 ], [ -93.035014933766405, 47.6685698714114 ] ] } },
{ "type": "Feature", "properties": { "wmUplineSo": "SIDE LAKE", "wmType": "Underground" }, "geometry": { "type": "LineString", "coordinates": [ [ -93.054335, 47.667574 ], [ -93.054470507405298, 47.667627725152002 ] ] } },
{ "type": "Feature", "properties": { "wmUplineSo": "SIDE LAKE", "wmType": "Underground" }, "geometry": { "type": "LineString", "coordinates": [ [ -93.056895344260099, 47.634010402696298 ], [ -93.056822068569303, 47.634253141891101 ] ] } },
{ "type": "Feature", "properties": { "wmUplineSo": "SIDE LAKE", "wmType": "Underground" }, "geometry": { "type": "LineString", "coordinates": [ [ -93.047969174084798, 47.654755721177303 ], [ -93.048803106862195, 47.655544107591901 ] ] } },
{ "type": "Feature", "properties": { "wmUplineSo": "SIDE LAKE", "wmType": "Underground" }, "geometry": { "type": "LineString", "coordinates": [ [ -93.055524499466102, 47.639486490155498 ], [ -93.055570124884298, 47.639505003227001 ] ] } },
{ "type": "Feature", "properties": { "wmUplineSo": "SIDE LAKE", "wmType": "Underground" }, "geometry": { "type": "LineString", "coordinates": [ [ -93.056029252312896, 47.642495301764903 ], [ -93.058055341203399, 47.643286272495303 ] ] } },
{ "type": "Feature", "properties": { "wmUplineSo": "SIDE LAKE", "wmType": "Underground" }, "geometry": { "type": "LineString", "coordinates": [ [ -93.056029252312896, 47.642495301764903 ], [ -93.057537784095402, 47.642593398806298 ] ] } },
{ "type": "Feature", "properties": { "wmUplineSo": "SIDE LAKE", "wmType": "Underground" }, "geometry": { "type": "LineString", "coordinates": [ [ -93.055188, 47.64158 ], [ -93.056029252312896, 47.642495301764903 ] ] } },
{ "type": "Feature", "properties": { "wmUplineSo": "SIDE LAKE", "wmType": "Underground" }, "geometry": { "type": "LineString", "coordinates": [ [ -93.055188, 47.64158 ], [ -93.057059782539298, 47.641707070135602 ] ] } },
{ "type": "Feature", "properties": { "wmUplineSo": "SIDE LAKE", "wmType": "Underground" }, "geometry": { "type": "LineString", "coordinates": [ [ -93.055444425204897, 47.640236136002201 ], [ -93.055462062886306, 47.640949977430097 ] ] } },
{ "type": "Feature", "properties": { "wmUplineSo": "SIDE LAKE", "wmType": "Underground" }, "geometry": { "type": "LineString", "coordinates": [ [ -93.0384338, 47.6392326000095 ], [ -93.036106731963997, 47.640347850920001 ] ] } },
{ "type": "Feature", "properties": { "wmUplineSo": "SIDE LAKE", "wmType": "Underground" }, "geometry": { "type": "LineString", "coordinates": [ [ -93.038502767694297, 47.639224833923301 ], [ -93.0384338, 47.6392326000095 ] ] } },
{ "type": "Feature", "properties": { "wmUplineSo": "SIDE LAKE", "wmType": "Underground" }, "geometry": { "type": "LineString", "coordinates": [ [ -93.055444980762005, 47.640210248587401 ], [ -93.055444425204897, 47.640236136002201 ] ] } },
{ "type": "Feature", "properties": { "wmUplineSo": "SIDE LAKE", "wmType": "Underground" }, "geometry": { "type": "LineString", "coordinates": [ [ -93.0641341802677, 47.656308177961002 ], [ -93.064577846507504, 47.656240805860698 ] ] } },
{ "type": "Feature", "properties": { "wmUplineSo": "SIDE LAKE", "wmType": "Underground" }, "geometry": { "type": "LineString", "coordinates": [ [ -93.064577846507504, 47.656240805860698 ], [ -93.064905130639801, 47.656130795444597 ] ] } },
{ "type": "Feature", "properties": { "wmUplineSo": "SIDE LAKE", "wmType": "Underground" }, "geometry": { "type": "LineString", "coordinates": [ [ -93.064905130639801, 47.656130795444597 ], [ -93.064164990325594, 47.655537728423099 ] ] } },
{ "type": "Feature", "properties": { "wmUplineSo": "SIDE LAKE", "wmType": "Underground" }, "geometry": { "type": "LineString", "coordinates": [ [ -93.0653477425125, 47.655873152787002 ], [ -93.066968954816502, 47.655317927762397 ] ] } },
{ "type": "Feature", "properties": { "wmUplineSo": "SIDE LAKE", "wmType": "Underground" }, "geometry": { "type": "LineString", "coordinates": [ [ -93.066968954816502, 47.655317927762397 ], [ -93.069980496777106, 47.655381787868002 ] ] } },
{ "type": "Feature", "properties": { "wmUplineSo": "SIDE LAKE", "wmType": "Underground" }, "geometry": { "type": "LineString", "coordinates": [ [ -93.066968954816502, 47.655317927762397 ], [ -93.066498819868102, 47.654167920385902 ] ] } },
{ "type": "Feature", "properties": { "wmUplineSo": "SIDE LAKE", "wmType": "Underground" }, "geometry": { "type": "LineString", "coordinates": [ [ -93.069980496777106, 47.655381787868002 ], [ -93.074336307258704, 47.652228938749097 ] ] } },
{ "type": "Feature", "properties": { "wmUplineSo": "SIDE LAKE", "wmType": "Underground" }, "geometry": { "type": "LineString", "coordinates": [ [ -93.066748652854898, 47.659112528940902 ], [ -93.067175561057795, 47.659078581330903 ] ] } },
{ "type": "Feature", "properties": { "wmUplineSo": "SIDE LAKE", "wmType": "Underground" }, "geometry": { "type": "LineString", "coordinates": [ [ -93.067175561057795, 47.659078581330903 ], [ -93.0707989030617, 47.659007401059803 ] ] } },
{ "type": "Feature", "properties": { "wmUplineSo": "SIDE LAKE", "wmType": "Underground" }, "geometry": { "type": "LineString", "coordinates": [ [ -93.055407247862902, 47.6727689470328 ], [ -93.055267441545297, 47.6727018337807 ] ] } },
{ "type": "Feature", "properties": { "wmUplineSo": "SIDE LAKE", "wmType": "Underground" }, "geometry": { "type": "LineString", "coordinates": [ [ -93.055267441545297, 47.6727018337807 ], [ -93.055407247862902, 47.6727689470328 ] ] } },
{ "type": "Feature", "properties": { "wmUplineSo": "SIDE LAKE", "wmType": "Underground" }, "geometry": { "type": "LineString", "coordinates": [ [ -93.055407247862902, 47.6727689470328 ], [ -93.055120530030393, 47.672079717685399 ] ] } },
{ "type": "Feature", "properties": { "wmUplineSo": "SIDE LAKE", "wmType": "Underground" }, "geometry": { "type": "LineString", "coordinates": [ [ -93.055120530030393, 47.672079717685399 ], [ -93.054978397573393, 47.671570875969401 ] ] } },
{ "type": "Feature", "properties": { "wmUplineSo": "SIDE LAKE", "wmType": "Underground" }, "geometry": { "type": "LineString", "coordinates": [ [ -93.072175610397906, 47.677186273490598 ], [ -93.070592599157607, 47.677204951105097 ] ] } },
{ "type": "Feature", "properties": { "wmUplineSo": "SIDE LAKE", "wmType": "Underground" }, "geometry": { "type": "LineString", "coordinates": [ [ -93.063595913928097, 47.661145748542403 ], [ -93.064477930222395, 47.661284524181802 ] ] } },
{ "type": "Feature", "properties": { "wmUplineSo": "SIDE LAKE", "wmType": "Underground" }, "geometry": { "type": "LineString", "coordinates": [ [ -93.063330897847393, 47.695179542645299 ], [ -93.061772713802, 47.700334455845599 ] ] } },
{ "type": "Feature", "properties": { "wmUplineSo": "SIDE LAKE", "wmType": "Underground" }, "geometry": { "type": "LineString", "coordinates": [ [ -93.074610607507196, 47.6809205007158 ], [ -93.0739395165524, 47.680856172311898 ] ] } },
{ "type": "Feature", "properties": { "wmUplineSo": "SIDE LAKE", "wmType": "Underground" }, "geometry": { "type": "LineString", "coordinates": [ [ -93.006788150127804, 47.661942966967104 ], [ -93.0069740259989, 47.661995072383903 ], [ -93.013959914342195, 47.661934361368601 ], [ -93.014235080508598, 47.661994926701396 ], [ -93.014253900848203, 47.6622671263491 ], [ -93.014494453668803, 47.662283889263399 ], [ -93.014563665050204, 47.6625279823133 ], [ -93.014747489931096, 47.662569686919099 ], [ -93.014893518136105, 47.6633100755285 ], [ -93.015285302356105, 47.665164321629597 ], [ -93.016040579504804, 47.665240286365098 ] ] } },
{ "type": "Feature", "properties": { "wmUplineSo": "SIDE LAKE", "wmType": "Underground" }, "geometry": { "type": "LineString", "coordinates": [ [ -93.061012834533003, 47.636056399875201 ], [ -93.061877287350001, 47.636074860092997 ] ] } },
{ "type": "Feature", "properties": { "wmUplineSo": "SIDE LAKE", "wmType": "Underground" }, "geometry": { "type": "LineString", "coordinates": [ [ -93.057321996316205, 47.632971128530997 ], [ -93.059566689469193, 47.632872346073299 ] ] } },
{ "type": "Feature", "properties": { "wmUplineSo": "SIDE LAKE", "wmType": "Underground" }, "geometry": { "type": "LineString", "coordinates": [ [ -93.059447968091504, 47.672486911059799 ], [ -93.059501569211093, 47.671682867181801 ] ] } },
{ "type": "Feature", "properties": { "wmUplineSo": "SIDE LAKE", "wmType": "Underground" }, "geometry": { "type": "LineString", "coordinates": [ [ -93.068526135381205, 47.689090121056701 ], [ -93.068523661517105, 47.688853645597099 ], [ -93.068257115613505, 47.688854915879404 ], [ -93.068158370232595, 47.688604697373599 ], [ -93.067950149880701, 47.688439088024403 ] ] } },
{ "type": "Feature", "properties": { "wmUplineSo": "SIDE LAKE", "wmType": "Underground" }, "geometry": { "type": "LineString", "coordinates": [ [ -93.0381740000023, 47.6644570037449 ], [ -93.037836625095693, 47.664344888470197 ] ] } },
{ "type": "Feature", "properties": { "wmUplineSo": "SIDE LAKE", "wmType": "Underground" }, "geometry": { "type": "LineString", "coordinates": [ [ -93.05886078, 47.664215090009499 ], [ -93.058919048617099, 47.664035490902101 ] ] } },
{ "type": "Feature", "properties": { "wmUplineSo": "SIDE LAKE", "wmType": "Underground" }, "geometry": { "type": "LineString", "coordinates": [ [ -93.056895344260099, 47.634010402696298 ], [ -93.057540009825701, 47.634245797755398 ] ] } },
{ "type": "Feature", "properties": { "wmUplineSo": "SIDE LAKE", "wmType": "Underground" }, "geometry": { "type": "LineString", "coordinates": [ [ -93.056904882132699, 47.633170142518701 ], [ -93.057321996316205, 47.632971128530997 ] ] } },
{ "type": "Feature", "properties": { "wmUplineSo": "SIDE LAKE", "wmType": "Underground" }, "geometry": { "type": "LineString", "coordinates": [ [ -93.055184407440905, 47.6340690824441 ], [ -93.056021210152906, 47.634065581239199 ], [ -93.056413054049301, 47.634118745282599 ], [ -93.056895344260099, 47.634010402696298 ] ] } },
{ "type": "Feature", "properties": { "wmUplineSo": "SIDE LAKE", "wmType": "Underground" }, "geometry": { "type": "LineString", "coordinates": [ [ -93.055184407440905, 47.6340690824441 ], [ -93.054966072232503, 47.6337193765359 ] ] } },
{ "type": "Feature", "properties": { "wmUplineSo": "SIDE LAKE", "wmType": "Underground" }, "geometry": { "type": "LineString", "coordinates": [ [ -93.053690847658103, 47.6346637120661 ], [ -93.053660825978596, 47.634629417918497 ], [ -93.053653376387004, 47.6346099450056 ], [ -93.053716392933296, 47.6343603859751 ], [ -93.054084332052298, 47.634174333180503 ], [ -93.054475410790502, 47.634137203383702 ], [ -93.055184407440905, 47.6340690824441 ] ] } },
{ "type": "Feature", "properties": { "wmUplineSo": "SIDE LAKE", "wmType": "Underground" }, "geometry": { "type": "LineString", "coordinates": [ [ -93.036106731963997, 47.640347850920001 ], [ -93.0361552, 47.640327000009499 ] ] } },
{ "type": "Feature", "properties": { "wmUplineSo": "SIDE LAKE", "wmType": "Underground" }, "geometry": { "type": "LineString", "coordinates": [ [ -93.075810715476806, 47.681761762122399 ], [ -93.075683342701893, 47.681955869222499 ], [ -93.075174439342604, 47.6820517515376 ], [ -93.075254664034205, 47.682181597912603 ], [ -93.075061558483995, 47.682302148580398 ] ] } },
{ "type": "Feature", "properties": { "wmUplineSo": "SIDE LAKE", "wmType": "Underground" }, "geometry": { "type": "LineString", "coordinates": [ [ -93.055177985016897, 47.661866947018801 ], [ -93.0550943, 47.661745500009502 ] ] } },
{ "type": "Feature", "properties": { "wmUplineSo": "SIDE LAKE", "wmType": "Underground" }, "geometry": { "type": "LineString", "coordinates": [ [ -93.016040579504804, 47.665240286365098 ], [ -93.0225084306676, 47.665254224123998 ], [ -93.022799171101497, 47.6651918116278 ], [ -93.024917373118697, 47.664794830150399 ], [ -93.026899036309402, 47.664400187877497 ], [ -93.027665855706204, 47.664415792731297 ], [ -93.028733326740706, 47.664679821881698 ], [ -93.029006059473602, 47.664844634950697 ], [ -93.029521844930699, 47.665189614151302 ], [ -93.029946695417195, 47.665618542693998 ], [ -93.030500616052194, 47.6665588142383 ], [ -93.030749245713594, 47.666958673047098 ], [ -93.031154492373901, 47.667183319508602 ], [ -93.031425542349098, 47.667478650344897 ], [ -93.031528563603203, 47.667536816547603 ], [ -93.031718338765401, 47.667534394292304 ], [ -93.032100228592498, 47.667447658997901 ], [ -93.032100228592498, 47.667447658997901 ] ] } },
{ "type": "Feature", "properties": { "wmUplineSo": "SIDE LAKE", "wmType": "Underground" }, "geometry": { "type": "LineString", "coordinates": [ [ -93.059242, 47.635684 ], [ -93.060491725478499, 47.635860448128497 ] ] } },
{ "type": "Feature", "properties": { "wmUplineSo": "SIDE LAKE", "wmType": "Underground" }, "geometry": { "type": "LineString", "coordinates": [ [ -93.059943347212197, 47.664838621798999 ], [ -93.0599759894844, 47.664942064401203 ] ] } },
{ "type": "Feature", "properties": { "wmUplineSo": "SIDE LAKE", "wmType": "Underground" }, "geometry": { "type": "LineString", "coordinates": [ [ -93.061936192707606, 47.6519511630678 ], [ -93.061947839265102, 47.651822460489903 ] ] } },
{ "type": "Feature", "properties": { "wmUplineSo": "SIDE LAKE", "wmType": "Underground" }, "geometry": { "type": "LineString", "coordinates": [ [ -93.061947839265102, 47.651822460489903 ], [ -93.062124713928597, 47.651118683150898 ], [ -93.061915290287203, 47.650919253218902 ], [ -93.061471290696502, 47.650911964633103 ], [ -93.0611683234753, 47.650850529474198 ], [ -93.060745531113696, 47.650629476428399 ] ] } },
{ "type": "Feature", "properties": { "wmUplineSo": "SIDE LAKE", "wmType": "Underground" }, "geometry": { "type": "LineString", "coordinates": [ [ -93.053487565727195, 47.668018685309399 ], [ -93.053868702385898, 47.667945328652898 ] ] } },
{ "type": "Feature", "properties": { "wmUplineSo": "SIDE LAKE", "wmType": "Underground" }, "geometry": { "type": "LineString", "coordinates": [ [ -93.072429199336895, 47.680242357881902 ], [ -93.0720013, 47.680141000009499 ] ] } },
{ "type": "Feature", "properties": { "wmUplineSo": "SIDE LAKE", "wmType": "Underground" }, "geometry": { "type": "LineString", "coordinates": [ [ -93.059501569211093, 47.671682867181801 ], [ -93.058988635687399, 47.671582798991501 ], [ -93.058502540059607, 47.671383573217703 ], [ -93.057814842286604, 47.671193846091498 ], [ -93.057345282719496, 47.670995276714898 ] ] } },
{ "type": "Feature", "properties": { "wmUplineSo": "SIDE LAKE", "wmType": "Underground" }, "geometry": { "type": "LineString", "coordinates": [ [ -93.059501569211093, 47.671682867181801 ], [ -93.059576661127394, 47.670980944165898 ] ] } },
{ "type": "Feature", "properties": { "wmUplineSo": "SIDE LAKE", "wmType": "Underground" }, "geometry": { "type": "LineString", "coordinates": [ [ -93.065686, 47.629382 ], [ -93.065670944404502, 47.629440463849498 ] ] } },
{ "type": "Feature", "properties": { "wmUplineSo": "SIDE LAKE", "wmType": "Underground" }, "geometry": { "type": "LineString", "coordinates": [ [ -93.067165, 47.629437000000102 ], [ -93.067122, 47.629762 ] ] } },
{ "type": "Feature", "properties": { "wmUplineSo": "SIDE LAKE", "wmType": "Underground" }, "geometry": { "type": "LineString", "coordinates": [ [ -93.064905130639801, 47.656130795444597 ], [ -93.0653477425125, 47.655873152787002 ] ] } },
{ "type": "Feature", "properties": { "wmUplineSo": "SIDE LAKE", "wmType": "Underground" }, "geometry": { "type": "LineString", "coordinates": [ [ -93.0653477425125, 47.655873152787002 ], [ -93.064862426605103, 47.6550527014548 ] ] } },
{ "type": "Feature", "properties": { "wmUplineSo": "SIDE LAKE", "wmType": "Underground" }, "geometry": { "type": "LineString", "coordinates": [ [ -93.055892105062696, 47.651835832570299 ], [ -93.056358648201794, 47.652058104282098 ], [ -93.056628043159506, 47.652807418772298 ], [ -93.056628043159506, 47.652807418772298 ] ] } },
{ "type": "Feature", "properties": { "wmUplineSo": "SIDE LAKE", "wmType": "Underground" }, "geometry": { "type": "LineString", "coordinates": [ [ -93.066902, 47.629338 ], [ -93.066669, 47.628960999999897 ] ] } },
{ "type": "Feature", "properties": { "wmUplineSo": "SIDE LAKE", "wmType": "Underground" }, "geometry": { "type": "LineString", "coordinates": [ [ -93.066271967747696, 47.628989218103399 ], [ -93.066383, 47.629249000000101 ] ] } },
{ "type": "Feature", "properties": { "wmUplineSo": "SIDE LAKE", "wmType": "Underground" }, "geometry": { "type": "LineString", "coordinates": [ [ -93.059277000003704, 47.678580003748799 ], [ -93.0592132006567, 47.678656453434101 ] ] } },
{ "type": "Feature", "properties": { "wmUplineSo": "SIDE LAKE", "wmType": "Underground" }, "geometry": { "type": "LineString", "coordinates": [ [ -93.055570124884298, 47.639505003227001 ], [ -93.056919154593999, 47.640058806308701 ] ] } },
{ "type": "Feature", "properties": { "wmUplineSo": "SIDE LAKE", "wmType": "Underground" }, "geometry": { "type": "LineString", "coordinates": [ [ -93.059313000003698, 47.672950003747403 ], [ -93.059447968091504, 47.672486911059799 ] ] } },
{ "type": "Feature", "properties": { "wmUplineSo": "SIDE LAKE", "wmType": "Underground" }, "geometry": { "type": "LineString", "coordinates": [ [ -93.066383, 47.629249000000101 ], [ -93.066411, 47.629644999999897 ] ] } },
{ "type": "Feature", "properties": { "wmUplineSo": "SIDE LAKE", "wmType": "Underground" }, "geometry": { "type": "LineString", "coordinates": [ [ -93.044695982566296, 47.656952006004502 ], [ -93.045141680013998, 47.657250584822798 ] ] } },
{ "type": "Feature", "properties": { "wmUplineSo": "SIDE LAKE", "wmType": "Underground" }, "geometry": { "type": "LineString", "coordinates": [ [ -93.045141680013998, 47.657250584822798 ], [ -93.0451918, 47.657282500009501 ] ] } },
{ "type": "Feature", "properties": { "wmUplineSo": "SIDE LAKE", "wmType": "Underground" }, "geometry": { "type": "LineString", "coordinates": [ [ -93.070131126773106, 47.630428748383899 ], [ -93.069586696715305, 47.629511694850997 ] ] } },
{ "type": "Feature", "properties": { "wmUplineSo": "SIDE LAKE", "wmType": "Underground" }, "geometry": { "type": "LineString", "coordinates": [ [ -93.0647128333636, 47.629390386629098 ], [ -93.064708570163901, 47.629519296414998 ] ] } },
{ "type": "Feature", "properties": { "wmUplineSo": "SIDE LAKE", "wmType": "Underground" }, "geometry": { "type": "LineString", "coordinates": [ [ -93.064748, 47.628985 ], [ -93.0647128333636, 47.629390386629098 ] ] } },
{ "type": "Feature", "properties": { "wmUplineSo": "SIDE LAKE", "wmType": "Underground" }, "geometry": { "type": "LineString", "coordinates": [ [ -93.0379176537799, 47.665025427127802 ], [ -93.0381740000023, 47.6644570037449 ] ] } },
{ "type": "Feature", "properties": { "wmUplineSo": "SIDE LAKE", "wmType": "Underground" }, "geometry": { "type": "LineString", "coordinates": [ [ -93.065552337743298, 47.628983592169703 ], [ -93.064748, 47.628985 ] ] } },
{ "type": "Feature", "properties": { "wmUplineSo": "SIDE LAKE", "wmType": "Underground" }, "geometry": { "type": "LineString", "coordinates": [ [ -93.067165, 47.629437000000102 ], [ -93.066902, 47.629338 ] ] } },
{ "type": "Feature", "properties": { "wmUplineSo": "SIDE LAKE", "wmType": "Underground" }, "geometry": { "type": "LineString", "coordinates": [ [ -93.065552337743298, 47.628983592169703 ], [ -93.065686, 47.629382 ] ] } },
{ "type": "Feature", "properties": { "wmUplineSo": "SIDE LAKE", "wmType": "Underground" }, "geometry": { "type": "LineString", "coordinates": [ [ -93.066271967747696, 47.628989218103399 ], [ -93.065552337743298, 47.628983592169703 ] ] } },
{ "type": "Feature", "properties": { "wmUplineSo": "SIDE LAKE", "wmType": "Underground" }, "geometry": { "type": "LineString", "coordinates": [ [ -93.067933463366998, 47.629475839784298 ], [ -93.067165, 47.629437000000102 ] ] } },
{ "type": "Feature", "properties": { "wmUplineSo": "SIDE LAKE", "wmType": "Underground" }, "geometry": { "type": "LineString", "coordinates": [ [ -93.069586696715305, 47.629511694850997 ], [ -93.067933463366998, 47.629475839784298 ] ] } },
{ "type": "Feature", "properties": { "wmUplineSo": "SIDE LAKE", "wmType": "Underground" }, "geometry": { "type": "LineString", "coordinates": [ [ -93.064748, 47.628985 ], [ -93.064368705958998, 47.628920817444701 ] ] } }
]
}
