{
"type": "FeatureCollection",
"crs": { "type": "name", "properties": { "name": "urn:ogc:def:crs:OGC:1.3:CRS84" } },
"features": [
{ "type": "Feature", "properties": { "wmUplineSo": "SOLWAY", "wmType": "Underground" }, "geometry": { "type": "LineString", "coordinates": [ [ -92.339017832403499, 46.786357371555702 ], [ -92.3388609999609, 46.7862820035025 ] ] } },
{ "type": "Feature", "properties": { "wmUplineSo": "SOLWAY", "wmType": "Underground" }, "geometry": { "type": "LineString", "coordinates": [ [ -92.368839834541205, 46.788736193708601 ], [ -92.369107651238195, 46.788769684822398 ] ] } },
{ "type": "Feature", "properties": { "wmUplineSo": "SOLWAY", "wmType": "Underground" }, "geometry": { "type": "LineString", "coordinates": [ [ -92.336574183221998, 46.803680794905503 ], [ -92.336440099999905, 46.803704300008498 ] ] } },
{ "type": "Feature", "properties": { "wmUplineSo": "SOLWAY", "wmType": "Underground" }, "geometry": { "type": "LineString", "coordinates": [ [ -92.366784358418698, 46.788718060363401 ], [ -92.366905157348498, 46.788678031806697 ] ] } },
{ "type": "Feature", "properties": { "wmUplineSo": "SOLWAY", "wmType": "Underground" }, "geometry": { "type": "LineString", "coordinates": [ [ -92.330412, 46.793544 ], [ -92.330071, 46.793503 ] ] } },
{ "type": "Feature", "properties": { "wmUplineSo": "SOLWAY", "wmType": "Underground" }, "geometry": { "type": "LineString", "coordinates": [ [ -92.358077059990407, 46.8516177195986 ], [ -92.357901599999906, 46.851830100008598 ] ] } },
{ "type": "Feature", "properties": { "wmUplineSo": "SOLWAY", "wmType": "Underground" }, "geometry": { "type": "LineString", "coordinates": [ [ -92.356914520856293, 46.851480884714199 ], [ -92.356916099999907, 46.8519476000086 ] ] } },
{ "type": "Feature", "properties": { "wmUplineSo": "SOLWAY", "wmType": "Underground" }, "geometry": { "type": "LineString", "coordinates": [ [ -92.344738510584804, 46.795217060581997 ], [ -92.345062299999896, 46.7949769000085 ] ] } },
{ "type": "Feature", "properties": { "wmUplineSo": "SOLWAY", "wmType": "Underground" }, "geometry": { "type": "LineString", "coordinates": [ [ -92.344738510584804, 46.795217060581997 ], [ -92.345261799999903, 46.795110900008503 ] ] } },
{ "type": "Feature", "properties": { "wmUplineSo": "SOLWAY", "wmType": "Underground" }, "geometry": { "type": "LineString", "coordinates": [ [ -92.3683503602944, 46.800236982139999 ], [ -92.368250099999898, 46.800389100008502 ] ] } },
{ "type": "Feature", "properties": { "wmUplineSo": "SOLWAY", "wmType": "Underground" }, "geometry": { "type": "LineString", "coordinates": [ [ -92.358874476414996, 46.7973605423416 ], [ -92.358813599999905, 46.7973488000085 ] ] } },
{ "type": "Feature", "properties": { "wmUplineSo": "SOLWAY", "wmType": "Underground" }, "geometry": { "type": "LineString", "coordinates": [ [ -92.408029436472006, 46.810784226008202 ], [ -92.407456999999894, 46.811024200008497 ] ] } },
{ "type": "Feature", "properties": { "wmUplineSo": "SOLWAY", "wmType": "Underground" }, "geometry": { "type": "LineString", "coordinates": [ [ -92.402193909527298, 46.815645531372198 ], [ -92.401923299999893, 46.815626900008603 ] ] } },
{ "type": "Feature", "properties": { "wmUplineSo": "SOLWAY", "wmType": "Underground" }, "geometry": { "type": "LineString", "coordinates": [ [ -92.397488329809406, 46.815655319595699 ], [ -92.397283099999896, 46.815860800008601 ] ] } },
{ "type": "Feature", "properties": { "wmUplineSo": "SOLWAY", "wmType": "Underground" }, "geometry": { "type": "LineString", "coordinates": [ [ -92.397262614176299, 46.813033992609803 ], [ -92.397267799999895, 46.8128133000085 ] ] } },
{ "type": "Feature", "properties": { "wmUplineSo": "SOLWAY", "wmType": "Underground" }, "geometry": { "type": "LineString", "coordinates": [ [ -92.397153534123106, 46.812186952783101 ], [ -92.396853299999904, 46.811883100008501 ] ] } },
{ "type": "Feature", "properties": { "wmUplineSo": "SOLWAY", "wmType": "Underground" }, "geometry": { "type": "LineString", "coordinates": [ [ -92.366286055340197, 46.809731098629697 ], [ -92.3663927999999, 46.8097483000086 ] ] } },
{ "type": "Feature", "properties": { "wmUplineSo": "SOLWAY", "wmType": "Underground" }, "geometry": { "type": "LineString", "coordinates": [ [ -92.370157046511096, 46.809666605985697 ], [ -92.370206799999906, 46.809742000008498 ] ] } },
{ "type": "Feature", "properties": { "wmUplineSo": "SOLWAY", "wmType": "Underground" }, "geometry": { "type": "LineString", "coordinates": [ [ -92.370072886670997, 46.810392178763898 ], [ -92.370138899999901, 46.810656300008503 ] ] } },
{ "type": "Feature", "properties": { "wmUplineSo": "SOLWAY", "wmType": "Underground" }, "geometry": { "type": "LineString", "coordinates": [ [ -92.370070326929607, 46.811391398530702 ], [ -92.370544399283503, 46.811294311465097 ] ] } },
{ "type": "Feature", "properties": { "wmUplineSo": "SOLWAY", "wmType": "Underground" }, "geometry": { "type": "LineString", "coordinates": [ [ -92.3820523839141, 46.810229316457402 ], [ -92.381912799999895, 46.810146100008502 ] ] } },
{ "type": "Feature", "properties": { "wmUplineSo": "SOLWAY", "wmType": "Underground" }, "geometry": { "type": "LineString", "coordinates": [ [ -92.333180848523199, 46.844617353714703 ], [ -92.333619299999896, 46.844772600008604 ] ] } },
{ "type": "Feature", "properties": { "wmUplineSo": "SOLWAY", "wmType": "Underground" }, "geometry": { "type": "LineString", "coordinates": [ [ -92.345380152615107, 46.841292379537698 ], [ -92.345365099999896, 46.841342700008603 ] ] } },
{ "type": "Feature", "properties": { "wmUplineSo": "SOLWAY", "wmType": "Underground" }, "geometry": { "type": "LineString", "coordinates": [ [ -92.345380152615107, 46.841292379537698 ], [ -92.345347699999905, 46.841328900008598 ] ] } },
{ "type": "Feature", "properties": { "wmUplineSo": "SOLWAY", "wmType": "Underground" }, "geometry": { "type": "LineString", "coordinates": [ [ -92.345380152615107, 46.841292379537698 ], [ -92.345161154858303, 46.839679277994399 ] ] } },
{ "type": "Feature", "properties": { "wmUplineSo": "SOLWAY", "wmType": "Underground" }, "geometry": { "type": "LineString", "coordinates": [ [ -92.346515628647893, 46.791707649926003 ], [ -92.346755299999899, 46.791801000008498 ] ] } },
{ "type": "Feature", "properties": { "wmUplineSo": "SOLWAY", "wmType": "Underground" }, "geometry": { "type": "LineString", "coordinates": [ [ -92.3752479312258, 46.854854887040403 ], [ -92.3761642999999, 46.8556918000086 ] ] } },
{ "type": "Feature", "properties": { "wmUplineSo": "SOLWAY", "wmType": "Underground" }, "geometry": { "type": "LineString", "coordinates": [ [ -92.363128538266807, 46.855372871680899 ], [ -92.363312299999905, 46.855306800008599 ] ] } },
{ "type": "Feature", "properties": { "wmUplineSo": "SOLWAY", "wmType": "Underground" }, "geometry": { "type": "LineString", "coordinates": [ [ -92.361387301906802, 46.8526512875872 ], [ -92.361513299999899, 46.8528183000086 ] ] } },
{ "type": "Feature", "properties": { "wmUplineSo": "SOLWAY", "wmType": "Underground" }, "geometry": { "type": "LineString", "coordinates": [ [ -92.365081320086006, 46.847513687669903 ], [ -92.365605099999897, 46.847292300008597 ] ] } },
{ "type": "Feature", "properties": { "wmUplineSo": "SOLWAY", "wmType": "Underground" }, "geometry": { "type": "LineString", "coordinates": [ [ -92.3555136028737, 46.817166852836202 ], [ -92.355772699999903, 46.817150000008503 ] ] } },
{ "type": "Feature", "properties": { "wmUplineSo": "SOLWAY", "wmType": "Underground" }, "geometry": { "type": "LineString", "coordinates": [ [ -92.351682847017003, 46.813927480825697 ], [ -92.351942899999898, 46.813853300008603 ] ] } },
{ "type": "Feature", "properties": { "wmUplineSo": "SOLWAY", "wmType": "Underground" }, "geometry": { "type": "LineString", "coordinates": [ [ -92.360070468621501, 46.797844313047896 ], [ -92.360047799999904, 46.797817800008502 ] ] } },
{ "type": "Feature", "properties": { "wmUplineSo": "SOLWAY", "wmType": "Underground" }, "geometry": { "type": "LineString", "coordinates": [ [ -92.358854729678299, 46.799103756633301 ], [ -92.359001099999901, 46.798952600008498 ] ] } },
{ "type": "Feature", "properties": { "wmUplineSo": "SOLWAY", "wmType": "Underground" }, "geometry": { "type": "LineString", "coordinates": [ [ -92.355861609355301, 46.798639071167699 ], [ -92.355576599999907, 46.798782100008502 ] ] } },
{ "type": "Feature", "properties": { "wmUplineSo": "SOLWAY", "wmType": "Underground" }, "geometry": { "type": "LineString", "coordinates": [ [ -92.388305875935004, 46.7963038509331 ], [ -92.388012, 46.796304100008498 ] ] } },
{ "type": "Feature", "properties": { "wmUplineSo": "SOLWAY", "wmType": "Underground" }, "geometry": { "type": "LineString", "coordinates": [ [ -92.390037830589094, 46.797393281436797 ], [ -92.390758, 46.797311900008502 ] ] } },
{ "type": "Feature", "properties": { "wmUplineSo": "SOLWAY", "wmType": "Underground" }, "geometry": { "type": "LineString", "coordinates": [ [ -92.383276051807897, 46.800702898970201 ], [ -92.382938599999903, 46.801007600008496 ] ] } },
{ "type": "Feature", "properties": { "wmUplineSo": "SOLWAY", "wmType": "Underground" }, "geometry": { "type": "LineString", "coordinates": [ [ -92.346100362261197, 46.784856055275398 ], [ -92.346040099999897, 46.784931000008498 ] ] } },
{ "type": "Feature", "properties": { "wmUplineSo": "SOLWAY", "wmType": "Underground" }, "geometry": { "type": "LineString", "coordinates": [ [ -92.348993725241201, 46.787495585014497 ], [ -92.348971599999899, 46.787373500008499 ] ] } },
{ "type": "Feature", "properties": { "wmUplineSo": "SOLWAY", "wmType": "Underground" }, "geometry": { "type": "LineString", "coordinates": [ [ -92.349744269661599, 46.795787117404899 ], [ -92.350381099999893, 46.795352500008498 ] ] } },
{ "type": "Feature", "properties": { "wmUplineSo": "SOLWAY", "wmType": "Underground" }, "geometry": { "type": "LineString", "coordinates": [ [ -92.336875762325903, 46.802224285436502 ], [ -92.336347, 46.801921400008503 ] ] } },
{ "type": "Feature", "properties": { "wmUplineSo": "SOLWAY", "wmType": "Underground" }, "geometry": { "type": "LineString", "coordinates": [ [ -92.325660333254802, 46.787851415884198 ], [ -92.32616, 46.787943400008501 ] ] } },
{ "type": "Feature", "properties": { "wmUplineSo": "SOLWAY", "wmType": "Underground" }, "geometry": { "type": "LineString", "coordinates": [ [ -92.3366747670444, 46.784864136749 ], [ -92.336680609910204, 46.784712559749401 ] ] } },
{ "type": "Feature", "properties": { "wmUplineSo": "SOLWAY", "wmType": "Underground" }, "geometry": { "type": "LineString", "coordinates": [ [ -92.369358136663195, 46.782220034291598 ], [ -92.369431599999899, 46.782287100008503 ] ] } },
{ "type": "Feature", "properties": { "wmUplineSo": "SOLWAY", "wmType": "Underground" }, "geometry": { "type": "LineString", "coordinates": [ [ -92.375763322928194, 46.783974595851703 ], [ -92.375927599999898, 46.784129600008498 ] ] } },
{ "type": "Feature", "properties": { "wmUplineSo": "SOLWAY", "wmType": "Underground" }, "geometry": { "type": "LineString", "coordinates": [ [ -92.340273704566798, 46.790316586957204 ], [ -92.340445256156798, 46.790453994832802 ] ] } },
{ "type": "Feature", "properties": { "wmUplineSo": "SOLWAY", "wmType": "Underground" }, "geometry": { "type": "LineString", "coordinates": [ [ -92.340273704566798, 46.790316586957204 ], [ -92.340250399999903, 46.7903328000085 ] ] } },
{ "type": "Feature", "properties": { "wmUplineSo": "SOLWAY", "wmType": "Underground" }, "geometry": { "type": "LineString", "coordinates": [ [ -92.350281635700597, 46.784901299418102 ], [ -92.350117799999893, 46.785015300008503 ] ] } },
{ "type": "Feature", "properties": { "wmUplineSo": "SOLWAY", "wmType": "Underground" }, "geometry": { "type": "LineString", "coordinates": [ [ -92.365552874518301, 46.812255728424397 ], [ -92.365412799999902, 46.812405500008502 ] ] } },
{ "type": "Feature", "properties": { "wmUplineSo": "SOLWAY", "wmType": "Underground" }, "geometry": { "type": "LineString", "coordinates": [ [ -92.370082507569407, 46.808961483260802 ], [ -92.370159799999897, 46.8089475000085 ] ] } },
{ "type": "Feature", "properties": { "wmUplineSo": "SOLWAY", "wmType": "Underground" }, "geometry": { "type": "LineString", "coordinates": [ [ -92.399429215420199, 46.816723043219497 ], [ -92.399503696924498, 46.8167544951134 ] ] } },
{ "type": "Feature", "properties": { "wmUplineSo": "SOLWAY", "wmType": "Underground" }, "geometry": { "type": "LineString", "coordinates": [ [ -92.3781658641322, 46.805508202956503 ], [ -92.378874099999905, 46.805555600008503 ] ] } },
{ "type": "Feature", "properties": { "wmUplineSo": "SOLWAY", "wmType": "Underground" }, "geometry": { "type": "LineString", "coordinates": [ [ -92.346704477051105, 46.835710525475697 ], [ -92.347084319999894, 46.835880140008598 ] ] } },
{ "type": "Feature", "properties": { "wmUplineSo": "SOLWAY", "wmType": "Underground" }, "geometry": { "type": "LineString", "coordinates": [ [ -92.365571985968998, 46.793691369853398 ], [ -92.365660778681601, 46.7935109042809 ] ] } },
{ "type": "Feature", "properties": { "wmUplineSo": "SOLWAY", "wmType": "Underground" }, "geometry": { "type": "LineString", "coordinates": [ [ -92.384925957648605, 46.798068416644902 ], [ -92.384672899999899, 46.798001900008501 ] ] } },
{ "type": "Feature", "properties": { "wmUplineSo": "SOLWAY", "wmType": "Underground" }, "geometry": { "type": "LineString", "coordinates": [ [ -92.364831182260104, 46.802294419239097 ], [ -92.365018799999902, 46.802427800008502 ] ] } },
{ "type": "Feature", "properties": { "wmUplineSo": "SOLWAY", "wmType": "Underground" }, "geometry": { "type": "LineString", "coordinates": [ [ -92.354910694990494, 46.827268251324298 ], [ -92.354787899999906, 46.827246300008603 ] ] } },
{ "type": "Feature", "properties": { "wmUplineSo": "SOLWAY", "wmType": "Underground" }, "geometry": { "type": "LineString", "coordinates": [ [ -92.355438980586896, 46.827164577535598 ], [ -92.355219719999894, 46.827391190008598 ] ] } },
{ "type": "Feature", "properties": { "wmUplineSo": "SOLWAY", "wmType": "Underground" }, "geometry": { "type": "LineString", "coordinates": [ [ -92.3326438448033, 46.802246950298297 ], [ -92.331780499999894, 46.802501600008497 ] ] } },
{ "type": "Feature", "properties": { "wmUplineSo": "SOLWAY", "wmType": "Underground" }, "geometry": { "type": "LineString", "coordinates": [ [ -92.372368255560104, 46.7966906742706 ], [ -92.372240599999898, 46.796603000008503 ] ] } },
{ "type": "Feature", "properties": { "wmUplineSo": "SOLWAY", "wmType": "Underground" }, "geometry": { "type": "LineString", "coordinates": [ [ -92.365148964666403, 46.803779597258902 ], [ -92.366725308951004, 46.804142521406398 ] ] } },
{ "type": "Feature", "properties": { "wmUplineSo": "SOLWAY", "wmType": "Underground" }, "geometry": { "type": "LineString", "coordinates": [ [ -92.366725308951004, 46.804142521406398 ], [ -92.367641152691206, 46.804413254274401 ] ] } },
{ "type": "Feature", "properties": { "wmUplineSo": "SOLWAY", "wmType": "Underground" }, "geometry": { "type": "LineString", "coordinates": [ [ -92.367334258149, 46.7886383921633 ], [ -92.367639837483793, 46.7886287040415 ] ] } },
{ "type": "Feature", "properties": { "wmUplineSo": "SOLWAY", "wmType": "Underground" }, "geometry": { "type": "LineString", "coordinates": [ [ -92.367639837483793, 46.7886287040415 ], [ -92.3677542204844, 46.7886481636612 ] ] } },
{ "type": "Feature", "properties": { "wmUplineSo": "SOLWAY", "wmType": "Underground" }, "geometry": { "type": "LineString", "coordinates": [ [ -92.396547299136401, 46.810023268592502 ], [ -92.3974236613507, 46.810034869854498 ] ] } },
{ "type": "Feature", "properties": { "wmUplineSo": "SOLWAY", "wmType": "Underground" }, "geometry": { "type": "LineString", "coordinates": [ [ -92.3974236613507, 46.810034869854498 ], [ -92.397302099999905, 46.810065300008503 ] ] } },
{ "type": "Feature", "properties": { "wmUplineSo": "SOLWAY", "wmType": "Underground" }, "geometry": { "type": "LineString", "coordinates": [ [ -92.406427999964805, 46.8113940035092 ], [ -92.406608999964803, 46.811539003509203 ] ] } },
{ "type": "Feature", "properties": { "wmUplineSo": "SOLWAY", "wmType": "Underground" }, "geometry": { "type": "LineString", "coordinates": [ [ -92.406359999964806, 46.8113970035092 ], [ -92.406427999964805, 46.8113940035092 ] ] } },
{ "type": "Feature", "properties": { "wmUplineSo": "SOLWAY", "wmType": "Underground" }, "geometry": { "type": "LineString", "coordinates": [ [ -92.330071, 46.793503 ], [ -92.329787, 46.793524 ] ] } },
{ "type": "Feature", "properties": { "wmUplineSo": "SOLWAY", "wmType": "Underground" }, "geometry": { "type": "LineString", "coordinates": [ [ -92.3677542204844, 46.7886481636612 ], [ -92.367853643500297, 46.788625211195999 ] ] } },
{ "type": "Feature", "properties": { "wmUplineSo": "SOLWAY", "wmType": "Underground" }, "geometry": { "type": "LineString", "coordinates": [ [ -92.367853643500297, 46.788625211195999 ], [ -92.368172725751293, 46.788626824983801 ] ] } },
{ "type": "Feature", "properties": { "wmUplineSo": "SOLWAY", "wmType": "Underground" }, "geometry": { "type": "LineString", "coordinates": [ [ -92.406608999964803, 46.811539003509203 ], [ -92.406818999964798, 46.811520003509202 ] ] } },
{ "type": "Feature", "properties": { "wmUplineSo": "SOLWAY", "wmType": "Underground" }, "geometry": { "type": "LineString", "coordinates": [ [ -92.406427999964805, 46.8113940035092 ], [ -92.406380099999893, 46.811440300008499 ] ] } },
{ "type": "Feature", "properties": { "wmUplineSo": "SOLWAY", "wmType": "Underground" }, "geometry": { "type": "LineString", "coordinates": [ [ -92.369107651238195, 46.788769684822398 ], [ -92.369158950006593, 46.788815057553698 ] ] } },
{ "type": "Feature", "properties": { "wmUplineSo": "SOLWAY", "wmType": "Underground" }, "geometry": { "type": "LineString", "coordinates": [ [ -92.367641152691206, 46.804413254274401 ], [ -92.368655825940607, 46.804771123804301 ] ] } },
{ "type": "Feature", "properties": { "wmUplineSo": "SOLWAY", "wmType": "Underground" }, "geometry": { "type": "LineString", "coordinates": [ [ -92.368172725751293, 46.788626824983801 ], [ -92.368478250848497, 46.788656494104501 ] ] } },
{ "type": "Feature", "properties": { "wmUplineSo": "SOLWAY", "wmType": "Underground" }, "geometry": { "type": "LineString", "coordinates": [ [ -92.329787, 46.793524 ], [ -92.329304, 46.793517999999899 ] ] } },
{ "type": "Feature", "properties": { "wmUplineSo": "SOLWAY", "wmType": "Underground" }, "geometry": { "type": "LineString", "coordinates": [ [ -92.366905157348498, 46.788678031806697 ], [ -92.367089732276995, 46.788522887903198 ] ] } },
{ "type": "Feature", "properties": { "wmUplineSo": "SOLWAY", "wmType": "Underground" }, "geometry": { "type": "LineString", "coordinates": [ [ -92.367089732276995, 46.788522887903198 ], [ -92.367360637574606, 46.788297004352998 ] ] } },
{ "type": "Feature", "properties": { "wmUplineSo": "SOLWAY", "wmType": "Underground" }, "geometry": { "type": "LineString", "coordinates": [ [ -92.367360637574606, 46.788297004352998 ], [ -92.367632514779501, 46.7880986083428 ] ] } },
{ "type": "Feature", "properties": { "wmUplineSo": "SOLWAY", "wmType": "Underground" }, "geometry": { "type": "LineString", "coordinates": [ [ -92.358201724480296, 46.851367425135003 ], [ -92.358077059990407, 46.8516177195986 ] ] } },
{ "type": "Feature", "properties": { "wmUplineSo": "SOLWAY", "wmType": "Underground" }, "geometry": { "type": "LineString", "coordinates": [ [ -92.358201724480296, 46.851367425135003 ], [ -92.357011219658204, 46.851377576935903 ] ] } },
{ "type": "Feature", "properties": { "wmUplineSo": "SOLWAY", "wmType": "Underground" }, "geometry": { "type": "LineString", "coordinates": [ [ -92.357011219658204, 46.851377576935903 ], [ -92.356914520856293, 46.851480884714199 ] ] } },
{ "type": "Feature", "properties": { "wmUplineSo": "SOLWAY", "wmType": "Underground" }, "geometry": { "type": "LineString", "coordinates": [ [ -92.359490405111998, 46.851030821578902 ], [ -92.358201724480296, 46.851367425135003 ] ] } },
{ "type": "Feature", "properties": { "wmUplineSo": "SOLWAY", "wmType": "Underground" }, "geometry": { "type": "LineString", "coordinates": [ [ -92.359442949834204, 46.797909455473601 ], [ -92.359032771942196, 46.797341403235201 ], [ -92.358874476414996, 46.7973605423416 ] ] } },
{ "type": "Feature", "properties": { "wmUplineSo": "SOLWAY", "wmType": "Underground" }, "geometry": { "type": "LineString", "coordinates": [ [ -92.360070468621501, 46.797844313047896 ], [ -92.359442949834204, 46.797909455473601 ] ] } },
{ "type": "Feature", "properties": { "wmUplineSo": "SOLWAY", "wmType": "Underground" }, "geometry": { "type": "LineString", "coordinates": [ [ -92.343222828333793, 46.791815114887903 ], [ -92.343924037053995, 46.791831742382698 ], [ -92.344849769192294, 46.791814742177898 ], [ -92.3456613614985, 46.791698920406901 ], [ -92.346515628647893, 46.791707649926003 ] ] } },
{ "type": "Feature", "properties": { "wmUplineSo": "SOLWAY", "wmType": "Underground" }, "geometry": { "type": "LineString", "coordinates": [ [ -92.404939158340696, 46.815591611169602 ], [ -92.402193909527298, 46.815645531372198 ] ] } },
{ "type": "Feature", "properties": { "wmUplineSo": "SOLWAY", "wmType": "Underground" }, "geometry": { "type": "LineString", "coordinates": [ [ -92.396090271279107, 46.815718976629299 ], [ -92.397488329809406, 46.815655319595699 ] ] } },
{ "type": "Feature", "properties": { "wmUplineSo": "SOLWAY", "wmType": "Underground" }, "geometry": { "type": "LineString", "coordinates": [ [ -92.396307765474404, 46.812400038643403 ], [ -92.397153534123106, 46.812186952783101 ] ] } },
{ "type": "Feature", "properties": { "wmUplineSo": "SOLWAY", "wmType": "Underground" }, "geometry": { "type": "LineString", "coordinates": [ [ -92.396240360356103, 46.813216847139799 ], [ -92.397262614176299, 46.813033992609803 ] ] } },
{ "type": "Feature", "properties": { "wmUplineSo": "SOLWAY", "wmType": "Underground" }, "geometry": { "type": "LineString", "coordinates": [ [ -92.364615229739101, 46.855126184601303 ], [ -92.363128538266807, 46.855372871680899 ] ] } },
{ "type": "Feature", "properties": { "wmUplineSo": "SOLWAY", "wmType": "Underground" }, "geometry": { "type": "LineString", "coordinates": [ [ -92.360832897609299, 46.851492620479803 ], [ -92.3610261772114, 46.852142176711297 ] ] } },
{ "type": "Feature", "properties": { "wmUplineSo": "SOLWAY", "wmType": "Underground" }, "geometry": { "type": "LineString", "coordinates": [ [ -92.3610261772114, 46.852142176711297 ], [ -92.361387301906802, 46.8526512875872 ] ] } },
{ "type": "Feature", "properties": { "wmUplineSo": "SOLWAY", "wmType": "Underground" }, "geometry": { "type": "LineString", "coordinates": [ [ -92.3544871005749, 46.843048750587002 ], [ -92.354295106911493, 46.839050621333101 ], [ -92.353743783128394, 46.8342539863458 ] ] } },
{ "type": "Feature", "properties": { "wmUplineSo": "SOLWAY", "wmType": "Underground" }, "geometry": { "type": "LineString", "coordinates": [ [ -92.354461366235796, 46.817045845798397 ], [ -92.3555136028737, 46.817166852836202 ] ] } },
{ "type": "Feature", "properties": { "wmUplineSo": "SOLWAY", "wmType": "Underground" }, "geometry": { "type": "LineString", "coordinates": [ [ -92.353298006549693, 46.8136859415361 ], [ -92.352085423744597, 46.813699638434301 ], [ -92.351682847017003, 46.813927480825697 ] ] } },
{ "type": "Feature", "properties": { "wmUplineSo": "SOLWAY", "wmType": "Underground" }, "geometry": { "type": "LineString", "coordinates": [ [ -92.364729799999907, 46.800933800008501 ], [ -92.367665458052997, 46.8009118705302 ], [ -92.368140416012295, 46.800256732192103 ], [ -92.3683503602944, 46.800236982139999 ] ] } },
{ "type": "Feature", "properties": { "wmUplineSo": "SOLWAY", "wmType": "Underground" }, "geometry": { "type": "LineString", "coordinates": [ [ -92.364284253655001, 46.797917924704997 ], [ -92.361992355446802, 46.797886576057998 ], [ -92.361409921461004, 46.797695935578602 ] ] } },
{ "type": "Feature", "properties": { "wmUplineSo": "SOLWAY", "wmType": "Underground" }, "geometry": { "type": "LineString", "coordinates": [ [ -92.364698225606901, 46.797933159567798 ], [ -92.364751580603894, 46.797214784794299 ] ] } },
{ "type": "Feature", "properties": { "wmUplineSo": "SOLWAY", "wmType": "Underground" }, "geometry": { "type": "LineString", "coordinates": [ [ -92.364916545860595, 46.809675861493801 ], [ -92.366286055340197, 46.809731098629697 ] ] } },
{ "type": "Feature", "properties": { "wmUplineSo": "SOLWAY", "wmType": "Underground" }, "geometry": { "type": "LineString", "coordinates": [ [ -92.370266972260296, 46.808395576190598 ], [ -92.370082507569407, 46.808961483260802 ] ] } },
{ "type": "Feature", "properties": { "wmUplineSo": "SOLWAY", "wmType": "Underground" }, "geometry": { "type": "LineString", "coordinates": [ [ -92.370082507569407, 46.808961483260802 ], [ -92.370157046511096, 46.809666605985697 ] ] } },
{ "type": "Feature", "properties": { "wmUplineSo": "SOLWAY", "wmType": "Underground" }, "geometry": { "type": "LineString", "coordinates": [ [ -92.370072886670997, 46.810392178763898 ], [ -92.370070326929607, 46.811391398530702 ] ] } },
{ "type": "Feature", "properties": { "wmUplineSo": "SOLWAY", "wmType": "Underground" }, "geometry": { "type": "LineString", "coordinates": [ [ -92.370157046511096, 46.809666605985697 ], [ -92.370072886670997, 46.810392178763898 ] ] } },
{ "type": "Feature", "properties": { "wmUplineSo": "SOLWAY", "wmType": "Underground" }, "geometry": { "type": "LineString", "coordinates": [ [ -92.382630145332996, 46.808849037793401 ], [ -92.382524812202206, 46.808880405971202 ], [ -92.381907262556695, 46.809368309338403 ], [ -92.3820523839141, 46.810229316457402 ] ] } },
{ "type": "Feature", "properties": { "wmUplineSo": "SOLWAY", "wmType": "Underground" }, "geometry": { "type": "LineString", "coordinates": [ [ -92.323341791473894, 46.845336579108199 ], [ -92.323342979692299, 46.845306327304598 ] ] } },
{ "type": "Feature", "properties": { "wmUplineSo": "SOLWAY", "wmType": "Underground" }, "geometry": { "type": "LineString", "coordinates": [ [ -92.334548212999806, 46.844593243663802 ], [ -92.334276307734299, 46.844589191557503 ] ] } },
{ "type": "Feature", "properties": { "wmUplineSo": "SOLWAY", "wmType": "Underground" }, "geometry": { "type": "LineString", "coordinates": [ [ -92.334276307734299, 46.844589191557503 ], [ -92.333180848523199, 46.844617353714703 ] ] } },
{ "type": "Feature", "properties": { "wmUplineSo": "SOLWAY", "wmType": "Underground" }, "geometry": { "type": "LineString", "coordinates": [ [ -92.345776832157199, 46.841517664834299 ], [ -92.345380152615107, 46.841292379537698 ], [ -92.345380152615107, 46.841292379537698 ] ] } },
{ "type": "Feature", "properties": { "wmUplineSo": "SOLWAY", "wmType": "Underground" }, "geometry": { "type": "LineString", "coordinates": [ [ -92.345832630281805, 46.841562413413399 ], [ -92.345776832157199, 46.841517664834299 ] ] } },
{ "type": "Feature", "properties": { "wmUplineSo": "SOLWAY", "wmType": "Underground" }, "geometry": { "type": "LineString", "coordinates": [ [ -92.354429201056703, 46.843220361810403 ], [ -92.3544871005749, 46.843048750587002 ] ] } },
{ "type": "Feature", "properties": { "wmUplineSo": "SOLWAY", "wmType": "Underground" }, "geometry": { "type": "LineString", "coordinates": [ [ -92.359029477089805, 46.798141039639901 ], [ -92.358854729678299, 46.799103756633301 ] ] } },
{ "type": "Feature", "properties": { "wmUplineSo": "SOLWAY", "wmType": "Underground" }, "geometry": { "type": "LineString", "coordinates": [ [ -92.359029477089805, 46.798141039639901 ], [ -92.358047021257093, 46.798146547527899 ], [ -92.356947166962399, 46.798164012276601 ], [ -92.356501846918903, 46.798325439925101 ], [ -92.355861609355301, 46.798639071167699 ] ] } },
{ "type": "Feature", "properties": { "wmUplineSo": "SOLWAY", "wmType": "Underground" }, "geometry": { "type": "LineString", "coordinates": [ [ -92.359442949834204, 46.797909455473601 ], [ -92.359219216198795, 46.797947251819402 ], [ -92.359029477089805, 46.798141039639901 ] ] } },
{ "type": "Feature", "properties": { "wmUplineSo": "SOLWAY", "wmType": "Underground" }, "geometry": { "type": "LineString", "coordinates": [ [ -92.385802878477506, 46.7961453715915 ], [ -92.386185849374996, 46.796221777041197 ] ] } },
{ "type": "Feature", "properties": { "wmUplineSo": "SOLWAY", "wmType": "Underground" }, "geometry": { "type": "LineString", "coordinates": [ [ -92.386185849374996, 46.796221777041197 ], [ -92.387269481907396, 46.796289075604001 ], [ -92.388305875935004, 46.7963038509331 ] ] } },
{ "type": "Feature", "properties": { "wmUplineSo": "SOLWAY", "wmType": "Underground" }, "geometry": { "type": "LineString", "coordinates": [ [ -92.386004240257904, 46.797127194591198 ], [ -92.386586086576102, 46.797396499646901 ] ] } },
{ "type": "Feature", "properties": { "wmUplineSo": "SOLWAY", "wmType": "Underground" }, "geometry": { "type": "LineString", "coordinates": [ [ -92.386586086576102, 46.797396499646901 ], [ -92.390037830589094, 46.797393281436797 ] ] } },
{ "type": "Feature", "properties": { "wmUplineSo": "SOLWAY", "wmType": "Underground" }, "geometry": { "type": "LineString", "coordinates": [ [ -92.385575748343001, 46.8009002405364 ], [ -92.385248218569203, 46.800880881497001 ] ] } },
{ "type": "Feature", "properties": { "wmUplineSo": "SOLWAY", "wmType": "Underground" }, "geometry": { "type": "LineString", "coordinates": [ [ -92.385248218569203, 46.800880881497001 ], [ -92.383276051807897, 46.800702898970201 ] ] } },
{ "type": "Feature", "properties": { "wmUplineSo": "SOLWAY", "wmType": "Underground" }, "geometry": { "type": "LineString", "coordinates": [ [ -92.345964991053293, 46.786336054663501 ], [ -92.346082031916097, 46.786146097947601 ], [ -92.346147486686803, 46.785962844439602 ], [ -92.346094803349104, 46.785781325519601 ], [ -92.3461154114935, 46.785652630684602 ], [ -92.346079076901702, 46.785464008577001 ], [ -92.346049443887793, 46.785310159050198 ], [ -92.346116346685406, 46.785166002343701 ], [ -92.346176269652105, 46.785036886288303 ], [ -92.346100362261197, 46.784856055275398 ] ] } },
{ "type": "Feature", "properties": { "wmUplineSo": "SOLWAY", "wmType": "Underground" }, "geometry": { "type": "LineString", "coordinates": [ [ -92.348634213704599, 46.786496589383098 ], [ -92.348839094478507, 46.787159717959703 ], [ -92.348993725241201, 46.787495585014497 ] ] } },
{ "type": "Feature", "properties": { "wmUplineSo": "SOLWAY", "wmType": "Underground" }, "geometry": { "type": "LineString", "coordinates": [ [ -92.344108980321394, 46.795760481005701 ], [ -92.344738510584804, 46.795217060581997 ] ] } },
{ "type": "Feature", "properties": { "wmUplineSo": "SOLWAY", "wmType": "Underground" }, "geometry": { "type": "LineString", "coordinates": [ [ -92.350428938128005, 46.793804461853398 ], [ -92.350480171016898, 46.794001845803201 ] ] } },
{ "type": "Feature", "properties": { "wmUplineSo": "SOLWAY", "wmType": "Underground" }, "geometry": { "type": "LineString", "coordinates": [ [ -92.350480171016898, 46.794001845803201 ], [ -92.350343777446497, 46.794688898839397 ], [ -92.349527281413302, 46.7951627246469 ], [ -92.349384328018004, 46.795558745671599 ], [ -92.349744269661599, 46.795787117404899 ] ] } },
{ "type": "Feature", "properties": { "wmUplineSo": "SOLWAY", "wmType": "Underground" }, "geometry": { "type": "LineString", "coordinates": [ [ -92.336875762325903, 46.802224285436502 ], [ -92.336919587220294, 46.802372063562601 ], [ -92.3367072866819, 46.802584912013501 ], [ -92.336541911034203, 46.802750711801302 ], [ -92.336470553279895, 46.803267965421497 ], [ -92.336574183221998, 46.803680794905503 ] ] } },
{ "type": "Feature", "properties": { "wmUplineSo": "SOLWAY", "wmType": "Underground" }, "geometry": { "type": "LineString", "coordinates": [ [ -92.335414862081194, 46.801184771880898 ], [ -92.335888470593801, 46.801349078271897 ] ] } },
{ "type": "Feature", "properties": { "wmUplineSo": "SOLWAY", "wmType": "Underground" }, "geometry": { "type": "LineString", "coordinates": [ [ -92.335888470593801, 46.801349078271897 ], [ -92.336306884348005, 46.801503917527199 ], [ -92.336659326427906, 46.801523777555502 ], [ -92.336653553247999, 46.801651987921502 ], [ -92.336702977832999, 46.801779283422299 ], [ -92.336760094624395, 46.801926385152299 ], [ -92.336800730928005, 46.802031044143597 ], [ -92.336875762325903, 46.802224285436502 ] ] } },
{ "type": "Feature", "properties": { "wmUplineSo": "SOLWAY", "wmType": "Underground" }, "geometry": { "type": "LineString", "coordinates": [ [ -92.326539439594598, 46.787409599194902 ], [ -92.325660333254802, 46.787851415884198 ] ] } },
{ "type": "Feature", "properties": { "wmUplineSo": "SOLWAY", "wmType": "Underground" }, "geometry": { "type": "LineString", "coordinates": [ [ -92.336641286300605, 46.786306620294603 ], [ -92.336450186246395, 46.785593837211401 ], [ -92.3366747670444, 46.784864136749 ] ] } },
{ "type": "Feature", "properties": { "wmUplineSo": "SOLWAY", "wmType": "Underground" }, "geometry": { "type": "LineString", "coordinates": [ [ -92.335408547033893, 46.786876629357202 ], [ -92.333901115752695, 46.786947870857098 ] ] } },
{ "type": "Feature", "properties": { "wmUplineSo": "SOLWAY", "wmType": "Underground" }, "geometry": { "type": "LineString", "coordinates": [ [ -92.369543118786197, 46.783046832383498 ], [ -92.369744087840203, 46.782794511960802 ] ] } },
{ "type": "Feature", "properties": { "wmUplineSo": "SOLWAY", "wmType": "Underground" }, "geometry": { "type": "LineString", "coordinates": [ [ -92.369744087840203, 46.782794511960802 ], [ -92.369358136663195, 46.782220034291598 ] ] } },
{ "type": "Feature", "properties": { "wmUplineSo": "SOLWAY", "wmType": "Underground" }, "geometry": { "type": "LineString", "coordinates": [ [ -92.375148000040099, 46.783583300826301 ], [ -92.375359409165895, 46.783790865567902 ], [ -92.375763322928194, 46.783974595851703 ] ] } },
{ "type": "Feature", "properties": { "wmUplineSo": "SOLWAY", "wmType": "Underground" }, "geometry": { "type": "LineString", "coordinates": [ [ -92.343247857551404, 46.790838393422597 ], [ -92.342710230682798, 46.790153660177602 ], [ -92.342675946254303, 46.790052090122003 ], [ -92.342507642091803, 46.790048748116703 ], [ -92.342430530479007, 46.790117524201399 ], [ -92.341381127527399, 46.790119838639299 ], [ -92.341156875981397, 46.789974341563102 ], [ -92.340273704566798, 46.790316586957204 ] ] } },
{ "type": "Feature", "properties": { "wmUplineSo": "SOLWAY", "wmType": "Underground" }, "geometry": { "type": "LineString", "coordinates": [ [ -92.350046999758106, 46.786252378085102 ], [ -92.350281635700597, 46.784901299418102 ] ] } },
{ "type": "Feature", "properties": { "wmUplineSo": "SOLWAY", "wmType": "Underground" }, "geometry": { "type": "LineString", "coordinates": [ [ -92.364931606840003, 46.812667293941203 ], [ -92.365552874518301, 46.812255728424397 ] ] } },
{ "type": "Feature", "properties": { "wmUplineSo": "SOLWAY", "wmType": "Underground" }, "geometry": { "type": "LineString", "coordinates": [ [ -92.396030327686603, 46.8164882036533 ], [ -92.396429575616395, 46.816432803751098 ], [ -92.397183953739599, 46.816466542748501 ], [ -92.397847073432402, 46.816496194952997 ], [ -92.398324945884298, 46.816610220686698 ], [ -92.398672331019398, 46.8167627587545 ], [ -92.398962235195498, 46.816754447368901 ], [ -92.399286250423998, 46.816668880115998 ], [ -92.399429215420199, 46.816723043219497 ] ] } },
{ "type": "Feature", "properties": { "wmUplineSo": "SOLWAY", "wmType": "Underground" }, "geometry": { "type": "LineString", "coordinates": [ [ -92.348648645877006, 46.843315386168001 ], [ -92.348631211410193, 46.842977966487403 ], [ -92.348608825788801, 46.842544740126897 ], [ -92.3486513011688, 46.841902683743101 ], [ -92.348691626361799, 46.841293107812902 ], [ -92.348647025574195, 46.8408550941746 ], [ -92.348674018587502, 46.840418068999099 ], [ -92.348707944604698, 46.839868814093499 ], [ -92.348661740506799, 46.839599114747998 ], [ -92.348690227005605, 46.839286532744197 ], [ -92.348751539993998, 46.8386137278776 ], [ -92.348597519595501, 46.838426117387499 ], [ -92.348289598022603, 46.838200299192799 ], [ -92.347911516638703, 46.837923021947098 ], [ -92.347397606418298, 46.837451119204601 ], [ -92.347338000440402, 46.837149123609301 ], [ -92.347405161091601, 46.836901394723903 ], [ -92.347503314627502, 46.8365393467122 ], [ -92.347430586949997, 46.836175372375202 ], [ -92.347121700957402, 46.835977628161501 ], [ -92.346704477051105, 46.835710525475697 ] ] } },
{ "type": "Feature", "properties": { "wmUplineSo": "SOLWAY", "wmType": "Underground" }, "geometry": { "type": "LineString", "coordinates": [ [ -92.363052999962207, 46.814534003509998 ], [ -92.362978999962294, 46.814611003510102 ] ] } },
{ "type": "Feature", "properties": { "wmUplineSo": "SOLWAY", "wmType": "Underground" }, "geometry": { "type": "LineString", "coordinates": [ [ -92.379646611137005, 46.807609179029797 ], [ -92.379588027696201, 46.807332313153999 ], [ -92.379663935743807, 46.805932750195304 ], [ -92.3781658641322, 46.805508202956503 ] ] } },
{ "type": "Feature", "properties": { "wmUplineSo": "SOLWAY", "wmType": "Underground" }, "geometry": { "type": "LineString", "coordinates": [ [ -92.365789505842898, 46.793891157804701 ], [ -92.365571985968998, 46.793691369853398 ], [ -92.365571985968998, 46.793691369853398 ] ] } },
{ "type": "Feature", "properties": { "wmUplineSo": "SOLWAY", "wmType": "Underground" }, "geometry": { "type": "LineString", "coordinates": [ [ -92.379776255322696, 46.808171779973101 ], [ -92.379707401016404, 46.8078964745241 ], [ -92.379646611137005, 46.807609179029797 ] ] } },
{ "type": "Feature", "properties": { "wmUplineSo": "SOLWAY", "wmType": "Underground" }, "geometry": { "type": "LineString", "coordinates": [ [ -92.385577813896404, 46.798068980856698 ], [ -92.385078182565707, 46.797987490366097 ], [ -92.384925957648605, 46.798068416644902 ] ] } },
{ "type": "Feature", "properties": { "wmUplineSo": "SOLWAY", "wmType": "Underground" }, "geometry": { "type": "LineString", "coordinates": [ [ -92.355438980586896, 46.827164577535598 ], [ -92.354910694990494, 46.827268251324298 ] ] } },
{ "type": "Feature", "properties": { "wmUplineSo": "SOLWAY", "wmType": "Underground" }, "geometry": { "type": "LineString", "coordinates": [ [ -92.370873313254506, 46.794385007588801 ], [ -92.370960983409304, 46.794530960853201 ], [ -92.371345406839694, 46.794691981344599 ], [ -92.371570667227502, 46.795195622918001 ], [ -92.372139932456605, 46.7957762939457 ], [ -92.372363733611294, 46.796071589132502 ], [ -92.372368255560104, 46.7966906742706 ] ] } },
{ "type": "Feature", "properties": { "wmUplineSo": "SOLWAY", "wmType": "Underground" }, "geometry": { "type": "LineString", "coordinates": [ [ -92.370650615796606, 46.794352290227501 ], [ -92.370873313254506, 46.794385007588801 ] ] } },
{ "type": "Feature", "properties": { "wmUplineSo": "SOLWAY", "wmType": "Underground" }, "geometry": { "type": "LineString", "coordinates": [ [ -92.324100938351805, 46.844042752705498 ], [ -92.324380010234407, 46.843953231 ] ] } },
{ "type": "Feature", "properties": { "wmUplineSo": "SOLWAY", "wmType": "Underground" }, "geometry": { "type": "LineString", "coordinates": [ [ -92.329304, 46.793517999999899 ], [ -92.328964, 46.79348 ] ] } },
{ "type": "Feature", "properties": { "wmUplineSo": "SOLWAY", "wmType": "Underground" }, "geometry": { "type": "LineString", "coordinates": [ [ -92.328964, 46.79348 ], [ -92.328592, 46.79362 ] ] } },
{ "type": "Feature", "properties": { "wmUplineSo": "SOLWAY", "wmType": "Underground" }, "geometry": { "type": "LineString", "coordinates": [ [ -92.328592, 46.79362 ], [ -92.32828, 46.7936720000001 ] ] } },
{ "type": "Feature", "properties": { "wmUplineSo": "SOLWAY", "wmType": "Underground" }, "geometry": { "type": "LineString", "coordinates": [ [ -92.32828, 46.7936720000001 ], [ -92.327995, 46.7936610000001 ] ] } },
{ "type": "Feature", "properties": { "wmUplineSo": "SOLWAY", "wmType": "Underground" }, "geometry": { "type": "LineString", "coordinates": [ [ -92.327995, 46.7936610000001 ], [ -92.327968, 46.793658 ] ] } },
{ "type": "Feature", "properties": { "wmUplineSo": "SOLWAY", "wmType": "Underground" }, "geometry": { "type": "LineString", "coordinates": [ [ -92.406276999964803, 46.811415003509097 ], [ -92.406359999964806, 46.8113970035092 ] ] } },
{ "type": "Feature", "properties": { "wmUplineSo": "SOLWAY", "wmType": "Underground" }, "geometry": { "type": "LineString", "coordinates": [ [ -92.370766341815298, 46.803217719055198 ], [ -92.370748689817304, 46.803202703094399 ] ] } },
{ "type": "Feature", "properties": { "wmUplineSo": "SOLWAY", "wmType": "Underground" }, "geometry": { "type": "LineString", "coordinates": [ [ -92.364771135817406, 46.7871210033951 ], [ -92.364933999962503, 46.7871430035025 ] ] } },
{ "type": "Feature", "properties": { "wmUplineSo": "SOLWAY", "wmType": "Underground" }, "geometry": { "type": "LineString", "coordinates": [ [ -92.367632514779501, 46.7880986083428 ], [ -92.367650799999893, 46.788094300008503 ] ] } },
{ "type": "Feature", "properties": { "wmUplineSo": "SOLWAY", "wmType": "Underground" }, "geometry": { "type": "LineString", "coordinates": [ [ -92.368655825940607, 46.804771123804301 ], [ -92.369678801284394, 46.805221331312602 ] ] } },
{ "type": "Feature", "properties": { "wmUplineSo": "SOLWAY", "wmType": "Underground" }, "geometry": { "type": "LineString", "coordinates": [ [ -92.369678801284394, 46.805221331312602 ], [ -92.370324915406101, 46.805468657633902 ] ] } },
{ "type": "Feature", "properties": { "wmUplineSo": "SOLWAY", "wmType": "Underground" }, "geometry": { "type": "LineString", "coordinates": [ [ -92.370324915406101, 46.805468657633902 ], [ -92.370754987085107, 46.805685478028401 ] ] } },
{ "type": "Feature", "properties": { "wmUplineSo": "SOLWAY", "wmType": "Underground" }, "geometry": { "type": "LineString", "coordinates": [ [ -92.370754987085107, 46.805685478028401 ], [ -92.371034685729896, 46.805574614415399 ] ] } },
{ "type": "Feature", "properties": { "wmUplineSo": "SOLWAY", "wmType": "Underground" }, "geometry": { "type": "LineString", "coordinates": [ [ -92.371034685729896, 46.805574614415399 ], [ -92.371482954583996, 46.805492023620403 ] ] } },
{ "type": "Feature", "properties": { "wmUplineSo": "SOLWAY", "wmType": "Underground" }, "geometry": { "type": "LineString", "coordinates": [ [ -92.371482954583996, 46.805492023620403 ], [ -92.371921999962794, 46.805623003507698 ] ] } },
{ "type": "Feature", "properties": { "wmUplineSo": "SOLWAY", "wmType": "Underground" }, "geometry": { "type": "LineString", "coordinates": [ [ -92.371921999962794, 46.805623003507698 ], [ -92.372013770153202, 46.805761119811201 ] ] } },
{ "type": "Feature", "properties": { "wmUplineSo": "SOLWAY", "wmType": "Underground" }, "geometry": { "type": "LineString", "coordinates": [ [ -92.372013770153202, 46.805761119811201 ], [ -92.371967199999901, 46.805886600008499 ] ] } },
{ "type": "Feature", "properties": { "wmUplineSo": "SOLWAY", "wmType": "Underground" }, "geometry": { "type": "LineString", "coordinates": [ [ -92.332607922730205, 46.8016908225677 ], [ -92.331687025243994, 46.801580466862099 ] ] } },
{ "type": "Feature", "properties": { "wmUplineSo": "SOLWAY", "wmType": "Underground" }, "geometry": { "type": "LineString", "coordinates": [ [ -92.368478250848497, 46.788656494104501 ], [ -92.368608123716299, 46.788716410218001 ] ] } },
{ "type": "Feature", "properties": { "wmUplineSo": "SOLWAY", "wmType": "Underground" }, "geometry": { "type": "LineString", "coordinates": [ [ -92.368608123716299, 46.788716410218001 ], [ -92.368714052776198, 46.788747478293402 ] ] } },
{ "type": "Feature", "properties": { "wmUplineSo": "SOLWAY", "wmType": "Underground" }, "geometry": { "type": "LineString", "coordinates": [ [ -92.365518999962504, 46.787089003502501 ], [ -92.365572099999895, 46.7871304000085 ] ] } },
{ "type": "Feature", "properties": { "wmUplineSo": "SOLWAY", "wmType": "Underground" }, "geometry": { "type": "LineString", "coordinates": [ [ -92.369158950006593, 46.788815057553698 ], [ -92.369138838777602, 46.788829004533603 ] ] } },
{ "type": "Feature", "properties": { "wmUplineSo": "SOLWAY", "wmType": "Underground" }, "geometry": { "type": "LineString", "coordinates": [ [ -92.362978999962294, 46.814611003510102 ], [ -92.362999999962199, 46.814638003510098 ] ] } },
{ "type": "Feature", "properties": { "wmUplineSo": "SOLWAY", "wmType": "Underground" }, "geometry": { "type": "LineString", "coordinates": [ [ -92.371921999962794, 46.805623003507698 ], [ -92.371983999962794, 46.805773003507802 ] ] } },
{ "type": "Feature", "properties": { "wmUplineSo": "SOLWAY", "wmType": "Underground" }, "geometry": { "type": "LineString", "coordinates": [ [ -92.371983999962794, 46.805773003507802 ], [ -92.371980599999901, 46.805747100008503 ] ] } },
{ "type": "Feature", "properties": { "wmUplineSo": "SOLWAY", "wmType": "Underground" }, "geometry": { "type": "LineString", "coordinates": [ [ -92.338921999960903, 46.785866003502299 ], [ -92.338872199999898, 46.785857300008502 ] ] } },
{ "type": "Feature", "properties": { "wmUplineSo": "SOLWAY", "wmType": "Underground" }, "geometry": { "type": "LineString", "coordinates": [ [ -92.3388609999609, 46.7862820035025 ], [ -92.338921999960903, 46.785866003502299 ] ] } },
{ "type": "Feature", "properties": { "wmUplineSo": "SOLWAY", "wmType": "Underground" }, "geometry": { "type": "LineString", "coordinates": [ [ -92.364182, 46.832974 ], [ -92.364014, 46.832903 ] ] } },
{ "type": "Feature", "properties": { "wmUplineSo": "SOLWAY", "wmType": "Underground" }, "geometry": { "type": "LineString", "coordinates": [ [ -92.36301, 46.832771 ], [ -92.362587, 46.832935 ] ] } },
{ "type": "Feature", "properties": { "wmUplineSo": "SOLWAY", "wmType": "Underground" }, "geometry": { "type": "LineString", "coordinates": [ [ -92.362587, 46.832935 ], [ -92.36225, 46.832802 ] ] } },
{ "type": "Feature", "properties": { "wmUplineSo": "SOLWAY", "wmType": "Underground" }, "geometry": { "type": "LineString", "coordinates": [ [ -92.364014, 46.832903 ], [ -92.363751, 46.832771999999899 ] ] } },
{ "type": "Feature", "properties": { "wmUplineSo": "SOLWAY", "wmType": "Underground" }, "geometry": { "type": "LineString", "coordinates": [ [ -92.330874520015996, 46.801611682125298 ], [ -92.330848064161998, 46.801611825037298 ] ] } },
{ "type": "Feature", "properties": { "wmUplineSo": "SOLWAY", "wmType": "Underground" }, "geometry": { "type": "LineString", "coordinates": [ [ -92.331687025243994, 46.801580466862099 ], [ -92.331040743414107, 46.801559726203202 ] ] } },
{ "type": "Feature", "properties": { "wmUplineSo": "SOLWAY", "wmType": "Underground" }, "geometry": { "type": "LineString", "coordinates": [ [ -92.363751, 46.832771999999899 ], [ -92.36353, 46.832711 ] ] } },
{ "type": "Feature", "properties": { "wmUplineSo": "SOLWAY", "wmType": "Underground" }, "geometry": { "type": "LineString", "coordinates": [ [ -92.331040743414107, 46.801559726203202 ], [ -92.330874520015996, 46.801611682125298 ] ] } },
{ "type": "Feature", "properties": { "wmUplineSo": "SOLWAY", "wmType": "Underground" }, "geometry": { "type": "LineString", "coordinates": [ [ -92.36353, 46.832711 ], [ -92.363314, 46.832698 ] ] } },
{ "type": "Feature", "properties": { "wmUplineSo": "SOLWAY", "wmType": "Underground" }, "geometry": { "type": "LineString", "coordinates": [ [ -92.332917383424899, 46.801777351911198 ], [ -92.332607922730205, 46.8016908225677 ] ] } },
{ "type": "Feature", "properties": { "wmUplineSo": "SOLWAY", "wmType": "Underground" }, "geometry": { "type": "LineString", "coordinates": [ [ -92.36225, 46.832802 ], [ -92.362235, 46.832796000000101 ] ] } },
{ "type": "Feature", "properties": { "wmUplineSo": "SOLWAY", "wmType": "Underground" }, "geometry": { "type": "LineString", "coordinates": [ [ -92.363314, 46.832698 ], [ -92.36301, 46.832771 ] ] } },
{ "type": "Feature", "properties": { "wmUplineSo": "SOLWAY", "wmType": "Underground" }, "geometry": { "type": "LineString", "coordinates": [ [ -92.364544779103198, 46.833008999858102 ], [ -92.364182, 46.832974 ] ] } },
{ "type": "Feature", "properties": { "wmUplineSo": "SOLWAY", "wmType": "Underground" }, "geometry": { "type": "LineString", "coordinates": [ [ -92.330874520015996, 46.801611682125298 ], [ -92.330848064161998, 46.801611825037298 ] ] } },
{ "type": "Feature", "properties": { "wmUplineSo": "SOLWAY", "wmType": "Underground" }, "geometry": { "type": "LineString", "coordinates": [ [ -92.397760003082595, 46.808074292486097 ], [ -92.397473, 46.807377000000102 ] ] } },
{ "type": "Feature", "properties": { "wmUplineSo": "SOLWAY", "wmType": "Underground" }, "geometry": { "type": "LineString", "coordinates": [ [ -92.397473, 46.807377000000102 ], [ -92.397471, 46.807352 ] ] } },
{ "type": "Feature", "properties": { "wmUplineSo": "SOLWAY", "wmType": "Underground" }, "geometry": { "type": "LineString", "coordinates": [ [ -92.331342794532603, 46.793631531768298 ], [ -92.331215, 46.793519 ] ] } },
{ "type": "Feature", "properties": { "wmUplineSo": "SOLWAY", "wmType": "Underground" }, "geometry": { "type": "LineString", "coordinates": [ [ -92.331215, 46.793519 ], [ -92.330917, 46.793526 ] ] } },
{ "type": "Feature", "properties": { "wmUplineSo": "SOLWAY", "wmType": "Underground" }, "geometry": { "type": "LineString", "coordinates": [ [ -92.330917, 46.793526 ], [ -92.330767, 46.793574 ] ] } },
{ "type": "Feature", "properties": { "wmUplineSo": "SOLWAY", "wmType": "Underground" }, "geometry": { "type": "LineString", "coordinates": [ [ -92.330767, 46.793574 ], [ -92.330412, 46.793544 ] ] } },
{ "type": "Feature", "properties": { "wmUplineSo": "SOLWAY", "wmType": "Underground" }, "geometry": { "type": "LineString", "coordinates": [ [ -92.340273704566798, 46.790316586957204 ], [ -92.340194031026002, 46.790275265681402 ] ] } },
{ "type": "Feature", "properties": { "wmUplineSo": "SOLWAY", "wmType": "Underground" }, "geometry": { "type": "LineString", "coordinates": [ [ -92.369678801284394, 46.805221331312602 ], [ -92.370109338350602, 46.805298870743499 ] ] } },
{ "type": "Feature", "properties": { "wmUplineSo": "SOLWAY", "wmType": "Underground" }, "geometry": { "type": "LineString", "coordinates": [ [ -92.370109338350602, 46.805298870743499 ], [ -92.370125837274003, 46.805318281487402 ] ] } },
{ "type": "Feature", "properties": { "wmUplineSo": "SOLWAY", "wmType": "Underground" }, "geometry": { "type": "LineString", "coordinates": [ [ -92.370109338350602, 46.805298870743499 ], [ -92.3699965227554, 46.805224221997896 ] ] } },
{ "type": "Feature", "properties": { "wmUplineSo": "SOLWAY", "wmType": "Underground" }, "geometry": { "type": "LineString", "coordinates": [ [ -92.3699965227554, 46.805224221997896 ], [ -92.369614552258696, 46.8047175885836 ] ] } },
{ "type": "Feature", "properties": { "wmUplineSo": "SOLWAY", "wmType": "Underground" }, "geometry": { "type": "LineString", "coordinates": [ [ -92.369614552258696, 46.8047175885836 ], [ -92.370015358834806, 46.804463677598299 ] ] } },
{ "type": "Feature", "properties": { "wmUplineSo": "SOLWAY", "wmType": "Underground" }, "geometry": { "type": "LineString", "coordinates": [ [ -92.370015358834806, 46.804463677598299 ], [ -92.370441906340702, 46.804231549021502 ] ] } },
{ "type": "Feature", "properties": { "wmUplineSo": "SOLWAY", "wmType": "Underground" }, "geometry": { "type": "LineString", "coordinates": [ [ -92.370441906340702, 46.804231549021502 ], [ -92.371013747058498, 46.803640118692996 ] ] } },
{ "type": "Feature", "properties": { "wmUplineSo": "SOLWAY", "wmType": "Underground" }, "geometry": { "type": "LineString", "coordinates": [ [ -92.371013747058498, 46.803640118692996 ], [ -92.370937708798905, 46.803330357727297 ] ] } },
{ "type": "Feature", "properties": { "wmUplineSo": "SOLWAY", "wmType": "Underground" }, "geometry": { "type": "LineString", "coordinates": [ [ -92.370937708798905, 46.803330357727297 ], [ -92.370766341815298, 46.803217719055198 ] ] } },
{ "type": "Feature", "properties": { "wmUplineSo": "SOLWAY", "wmType": "Underground" }, "geometry": { "type": "LineString", "coordinates": [ [ -92.385658270574993, 46.803691999896799 ], [ -92.385608252846495, 46.804462999876897 ] ] } },
{ "type": "Feature", "properties": { "wmUplineSo": "SOLWAY", "wmType": "Underground" }, "geometry": { "type": "LineString", "coordinates": [ [ -92.385608252846495, 46.804462999876897 ], [ -92.3855940560818, 46.805019258823997 ] ] } },
{ "type": "Feature", "properties": { "wmUplineSo": "SOLWAY", "wmType": "Underground" }, "geometry": { "type": "LineString", "coordinates": [ [ -92.3855940560818, 46.805019258823997 ], [ -92.385614392133704, 46.805016744850903 ] ] } },
{ "type": "Feature", "properties": { "wmUplineSo": "SOLWAY", "wmType": "Underground" }, "geometry": { "type": "LineString", "coordinates": [ [ -92.361409921461004, 46.797695935578602 ], [ -92.361412179654195, 46.797690242708001 ], [ -92.361349421352799, 46.797671931189498 ], [ -92.361311852878103, 46.797667220575597 ], [ -92.361266079021107, 46.797663589408302 ], [ -92.361230926104795, 46.7976611427516 ], [ -92.361174522051101, 46.797659723944101 ], [ -92.361135268705894, 46.797658931585197 ], [ -92.361060835542901, 46.797657964079498 ], [ -92.361022439271395, 46.7976526755292 ] ] } },
{ "type": "Feature", "properties": { "wmUplineSo": "SOLWAY", "wmType": "Underground" }, "geometry": { "type": "LineString", "coordinates": [ [ -92.3610031371947, 46.797597076275402 ], [ -92.360984807253999, 46.797596909516699 ] ] } },
{ "type": "Feature", "properties": { "wmUplineSo": "SOLWAY", "wmType": "Underground" }, "geometry": { "type": "LineString", "coordinates": [ [ -92.361022439271395, 46.7976526755292 ], [ -92.360070468621501, 46.797844313047896 ] ] } },
{ "type": "Feature", "properties": { "wmUplineSo": "SOLWAY", "wmType": "Underground" }, "geometry": { "type": "LineString", "coordinates": [ [ -92.361022439271395, 46.7976526755292 ], [ -92.361011413447997, 46.797617795290797 ], [ -92.3610031371947, 46.797597076275402 ] ] } },
{ "type": "Feature", "properties": { "wmUplineSo": "SOLWAY", "wmType": "Underground" }, "geometry": { "type": "LineString", "coordinates": [ [ -92.368714052776198, 46.788747478293402 ], [ -92.368839834541205, 46.788736193708601 ] ] } },
{ "type": "Feature", "properties": { "wmUplineSo": "SOLWAY", "wmType": "Underground" }, "geometry": { "type": "LineString", "coordinates": [ [ -92.363540999962296, 46.8141900035099 ], [ -92.363441999962305, 46.814324003510102 ] ] } },
{ "type": "Feature", "properties": { "wmUplineSo": "SOLWAY", "wmType": "Underground" }, "geometry": { "type": "LineString", "coordinates": [ [ -92.363441999962305, 46.814324003510102 ], [ -92.363329999962303, 46.814447003509898 ] ] } },
{ "type": "Feature", "properties": { "wmUplineSo": "SOLWAY", "wmType": "Underground" }, "geometry": { "type": "LineString", "coordinates": [ [ -92.363329999962303, 46.814447003509898 ], [ -92.363052999962207, 46.814534003509998 ] ] } },
{ "type": "Feature", "properties": { "wmUplineSo": "SOLWAY", "wmType": "Underground" }, "geometry": { "type": "LineString", "coordinates": [ [ -92.364580333407304, 46.814067919759097 ], [ -92.363540999962296, 46.8141900035099 ] ] } },
{ "type": "Feature", "properties": { "wmUplineSo": "SOLWAY", "wmType": "Underground" }, "geometry": { "type": "LineString", "coordinates": [ [ -92.363540999962296, 46.8141900035099 ], [ -92.363504999962302, 46.814115003509798 ] ] } },
{ "type": "Feature", "properties": { "wmUplineSo": "SOLWAY", "wmType": "Underground" }, "geometry": { "type": "LineString", "coordinates": [ [ -92.363504999962302, 46.814115003509798 ], [ -92.363259999962196, 46.814033003509799 ] ] } },
{ "type": "Feature", "properties": { "wmUplineSo": "SOLWAY", "wmType": "Underground" }, "geometry": { "type": "LineString", "coordinates": [ [ -92.363259999962196, 46.814033003509799 ], [ -92.363067999962297, 46.814031003509797 ] ] } },
{ "type": "Feature", "properties": { "wmUplineSo": "SOLWAY", "wmType": "Underground" }, "geometry": { "type": "LineString", "coordinates": [ [ -92.363067999962297, 46.814031003509797 ], [ -92.363033999962298, 46.814028003510003 ] ] } },
{ "type": "Feature", "properties": { "wmUplineSo": "SOLWAY", "wmType": "Underground" }, "geometry": { "type": "LineString", "coordinates": [ [ -92.3549270000468, 46.822401427949103 ], [ -92.354930598390695, 46.8224282006625 ] ] } },
{ "type": "Feature", "properties": { "wmUplineSo": "SOLWAY", "wmType": "Underground" }, "geometry": { "type": "LineString", "coordinates": [ [ -92.354954540792704, 46.822606338360202 ], [ -92.3549751094681, 46.822794694885303 ] ] } },
{ "type": "Feature", "properties": { "wmUplineSo": "SOLWAY", "wmType": "Underground" }, "geometry": { "type": "LineString", "coordinates": [ [ -92.3549751094681, 46.822794694885303 ], [ -92.355016799999902, 46.8228257000086 ] ] } },
{ "type": "Feature", "properties": { "wmUplineSo": "SOLWAY", "wmType": "Underground" }, "geometry": { "type": "LineString", "coordinates": [ [ -92.354930598390695, 46.8224282006625 ], [ -92.354954540792704, 46.822606338360202 ] ] } },
{ "type": "Feature", "properties": { "wmUplineSo": "SOLWAY", "wmType": "Underground" }, "geometry": { "type": "LineString", "coordinates": [ [ -92.338216119595003, 46.843380882959899 ], [ -92.338181999960597, 46.843292553269002 ] ] } },
{ "type": "Feature", "properties": { "wmUplineSo": "SOLWAY", "wmType": "Underground" }, "geometry": { "type": "LineString", "coordinates": [ [ -92.338181999960597, 46.843292553269002 ], [ -92.338260371189904, 46.842934024774998 ] ] } },
{ "type": "Feature", "properties": { "wmUplineSo": "SOLWAY", "wmType": "Underground" }, "geometry": { "type": "LineString", "coordinates": [ [ -92.338260371189904, 46.842934024774998 ], [ -92.338284987480904, 46.842602600866698 ] ] } },
{ "type": "Feature", "properties": { "wmUplineSo": "SOLWAY", "wmType": "Underground" }, "geometry": { "type": "LineString", "coordinates": [ [ -92.338284987480904, 46.842602600866698 ], [ -92.338264099999904, 46.842522800008602 ] ] } },
{ "type": "Feature", "properties": { "wmUplineSo": "SOLWAY", "wmType": "Underground" }, "geometry": { "type": "LineString", "coordinates": [ [ -92.353743783128394, 46.8342539863458 ], [ -92.353803302450899, 46.834248115534599 ] ] } },
{ "type": "Feature", "properties": { "wmUplineSo": "SOLWAY", "wmType": "Underground" }, "geometry": { "type": "LineString", "coordinates": [ [ -92.323342979692299, 46.845306327304598 ], [ -92.323124527284804, 46.845106715873598 ], [ -92.323109294340995, 46.844711897785999 ], [ -92.323327717624196, 46.844324327336501 ], [ -92.324100938351805, 46.844042752705498 ] ] } },
{ "type": "Feature", "properties": { "wmUplineSo": "SOLWAY", "wmType": "Underground" }, "geometry": { "type": "LineString", "coordinates": [ [ -92.364904310914, 46.814508678046103 ], [ -92.366046407754695, 46.814521784456602 ], [ -92.366051200196694, 46.814713755001002 ] ] } },
{ "type": "Feature", "properties": { "wmUplineSo": "SOLWAY", "wmType": "Underground" }, "geometry": { "type": "LineString", "coordinates": [ [ -92.366051200196694, 46.814713755001002 ], [ -92.365962599999904, 46.814738100008498 ] ] } },
{ "type": "Feature", "properties": { "wmUplineSo": "SOLWAY", "wmType": "Underground" }, "geometry": { "type": "LineString", "coordinates": [ [ -92.354471039585604, 46.816237546206303 ], [ -92.354676164963394, 46.816241487006501 ], [ -92.355223431090195, 46.816234232596699 ], [ -92.355998510300907, 46.816238596299797 ], [ -92.356661297544505, 46.816221880180102 ], [ -92.357463358818194, 46.816249546217001 ], [ -92.357792311778596, 46.816191604968097 ], [ -92.358344170837199, 46.816128955946098 ], [ -92.358467288918504, 46.816289040629897 ], [ -92.3587157246739, 46.816524503114799 ], [ -92.358843066980697, 46.816695445193297 ], [ -92.358843801809101, 46.816696522460703 ] ] } },
{ "type": "Feature", "properties": { "wmUplineSo": "SOLWAY", "wmType": "Underground" }, "geometry": { "type": "LineString", "coordinates": [ [ -92.358843801809101, 46.816696522460703 ], [ -92.358570699999902, 46.816883500008601 ] ] } },
{ "type": "Feature", "properties": { "wmUplineSo": "SOLWAY", "wmType": "Underground" }, "geometry": { "type": "LineString", "coordinates": [ [ -92.406818999964798, 46.811520003509202 ], [ -92.406821999964805, 46.811395003509197 ] ] } },
{ "type": "Feature", "properties": { "wmUplineSo": "SOLWAY", "wmType": "Underground" }, "geometry": { "type": "LineString", "coordinates": [ [ -92.406821999964805, 46.811395003509197 ], [ -92.408029436472006, 46.810784226008202 ] ] } },
{ "type": "Feature", "properties": { "wmUplineSo": "SOLWAY", "wmType": "Underground" }, "geometry": { "type": "LineString", "coordinates": [ [ -92.364857262964307, 46.803603084454402 ], [ -92.365148964666403, 46.803779597258902 ] ] } },
{ "type": "Feature", "properties": { "wmUplineSo": "SOLWAY", "wmType": "Underground" }, "geometry": { "type": "LineString", "coordinates": [ [ -92.366905157348498, 46.788678031806697 ], [ -92.366986, 46.788613 ] ] } },
{ "type": "Feature", "properties": { "wmUplineSo": "SOLWAY", "wmType": "Underground" }, "geometry": { "type": "LineString", "coordinates": [ [ -92.366986, 46.788613 ], [ -92.367047556653205, 46.788686602561498 ] ] } },
{ "type": "Feature", "properties": { "wmUplineSo": "SOLWAY", "wmType": "Underground" }, "geometry": { "type": "LineString", "coordinates": [ [ -92.339137457914404, 46.786353930937999 ], [ -92.339017832403499, 46.786357371555702 ] ] } },
{ "type": "Feature", "properties": { "wmUplineSo": "SOLWAY", "wmType": "Underground" }, "geometry": { "type": "LineString", "coordinates": [ [ -92.367047556653205, 46.788686602561498 ], [ -92.367334258149, 46.7886383921633 ] ] } },
{ "type": "Feature", "properties": { "wmUplineSo": "SOLWAY", "wmType": "Underground" }, "geometry": { "type": "LineString", "coordinates": [ [ -92.364933999962503, 46.7871430035025 ], [ -92.365141999962503, 46.787147003502596 ] ] } },
{ "type": "Feature", "properties": { "wmUplineSo": "SOLWAY", "wmType": "Underground" }, "geometry": { "type": "LineString", "coordinates": [ [ -92.365141999962503, 46.787147003502596 ], [ -92.365518999962504, 46.787089003502501 ] ] } }
]
}
