{
"type": "FeatureCollection",
"crs": { "type": "name", "properties": { "name": "urn:ogc:def:crs:OGC:1.3:CRS84" } },
"features": [
{ "type": "Feature", "properties": { "wmUplineSo": "SOLWAY", "wmType": "Overhead" }, "geometry": { "type": "LineString", "coordinates": [ [ -92.292219797805899, 46.863654022629198 ], [ -92.292191132469696, 46.863755919455699 ] ] } },
{ "type": "Feature", "properties": { "wmUplineSo": "SOLWAY", "wmType": "Overhead" }, "geometry": { "type": "LineString", "coordinates": [ [ -92.294158098173696, 46.862482366668402 ], [ -92.294149766854403, 46.862869322671401 ] ] } },
{ "type": "Feature", "properties": { "wmUplineSo": "SOLWAY", "wmType": "Overhead" }, "geometry": { "type": "LineString", "coordinates": [ [ -92.294149766854403, 46.862869322671401 ], [ -92.294140225408199, 46.863127848895999 ] ] } },
{ "type": "Feature", "properties": { "wmUplineSo": "SOLWAY", "wmType": "Overhead" }, "geometry": { "type": "LineString", "coordinates": [ [ -92.300123469284998, 46.861740615292497 ], [ -92.300323864605502, 46.861882693288699 ] ] } },
{ "type": "Feature", "properties": { "wmUplineSo": "SOLWAY", "wmType": "Overhead" }, "geometry": { "type": "LineString", "coordinates": [ [ -92.290146678824698, 46.858231123850501 ], [ -92.290334027155396, 46.858512693486901 ] ] } },
{ "type": "Feature", "properties": { "wmUplineSo": "SOLWAY", "wmType": "Overhead" }, "geometry": { "type": "LineString", "coordinates": [ [ -92.287764141747104, 46.8608007530935 ], [ -92.287739717755699, 46.861783268378197 ] ] } },
{ "type": "Feature", "properties": { "wmUplineSo": "SOLWAY", "wmType": "Overhead" }, "geometry": { "type": "LineString", "coordinates": [ [ -92.292219797805899, 46.863654022629198 ], [ -92.291594297626901, 46.863511900449701 ] ] } },
{ "type": "Feature", "properties": { "wmUplineSo": "SOLWAY", "wmType": "Overhead" }, "geometry": { "type": "LineString", "coordinates": [ [ -92.303132215110395, 46.8613326147061 ], [ -92.303049038179196, 46.861370651882098 ] ] } },
{ "type": "Feature", "properties": { "wmUplineSo": "SOLWAY", "wmType": "Overhead" }, "geometry": { "type": "LineString", "coordinates": [ [ -92.295885600705105, 46.862018630566503 ], [ -92.295788809885494, 46.862035783067299 ] ] } },
{ "type": "Feature", "properties": { "wmUplineSo": "SOLWAY", "wmType": "Overhead" }, "geometry": { "type": "LineString", "coordinates": [ [ -92.300323864605502, 46.861882693288699 ], [ -92.300377562303396, 46.861940531409303 ] ] } },
{ "type": "Feature", "properties": { "wmUplineSo": "SOLWAY", "wmType": "Overhead" }, "geometry": { "type": "LineString", "coordinates": [ [ -92.292627099349602, 46.859521604420898 ], [ -92.292573412399193, 46.859463762698603 ] ] } },
{ "type": "Feature", "properties": { "wmUplineSo": "SOLWAY", "wmType": "Overhead" }, "geometry": { "type": "LineString", "coordinates": [ [ -92.293462104160398, 46.862471841538898 ], [ -92.293381313476104, 46.862512227591601 ] ] } },
{ "type": "Feature", "properties": { "wmUplineSo": "SOLWAY", "wmType": "Overhead" }, "geometry": { "type": "LineString", "coordinates": [ [ -92.303132215110395, 46.8613326147061 ], [ -92.3032129967809, 46.861292221714201 ] ] } },
{ "type": "Feature", "properties": { "wmUplineSo": "SOLWAY", "wmType": "Overhead" }, "geometry": { "type": "LineString", "coordinates": [ [ -92.322809374034705, 46.850985921265597 ], [ -92.322805049874702, 46.851721620278802 ], [ -92.322801032958793, 46.852405010699798 ], [ -92.322804113276206, 46.853134957152797 ] ] } },
{ "type": "Feature", "properties": { "wmUplineSo": "SOLWAY", "wmType": "Overhead" }, "geometry": { "type": "LineString", "coordinates": [ [ -92.322813730508997, 46.850639330179099 ], [ -92.322809374034705, 46.850985921265597 ] ] } },
{ "type": "Feature", "properties": { "wmUplineSo": "SOLWAY", "wmType": "Overhead" }, "geometry": { "type": "LineString", "coordinates": [ [ -92.301527228983403, 46.861730875767698 ], [ -92.300936460289293, 46.861720596433003 ] ] } },
{ "type": "Feature", "properties": { "wmUplineSo": "SOLWAY", "wmType": "Overhead" }, "geometry": { "type": "LineString", "coordinates": [ [ -92.293443417656306, 46.863198423393897 ], [ -92.293659890090396, 46.8634784010478 ] ] } },
{ "type": "Feature", "properties": { "wmUplineSo": "SOLWAY", "wmType": "Overhead" }, "geometry": { "type": "LineString", "coordinates": [ [ -92.290056528144902, 46.858089851283097 ], [ -92.290146678824698, 46.858231123850501 ] ] } },
{ "type": "Feature", "properties": { "wmUplineSo": "SOLWAY", "wmType": "Overhead" }, "geometry": { "type": "LineString", "coordinates": [ [ -92.287739717755699, 46.861783268378197 ], [ -92.287766805494201, 46.8627231974693 ] ] } },
{ "type": "Feature", "properties": { "wmUplineSo": "SOLWAY", "wmType": "Overhead" }, "geometry": { "type": "LineString", "coordinates": [ [ -92.321976003055298, 46.857831115770601 ], [ -92.321086296897903, 46.857879117143803 ] ] } },
{ "type": "Feature", "properties": { "wmUplineSo": "SOLWAY", "wmType": "Overhead" }, "geometry": { "type": "LineString", "coordinates": [ [ -92.287766805494201, 46.8627231974693 ], [ -92.2875417999999, 46.862873000008598 ] ] } },
{ "type": "Feature", "properties": { "wmUplineSo": "SOLWAY", "wmType": "Overhead" }, "geometry": { "type": "LineString", "coordinates": [ [ -92.287766805494201, 46.8627231974693 ], [ -92.287880599999895, 46.863117100008601 ] ] } },
{ "type": "Feature", "properties": { "wmUplineSo": "SOLWAY", "wmType": "Overhead" }, "geometry": { "type": "LineString", "coordinates": [ [ -92.289479788786807, 46.863308538701602 ], [ -92.289048599999902, 46.863621300008603 ] ] } },
{ "type": "Feature", "properties": { "wmUplineSo": "SOLWAY", "wmType": "Overhead" }, "geometry": { "type": "LineString", "coordinates": [ [ -92.289479788786807, 46.863308538701602 ], [ -92.289951799999898, 46.863792600008601 ] ] } },
{ "type": "Feature", "properties": { "wmUplineSo": "SOLWAY", "wmType": "Overhead" }, "geometry": { "type": "LineString", "coordinates": [ [ -92.289479788786807, 46.863308538701602 ], [ -92.289031625632106, 46.863319162772299 ] ] } },
{ "type": "Feature", "properties": { "wmUplineSo": "SOLWAY", "wmType": "Overhead" }, "geometry": { "type": "LineString", "coordinates": [ [ -92.293288831663702, 46.859486655431098 ], [ -92.293414902751095, 46.859760662752997 ] ] } },
{ "type": "Feature", "properties": { "wmUplineSo": "SOLWAY", "wmType": "Overhead" }, "geometry": { "type": "LineString", "coordinates": [ [ -92.291379574263203, 46.859540594483001 ], [ -92.291534599999906, 46.859246400008601 ], [ -92.291534599999906, 46.859246400008601 ] ] } },
{ "type": "Feature", "properties": { "wmUplineSo": "SOLWAY", "wmType": "Overhead" }, "geometry": { "type": "LineString", "coordinates": [ [ -92.291379574263203, 46.859540594483001 ], [ -92.291491899999897, 46.859610300008598 ] ] } },
{ "type": "Feature", "properties": { "wmUplineSo": "SOLWAY", "wmType": "Overhead" }, "geometry": { "type": "LineString", "coordinates": [ [ -92.293288831663702, 46.859486655431098 ], [ -92.2932503247917, 46.8595566267335 ] ] } },
{ "type": "Feature", "properties": { "wmUplineSo": "SOLWAY", "wmType": "Overhead" }, "geometry": { "type": "LineString", "coordinates": [ [ -92.2932503247917, 46.8595566267335 ], [ -92.2929259290011, 46.859682589630602 ] ] } },
{ "type": "Feature", "properties": { "wmUplineSo": "SOLWAY", "wmType": "Overhead" }, "geometry": { "type": "LineString", "coordinates": [ [ -92.2929259290011, 46.859682589630602 ], [ -92.292724639661301, 46.859666947385797 ] ] } },
{ "type": "Feature", "properties": { "wmUplineSo": "SOLWAY", "wmType": "Overhead" }, "geometry": { "type": "LineString", "coordinates": [ [ -92.292724639661301, 46.859666947385797 ], [ -92.292538827333402, 46.8596686165085 ] ] } },
{ "type": "Feature", "properties": { "wmUplineSo": "SOLWAY", "wmType": "Overhead" }, "geometry": { "type": "LineString", "coordinates": [ [ -92.290911901694102, 46.860003761582099 ], [ -92.291510299999899, 46.860151300008603 ] ] } },
{ "type": "Feature", "properties": { "wmUplineSo": "SOLWAY", "wmType": "Overhead" }, "geometry": { "type": "LineString", "coordinates": [ [ -92.290911901694102, 46.860003761582099 ], [ -92.290801689686106, 46.859714190128699 ] ] } },
{ "type": "Feature", "properties": { "wmUplineSo": "SOLWAY", "wmType": "Overhead" }, "geometry": { "type": "LineString", "coordinates": [ [ -92.290801689686106, 46.859714190128699 ], [ -92.290632299999899, 46.8597066000086 ] ] } },
{ "type": "Feature", "properties": { "wmUplineSo": "SOLWAY", "wmType": "Overhead" }, "geometry": { "type": "LineString", "coordinates": [ [ -92.290801689686106, 46.859714190128699 ], [ -92.290636299999903, 46.859726600008599 ] ] } },
{ "type": "Feature", "properties": { "wmUplineSo": "SOLWAY", "wmType": "Overhead" }, "geometry": { "type": "LineString", "coordinates": [ [ -92.290919503093903, 46.858945353105803 ], [ -92.291496599999903, 46.858877900008601 ] ] } },
{ "type": "Feature", "properties": { "wmUplineSo": "SOLWAY", "wmType": "Overhead" }, "geometry": { "type": "LineString", "coordinates": [ [ -92.290919503093903, 46.858945353105803 ], [ -92.290638799999897, 46.858849400008602 ] ] } },
{ "type": "Feature", "properties": { "wmUplineSo": "SOLWAY", "wmType": "Overhead" }, "geometry": { "type": "LineString", "coordinates": [ [ -92.291244270262197, 46.858488355870598 ], [ -92.291336299999898, 46.858489400008601 ] ] } },
{ "type": "Feature", "properties": { "wmUplineSo": "SOLWAY", "wmType": "Overhead" }, "geometry": { "type": "LineString", "coordinates": [ [ -92.290912215524699, 46.858022432977599 ], [ -92.291805799999906, 46.857927000008601 ] ] } },
{ "type": "Feature", "properties": { "wmUplineSo": "SOLWAY", "wmType": "Overhead" }, "geometry": { "type": "LineString", "coordinates": [ [ -92.290089043421105, 46.857411571024997 ], [ -92.2899878999999, 46.857417800008598 ] ] } },
{ "type": "Feature", "properties": { "wmUplineSo": "SOLWAY", "wmType": "Overhead" }, "geometry": { "type": "LineString", "coordinates": [ [ -92.289007646254305, 46.857381629348502 ], [ -92.288655597655605, 46.857779905285 ] ] } },
{ "type": "Feature", "properties": { "wmUplineSo": "SOLWAY", "wmType": "Overhead" }, "geometry": { "type": "LineString", "coordinates": [ [ -92.289007646254305, 46.857381629348502 ], [ -92.288714099999893, 46.857370300008597 ] ] } },
{ "type": "Feature", "properties": { "wmUplineSo": "SOLWAY", "wmType": "Overhead" }, "geometry": { "type": "LineString", "coordinates": [ [ -92.290078383540703, 46.857693653273003 ], [ -92.290027099999904, 46.857719300008597 ] ] } },
{ "type": "Feature", "properties": { "wmUplineSo": "SOLWAY", "wmType": "Overhead" }, "geometry": { "type": "LineString", "coordinates": [ [ -92.306170978880303, 46.862405603309703 ], [ -92.305749899999896, 46.8623174000086 ] ] } },
{ "type": "Feature", "properties": { "wmUplineSo": "SOLWAY", "wmType": "Overhead" }, "geometry": { "type": "LineString", "coordinates": [ [ -92.306174734127893, 46.862142778210703 ], [ -92.305986688367696, 46.862052634185503 ], [ -92.305776299999906, 46.862085300008602 ] ] } },
{ "type": "Feature", "properties": { "wmUplineSo": "SOLWAY", "wmType": "Overhead" }, "geometry": { "type": "LineString", "coordinates": [ [ -92.305271301046204, 46.862212300039097 ], [ -92.305040299999902, 46.862332100008601 ] ] } },
{ "type": "Feature", "properties": { "wmUplineSo": "SOLWAY", "wmType": "Overhead" }, "geometry": { "type": "LineString", "coordinates": [ [ -92.305271301046204, 46.862212300039097 ], [ -92.305055099999905, 46.862325800008598 ] ] } },
{ "type": "Feature", "properties": { "wmUplineSo": "SOLWAY", "wmType": "Overhead" }, "geometry": { "type": "LineString", "coordinates": [ [ -92.304319099999901, 46.8623630000086 ], [ -92.3043523999999, 46.862277400008601 ] ] } },
{ "type": "Feature", "properties": { "wmUplineSo": "SOLWAY", "wmType": "Overhead" }, "geometry": { "type": "LineString", "coordinates": [ [ -92.304611416918803, 46.862200189004703 ], [ -92.304576799999893, 46.862416000008601 ], [ -92.304576799999893, 46.862416000008601 ] ] } },
{ "type": "Feature", "properties": { "wmUplineSo": "SOLWAY", "wmType": "Overhead" }, "geometry": { "type": "LineString", "coordinates": [ [ -92.306647084369501, 46.862123020834296 ], [ -92.306647084369402, 46.862123020834296 ] ] } },
{ "type": "Feature", "properties": { "wmUplineSo": "SOLWAY", "wmType": "Overhead" }, "geometry": { "type": "LineString", "coordinates": [ [ -92.306647084369501, 46.862123020834296 ], [ -92.306669799999895, 46.8623041000086 ] ] } },
{ "type": "Feature", "properties": { "wmUplineSo": "SOLWAY", "wmType": "Overhead" }, "geometry": { "type": "LineString", "coordinates": [ [ -92.307436653970697, 46.861864700578003 ], [ -92.307456799999898, 46.861853900008597 ] ] } },
{ "type": "Feature", "properties": { "wmUplineSo": "SOLWAY", "wmType": "Overhead" }, "geometry": { "type": "LineString", "coordinates": [ [ -92.307436653970697, 46.861864700578003 ], [ -92.30749, 46.861887800008603 ] ] } },
{ "type": "Feature", "properties": { "wmUplineSo": "SOLWAY", "wmType": "Overhead" }, "geometry": { "type": "LineString", "coordinates": [ [ -92.321592756843103, 46.8477624342448 ], [ -92.321576799999903, 46.847737100008601 ] ] } },
{ "type": "Feature", "properties": { "wmUplineSo": "SOLWAY", "wmType": "Overhead" }, "geometry": { "type": "LineString", "coordinates": [ [ -92.322815865791, 46.848288258910898 ], [ -92.3225963331206, 46.847994081970803 ] ] } },
{ "type": "Feature", "properties": { "wmUplineSo": "SOLWAY", "wmType": "Overhead" }, "geometry": { "type": "LineString", "coordinates": [ [ -92.297468135294295, 46.8618765734847 ], [ -92.297260499999894, 46.861931400008601 ] ] } },
{ "type": "Feature", "properties": { "wmUplineSo": "SOLWAY", "wmType": "Overhead" }, "geometry": { "type": "LineString", "coordinates": [ [ -92.296761414092003, 46.861681537963896 ], [ -92.296864599999907, 46.8614662000086 ] ] } },
{ "type": "Feature", "properties": { "wmUplineSo": "SOLWAY", "wmType": "Overhead" }, "geometry": { "type": "LineString", "coordinates": [ [ -92.2983376489139, 46.862103671099 ], [ -92.298175541658694, 46.8624975909295 ] ] } },
{ "type": "Feature", "properties": { "wmUplineSo": "SOLWAY", "wmType": "Overhead" }, "geometry": { "type": "LineString", "coordinates": [ [ -92.298175541658694, 46.8624975909295 ], [ -92.297912499999896, 46.862522700008597 ] ] } },
{ "type": "Feature", "properties": { "wmUplineSo": "SOLWAY", "wmType": "Overhead" }, "geometry": { "type": "LineString", "coordinates": [ [ -92.298175541658694, 46.8624975909295 ], [ -92.297963799999906, 46.862525800008598 ] ] } },
{ "type": "Feature", "properties": { "wmUplineSo": "SOLWAY", "wmType": "Overhead" }, "geometry": { "type": "LineString", "coordinates": [ [ -92.299233999958204, 46.862364003523098 ], [ -92.299374299999897, 46.8625740000086 ] ] } },
{ "type": "Feature", "properties": { "wmUplineSo": "SOLWAY", "wmType": "Overhead" }, "geometry": { "type": "LineString", "coordinates": [ [ -92.300323864605502, 46.861882693288699 ], [ -92.299996699999895, 46.861943800008603 ] ] } },
{ "type": "Feature", "properties": { "wmUplineSo": "SOLWAY", "wmType": "Overhead" }, "geometry": { "type": "LineString", "coordinates": [ [ -92.301015133822403, 46.862313660262302 ], [ -92.300786499999901, 46.862381800008599 ] ] } },
{ "type": "Feature", "properties": { "wmUplineSo": "SOLWAY", "wmType": "Overhead" }, "geometry": { "type": "LineString", "coordinates": [ [ -92.301015133822403, 46.862313660262302 ], [ -92.300758, 46.862374400008598 ] ] } },
{ "type": "Feature", "properties": { "wmUplineSo": "SOLWAY", "wmType": "Overhead" }, "geometry": { "type": "LineString", "coordinates": [ [ -92.301527228983403, 46.861730875767698 ], [ -92.301575299999897, 46.861662500008599 ] ] } },
{ "type": "Feature", "properties": { "wmUplineSo": "SOLWAY", "wmType": "Overhead" }, "geometry": { "type": "LineString", "coordinates": [ [ -92.301883432485397, 46.862009708755998 ], [ -92.302260485338095, 46.862267842929597 ] ] } },
{ "type": "Feature", "properties": { "wmUplineSo": "SOLWAY", "wmType": "Overhead" }, "geometry": { "type": "LineString", "coordinates": [ [ -92.301883432485397, 46.862009708755998 ], [ -92.301624899999894, 46.862337400008599 ] ] } },
{ "type": "Feature", "properties": { "wmUplineSo": "SOLWAY", "wmType": "Overhead" }, "geometry": { "type": "LineString", "coordinates": [ [ -92.290912191579807, 46.860344382198797 ], [ -92.291489299999895, 46.8603596000086 ] ] } },
{ "type": "Feature", "properties": { "wmUplineSo": "SOLWAY", "wmType": "Overhead" }, "geometry": { "type": "LineString", "coordinates": [ [ -92.290912191579807, 46.860344382198797 ], [ -92.290478599999901, 46.860606400008599 ] ] } },
{ "type": "Feature", "properties": { "wmUplineSo": "SOLWAY", "wmType": "Overhead" }, "geometry": { "type": "LineString", "coordinates": [ [ -92.290912191579807, 46.860344382198797 ], [ -92.290478599999901, 46.860606400008599 ] ] } },
{ "type": "Feature", "properties": { "wmUplineSo": "SOLWAY", "wmType": "Overhead" }, "geometry": { "type": "LineString", "coordinates": [ [ -92.290931699937104, 46.861218812760697 ], [ -92.2907150999999, 46.861215900008602 ] ] } },
{ "type": "Feature", "properties": { "wmUplineSo": "SOLWAY", "wmType": "Overhead" }, "geometry": { "type": "LineString", "coordinates": [ [ -92.290923553488994, 46.8617913701951 ], [ -92.2918635999999, 46.861988800008596 ] ] } },
{ "type": "Feature", "properties": { "wmUplineSo": "SOLWAY", "wmType": "Overhead" }, "geometry": { "type": "LineString", "coordinates": [ [ -92.290923553488994, 46.8617913701951 ], [ -92.2918635999999, 46.861988800008596 ] ] } },
{ "type": "Feature", "properties": { "wmUplineSo": "SOLWAY", "wmType": "Overhead" }, "geometry": { "type": "LineString", "coordinates": [ [ -92.290923553488994, 46.8617913701951 ], [ -92.290629699999897, 46.861648200008602 ] ] } },
{ "type": "Feature", "properties": { "wmUplineSo": "SOLWAY", "wmType": "Overhead" }, "geometry": { "type": "LineString", "coordinates": [ [ -92.290386589120402, 46.8632498768619 ], [ -92.290355199999894, 46.863195700008603 ] ] } },
{ "type": "Feature", "properties": { "wmUplineSo": "SOLWAY", "wmType": "Overhead" }, "geometry": { "type": "LineString", "coordinates": [ [ -92.292663752326803, 46.863926923655697 ], [ -92.292857799999894, 46.863657200008603 ] ] } },
{ "type": "Feature", "properties": { "wmUplineSo": "SOLWAY", "wmType": "Overhead" }, "geometry": { "type": "LineString", "coordinates": [ [ -92.291598112772704, 46.863478532911401 ], [ -92.2916440999999, 46.863201300008598 ] ] } },
{ "type": "Feature", "properties": { "wmUplineSo": "SOLWAY", "wmType": "Overhead" }, "geometry": { "type": "LineString", "coordinates": [ [ -92.293437771530606, 46.864520229145803 ], [ -92.293452699999904, 46.864497900008601 ] ] } },
{ "type": "Feature", "properties": { "wmUplineSo": "SOLWAY", "wmType": "Overhead" }, "geometry": { "type": "LineString", "coordinates": [ [ -92.293390523851798, 46.863827132012901 ], [ -92.293362, 46.8637773000086 ] ] } },
{ "type": "Feature", "properties": { "wmUplineSo": "SOLWAY", "wmType": "Overhead" }, "geometry": { "type": "LineString", "coordinates": [ [ -92.293999635638698, 46.863701545403799 ], [ -92.293808099999893, 46.863681500008603 ] ] } },
{ "type": "Feature", "properties": { "wmUplineSo": "SOLWAY", "wmType": "Overhead" }, "geometry": { "type": "LineString", "coordinates": [ [ -92.293659890090396, 46.8634784010478 ], [ -92.293999635638698, 46.863701545403799 ] ] } },
{ "type": "Feature", "properties": { "wmUplineSo": "SOLWAY", "wmType": "Overhead" }, "geometry": { "type": "LineString", "coordinates": [ [ -92.296522019799795, 46.862500636152298 ], [ -92.296294499999902, 46.862847500008598 ] ] } },
{ "type": "Feature", "properties": { "wmUplineSo": "SOLWAY", "wmType": "Overhead" }, "geometry": { "type": "LineString", "coordinates": [ [ -92.296522019799795, 46.862500636152298 ], [ -92.296499768243706, 46.862785670754 ], [ -92.296192599999898, 46.863028000008597 ] ] } },
{ "type": "Feature", "properties": { "wmUplineSo": "SOLWAY", "wmType": "Overhead" }, "geometry": { "type": "LineString", "coordinates": [ [ -92.294885358137293, 46.861674620125697 ], [ -92.294583899999907, 46.861851900008602 ] ] } },
{ "type": "Feature", "properties": { "wmUplineSo": "SOLWAY", "wmType": "Overhead" }, "geometry": { "type": "LineString", "coordinates": [ [ -92.303718324334199, 46.861642139469403 ], [ -92.303321991464301, 46.862289975558198 ], [ -92.303321991464301, 46.862289975558198 ] ] } },
{ "type": "Feature", "properties": { "wmUplineSo": "SOLWAY", "wmType": "Overhead" }, "geometry": { "type": "LineString", "coordinates": [ [ -92.303718324334199, 46.861642139469403 ], [ -92.303628799999899, 46.861427500008602 ] ] } },
{ "type": "Feature", "properties": { "wmUplineSo": "SOLWAY", "wmType": "Overhead" }, "geometry": { "type": "LineString", "coordinates": [ [ -92.303132215110395, 46.8613326147061 ], [ -92.302832199999898, 46.861597300008597 ] ] } },
{ "type": "Feature", "properties": { "wmUplineSo": "SOLWAY", "wmType": "Overhead" }, "geometry": { "type": "LineString", "coordinates": [ [ -92.322804113276206, 46.853134957152797 ], [ -92.322091999999898, 46.853304600008599 ] ] } },
{ "type": "Feature", "properties": { "wmUplineSo": "SOLWAY", "wmType": "Overhead" }, "geometry": { "type": "LineString", "coordinates": [ [ -92.322815865791, 46.848288258910898 ], [ -92.322197799999898, 46.848303500008598 ] ] } },
{ "type": "Feature", "properties": { "wmUplineSo": "SOLWAY", "wmType": "Overhead" }, "geometry": { "type": "LineString", "coordinates": [ [ -92.303321991464301, 46.862289975558198 ], [ -92.303743399999902, 46.8624196000086 ] ] } },
{ "type": "Feature", "properties": { "wmUplineSo": "SOLWAY", "wmType": "Overhead" }, "geometry": { "type": "LineString", "coordinates": [ [ -92.303321991464301, 46.862289975558198 ], [ -92.302858699999902, 46.8624062000086 ] ] } },
{ "type": "Feature", "properties": { "wmUplineSo": "SOLWAY", "wmType": "Overhead" }, "geometry": { "type": "LineString", "coordinates": [ [ -92.303321991464301, 46.862289975558198 ], [ -92.303396799999902, 46.862507000008598 ] ] } },
{ "type": "Feature", "properties": { "wmUplineSo": "SOLWAY", "wmType": "Overhead" }, "geometry": { "type": "LineString", "coordinates": [ [ -92.306170978880303, 46.862405603309703 ], [ -92.305976099999896, 46.862473900008602 ] ] } },
{ "type": "Feature", "properties": { "wmUplineSo": "SOLWAY", "wmType": "Overhead" }, "geometry": { "type": "LineString", "coordinates": [ [ -92.306174734127893, 46.862142778210703 ], [ -92.306097299999905, 46.862176300008599 ] ] } },
{ "type": "Feature", "properties": { "wmUplineSo": "SOLWAY", "wmType": "Overhead" }, "geometry": { "type": "LineString", "coordinates": [ [ -92.293491034250707, 46.860560369383201 ], [ -92.293401846632094, 46.860529397342901 ] ] } },
{ "type": "Feature", "properties": { "wmUplineSo": "SOLWAY", "wmType": "Overhead" }, "geometry": { "type": "LineString", "coordinates": [ [ -92.293474128056701, 46.8611609049644 ], [ -92.293479599999898, 46.8611725000086 ] ] } },
{ "type": "Feature", "properties": { "wmUplineSo": "SOLWAY", "wmType": "Overhead" }, "geometry": { "type": "LineString", "coordinates": [ [ -92.301907176907093, 46.859724603889397 ], [ -92.302438299999906, 46.860001100008603 ] ] } },
{ "type": "Feature", "properties": { "wmUplineSo": "SOLWAY", "wmType": "Overhead" }, "geometry": { "type": "LineString", "coordinates": [ [ -92.301907176907093, 46.859724603889397 ], [ -92.301789899999903, 46.859757100008601 ] ] } },
{ "type": "Feature", "properties": { "wmUplineSo": "SOLWAY", "wmType": "Overhead" }, "geometry": { "type": "LineString", "coordinates": [ [ -92.322826499272395, 46.854024987411201 ], [ -92.323155, 46.854574000008597 ] ] } },
{ "type": "Feature", "properties": { "wmUplineSo": "SOLWAY", "wmType": "Overhead" }, "geometry": { "type": "LineString", "coordinates": [ [ -92.291594297626901, 46.863511900449701 ], [ -92.291598112772704, 46.863478532911401 ] ] } },
{ "type": "Feature", "properties": { "wmUplineSo": "SOLWAY", "wmType": "Overhead" }, "geometry": { "type": "LineString", "coordinates": [ [ -92.295241450748406, 46.8630566288805 ], [ -92.295083699999907, 46.863053600008598 ] ] } },
{ "type": "Feature", "properties": { "wmUplineSo": "SOLWAY", "wmType": "Overhead" }, "geometry": { "type": "LineString", "coordinates": [ [ -92.295241450748406, 46.8630566288805 ], [ -92.294871999999899, 46.8631845000086 ] ] } },
{ "type": "Feature", "properties": { "wmUplineSo": "SOLWAY", "wmType": "Overhead" }, "geometry": { "type": "LineString", "coordinates": [ [ -92.295641142228206, 46.862603721015297 ], [ -92.295472799999899, 46.862921100008599 ] ] } },
{ "type": "Feature", "properties": { "wmUplineSo": "SOLWAY", "wmType": "Overhead" }, "geometry": { "type": "LineString", "coordinates": [ [ -92.295247983863604, 46.862708589166701 ], [ -92.295241450748406, 46.8630566288805 ] ] } },
{ "type": "Feature", "properties": { "wmUplineSo": "SOLWAY", "wmType": "Overhead" }, "geometry": { "type": "LineString", "coordinates": [ [ -92.300081137257294, 46.861710602227298 ], [ -92.299859299999895, 46.861760000008601 ] ] } },
{ "type": "Feature", "properties": { "wmUplineSo": "SOLWAY", "wmType": "Overhead" }, "geometry": { "type": "LineString", "coordinates": [ [ -92.3043523999999, 46.862277400008601 ], [ -92.304319099999901, 46.8623630000086 ] ] } },
{ "type": "Feature", "properties": { "wmUplineSo": "SOLWAY", "wmType": "Overhead" }, "geometry": { "type": "LineString", "coordinates": [ [ -92.290935184693595, 46.862183606919899 ], [ -92.291266499999907, 46.862504600008599 ] ] } },
{ "type": "Feature", "properties": { "wmUplineSo": "SOLWAY", "wmType": "Overhead" }, "geometry": { "type": "LineString", "coordinates": [ [ -92.290970307007896, 46.863312607372201 ], [ -92.291193199999896, 46.863012200008598 ] ] } },
{ "type": "Feature", "properties": { "wmUplineSo": "SOLWAY", "wmType": "Overhead" }, "geometry": { "type": "LineString", "coordinates": [ [ -92.306174734127893, 46.862142778210703 ], [ -92.306170978880303, 46.862405603309703 ] ] } },
{ "type": "Feature", "properties": { "wmUplineSo": "SOLWAY", "wmType": "Overhead" }, "geometry": { "type": "LineString", "coordinates": [ [ -92.306170978880303, 46.862405603309703 ], [ -92.305974, 46.862589400008602 ] ] } },
{ "type": "Feature", "properties": { "wmUplineSo": "SOLWAY", "wmType": "Overhead" }, "geometry": { "type": "LineString", "coordinates": [ [ -92.303321991464301, 46.862289975558198 ], [ -92.303743399999902, 46.8624196000086 ] ] } },
{ "type": "Feature", "properties": { "wmUplineSo": "SOLWAY", "wmType": "Overhead" }, "geometry": { "type": "LineString", "coordinates": [ [ -92.303321991464301, 46.862289975558198 ], [ -92.303396799999902, 46.862507000008598 ], [ -92.303519358742705, 46.862462608353098 ] ] } },
{ "type": "Feature", "properties": { "wmUplineSo": "SOLWAY", "wmType": "Overhead" }, "geometry": { "type": "LineString", "coordinates": [ [ -92.290970307007896, 46.863312607372201 ], [ -92.290937899999903, 46.863288400008599 ] ] } },
{ "type": "Feature", "properties": { "wmUplineSo": "SOLWAY", "wmType": "Overhead" }, "geometry": { "type": "LineString", "coordinates": [ [ -92.293474128056701, 46.8611609049644 ], [ -92.293491034250707, 46.860560369383201 ] ] } },
{ "type": "Feature", "properties": { "wmUplineSo": "SOLWAY", "wmType": "Overhead" }, "geometry": { "type": "LineString", "coordinates": [ [ -92.304611416918803, 46.862200189004703 ], [ -92.304319099999901, 46.8623630000086 ] ] } },
{ "type": "Feature", "properties": { "wmUplineSo": "SOLWAY", "wmType": "Overhead" }, "geometry": { "type": "LineString", "coordinates": [ [ -92.2990512841005, 46.861702210581001 ], [ -92.299247522872506, 46.862134343021197 ] ] } },
{ "type": "Feature", "properties": { "wmUplineSo": "SOLWAY", "wmType": "Overhead" }, "geometry": { "type": "LineString", "coordinates": [ [ -92.304052021253796, 46.861837258847402 ], [ -92.304611416918803, 46.862200189004703 ] ] } },
{ "type": "Feature", "properties": { "wmUplineSo": "SOLWAY", "wmType": "Overhead" }, "geometry": { "type": "LineString", "coordinates": [ [ -92.321086296897903, 46.857879117143803 ], [ -92.3199545593896, 46.857893828084798 ], [ -92.318833672921897, 46.857900823116502 ], [ -92.317517454466, 46.8579293242924 ], [ -92.316021164715295, 46.857951346191697 ], [ -92.315064275617701, 46.857590855754196 ], [ -92.313865278073493, 46.8579813016757 ], [ -92.312889873297905, 46.857984974755396 ], [ -92.311792778991304, 46.858004574940203 ], [ -92.310714798480006, 46.858026742663597 ], [ -92.309571228127396, 46.858035318429003 ], [ -92.3063510098265, 46.858066901779203 ], [ -92.305465583654495, 46.858080341465403 ], [ -92.304184392567294, 46.858104803973198 ], [ -92.303148622071504, 46.8576282868626 ], [ -92.302049437401905, 46.857815050340399 ], [ -92.301926694506605, 46.858520969637702 ], [ -92.301915534618402, 46.859079787060899 ], [ -92.301907176907093, 46.859724603889397 ] ] } },
{ "type": "Feature", "properties": { "wmUplineSo": "SOLWAY", "wmType": "Overhead" }, "geometry": { "type": "LineString", "coordinates": [ [ -92.3225963331206, 46.847994081970803 ], [ -92.321592756843103, 46.8477624342448 ] ] } },
{ "type": "Feature", "properties": { "wmUplineSo": "SOLWAY", "wmType": "Overhead" }, "geometry": { "type": "LineString", "coordinates": [ [ -92.293172673219999, 46.8638532005765 ], [ -92.292663752326803, 46.863926923655697 ] ] } },
{ "type": "Feature", "properties": { "wmUplineSo": "SOLWAY", "wmType": "Overhead" }, "geometry": { "type": "LineString", "coordinates": [ [ -92.290078383540703, 46.857693653273003 ], [ -92.290089043421105, 46.857411571024997 ] ] } },
{ "type": "Feature", "properties": { "wmUplineSo": "SOLWAY", "wmType": "Overhead" }, "geometry": { "type": "LineString", "coordinates": [ [ -92.290911901694102, 46.860003761582099 ], [ -92.290714622943696, 46.860105086702397 ] ] } },
{ "type": "Feature", "properties": { "wmUplineSo": "SOLWAY", "wmType": "Overhead" }, "geometry": { "type": "LineString", "coordinates": [ [ -92.291543113656402, 46.861146800546102 ], [ -92.291753, 46.860822800008599 ] ] } },
{ "type": "Feature", "properties": { "wmUplineSo": "SOLWAY", "wmType": "Overhead" }, "geometry": { "type": "LineString", "coordinates": [ [ -92.291543113656402, 46.861146800546102 ], [ -92.2917893999999, 46.861232500008597 ] ] } },
{ "type": "Feature", "properties": { "wmUplineSo": "SOLWAY", "wmType": "Overhead" }, "geometry": { "type": "LineString", "coordinates": [ [ -92.301879168355299, 46.861734270578999 ], [ -92.301883432485397, 46.862009708755998 ] ] } },
{ "type": "Feature", "properties": { "wmUplineSo": "SOLWAY", "wmType": "Overhead" }, "geometry": { "type": "LineString", "coordinates": [ [ -92.290931699937104, 46.861218812760697 ], [ -92.291543113656402, 46.861146800546102 ] ] } },
{ "type": "Feature", "properties": { "wmUplineSo": "SOLWAY", "wmType": "Overhead" }, "geometry": { "type": "LineString", "coordinates": [ [ -92.292627099349602, 46.859521604420898 ], [ -92.293288831663702, 46.859486655431098 ] ] } },
{ "type": "Feature", "properties": { "wmUplineSo": "SOLWAY", "wmType": "Overhead" }, "geometry": { "type": "LineString", "coordinates": [ [ -92.291379574263203, 46.859540594483001 ], [ -92.292627099349602, 46.859521604420898 ] ] } },
{ "type": "Feature", "properties": { "wmUplineSo": "SOLWAY", "wmType": "Overhead" }, "geometry": { "type": "LineString", "coordinates": [ [ -92.290919884171601, 46.859549176583599 ], [ -92.291379574263203, 46.859540594483001 ] ] } },
{ "type": "Feature", "properties": { "wmUplineSo": "SOLWAY", "wmType": "Overhead" }, "geometry": { "type": "LineString", "coordinates": [ [ -92.290911901694102, 46.860003761582099 ], [ -92.290801689686106, 46.859714190128699 ], [ -92.290919884171601, 46.859549176583599 ] ] } },
{ "type": "Feature", "properties": { "wmUplineSo": "SOLWAY", "wmType": "Overhead" }, "geometry": { "type": "LineString", "coordinates": [ [ -92.290919884171601, 46.859549176583599 ], [ -92.290919503093903, 46.858945353105803 ] ] } },
{ "type": "Feature", "properties": { "wmUplineSo": "SOLWAY", "wmType": "Overhead" }, "geometry": { "type": "LineString", "coordinates": [ [ -92.290919503093903, 46.858945353105803 ], [ -92.290947646257294, 46.858495042558602 ] ] } },
{ "type": "Feature", "properties": { "wmUplineSo": "SOLWAY", "wmType": "Overhead" }, "geometry": { "type": "LineString", "coordinates": [ [ -92.290947646257294, 46.858495042558602 ], [ -92.291244270262197, 46.858488355870598 ] ] } },
{ "type": "Feature", "properties": { "wmUplineSo": "SOLWAY", "wmType": "Overhead" }, "geometry": { "type": "LineString", "coordinates": [ [ -92.290947646257294, 46.858495042558602 ], [ -92.290912215524699, 46.858022432977599 ] ] } },
{ "type": "Feature", "properties": { "wmUplineSo": "SOLWAY", "wmType": "Overhead" }, "geometry": { "type": "LineString", "coordinates": [ [ -92.290912215524699, 46.858022432977599 ], [ -92.290056528144902, 46.858089851283097 ] ] } },
{ "type": "Feature", "properties": { "wmUplineSo": "SOLWAY", "wmType": "Overhead" }, "geometry": { "type": "LineString", "coordinates": [ [ -92.290056528144902, 46.858089851283097 ], [ -92.290078383540703, 46.857693653273003 ] ] } },
{ "type": "Feature", "properties": { "wmUplineSo": "SOLWAY", "wmType": "Overhead" }, "geometry": { "type": "LineString", "coordinates": [ [ -92.289075161920806, 46.857781668448602 ], [ -92.289007646254305, 46.857381629348502 ] ] } },
{ "type": "Feature", "properties": { "wmUplineSo": "SOLWAY", "wmType": "Overhead" }, "geometry": { "type": "LineString", "coordinates": [ [ -92.290056528144902, 46.858089851283097 ], [ -92.289026822398796, 46.858076419934697 ] ] } },
{ "type": "Feature", "properties": { "wmUplineSo": "SOLWAY", "wmType": "Overhead" }, "geometry": { "type": "LineString", "coordinates": [ [ -92.289026822398796, 46.858076419934697 ], [ -92.288445550907397, 46.8580668555702 ], [ -92.287786527726297, 46.858208019104197 ], [ -92.287764141747104, 46.8608007530935 ] ] } },
{ "type": "Feature", "properties": { "wmUplineSo": "SOLWAY", "wmType": "Overhead" }, "geometry": { "type": "LineString", "coordinates": [ [ -92.289026822398796, 46.858076419934697 ], [ -92.289075161920806, 46.857781668448602 ] ] } },
{ "type": "Feature", "properties": { "wmUplineSo": "SOLWAY", "wmType": "Overhead" }, "geometry": { "type": "LineString", "coordinates": [ [ -92.304611416918803, 46.862200189004703 ], [ -92.305271301046204, 46.862212300039097 ] ] } },
{ "type": "Feature", "properties": { "wmUplineSo": "SOLWAY", "wmType": "Overhead" }, "geometry": { "type": "LineString", "coordinates": [ [ -92.306647084369501, 46.862123020834296 ], [ -92.307456799999898, 46.861853900008597 ], [ -92.307436653970697, 46.861864700578003 ] ] } },
{ "type": "Feature", "properties": { "wmUplineSo": "SOLWAY", "wmType": "Overhead" }, "geometry": { "type": "LineString", "coordinates": [ [ -92.290912191579807, 46.860344382198797 ], [ -92.290911901694102, 46.860003761582099 ] ] } },
{ "type": "Feature", "properties": { "wmUplineSo": "SOLWAY", "wmType": "Overhead" }, "geometry": { "type": "LineString", "coordinates": [ [ -92.290931699937104, 46.861218812760697 ], [ -92.290921128336294, 46.860931115348798 ], [ -92.290913217524505, 46.860671528964701 ], [ -92.290911432480598, 46.860612954024504 ], [ -92.290912191579807, 46.860344382198797 ] ] } },
{ "type": "Feature", "properties": { "wmUplineSo": "SOLWAY", "wmType": "Overhead" }, "geometry": { "type": "LineString", "coordinates": [ [ -92.290386589120402, 46.8632498768619 ], [ -92.289479788786807, 46.863308538701602 ] ] } },
{ "type": "Feature", "properties": { "wmUplineSo": "SOLWAY", "wmType": "Overhead" }, "geometry": { "type": "LineString", "coordinates": [ [ -92.292663752326803, 46.863926923655697 ], [ -92.292219797805899, 46.863654022629198 ] ] } },
{ "type": "Feature", "properties": { "wmUplineSo": "SOLWAY", "wmType": "Overhead" }, "geometry": { "type": "LineString", "coordinates": [ [ -92.293390523851798, 46.863827132012901 ], [ -92.293437771530606, 46.864520229145803 ] ] } },
{ "type": "Feature", "properties": { "wmUplineSo": "SOLWAY", "wmType": "Overhead" }, "geometry": { "type": "LineString", "coordinates": [ [ -92.293414078397703, 46.863160476798399 ], [ -92.293390523851798, 46.863827132012901 ] ] } },
{ "type": "Feature", "properties": { "wmUplineSo": "SOLWAY", "wmType": "Overhead" }, "geometry": { "type": "LineString", "coordinates": [ [ -92.298301299831607, 46.861696624022201 ], [ -92.2983376489139, 46.862103671099 ] ] } },
{ "type": "Feature", "properties": { "wmUplineSo": "SOLWAY", "wmType": "Overhead" }, "geometry": { "type": "LineString", "coordinates": [ [ -92.298301299831607, 46.861696624022201 ], [ -92.297660038860798, 46.861682690053101 ] ] } },
{ "type": "Feature", "properties": { "wmUplineSo": "SOLWAY", "wmType": "Overhead" }, "geometry": { "type": "LineString", "coordinates": [ [ -92.297660038860798, 46.861682690053101 ], [ -92.297468135294295, 46.8618765734847 ] ] } },
{ "type": "Feature", "properties": { "wmUplineSo": "SOLWAY", "wmType": "Overhead" }, "geometry": { "type": "LineString", "coordinates": [ [ -92.297660038860798, 46.861682690053101 ], [ -92.296761414092003, 46.861681537963896 ] ] } },
{ "type": "Feature", "properties": { "wmUplineSo": "SOLWAY", "wmType": "Overhead" }, "geometry": { "type": "LineString", "coordinates": [ [ -92.2990512841005, 46.861702210581001 ], [ -92.298301299831607, 46.861696624022201 ] ] } },
{ "type": "Feature", "properties": { "wmUplineSo": "SOLWAY", "wmType": "Overhead" }, "geometry": { "type": "LineString", "coordinates": [ [ -92.300936460289293, 46.861720596433003 ], [ -92.300984547600805, 46.862079672686299 ], [ -92.301015133822403, 46.862313660262302 ] ] } },
{ "type": "Feature", "properties": { "wmUplineSo": "SOLWAY", "wmType": "Overhead" }, "geometry": { "type": "LineString", "coordinates": [ [ -92.301879168355299, 46.861734270578999 ], [ -92.301527228983403, 46.861730875767698 ] ] } },
{ "type": "Feature", "properties": { "wmUplineSo": "SOLWAY", "wmType": "Overhead" }, "geometry": { "type": "LineString", "coordinates": [ [ -92.293462104160398, 46.862471841538898 ], [ -92.293467153663698, 46.861921319011401 ], [ -92.293474128056701, 46.8611609049644 ], [ -92.293474128056701, 46.8611609049644 ] ] } },
{ "type": "Feature", "properties": { "wmUplineSo": "SOLWAY", "wmType": "Overhead" }, "geometry": { "type": "LineString", "coordinates": [ [ -92.301907176907093, 46.859724603889397 ], [ -92.301926734517806, 46.860737163239897 ] ] } },
{ "type": "Feature", "properties": { "wmUplineSo": "SOLWAY", "wmType": "Overhead" }, "geometry": { "type": "LineString", "coordinates": [ [ -92.322826499272395, 46.854024987411201 ], [ -92.322800019820704, 46.854911973286598 ], [ -92.322795637342594, 46.855626881850803 ], [ -92.322811497600995, 46.856362869151397 ], [ -92.322796650079994, 46.857062861450601 ], [ -92.322822572405499, 46.857796959584199 ], [ -92.321976003055298, 46.857831115770601 ] ] } },
{ "type": "Feature", "properties": { "wmUplineSo": "SOLWAY", "wmType": "Overhead" }, "geometry": { "type": "LineString", "coordinates": [ [ -92.322804113276206, 46.853134957152797 ], [ -92.322826499272395, 46.854024987411201 ] ] } },
{ "type": "Feature", "properties": { "wmUplineSo": "SOLWAY", "wmType": "Overhead" }, "geometry": { "type": "LineString", "coordinates": [ [ -92.292663752326803, 46.863926923655697 ], [ -92.2925907999999, 46.863892500008603 ] ] } },
{ "type": "Feature", "properties": { "wmUplineSo": "SOLWAY", "wmType": "Overhead" }, "geometry": { "type": "LineString", "coordinates": [ [ -92.293414078397703, 46.863160476798399 ], [ -92.293443417656306, 46.863198423393897 ] ] } },
{ "type": "Feature", "properties": { "wmUplineSo": "SOLWAY", "wmType": "Overhead" }, "geometry": { "type": "LineString", "coordinates": [ [ -92.294885358137293, 46.861674620125697 ], [ -92.294889997012206, 46.862489621965899 ] ] } },
{ "type": "Feature", "properties": { "wmUplineSo": "SOLWAY", "wmType": "Overhead" }, "geometry": { "type": "LineString", "coordinates": [ [ -92.294889997012206, 46.862489621965899 ], [ -92.294158098173696, 46.862482366668402 ] ] } },
{ "type": "Feature", "properties": { "wmUplineSo": "SOLWAY", "wmType": "Overhead" }, "geometry": { "type": "LineString", "coordinates": [ [ -92.296761414092003, 46.861681537963896 ], [ -92.296499446956801, 46.861679838435499 ] ] } },
{ "type": "Feature", "properties": { "wmUplineSo": "SOLWAY", "wmType": "Overhead" }, "geometry": { "type": "LineString", "coordinates": [ [ -92.295900978913096, 46.861674682725599 ], [ -92.294885358137293, 46.861674620125697 ] ] } },
{ "type": "Feature", "properties": { "wmUplineSo": "SOLWAY", "wmType": "Overhead" }, "geometry": { "type": "LineString", "coordinates": [ [ -92.296499446956801, 46.861679838435499 ], [ -92.295900978913096, 46.861674682725599 ] ] } },
{ "type": "Feature", "properties": { "wmUplineSo": "SOLWAY", "wmType": "Overhead" }, "geometry": { "type": "LineString", "coordinates": [ [ -92.295900978913096, 46.861674682725599 ], [ -92.295885600705105, 46.862018630566503 ] ] } },
{ "type": "Feature", "properties": { "wmUplineSo": "SOLWAY", "wmType": "Overhead" }, "geometry": { "type": "LineString", "coordinates": [ [ -92.303718324334199, 46.861642139469403 ], [ -92.304052021253796, 46.861837258847402 ] ] } },
{ "type": "Feature", "properties": { "wmUplineSo": "SOLWAY", "wmType": "Overhead" }, "geometry": { "type": "LineString", "coordinates": [ [ -92.303132215110395, 46.8613326147061 ], [ -92.303718324334199, 46.861642139469403 ] ] } },
{ "type": "Feature", "properties": { "wmUplineSo": "SOLWAY", "wmType": "Overhead" }, "geometry": { "type": "LineString", "coordinates": [ [ -92.301926734517806, 46.860737163239897 ], [ -92.302590710838203, 46.861063835639598 ], [ -92.302590710838203, 46.861063835639598 ] ] } },
{ "type": "Feature", "properties": { "wmUplineSo": "SOLWAY", "wmType": "Overhead" }, "geometry": { "type": "LineString", "coordinates": [ [ -92.301926734517806, 46.860737163239897 ], [ -92.301879168355299, 46.861734270578999 ] ] } },
{ "type": "Feature", "properties": { "wmUplineSo": "SOLWAY", "wmType": "Overhead" }, "geometry": { "type": "LineString", "coordinates": [ [ -92.302590710838203, 46.861063835639598 ], [ -92.303132215110395, 46.8613326147061 ] ] } },
{ "type": "Feature", "properties": { "wmUplineSo": "SOLWAY", "wmType": "Overhead" }, "geometry": { "type": "LineString", "coordinates": [ [ -92.322815865791, 46.848288258910898 ], [ -92.322815257685406, 46.848957967487699 ], [ -92.322814545513495, 46.849742134205002 ], [ -92.322813730508997, 46.850639330179099 ] ] } },
{ "type": "Feature", "properties": { "wmUplineSo": "SOLWAY", "wmType": "Overhead" }, "geometry": { "type": "LineString", "coordinates": [ [ -92.322884637610699, 46.845620520237901 ], [ -92.322868913358505, 46.846230510637099 ], [ -92.322873350277106, 46.8460583911084 ], [ -92.322868913358505, 46.846230510637099 ], [ -92.322850633928795, 46.846939602783301 ], [ -92.322850633928795, 46.846939602783301 ], [ -92.322832901662295, 46.847627447721997 ], [ -92.322815865791, 46.848288258910898 ] ] } },
{ "type": "Feature", "properties": { "wmUplineSo": "SOLWAY", "wmType": "Overhead" }, "geometry": { "type": "LineString", "coordinates": [ [ -92.306174734127893, 46.862142778210703 ], [ -92.306647084369402, 46.862123020834296 ], [ -92.306647084369501, 46.862123020834296 ] ] } },
{ "type": "Feature", "properties": { "wmUplineSo": "SOLWAY", "wmType": "Overhead" }, "geometry": { "type": "LineString", "coordinates": [ [ -92.305271301046204, 46.862212300039097 ], [ -92.306174734127893, 46.862142778210703 ] ] } },
{ "type": "Feature", "properties": { "wmUplineSo": "SOLWAY", "wmType": "Overhead" }, "geometry": { "type": "LineString", "coordinates": [ [ -92.294158098173696, 46.862482366668402 ], [ -92.293462104160398, 46.862471841538898 ] ] } },
{ "type": "Feature", "properties": { "wmUplineSo": "SOLWAY", "wmType": "Overhead" }, "geometry": { "type": "LineString", "coordinates": [ [ -92.293462104160398, 46.862471841538898 ], [ -92.293414078397703, 46.863160476798399 ] ] } },
{ "type": "Feature", "properties": { "wmUplineSo": "SOLWAY", "wmType": "Overhead" }, "geometry": { "type": "LineString", "coordinates": [ [ -92.293390523851798, 46.863827132012901 ], [ -92.293172673219999, 46.8638532005765 ] ] } },
{ "type": "Feature", "properties": { "wmUplineSo": "SOLWAY", "wmType": "Overhead" }, "geometry": { "type": "LineString", "coordinates": [ [ -92.294889997012206, 46.862489621965899 ], [ -92.295238408090597, 46.862502553469099 ] ] } },
{ "type": "Feature", "properties": { "wmUplineSo": "SOLWAY", "wmType": "Overhead" }, "geometry": { "type": "LineString", "coordinates": [ [ -92.295238408090597, 46.862502553469099 ], [ -92.295247983863604, 46.862708589166701 ] ] } },
{ "type": "Feature", "properties": { "wmUplineSo": "SOLWAY", "wmType": "Overhead" }, "geometry": { "type": "LineString", "coordinates": [ [ -92.295238408090597, 46.862502553469099 ], [ -92.295641142228206, 46.862603721015297 ] ] } },
{ "type": "Feature", "properties": { "wmUplineSo": "SOLWAY", "wmType": "Overhead" }, "geometry": { "type": "LineString", "coordinates": [ [ -92.300936460289293, 46.861720596433003 ], [ -92.300081137257294, 46.861710602227298 ] ] } },
{ "type": "Feature", "properties": { "wmUplineSo": "SOLWAY", "wmType": "Overhead" }, "geometry": { "type": "LineString", "coordinates": [ [ -92.300081137257294, 46.861710602227298 ], [ -92.2990512841005, 46.861702210581001 ] ] } },
{ "type": "Feature", "properties": { "wmUplineSo": "SOLWAY", "wmType": "Overhead" }, "geometry": { "type": "LineString", "coordinates": [ [ -92.300081137257294, 46.861710602227298 ], [ -92.300123469284998, 46.861740615292497 ] ] } },
{ "type": "Feature", "properties": { "wmUplineSo": "SOLWAY", "wmType": "Overhead" }, "geometry": { "type": "LineString", "coordinates": [ [ -92.290935184693595, 46.862183606919899 ], [ -92.290930016583999, 46.862009324391202 ], [ -92.290923553488994, 46.8617913701951 ] ] } },
{ "type": "Feature", "properties": { "wmUplineSo": "SOLWAY", "wmType": "Overhead" }, "geometry": { "type": "LineString", "coordinates": [ [ -92.290970307007896, 46.863312607372201 ], [ -92.290915006003999, 46.862661586077401 ], [ -92.290935184693595, 46.862183606919899 ] ] } },
{ "type": "Feature", "properties": { "wmUplineSo": "SOLWAY", "wmType": "Overhead" }, "geometry": { "type": "LineString", "coordinates": [ [ -92.291594297626901, 46.863511900449701 ], [ -92.290970307007896, 46.863312607372201 ], [ -92.290970307007896, 46.863312607372201 ] ] } },
{ "type": "Feature", "properties": { "wmUplineSo": "SOLWAY", "wmType": "Overhead" }, "geometry": { "type": "LineString", "coordinates": [ [ -92.290970307007896, 46.863312607372201 ], [ -92.290386589120303, 46.8632498768619 ], [ -92.290386589120402, 46.8632498768619 ] ] } },
{ "type": "Feature", "properties": { "wmUplineSo": "SOLWAY", "wmType": "Overhead" }, "geometry": { "type": "LineString", "coordinates": [ [ -92.322884637610699, 46.845620520237901 ], [ -92.322914175438797, 46.845451416809198 ] ] } },
{ "type": "Feature", "properties": { "wmUplineSo": "SOLWAY", "wmType": "Overhead" }, "geometry": { "type": "LineString", "coordinates": [ [ -92.296499446956801, 46.861679838435499 ], [ -92.296522019799795, 46.862500636152298 ] ] } },
{ "type": "Feature", "properties": { "wmUplineSo": "SOLWAY", "wmType": "Overhead" }, "geometry": { "type": "LineString", "coordinates": [ [ -92.290923553488994, 46.8617913701951 ], [ -92.290931699937104, 46.861218812760697 ] ] } }
]
}
