{
"type": "FeatureCollection",
"crs": { "type": "name", "properties": { "name": "urn:ogc:def:crs:OGC:1.3:CRS84" } },
"features": [
{ "type": "Feature", "properties": { "wmUplineSo": "WINTON", "wmType": "Underground" }, "geometry": { "type": "LineString", "coordinates": [ [ -91.529707628765905, 47.9848670218366 ], [ -91.530478680647903, 47.984602600179301 ], [ -91.531244648806194, 47.984767931150699 ], [ -91.531534021032599, 47.9850255619724 ], [ -91.531808362096797, 47.985409832641402 ] ] } },
{ "type": "Feature", "properties": { "wmUplineSo": "WINTON", "wmType": "Underground" }, "geometry": { "type": "LineString", "coordinates": [ [ -91.565874201432607, 47.948764435820003 ], [ -91.565682627900003, 47.948817016905203 ] ] } },
{ "type": "Feature", "properties": { "wmUplineSo": "WINTON", "wmType": "Underground" }, "geometry": { "type": "LineString", "coordinates": [ [ -91.565682627900003, 47.948817016905203 ], [ -91.565559111360997, 47.948858552891402 ] ] } },
{ "type": "Feature", "properties": { "wmUplineSo": "WINTON", "wmType": "Underground" }, "geometry": { "type": "LineString", "coordinates": [ [ -91.565559111360997, 47.948858552891402 ], [ -91.565526481649101, 47.948872621196003 ] ] } },
{ "type": "Feature", "properties": { "wmUplineSo": "WINTON", "wmType": "Underground" }, "geometry": { "type": "LineString", "coordinates": [ [ -91.565881600290993, 47.9488404247696 ], [ -91.565874201432607, 47.948764435820003 ] ] } },
{ "type": "Feature", "properties": { "wmUplineSo": "WINTON", "wmType": "Underground" }, "geometry": { "type": "LineString", "coordinates": [ [ -91.538266638896701, 47.971814019881698 ], [ -91.5382054502968, 47.971807278749402 ] ] } },
{ "type": "Feature", "properties": { "wmUplineSo": "WINTON", "wmType": "Underground" }, "geometry": { "type": "LineString", "coordinates": [ [ -91.491558554711403, 47.9903300349646 ], [ -91.492119555618103, 47.9899160348319 ] ] } },
{ "type": "Feature", "properties": { "wmUplineSo": "WINTON", "wmType": "Underground" }, "geometry": { "type": "LineString", "coordinates": [ [ -91.492119555618103, 47.9899160348319 ], [ -91.492132955741496, 47.989901131002902 ] ] } },
{ "type": "Feature", "properties": { "wmUplineSo": "WINTON", "wmType": "Underground" }, "geometry": { "type": "LineString", "coordinates": [ [ -91.491805555455002, 47.990782034899098 ], [ -91.491778986240504, 47.990733414862497 ] ] } },
{ "type": "Feature", "properties": { "wmUplineSo": "WINTON", "wmType": "Underground" }, "geometry": { "type": "LineString", "coordinates": [ [ -91.722810999912596, 47.949046003824598 ], [ -91.722836347104803, 47.949105467586797 ] ] } },
{ "type": "Feature", "properties": { "wmUplineSo": "WINTON", "wmType": "Underground" }, "geometry": { "type": "LineString", "coordinates": [ [ -91.704290382534893, 47.934145438848603 ], [ -91.703727051417602, 47.934538279210102 ] ] } },
{ "type": "Feature", "properties": { "wmUplineSo": "WINTON", "wmType": "Underground" }, "geometry": { "type": "LineString", "coordinates": [ [ -91.819931483351496, 47.922044453341698 ], [ -91.822340856065907, 47.921274925981599 ] ] } },
{ "type": "Feature", "properties": { "wmUplineSo": "WINTON", "wmType": "Underground" }, "geometry": { "type": "LineString", "coordinates": [ [ -91.822340856065907, 47.921274925981599 ], [ -91.822559088119107, 47.921334298220799 ] ] } },
{ "type": "Feature", "properties": { "wmUplineSo": "WINTON", "wmType": "Underground" }, "geometry": { "type": "LineString", "coordinates": [ [ -91.822559088119107, 47.921334298220799 ], [ -91.822716178844004, 47.921278774687401 ] ] } },
{ "type": "Feature", "properties": { "wmUplineSo": "WINTON", "wmType": "Underground" }, "geometry": { "type": "LineString", "coordinates": [ [ -91.822716178844004, 47.921278774687401 ], [ -91.822970791140193, 47.921295668445602 ] ] } },
{ "type": "Feature", "properties": { "wmUplineSo": "WINTON", "wmType": "Underground" }, "geometry": { "type": "LineString", "coordinates": [ [ -91.822970791140193, 47.921295668445602 ], [ -91.823047284559905, 47.921358347958503 ] ] } },
{ "type": "Feature", "properties": { "wmUplineSo": "WINTON", "wmType": "Underground" }, "geometry": { "type": "LineString", "coordinates": [ [ -91.823047284559905, 47.921358347958503 ], [ -91.823251299999598, 47.921424800009802 ] ] } },
{ "type": "Feature", "properties": { "wmUplineSo": "WINTON", "wmType": "Underground" }, "geometry": { "type": "LineString", "coordinates": [ [ -91.781535, 47.926484000000102 ], [ -91.781485530052606, 47.926519521467903 ] ] } },
{ "type": "Feature", "properties": { "wmUplineSo": "WINTON", "wmType": "Underground" }, "geometry": { "type": "LineString", "coordinates": [ [ -91.781535, 47.926484000000102 ], [ -91.781485530052606, 47.926519521467903 ] ] } },
{ "type": "Feature", "properties": { "wmUplineSo": "WINTON", "wmType": "Underground" }, "geometry": { "type": "LineString", "coordinates": [ [ -91.729124137050107, 47.948205062884597 ], [ -91.729144507997901, 47.948815191210997 ], [ -91.729297657268702, 47.953401826226603 ] ] } },
{ "type": "Feature", "properties": { "wmUplineSo": "WINTON", "wmType": "Underground" }, "geometry": { "type": "LineString", "coordinates": [ [ -91.548127647368503, 47.951120021517603 ], [ -91.5482199732147, 47.951149212363603 ] ] } },
{ "type": "Feature", "properties": { "wmUplineSo": "WINTON", "wmType": "Underground" }, "geometry": { "type": "LineString", "coordinates": [ [ -91.545197425467805, 47.950738925189697 ], [ -91.545135285417899, 47.950706565786298 ], [ -91.545949737694798, 47.950692467540797 ], [ -91.546964757540806, 47.950783441420597 ], [ -91.547500237636399, 47.9508683415673 ], [ -91.548097009406206, 47.951100499592499 ], [ -91.548127647368503, 47.951120021517603 ] ] } },
{ "type": "Feature", "properties": { "wmUplineSo": "WINTON", "wmType": "Underground" }, "geometry": { "type": "LineString", "coordinates": [ [ -91.549186753627296, 47.951409719746401 ], [ -91.549691240847693, 47.950560420509198 ] ] } },
{ "type": "Feature", "properties": { "wmUplineSo": "WINTON", "wmType": "Underground" }, "geometry": { "type": "LineString", "coordinates": [ [ -91.722737148992195, 47.919407231948099 ], [ -91.722496599999403, 47.919634100009802 ] ] } },
{ "type": "Feature", "properties": { "wmUplineSo": "WINTON", "wmType": "Underground" }, "geometry": { "type": "LineString", "coordinates": [ [ -91.807035249636101, 47.946392391898797 ], [ -91.806874894240096, 47.9465309421781 ] ] } },
{ "type": "Feature", "properties": { "wmUplineSo": "WINTON", "wmType": "Underground" }, "geometry": { "type": "LineString", "coordinates": [ [ -91.807797124228699, 47.945445307007397 ], [ -91.807947399761801, 47.9453803434454 ] ] } },
{ "type": "Feature", "properties": { "wmUplineSo": "WINTON", "wmType": "Underground" }, "geometry": { "type": "LineString", "coordinates": [ [ -91.757477941763298, 47.943121803156899 ], [ -91.757321499999506, 47.943127700009804 ] ] } },
{ "type": "Feature", "properties": { "wmUplineSo": "WINTON", "wmType": "Underground" }, "geometry": { "type": "LineString", "coordinates": [ [ -91.719761542162104, 47.918322984168 ], [ -91.7203046599994, 47.918051670009802 ] ] } },
{ "type": "Feature", "properties": { "wmUplineSo": "WINTON", "wmType": "Underground" }, "geometry": { "type": "LineString", "coordinates": [ [ -91.548268522827897, 47.967950407266898 ], [ -91.548188456670502, 47.967754917496002 ] ] } },
{ "type": "Feature", "properties": { "wmUplineSo": "WINTON", "wmType": "Underground" }, "geometry": { "type": "LineString", "coordinates": [ [ -91.546234944422594, 47.967500785518801 ], [ -91.546302524615299, 47.967146493982199 ] ] } },
{ "type": "Feature", "properties": { "wmUplineSo": "WINTON", "wmType": "Underground" }, "geometry": { "type": "LineString", "coordinates": [ [ -91.538735248883896, 47.949945693765699 ], [ -91.538694627900199, 47.950064920035899 ] ] } },
{ "type": "Feature", "properties": { "wmUplineSo": "WINTON", "wmType": "Underground" }, "geometry": { "type": "LineString", "coordinates": [ [ -91.545197425467805, 47.950738925189697 ], [ -91.544920740804599, 47.950741018496402 ] ] } },
{ "type": "Feature", "properties": { "wmUplineSo": "WINTON", "wmType": "Underground" }, "geometry": { "type": "LineString", "coordinates": [ [ -91.492119555618103, 47.9899160348319 ], [ -91.492106055718395, 47.989958631008797 ] ] } },
{ "type": "Feature", "properties": { "wmUplineSo": "WINTON", "wmType": "Underground" }, "geometry": { "type": "LineString", "coordinates": [ [ -91.407900044603295, 47.970985491822603 ], [ -91.408352876606102, 47.970995251591397 ] ] } },
{ "type": "Feature", "properties": { "wmUplineSo": "WINTON", "wmType": "Underground" }, "geometry": { "type": "LineString", "coordinates": [ [ -91.410988128537198, 47.9683157029813 ], [ -91.411701481952605, 47.968377350809803 ] ] } },
{ "type": "Feature", "properties": { "wmUplineSo": "WINTON", "wmType": "Underground" }, "geometry": { "type": "LineString", "coordinates": [ [ -91.416964421861607, 47.966703189404903 ], [ -91.417462792887903, 47.967113149428997 ] ] } },
{ "type": "Feature", "properties": { "wmUplineSo": "WINTON", "wmType": "Underground" }, "geometry": { "type": "LineString", "coordinates": [ [ -91.729297657268702, 47.953401826226603 ], [ -91.729303694642098, 47.953779497182303 ] ] } },
{ "type": "Feature", "properties": { "wmUplineSo": "WINTON", "wmType": "Underground" }, "geometry": { "type": "LineString", "coordinates": [ [ -91.729297657268702, 47.953401826226603 ], [ -91.729890740125299, 47.953699283839804 ] ] } },
{ "type": "Feature", "properties": { "wmUplineSo": "WINTON", "wmType": "Underground" }, "geometry": { "type": "LineString", "coordinates": [ [ -91.545493490816696, 47.965986052405 ], [ -91.546174751678805, 47.966042318011603 ] ] } },
{ "type": "Feature", "properties": { "wmUplineSo": "WINTON", "wmType": "Underground" }, "geometry": { "type": "LineString", "coordinates": [ [ -91.545493490816696, 47.965986052405 ], [ -91.546153551655195, 47.966077318016502 ] ] } },
{ "type": "Feature", "properties": { "wmUplineSo": "WINTON", "wmType": "Underground" }, "geometry": { "type": "LineString", "coordinates": [ [ -91.549186753627296, 47.951409719746401 ], [ -91.549010649280305, 47.951182917484502 ] ] } },
{ "type": "Feature", "properties": { "wmUplineSo": "WINTON", "wmType": "Underground" }, "geometry": { "type": "LineString", "coordinates": [ [ -91.548127647368503, 47.951120021517603 ], [ -91.548105118478802, 47.951186879282901 ] ] } },
{ "type": "Feature", "properties": { "wmUplineSo": "WINTON", "wmType": "Underground" }, "geometry": { "type": "LineString", "coordinates": [ [ -91.538431504134394, 47.9493722875279 ], [ -91.538420727036197, 47.9494913201098 ] ] } },
{ "type": "Feature", "properties": { "wmUplineSo": "WINTON", "wmType": "Underground" }, "geometry": { "type": "LineString", "coordinates": [ [ -91.536491801478604, 47.949592091839499 ], [ -91.536265622688205, 47.949475020639902 ] ] } },
{ "type": "Feature", "properties": { "wmUplineSo": "WINTON", "wmType": "Underground" }, "geometry": { "type": "LineString", "coordinates": [ [ -91.529707628765905, 47.9848670218366 ], [ -91.529487228080299, 47.9844263219059 ] ] } },
{ "type": "Feature", "properties": { "wmUplineSo": "WINTON", "wmType": "Underground" }, "geometry": { "type": "LineString", "coordinates": [ [ -91.529707628765905, 47.9848670218366 ], [ -91.529704628745804, 47.984843121847703 ], [ -91.529694798057704, 47.9847981580713 ] ] } },
{ "type": "Feature", "properties": { "wmUplineSo": "WINTON", "wmType": "Underground" }, "geometry": { "type": "LineString", "coordinates": [ [ -91.531808362096797, 47.985409832641402 ], [ -91.532158342770103, 47.9850593330126 ] ] } },
{ "type": "Feature", "properties": { "wmUplineSo": "WINTON", "wmType": "Underground" }, "geometry": { "type": "LineString", "coordinates": [ [ -91.531808362096797, 47.985409832641402 ], [ -91.531758132971802, 47.985001121341099 ] ] } },
{ "type": "Feature", "properties": { "wmUplineSo": "WINTON", "wmType": "Underground" }, "geometry": { "type": "LineString", "coordinates": [ [ -91.767664240462807, 47.920015660110998 ], [ -91.767242099999507, 47.920034600009799 ] ] } },
{ "type": "Feature", "properties": { "wmUplineSo": "WINTON", "wmType": "Underground" }, "geometry": { "type": "LineString", "coordinates": [ [ -91.536491801478604, 47.949592091839499 ], [ -91.5361404224533, 47.949506420670303 ] ] } },
{ "type": "Feature", "properties": { "wmUplineSo": "WINTON", "wmType": "Underground" }, "geometry": { "type": "LineString", "coordinates": [ [ -91.528914049494304, 47.983149380288197 ], [ -91.528800226633095, 47.984312222075999 ] ] } },
{ "type": "Feature", "properties": { "wmUplineSo": "WINTON", "wmType": "Underground" }, "geometry": { "type": "LineString", "coordinates": [ [ -91.757479712320304, 47.945449227482897 ], [ -91.757647799999503, 47.945455800009803 ] ] } },
{ "type": "Feature", "properties": { "wmUplineSo": "WINTON", "wmType": "Underground" }, "geometry": { "type": "LineString", "coordinates": [ [ -91.757479712320304, 47.945449227482897 ], [ -91.757651799999493, 47.945463600009901 ] ] } },
{ "type": "Feature", "properties": { "wmUplineSo": "WINTON", "wmType": "Underground" }, "geometry": { "type": "LineString", "coordinates": [ [ -91.749691721115596, 47.950094989427598 ], [ -91.749314799999496, 47.950439900009897 ] ] } },
{ "type": "Feature", "properties": { "wmUplineSo": "WINTON", "wmType": "Underground" }, "geometry": { "type": "LineString", "coordinates": [ [ -91.528914049494304, 47.983149380288197 ], [ -91.529683528349807, 47.984194821860299 ] ] } },
{ "type": "Feature", "properties": { "wmUplineSo": "WINTON", "wmType": "Underground" }, "geometry": { "type": "LineString", "coordinates": [ [ -91.528914049494304, 47.983149380288197 ], [ -91.530125929147403, 47.984022121753497 ] ] } },
{ "type": "Feature", "properties": { "wmUplineSo": "WINTON", "wmType": "Underground" }, "geometry": { "type": "LineString", "coordinates": [ [ -91.528914049494304, 47.983149380288197 ], [ -91.529785228231603, 47.983602121841997 ] ] } },
{ "type": "Feature", "properties": { "wmUplineSo": "WINTON", "wmType": "Underground" }, "geometry": { "type": "LineString", "coordinates": [ [ -91.528914049494304, 47.983149380288197 ], [ -91.529356927301293, 47.983479521948702 ] ] } },
{ "type": "Feature", "properties": { "wmUplineSo": "WINTON", "wmType": "Underground" }, "geometry": { "type": "LineString", "coordinates": [ [ -91.528914049494304, 47.983149380288197 ], [ -91.528950020035495, 47.983694333586399 ] ] } },
{ "type": "Feature", "properties": { "wmUplineSo": "WINTON", "wmType": "Underground" }, "geometry": { "type": "LineString", "coordinates": [ [ -91.528914049494304, 47.983149380288197 ], [ -91.528916126787905, 47.984167522049198 ] ] } },
{ "type": "Feature", "properties": { "wmUplineSo": "WINTON", "wmType": "Underground" }, "geometry": { "type": "LineString", "coordinates": [ [ -91.755008615876903, 47.929423981810203 ], [ -91.753279099999503, 47.928652600009798 ] ] } },
{ "type": "Feature", "properties": { "wmUplineSo": "WINTON", "wmType": "Underground" }, "geometry": { "type": "LineString", "coordinates": [ [ -91.754568218503906, 47.928917818027998 ], [ -91.7529145999995, 47.927871800009797 ] ] } },
{ "type": "Feature", "properties": { "wmUplineSo": "WINTON", "wmType": "Underground" }, "geometry": { "type": "LineString", "coordinates": [ [ -91.564290412570202, 47.952447931056597 ], [ -91.563750979716303, 47.952570513835198 ] ] } },
{ "type": "Feature", "properties": { "wmUplineSo": "WINTON", "wmType": "Underground" }, "geometry": { "type": "LineString", "coordinates": [ [ -91.566139893966906, 47.952014683779502 ], [ -91.566209084401194, 47.952087513234197 ] ] } },
{ "type": "Feature", "properties": { "wmUplineSo": "WINTON", "wmType": "Underground" }, "geometry": { "type": "LineString", "coordinates": [ [ -91.564214451151202, 47.948701365000097 ], [ -91.563991578005897, 47.9485556138224 ] ] } },
{ "type": "Feature", "properties": { "wmUplineSo": "WINTON", "wmType": "Underground" }, "geometry": { "type": "LineString", "coordinates": [ [ -91.564214451151202, 47.948701365000097 ], [ -91.564017178070202, 47.948578913815801 ] ] } },
{ "type": "Feature", "properties": { "wmUplineSo": "WINTON", "wmType": "Underground" }, "geometry": { "type": "LineString", "coordinates": [ [ -91.538639181903804, 47.971856057083698 ], [ -91.538683539795798, 47.971923919787798 ] ] } },
{ "type": "Feature", "properties": { "wmUplineSo": "WINTON", "wmType": "Underground" }, "geometry": { "type": "LineString", "coordinates": [ [ -91.539975036404599, 47.972947889912803 ], [ -91.539997643015496, 47.972971819452397 ] ] } },
{ "type": "Feature", "properties": { "wmUplineSo": "WINTON", "wmType": "Underground" }, "geometry": { "type": "LineString", "coordinates": [ [ -91.757394645533495, 47.946662600000302 ], [ -91.757638099999497, 47.9466686000099 ] ] } },
{ "type": "Feature", "properties": { "wmUplineSo": "WINTON", "wmType": "Underground" }, "geometry": { "type": "LineString", "coordinates": [ [ -91.757394645533495, 47.946662600000302 ], [ -91.757635099999504, 47.946670100009797 ] ] } },
{ "type": "Feature", "properties": { "wmUplineSo": "WINTON", "wmType": "Underground" }, "geometry": { "type": "LineString", "coordinates": [ [ -91.531037643706, 47.976309207707999 ], [ -91.531020526730302, 47.976281921622203 ] ] } },
{ "type": "Feature", "properties": { "wmUplineSo": "WINTON", "wmType": "Underground" }, "geometry": { "type": "LineString", "coordinates": [ [ -91.564290412570202, 47.952447931056597 ], [ -91.563744479708305, 47.952579813836699 ] ] } },
{ "type": "Feature", "properties": { "wmUplineSo": "WINTON", "wmType": "Underground" }, "geometry": { "type": "LineString", "coordinates": [ [ -91.567076209362, 47.949022130052299 ], [ -91.567065184553698, 47.949214613056299 ] ] } },
{ "type": "Feature", "properties": { "wmUplineSo": "WINTON", "wmType": "Underground" }, "geometry": { "type": "LineString", "coordinates": [ [ -91.567076209362, 47.949022130052299 ], [ -91.567405105626094, 47.950539157588103 ] ] } },
{ "type": "Feature", "properties": { "wmUplineSo": "WINTON", "wmType": "Underground" }, "geometry": { "type": "LineString", "coordinates": [ [ -91.562689172784104, 47.9473054461332 ], [ -91.562627574607404, 47.947361414172697 ] ] } },
{ "type": "Feature", "properties": { "wmUplineSo": "WINTON", "wmType": "Underground" }, "geometry": { "type": "LineString", "coordinates": [ [ -91.565881600290993, 47.9488404247696 ], [ -91.565837426119401, 47.948844433870804 ] ] } },
{ "type": "Feature", "properties": { "wmUplineSo": "WINTON", "wmType": "Underground" }, "geometry": { "type": "LineString", "coordinates": [ [ -91.563168707442699, 47.953428587469901 ], [ -91.563551679884995, 47.953613113872301 ] ] } },
{ "type": "Feature", "properties": { "wmUplineSo": "WINTON", "wmType": "Underground" }, "geometry": { "type": "LineString", "coordinates": [ [ -91.764526294250601, 47.9219742776367 ], [ -91.765059499999495, 47.921859600009803 ] ] } },
{ "type": "Feature", "properties": { "wmUplineSo": "WINTON", "wmType": "Underground" }, "geometry": { "type": "LineString", "coordinates": [ [ -91.755265198844796, 47.929073744734801 ], [ -91.755252999999499, 47.9290316000098 ] ] } },
{ "type": "Feature", "properties": { "wmUplineSo": "WINTON", "wmType": "Underground" }, "geometry": { "type": "LineString", "coordinates": [ [ -91.495265304955296, 47.989386222123599 ], [ -91.495103661562396, 47.989588230279601 ] ] } },
{ "type": "Feature", "properties": { "wmUplineSo": "WINTON", "wmType": "Underground" }, "geometry": { "type": "LineString", "coordinates": [ [ -91.758247413271903, 47.943572788477702 ], [ -91.758720099999493, 47.943583100009903 ] ] } },
{ "type": "Feature", "properties": { "wmUplineSo": "WINTON", "wmType": "Underground" }, "geometry": { "type": "LineString", "coordinates": [ [ -91.704290382534893, 47.934145438848603 ], [ -91.703721751401702, 47.934528879211499 ] ] } },
{ "type": "Feature", "properties": { "wmUplineSo": "WINTON", "wmType": "Underground" }, "geometry": { "type": "LineString", "coordinates": [ [ -91.704290382534893, 47.934145438848603 ], [ -91.703727051413097, 47.934530079210198 ] ] } },
{ "type": "Feature", "properties": { "wmUplineSo": "WINTON", "wmType": "Underground" }, "geometry": { "type": "LineString", "coordinates": [ [ -91.545197425467805, 47.950738925189697 ], [ -91.544962140874205, 47.950715818486501 ] ] } },
{ "type": "Feature", "properties": { "wmUplineSo": "WINTON", "wmType": "Underground" }, "geometry": { "type": "LineString", "coordinates": [ [ -91.513163877389303, 47.981382129373998 ], [ -91.512932841445902, 47.981624838340203 ] ] } },
{ "type": "Feature", "properties": { "wmUplineSo": "WINTON", "wmType": "Underground" }, "geometry": { "type": "LineString", "coordinates": [ [ -91.513163877389303, 47.981382129373998 ], [ -91.513548642909996, 47.981302338330899 ] ] } },
{ "type": "Feature", "properties": { "wmUplineSo": "WINTON", "wmType": "Underground" }, "geometry": { "type": "LineString", "coordinates": [ [ -91.798623108080704, 47.947919036668097 ], [ -91.798618470509695, 47.947925032740201 ] ] } },
{ "type": "Feature", "properties": { "wmUplineSo": "WINTON", "wmType": "Underground" }, "geometry": { "type": "LineString", "coordinates": [ [ -91.744487725887097, 47.938027498486797 ], [ -91.744562299999501, 47.937956100009799 ] ] } },
{ "type": "Feature", "properties": { "wmUplineSo": "WINTON", "wmType": "Underground" }, "geometry": { "type": "LineString", "coordinates": [ [ -91.549691240847693, 47.950560420509198 ], [ -91.549940550876897, 47.950677617261299 ] ] } },
{ "type": "Feature", "properties": { "wmUplineSo": "WINTON", "wmType": "Underground" }, "geometry": { "type": "LineString", "coordinates": [ [ -91.460208877663604, 47.971667035990997 ], [ -91.460039080997205, 47.971361839043396 ] ] } },
{ "type": "Feature", "properties": { "wmUplineSo": "WINTON", "wmType": "Underground" }, "geometry": { "type": "LineString", "coordinates": [ [ -91.538378480188399, 47.971830079448601 ], [ -91.538639181903804, 47.971856057083698 ] ] } },
{ "type": "Feature", "properties": { "wmUplineSo": "WINTON", "wmType": "Underground" }, "geometry": { "type": "LineString", "coordinates": [ [ -91.538639181903804, 47.971856057083698 ], [ -91.539616354320401, 47.972089883675601 ] ] } },
{ "type": "Feature", "properties": { "wmUplineSo": "WINTON", "wmType": "Underground" }, "geometry": { "type": "LineString", "coordinates": [ [ -91.539616354320401, 47.972089883675601 ], [ -91.539964340780699, 47.972572809264499 ] ] } },
{ "type": "Feature", "properties": { "wmUplineSo": "WINTON", "wmType": "Underground" }, "geometry": { "type": "LineString", "coordinates": [ [ -91.548127647368503, 47.951120021517603 ], [ -91.548139458982902, 47.951102831031299 ], [ -91.549203592292102, 47.951378766504597 ], [ -91.549186753627296, 47.951409719746401 ] ] } },
{ "type": "Feature", "properties": { "wmUplineSo": "WINTON", "wmType": "Underground" }, "geometry": { "type": "LineString", "coordinates": [ [ -91.529707628765905, 47.9848670218366 ], [ -91.529607907466399, 47.984881750752898 ] ] } },
{ "type": "Feature", "properties": { "wmUplineSo": "WINTON", "wmType": "Underground" }, "geometry": { "type": "LineString", "coordinates": [ [ -91.491778986240504, 47.990733414862497 ], [ -91.491558554711403, 47.9903300349646 ] ] } },
{ "type": "Feature", "properties": { "wmUplineSo": "WINTON", "wmType": "Underground" }, "geometry": { "type": "LineString", "coordinates": [ [ -91.756392868696594, 47.943934826632002 ], [ -91.756424311960501, 47.943484148424403 ], [ -91.756795766641105, 47.943125661519801 ], [ -91.757477941763298, 47.943121803156899 ] ] } },
{ "type": "Feature", "properties": { "wmUplineSo": "WINTON", "wmType": "Underground" }, "geometry": { "type": "LineString", "coordinates": [ [ -91.526580354270294, 47.979112540394297 ], [ -91.526373300161794, 47.979599256516501 ], [ -91.526373300161794, 47.979599256516501 ] ] } },
{ "type": "Feature", "properties": { "wmUplineSo": "WINTON", "wmType": "Underground" }, "geometry": { "type": "LineString", "coordinates": [ [ -91.801753499205901, 47.945482345703098 ], [ -91.803743246984297, 47.946345687881099 ], [ -91.805770937440698, 47.946496264883201 ], [ -91.807035249636101, 47.946392391898797 ] ] } },
{ "type": "Feature", "properties": { "wmUplineSo": "WINTON", "wmType": "Underground" }, "geometry": { "type": "LineString", "coordinates": [ [ -91.807035249636101, 47.946392391898797 ], [ -91.806996635619598, 47.945827715745096 ], [ -91.807797124228699, 47.945445307007397 ] ] } },
{ "type": "Feature", "properties": { "wmUplineSo": "WINTON", "wmType": "Underground" }, "geometry": { "type": "LineString", "coordinates": [ [ -91.727889999913302, 47.920024003816202 ], [ -91.729030937574905, 47.920081821878597 ], [ -91.729306535696395, 47.919674218148003 ], [ -91.7293675408837, 47.919193605660801 ], [ -91.728985534211503, 47.918832393427003 ], [ -91.727796958546094, 47.918762431199397 ], [ -91.723643193038498, 47.9188507759158 ], [ -91.719761542162104, 47.918322984168 ] ] } },
{ "type": "Feature", "properties": { "wmUplineSo": "WINTON", "wmType": "Underground" }, "geometry": { "type": "LineString", "coordinates": [ [ -91.719761542162104, 47.918322984168 ], [ -91.722737148992195, 47.919407231948099 ] ] } },
{ "type": "Feature", "properties": { "wmUplineSo": "WINTON", "wmType": "Underground" }, "geometry": { "type": "LineString", "coordinates": [ [ -91.546234944422594, 47.967500785518801 ], [ -91.546619611022706, 47.967591505002702 ], [ -91.5470366821704, 47.967634872329498 ], [ -91.5476695940295, 47.967645680037698 ], [ -91.548268522827897, 47.967950407266898 ] ] } },
{ "type": "Feature", "properties": { "wmUplineSo": "WINTON", "wmType": "Underground" }, "geometry": { "type": "LineString", "coordinates": [ [ -91.538735248883896, 47.949945693765699 ], [ -91.543996400782007, 47.950160286315501 ], [ -91.544975446436695, 47.950265426827102 ], [ -91.545197425467805, 47.950738925189697 ], [ -91.545197425467805, 47.950738925189697 ] ] } },
{ "type": "Feature", "properties": { "wmUplineSo": "WINTON", "wmType": "Underground" }, "geometry": { "type": "LineString", "coordinates": [ [ -91.430980939965096, 47.9731703243338 ], [ -91.4249157481309, 47.972546996411999 ], [ -91.416861556445099, 47.9716951330564 ], [ -91.414074974707404, 47.970256042872599 ], [ -91.411136474484294, 47.970130441096003 ], [ -91.407900044603295, 47.970985491822603 ] ] } },
{ "type": "Feature", "properties": { "wmUplineSo": "WINTON", "wmType": "Underground" }, "geometry": { "type": "LineString", "coordinates": [ [ -91.407900044603295, 47.970985491822603 ], [ -91.407947010643397, 47.970108479416403 ], [ -91.409029731595197, 47.9697503901658 ], [ -91.410768998915998, 47.9693532167244 ], [ -91.410988128537198, 47.9683157029813 ] ] } },
{ "type": "Feature", "properties": { "wmUplineSo": "WINTON", "wmType": "Underground" }, "geometry": { "type": "LineString", "coordinates": [ [ -91.410988128537198, 47.9683157029813 ], [ -91.412083882071599, 47.969155735174901 ], [ -91.413092818889993, 47.969142442896803 ], [ -91.414133840191298, 47.968528680332398 ], [ -91.414212631499595, 47.967679817410101 ], [ -91.415531422542998, 47.968054997003797 ], [ -91.416719172341999, 47.967839297502998 ], [ -91.416964421861607, 47.966703189404903 ] ] } },
{ "type": "Feature", "properties": { "wmUplineSo": "WINTON", "wmType": "Underground" }, "geometry": { "type": "LineString", "coordinates": [ [ -91.729076020062493, 47.948203137948603 ], [ -91.729123993917895, 47.948200775908603 ], [ -91.729124137050107, 47.948205062884597 ] ] } },
{ "type": "Feature", "properties": { "wmUplineSo": "WINTON", "wmType": "Underground" }, "geometry": { "type": "LineString", "coordinates": [ [ -91.545493490816696, 47.965986052405 ], [ -91.544690873794707, 47.966486487072601 ], [ -91.544433890376595, 47.966674419998597 ], [ -91.544146910251996, 47.966884286564003 ], [ -91.544304841730494, 47.967183725321398 ], [ -91.544745202518797, 47.967443043131198 ], [ -91.545078909316501, 47.9676395528586 ], [ -91.545625074204807, 47.967573994200897 ], [ -91.546234944422594, 47.967500785518801 ] ] } },
{ "type": "Feature", "properties": { "wmUplineSo": "WINTON", "wmType": "Underground" }, "geometry": { "type": "LineString", "coordinates": [ [ -91.538431504134394, 47.9493722875279 ], [ -91.538735248883896, 47.949945693765699 ], [ -91.538735248883896, 47.949945693765699 ] ] } },
{ "type": "Feature", "properties": { "wmUplineSo": "WINTON", "wmType": "Underground" }, "geometry": { "type": "LineString", "coordinates": [ [ -91.536491801478604, 47.949592091839499 ], [ -91.536525428498294, 47.949499645354997 ] ] } },
{ "type": "Feature", "properties": { "wmUplineSo": "WINTON", "wmType": "Underground" }, "geometry": { "type": "LineString", "coordinates": [ [ -91.536525428498294, 47.949499645354997 ], [ -91.536658774398006, 47.949229899148001 ], [ -91.537333777857896, 47.948904953313303 ], [ -91.537915808797095, 47.948941253573501 ], [ -91.538431504134394, 47.9493722875279 ], [ -91.538431504134394, 47.9493722875279 ] ] } },
{ "type": "Feature", "properties": { "wmUplineSo": "WINTON", "wmType": "Underground" }, "geometry": { "type": "LineString", "coordinates": [ [ -91.535288586041901, 47.970761701947801 ], [ -91.536422781265898, 47.970838448238801 ] ] } },
{ "type": "Feature", "properties": { "wmUplineSo": "WINTON", "wmType": "Underground" }, "geometry": { "type": "LineString", "coordinates": [ [ -91.526373300161794, 47.979599256516501 ], [ -91.526257754997005, 47.979773939938603 ], [ -91.526897869994301, 47.981161787221701 ], [ -91.528386692277394, 47.981030495321299 ], [ -91.529467259750405, 47.981635267688297 ], [ -91.529805532671105, 47.982264327420701 ], [ -91.528914049494304, 47.983149380288197 ] ] } },
{ "type": "Feature", "properties": { "wmUplineSo": "WINTON", "wmType": "Underground" }, "geometry": { "type": "LineString", "coordinates": [ [ -91.528914049494304, 47.983149380288197 ], [ -91.529844720362107, 47.983201886271502 ], [ -91.530315101692395, 47.9833697875018 ], [ -91.530521427842899, 47.983596203932599 ], [ -91.530567873500999, 47.983958649082503 ], [ -91.530427429409698, 47.984409165563598 ], [ -91.529707628765905, 47.9848670218366 ] ] } },
{ "type": "Feature", "properties": { "wmUplineSo": "WINTON", "wmType": "Underground" }, "geometry": { "type": "LineString", "coordinates": [ [ -91.771327400623704, 47.920069364941099 ], [ -91.767664240462807, 47.920015660110998 ] ] } },
{ "type": "Feature", "properties": { "wmUplineSo": "WINTON", "wmType": "Underground" }, "geometry": { "type": "LineString", "coordinates": [ [ -91.757582831206307, 47.944072773002098 ], [ -91.757218249607206, 47.945167905187603 ], [ -91.7563673899854, 47.9454287222228 ], [ -91.756368142170004, 47.945447940766201 ] ] } },
{ "type": "Feature", "properties": { "wmUplineSo": "WINTON", "wmType": "Underground" }, "geometry": { "type": "LineString", "coordinates": [ [ -91.756368142170004, 47.945447940766201 ], [ -91.757479712320304, 47.945449227482897 ] ] } },
{ "type": "Feature", "properties": { "wmUplineSo": "WINTON", "wmType": "Underground" }, "geometry": { "type": "LineString", "coordinates": [ [ -91.756347269055098, 47.946651261786698 ], [ -91.756331582152796, 47.947414845833897 ], [ -91.7548892130838, 47.948287528623403 ], [ -91.753735616987896, 47.9490324091934 ], [ -91.752651122670997, 47.949467341793998 ], [ -91.751241260538094, 47.9495010133571 ], [ -91.749691721115596, 47.950094989427598 ] ] } },
{ "type": "Feature", "properties": { "wmUplineSo": "WINTON", "wmType": "Underground" }, "geometry": { "type": "LineString", "coordinates": [ [ -91.756368142170004, 47.945447940766201 ], [ -91.756347269055098, 47.946651261786698 ] ] } },
{ "type": "Feature", "properties": { "wmUplineSo": "WINTON", "wmType": "Underground" }, "geometry": { "type": "LineString", "coordinates": [ [ -91.564290412570202, 47.952447931056597 ], [ -91.564198810059807, 47.952234582990599 ], [ -91.564511973002595, 47.951927552003603 ], [ -91.564928055984097, 47.9516871276141 ], [ -91.565727598188104, 47.951641082558403 ], [ -91.566063025765501, 47.951734405487301 ], [ -91.566252857757902, 47.951974356327298 ], [ -91.566139893966906, 47.952014683779502 ] ] } },
{ "type": "Feature", "properties": { "wmUplineSo": "WINTON", "wmType": "Underground" }, "geometry": { "type": "LineString", "coordinates": [ [ -91.556103707389696, 47.952136121999096 ], [ -91.556288636040804, 47.952147043333198 ], [ -91.556653385157404, 47.952143243539297 ], [ -91.557055422980994, 47.9521431194269 ], [ -91.557468782409003, 47.9519197605076 ], [ -91.559703812354897, 47.951859064774901 ], [ -91.560991770878402, 47.9521585186111 ], [ -91.563554549365605, 47.952362699816099 ], [ -91.563853517469198, 47.952307489829003 ], [ -91.564290412570202, 47.952447931056597 ] ] } },
{ "type": "Feature", "properties": { "wmUplineSo": "WINTON", "wmType": "Underground" }, "geometry": { "type": "LineString", "coordinates": [ [ -91.566139893966906, 47.952014683779502 ], [ -91.566049056592306, 47.9514870818291 ], [ -91.5657001507264, 47.950849443585597 ], [ -91.564252468183099, 47.949736984066703 ], [ -91.563813942267203, 47.9492426084229 ], [ -91.563862641348607, 47.9488908145591 ], [ -91.564214451151202, 47.948701365000097 ] ] } },
{ "type": "Feature", "properties": { "wmUplineSo": "WINTON", "wmType": "Underground" }, "geometry": { "type": "LineString", "coordinates": [ [ -91.755265198844796, 47.929073744734801 ], [ -91.755008615876903, 47.929423981810203 ] ] } },
{ "type": "Feature", "properties": { "wmUplineSo": "WINTON", "wmType": "Underground" }, "geometry": { "type": "LineString", "coordinates": [ [ -91.755008615876903, 47.929423981810203 ], [ -91.754568218503906, 47.928917818027998 ] ] } },
{ "type": "Feature", "properties": { "wmUplineSo": "WINTON", "wmType": "Underground" }, "geometry": { "type": "LineString", "coordinates": [ [ -91.536422781265898, 47.970838448238801 ], [ -91.536907549457993, 47.971238498546903 ], [ -91.537509493309599, 47.971757081522398 ], [ -91.538378480188399, 47.971830079448601 ] ] } },
{ "type": "Feature", "properties": { "wmUplineSo": "WINTON", "wmType": "Underground" }, "geometry": { "type": "LineString", "coordinates": [ [ -91.756347269055098, 47.946651261786698 ], [ -91.757394645533495, 47.946662600000302 ] ] } },
{ "type": "Feature", "properties": { "wmUplineSo": "WINTON", "wmType": "Underground" }, "geometry": { "type": "LineString", "coordinates": [ [ -91.531239430909395, 47.977095645945603 ], [ -91.530849997916306, 47.977031186525998 ], [ -91.530823490260801, 47.9765774493668 ], [ -91.531052961164406, 47.976571397497999 ], [ -91.531037643706, 47.976309207707999 ] ] } },
{ "type": "Feature", "properties": { "wmUplineSo": "WINTON", "wmType": "Underground" }, "geometry": { "type": "LineString", "coordinates": [ [ -91.565652157783504, 47.948008348410099 ], [ -91.566711225632005, 47.948752646165502 ] ] } },
{ "type": "Feature", "properties": { "wmUplineSo": "WINTON", "wmType": "Underground" }, "geometry": { "type": "LineString", "coordinates": [ [ -91.566711225632005, 47.948752646165502 ], [ -91.565881600290993, 47.9488404247696 ] ] } },
{ "type": "Feature", "properties": { "wmUplineSo": "WINTON", "wmType": "Underground" }, "geometry": { "type": "LineString", "coordinates": [ [ -91.829491408704101, 47.923592661646801 ], [ -91.8298221999502, 47.923125123648497 ] ] } },
{ "type": "Feature", "properties": { "wmUplineSo": "WINTON", "wmType": "Underground" }, "geometry": { "type": "LineString", "coordinates": [ [ -91.564214451151202, 47.948701365000097 ], [ -91.565652157783504, 47.948008348410099 ] ] } },
{ "type": "Feature", "properties": { "wmUplineSo": "WINTON", "wmType": "Underground" }, "geometry": { "type": "LineString", "coordinates": [ [ -91.565652157783504, 47.948008348410099 ], [ -91.563165740702303, 47.947020296432598 ], [ -91.562689172784104, 47.9473054461332 ] ] } },
{ "type": "Feature", "properties": { "wmUplineSo": "WINTON", "wmType": "Underground" }, "geometry": { "type": "LineString", "coordinates": [ [ -91.566711225632005, 47.948752646165502 ], [ -91.5670762093619, 47.949022130052398 ], [ -91.567076209362, 47.949022130052299 ] ] } },
{ "type": "Feature", "properties": { "wmUplineSo": "WINTON", "wmType": "Underground" }, "geometry": { "type": "LineString", "coordinates": [ [ -91.766502860989803, 47.9230262104563 ], [ -91.7645355771932, 47.922334625443803 ], [ -91.764526294250601, 47.9219742776367 ] ] } },
{ "type": "Feature", "properties": { "wmUplineSo": "WINTON", "wmType": "Underground" }, "geometry": { "type": "LineString", "coordinates": [ [ -91.494768188806006, 47.989267111867598 ], [ -91.495265304955296, 47.989386222123599 ] ] } },
{ "type": "Feature", "properties": { "wmUplineSo": "WINTON", "wmType": "Underground" }, "geometry": { "type": "LineString", "coordinates": [ [ -91.757993894515906, 47.9439879913703 ], [ -91.758247413271903, 47.943572788477702 ] ] } },
{ "type": "Feature", "properties": { "wmUplineSo": "WINTON", "wmType": "Underground" }, "geometry": { "type": "LineString", "coordinates": [ [ -91.757910769532998, 47.944124127809602 ], [ -91.757993894515906, 47.9439879913703 ] ] } },
{ "type": "Feature", "properties": { "wmUplineSo": "WINTON", "wmType": "Underground" }, "geometry": { "type": "LineString", "coordinates": [ [ -91.539964340780699, 47.972572809264499 ], [ -91.539975036404599, 47.972947889912803 ] ] } },
{ "type": "Feature", "properties": { "wmUplineSo": "WINTON", "wmType": "Underground" }, "geometry": { "type": "LineString", "coordinates": [ [ -91.701891041534395, 47.933636703196797 ], [ -91.702361880737598, 47.933942678913702 ] ] } },
{ "type": "Feature", "properties": { "wmUplineSo": "WINTON", "wmType": "Underground" }, "geometry": { "type": "LineString", "coordinates": [ [ -91.702361880737598, 47.933942678913702 ], [ -91.7031865809018, 47.9341943558114 ], [ -91.703869550166402, 47.934132963262897 ], [ -91.704124752453097, 47.9341289601645 ], [ -91.704290382534893, 47.934145438848603 ] ] } },
{ "type": "Feature", "properties": { "wmUplineSo": "WINTON", "wmType": "Underground" }, "geometry": { "type": "LineString", "coordinates": [ [ -91.564290412570202, 47.952447931056597 ], [ -91.564644660755107, 47.953109982527302 ], [ -91.563168707442699, 47.953428587469901 ] ] } },
{ "type": "Feature", "properties": { "wmUplineSo": "WINTON", "wmType": "Underground" }, "geometry": { "type": "LineString", "coordinates": [ [ -91.798765973760894, 47.947760328553699 ], [ -91.798623108080704, 47.947919036668097 ] ] } },
{ "type": "Feature", "properties": { "wmUplineSo": "WINTON", "wmType": "Underground" }, "geometry": { "type": "LineString", "coordinates": [ [ -91.555895695134396, 47.952123836903603 ], [ -91.556103707389696, 47.952136121999096 ] ] } },
{ "type": "Feature", "properties": { "wmUplineSo": "WINTON", "wmType": "Underground" }, "geometry": { "type": "LineString", "coordinates": [ [ -91.511813457298302, 47.982117653831999 ], [ -91.513163877389303, 47.981382129373998 ] ] } },
{ "type": "Feature", "properties": { "wmUplineSo": "WINTON", "wmType": "Underground" }, "geometry": { "type": "LineString", "coordinates": [ [ -91.511795275197898, 47.982293574596 ], [ -91.511813457298302, 47.982117653831999 ] ] } },
{ "type": "Feature", "properties": { "wmUplineSo": "WINTON", "wmType": "Underground" }, "geometry": { "type": "LineString", "coordinates": [ [ -91.744050286891294, 47.938756127667098 ], [ -91.744487725887097, 47.938027498486797 ] ] } },
{ "type": "Feature", "properties": { "wmUplineSo": "WINTON", "wmType": "Underground" }, "geometry": { "type": "LineString", "coordinates": [ [ -91.727953184322999, 47.9447008623901 ], [ -91.728553092183901, 47.944787425129199 ] ] } },
{ "type": "Feature", "properties": { "wmUplineSo": "WINTON", "wmType": "Underground" }, "geometry": { "type": "LineString", "coordinates": [ [ -91.4928577398383, 47.990624743455498 ], [ -91.492851908526404, 47.990793792969797 ] ] } },
{ "type": "Feature", "properties": { "wmUplineSo": "WINTON", "wmType": "Underground" }, "geometry": { "type": "LineString", "coordinates": [ [ -91.538378480188399, 47.971830079448601 ], [ -91.538266638896701, 47.971814019881698 ] ] } }
]
}
