{
"type": "FeatureCollection",
"crs": { "type": "name", "properties": { "name": "urn:ogc:def:crs:OGC:1.3:CRS84" } },
"features": [
{ "type": "Feature", "properties": { "wmUplineSo": "WRIGHT", "wmType": "Underground" }, "geometry": { "type": "LineString", "coordinates": [ [ -93.040922179789007, 46.651545363706902 ], [ -93.040910743948999, 46.651865867993997 ] ] } },
{ "type": "Feature", "properties": { "wmUplineSo": "WRIGHT", "wmType": "Underground" }, "geometry": { "type": "LineString", "coordinates": [ [ -93.040910743948999, 46.651865867993997 ], [ -93.040903126425803, 46.652218262680499 ] ] } },
{ "type": "Feature", "properties": { "wmUplineSo": "WRIGHT", "wmType": "Underground" }, "geometry": { "type": "LineString", "coordinates": [ [ -93.040903126425803, 46.652218262680499 ], [ -93.040918987178102, 46.652589179278301 ] ] } },
{ "type": "Feature", "properties": { "wmUplineSo": "WRIGHT", "wmType": "Underground" }, "geometry": { "type": "LineString", "coordinates": [ [ -93.040918987178102, 46.652589179278301 ], [ -93.040973737847807, 46.652910344319899 ] ] } },
{ "type": "Feature", "properties": { "wmUplineSo": "WRIGHT", "wmType": "Underground" }, "geometry": { "type": "LineString", "coordinates": [ [ -93.040973737847807, 46.652910344319899 ], [ -93.040814829845004, 46.653046838215303 ] ] } },
{ "type": "Feature", "properties": { "wmUplineSo": "WRIGHT", "wmType": "Underground" }, "geometry": { "type": "LineString", "coordinates": [ [ -93.040814829845004, 46.653046838215303 ], [ -93.040485696251096, 46.653311818259397 ] ] } },
{ "type": "Feature", "properties": { "wmUplineSo": "WRIGHT", "wmType": "Underground" }, "geometry": { "type": "LineString", "coordinates": [ [ -93.040485696251096, 46.653311818259397 ], [ -93.040080809371204, 46.653582254227103 ] ] } },
{ "type": "Feature", "properties": { "wmUplineSo": "WRIGHT", "wmType": "Underground" }, "geometry": { "type": "LineString", "coordinates": [ [ -93.040080809371204, 46.653582254227103 ], [ -93.039992884754497, 46.653679652451302 ] ] } },
{ "type": "Feature", "properties": { "wmUplineSo": "WRIGHT", "wmType": "Underground" }, "geometry": { "type": "LineString", "coordinates": [ [ -93.039992884754497, 46.653679652451302 ], [ -93.040179415187694, 46.653821570287903 ] ] } },
{ "type": "Feature", "properties": { "wmUplineSo": "WRIGHT", "wmType": "Underground" }, "geometry": { "type": "LineString", "coordinates": [ [ -93.040179415187694, 46.653821570287903 ], [ -93.040197238195404, 46.6538325782196 ] ] } },
{ "type": "Feature", "properties": { "wmUplineSo": "WRIGHT", "wmType": "Underground" }, "geometry": { "type": "LineString", "coordinates": [ [ -93.1578779999396, 46.556095193445799 ], [ -93.157885999828594, 46.5559580964552 ] ] } },
{ "type": "Feature", "properties": { "wmUplineSo": "WRIGHT", "wmType": "Underground" }, "geometry": { "type": "LineString", "coordinates": [ [ -93.157885999828594, 46.5559580964552 ], [ -93.157877999666297, 46.555797692972298 ] ] } },
{ "type": "Feature", "properties": { "wmUplineSo": "WRIGHT", "wmType": "Underground" }, "geometry": { "type": "LineString", "coordinates": [ [ -93.157877999666297, 46.555797692972298 ], [ -93.157847813603993, 46.555792838542096 ] ] } },
{ "type": "Feature", "properties": { "wmUplineSo": "WRIGHT", "wmType": "Underground" }, "geometry": { "type": "LineString", "coordinates": [ [ -93.152823446730494, 46.556033997918497 ], [ -93.152353404195296, 46.556033540949201 ] ] } },
{ "type": "Feature", "properties": { "wmUplineSo": "WRIGHT", "wmType": "Underground" }, "geometry": { "type": "LineString", "coordinates": [ [ -93.152353404195296, 46.556033540949201 ], [ -93.1515126124266, 46.55600770425 ] ] } },
{ "type": "Feature", "properties": { "wmUplineSo": "WRIGHT", "wmType": "Underground" }, "geometry": { "type": "LineString", "coordinates": [ [ -93.1515126124266, 46.55600770425 ], [ -93.1513024602705, 46.556013131534201 ] ] } },
{ "type": "Feature", "properties": { "wmUplineSo": "WRIGHT", "wmType": "Underground" }, "geometry": { "type": "LineString", "coordinates": [ [ -93.1513024602705, 46.556013131534201 ], [ -93.151065, 46.555854 ] ] } },
{ "type": "Feature", "properties": { "wmUplineSo": "WRIGHT", "wmType": "Underground" }, "geometry": { "type": "LineString", "coordinates": [ [ -93.151065, 46.555854 ], [ -93.15102, 46.555799999999898 ] ] } },
{ "type": "Feature", "properties": { "wmUplineSo": "WRIGHT", "wmType": "Underground" }, "geometry": { "type": "LineString", "coordinates": [ [ -93.036732156582005, 46.655556174041102 ], [ -93.0366945110177, 46.655538206604 ] ] } },
{ "type": "Feature", "properties": { "wmUplineSo": "WRIGHT", "wmType": "Underground" }, "geometry": { "type": "LineString", "coordinates": [ [ -93.0366945110177, 46.655538206604 ], [ -93.036976579660106, 46.6551494874018 ] ] } },
{ "type": "Feature", "properties": { "wmUplineSo": "WRIGHT", "wmType": "Underground" }, "geometry": { "type": "LineString", "coordinates": [ [ -93.036976579660106, 46.6551494874018 ], [ -93.036547259487094, 46.654986908085199 ] ] } },
{ "type": "Feature", "properties": { "wmUplineSo": "WRIGHT", "wmType": "Underground" }, "geometry": { "type": "LineString", "coordinates": [ [ -93.036547259487094, 46.654986908085199 ], [ -93.036521524083497, 46.6549108364473 ] ] } },
{ "type": "Feature", "properties": { "wmUplineSo": "WRIGHT", "wmType": "Underground" }, "geometry": { "type": "LineString", "coordinates": [ [ -93.036521524083497, 46.6549108364473 ], [ -93.035815006259895, 46.654788152295701 ] ] } },
{ "type": "Feature", "properties": { "wmUplineSo": "WRIGHT", "wmType": "Underground" }, "geometry": { "type": "LineString", "coordinates": [ [ -93.035815006259895, 46.654788152295701 ], [ -93.034687265314503, 46.654592597624401 ] ] } },
{ "type": "Feature", "properties": { "wmUplineSo": "WRIGHT", "wmType": "Underground" }, "geometry": { "type": "LineString", "coordinates": [ [ -93.189196746031797, 46.491162323019999 ], [ -93.189170864270494, 46.4910002897076 ] ] } },
{ "type": "Feature", "properties": { "wmUplineSo": "WRIGHT", "wmType": "Underground" }, "geometry": { "type": "LineString", "coordinates": [ [ -93.189170864270494, 46.4910002897076 ], [ -93.189231468177695, 46.490811469258801 ] ] } },
{ "type": "Feature", "properties": { "wmUplineSo": "WRIGHT", "wmType": "Underground" }, "geometry": { "type": "LineString", "coordinates": [ [ -93.193866575438705, 46.4917294451689 ], [ -93.194002000010798, 46.491883003423403 ] ] } },
{ "type": "Feature", "properties": { "wmUplineSo": "WRIGHT", "wmType": "Underground" }, "geometry": { "type": "LineString", "coordinates": [ [ -93.194002000010798, 46.491883003423403 ], [ -93.194028000010803, 46.491975003423498 ] ] } },
{ "type": "Feature", "properties": { "wmUplineSo": "WRIGHT", "wmType": "Underground" }, "geometry": { "type": "LineString", "coordinates": [ [ -93.194028000010803, 46.491975003423498 ], [ -93.193997000010796, 46.492114003423403 ] ] } },
{ "type": "Feature", "properties": { "wmUplineSo": "WRIGHT", "wmType": "Underground" }, "geometry": { "type": "LineString", "coordinates": [ [ -93.193997000010796, 46.492114003423403 ], [ -93.193972000010803, 46.492282003423597 ] ] } },
{ "type": "Feature", "properties": { "wmUplineSo": "WRIGHT", "wmType": "Underground" }, "geometry": { "type": "LineString", "coordinates": [ [ -93.193972000010803, 46.492282003423597 ], [ -93.193803000010803, 46.492466003423502 ] ] } },
{ "type": "Feature", "properties": { "wmUplineSo": "WRIGHT", "wmType": "Underground" }, "geometry": { "type": "LineString", "coordinates": [ [ -93.193803000010803, 46.492466003423502 ], [ -93.193794000010797, 46.492552003423597 ] ] } },
{ "type": "Feature", "properties": { "wmUplineSo": "WRIGHT", "wmType": "Underground" }, "geometry": { "type": "LineString", "coordinates": [ [ -93.193794000010797, 46.492552003423597 ], [ -93.193642000010797, 46.492685003423702 ] ] } },
{ "type": "Feature", "properties": { "wmUplineSo": "WRIGHT", "wmType": "Underground" }, "geometry": { "type": "LineString", "coordinates": [ [ -93.193642000010797, 46.492685003423702 ], [ -93.1935817, 46.492696100008203 ] ] } },
{ "type": "Feature", "properties": { "wmUplineSo": "WRIGHT", "wmType": "Underground" }, "geometry": { "type": "LineString", "coordinates": [ [ -93.039863112914304, 46.664466869004798 ], [ -93.039853000002097, 46.6646230034697 ] ] } },
{ "type": "Feature", "properties": { "wmUplineSo": "WRIGHT", "wmType": "Underground" }, "geometry": { "type": "LineString", "coordinates": [ [ -93.039853000002097, 46.6646230034697 ], [ -93.039948000002099, 46.664726003469703 ] ] } },
{ "type": "Feature", "properties": { "wmUplineSo": "WRIGHT", "wmType": "Underground" }, "geometry": { "type": "LineString", "coordinates": [ [ -93.039948000002099, 46.664726003469703 ], [ -93.040176000002106, 46.664851003469799 ] ] } },
{ "type": "Feature", "properties": { "wmUplineSo": "WRIGHT", "wmType": "Underground" }, "geometry": { "type": "LineString", "coordinates": [ [ -93.040176000002106, 46.664851003469799 ], [ -93.040365000002097, 46.6650080034699 ] ] } },
{ "type": "Feature", "properties": { "wmUplineSo": "WRIGHT", "wmType": "Underground" }, "geometry": { "type": "LineString", "coordinates": [ [ -93.040365000002097, 46.6650080034699 ], [ -93.0403784, 46.665021400008399 ] ] } },
{ "type": "Feature", "properties": { "wmUplineSo": "WRIGHT", "wmType": "Underground" }, "geometry": { "type": "LineString", "coordinates": [ [ -93.159540886081999, 46.5133382281848 ], [ -93.159365170857797, 46.513321531879903 ] ] } },
{ "type": "Feature", "properties": { "wmUplineSo": "WRIGHT", "wmType": "Underground" }, "geometry": { "type": "LineString", "coordinates": [ [ -93.159365170857797, 46.513321531879903 ], [ -93.158718045354902, 46.513382123121303 ] ] } },
{ "type": "Feature", "properties": { "wmUplineSo": "WRIGHT", "wmType": "Underground" }, "geometry": { "type": "LineString", "coordinates": [ [ -93.158718045354902, 46.513382123121303 ], [ -93.158574592286001, 46.513230349351403 ] ] } },
{ "type": "Feature", "properties": { "wmUplineSo": "WRIGHT", "wmType": "Underground" }, "geometry": { "type": "LineString", "coordinates": [ [ -93.158574592286001, 46.513230349351403 ], [ -93.158523, 46.513258100008201 ] ] } },
{ "type": "Feature", "properties": { "wmUplineSo": "WRIGHT", "wmType": "Underground" }, "geometry": { "type": "LineString", "coordinates": [ [ -93.0588393595296, 46.6329774108059 ], [ -93.059009985693606, 46.632953143614799 ] ] } },
{ "type": "Feature", "properties": { "wmUplineSo": "WRIGHT", "wmType": "Underground" }, "geometry": { "type": "LineString", "coordinates": [ [ -93.059009985693606, 46.632953143614799 ], [ -93.059728985693198, 46.6329745330614 ] ] } },
{ "type": "Feature", "properties": { "wmUplineSo": "WRIGHT", "wmType": "Underground" }, "geometry": { "type": "LineString", "coordinates": [ [ -93.059728985693198, 46.6329745330614 ], [ -93.060435985698405, 46.632982316080401 ] ] } },
{ "type": "Feature", "properties": { "wmUplineSo": "WRIGHT", "wmType": "Underground" }, "geometry": { "type": "LineString", "coordinates": [ [ -93.060435985698405, 46.632982316080401 ], [ -93.061035985679098, 46.6329839820594 ] ] } },
{ "type": "Feature", "properties": { "wmUplineSo": "WRIGHT", "wmType": "Underground" }, "geometry": { "type": "LineString", "coordinates": [ [ -93.061035985679098, 46.6329839820594 ], [ -93.061937985661999, 46.632989765078598 ] ] } },
{ "type": "Feature", "properties": { "wmUplineSo": "WRIGHT", "wmType": "Underground" }, "geometry": { "type": "LineString", "coordinates": [ [ -93.061937985661999, 46.632989765078598 ], [ -93.062694659721899, 46.632979440038802 ] ] } },
{ "type": "Feature", "properties": { "wmUplineSo": "WRIGHT", "wmType": "Underground" }, "geometry": { "type": "LineString", "coordinates": [ [ -93.062694659721899, 46.632979440038802 ], [ -93.063675330007499, 46.6329453100007 ] ] } },
{ "type": "Feature", "properties": { "wmUplineSo": "WRIGHT", "wmType": "Underground" }, "geometry": { "type": "LineString", "coordinates": [ [ -93.063675330007499, 46.6329453100007 ], [ -93.063742921985707, 46.632532530548303 ] ] } },
{ "type": "Feature", "properties": { "wmUplineSo": "WRIGHT", "wmType": "Underground" }, "geometry": { "type": "LineString", "coordinates": [ [ -93.063742921985707, 46.632532530548303 ], [ -93.063738351158406, 46.6320114111263 ] ] } },
{ "type": "Feature", "properties": { "wmUplineSo": "WRIGHT", "wmType": "Underground" }, "geometry": { "type": "LineString", "coordinates": [ [ -93.063738351158406, 46.6320114111263 ], [ -93.063677920671793, 46.6313108410897 ] ] } },
{ "type": "Feature", "properties": { "wmUplineSo": "WRIGHT", "wmType": "Underground" }, "geometry": { "type": "LineString", "coordinates": [ [ -93.063677920671793, 46.6313108410897 ], [ -93.0636303, 46.631305800008398 ] ] } },
{ "type": "Feature", "properties": { "wmUplineSo": "WRIGHT", "wmType": "Underground" }, "geometry": { "type": "LineString", "coordinates": [ [ -93.048294039439199, 46.656363382732501 ], [ -93.048219315358693, 46.6563275530821 ] ] } },
{ "type": "Feature", "properties": { "wmUplineSo": "WRIGHT", "wmType": "Underground" }, "geometry": { "type": "LineString", "coordinates": [ [ -93.048219315358693, 46.6563275530821 ], [ -93.048088773418996, 46.656386776950903 ] ] } },
{ "type": "Feature", "properties": { "wmUplineSo": "WRIGHT", "wmType": "Underground" }, "geometry": { "type": "LineString", "coordinates": [ [ -93.048088773418996, 46.656386776950903 ], [ -93.047573077319001, 46.656502597835598 ] ] } },
{ "type": "Feature", "properties": { "wmUplineSo": "WRIGHT", "wmType": "Underground" }, "geometry": { "type": "LineString", "coordinates": [ [ -93.047573077319001, 46.656502597835598 ], [ -93.047393208501703, 46.656553398519002 ] ] } },
{ "type": "Feature", "properties": { "wmUplineSo": "WRIGHT", "wmType": "Underground" }, "geometry": { "type": "LineString", "coordinates": [ [ -93.047393208501703, 46.656553398519002 ], [ -93.046976446136895, 46.656579213703203 ] ] } },
{ "type": "Feature", "properties": { "wmUplineSo": "WRIGHT", "wmType": "Underground" }, "geometry": { "type": "LineString", "coordinates": [ [ -93.046976446136895, 46.656579213703203 ], [ -93.046516348515098, 46.656573719045298 ] ] } },
{ "type": "Feature", "properties": { "wmUplineSo": "WRIGHT", "wmType": "Underground" }, "geometry": { "type": "LineString", "coordinates": [ [ -93.046516348515098, 46.656573719045298 ], [ -93.0461209750829, 46.656595445169103 ] ] } },
{ "type": "Feature", "properties": { "wmUplineSo": "WRIGHT", "wmType": "Underground" }, "geometry": { "type": "LineString", "coordinates": [ [ -93.0461209750829, 46.656595445169103 ], [ -93.045919478399199, 46.656614861754299 ] ] } },
{ "type": "Feature", "properties": { "wmUplineSo": "WRIGHT", "wmType": "Underground" }, "geometry": { "type": "LineString", "coordinates": [ [ -93.045919478399199, 46.656614861754299 ], [ -93.045828499035196, 46.656637999743403 ] ] } },
{ "type": "Feature", "properties": { "wmUplineSo": "WRIGHT", "wmType": "Underground" }, "geometry": { "type": "LineString", "coordinates": [ [ -93.045828499035196, 46.656637999743403 ], [ -93.045413537400506, 46.656678652018201 ] ] } },
{ "type": "Feature", "properties": { "wmUplineSo": "WRIGHT", "wmType": "Underground" }, "geometry": { "type": "LineString", "coordinates": [ [ -93.045413537400506, 46.656678652018201 ], [ -93.045374745568907, 46.656683537523698 ] ] } },
{ "type": "Feature", "properties": { "wmUplineSo": "WRIGHT", "wmType": "Underground" }, "geometry": { "type": "LineString", "coordinates": [ [ -93.085955, 46.627375999999899 ], [ -93.085952, 46.627485 ] ] } },
{ "type": "Feature", "properties": { "wmUplineSo": "WRIGHT", "wmType": "Underground" }, "geometry": { "type": "LineString", "coordinates": [ [ -93.085952, 46.627485 ], [ -93.085804, 46.627554000000103 ] ] } },
{ "type": "Feature", "properties": { "wmUplineSo": "WRIGHT", "wmType": "Underground" }, "geometry": { "type": "LineString", "coordinates": [ [ -93.085952, 46.627485 ], [ -93.085804, 46.627554000000103 ] ] } },
{ "type": "Feature", "properties": { "wmUplineSo": "WRIGHT", "wmType": "Underground" }, "geometry": { "type": "LineString", "coordinates": [ [ -93.085804, 46.627554000000103 ], [ -93.085724, 46.627611 ] ] } },
{ "type": "Feature", "properties": { "wmUplineSo": "WRIGHT", "wmType": "Underground" }, "geometry": { "type": "LineString", "coordinates": [ [ -93.085804, 46.627554000000103 ], [ -93.085724, 46.627611 ] ] } },
{ "type": "Feature", "properties": { "wmUplineSo": "WRIGHT", "wmType": "Underground" }, "geometry": { "type": "LineString", "coordinates": [ [ -93.085724, 46.627611 ], [ -93.085533, 46.627619 ] ] } },
{ "type": "Feature", "properties": { "wmUplineSo": "WRIGHT", "wmType": "Underground" }, "geometry": { "type": "LineString", "coordinates": [ [ -93.176945, 46.54901 ], [ -93.176986, 46.5489350000001 ] ] } },
{ "type": "Feature", "properties": { "wmUplineSo": "WRIGHT", "wmType": "Underground" }, "geometry": { "type": "LineString", "coordinates": [ [ -93.176986, 46.5489350000001 ], [ -93.177003, 46.5488110000001 ] ] } },
{ "type": "Feature", "properties": { "wmUplineSo": "WRIGHT", "wmType": "Underground" }, "geometry": { "type": "LineString", "coordinates": [ [ -93.177003, 46.5488110000001 ], [ -93.177013, 46.548715999999899 ] ] } },
{ "type": "Feature", "properties": { "wmUplineSo": "WRIGHT", "wmType": "Underground" }, "geometry": { "type": "LineString", "coordinates": [ [ -93.177013, 46.548715999999899 ], [ -93.17699, 46.548609 ] ] } },
{ "type": "Feature", "properties": { "wmUplineSo": "WRIGHT", "wmType": "Underground" }, "geometry": { "type": "LineString", "coordinates": [ [ -93.17699, 46.548609 ], [ -93.17688, 46.548433 ] ] } },
{ "type": "Feature", "properties": { "wmUplineSo": "WRIGHT", "wmType": "Underground" }, "geometry": { "type": "LineString", "coordinates": [ [ -93.17688, 46.548433 ], [ -93.176895, 46.548397 ] ] } },
{ "type": "Feature", "properties": { "wmUplineSo": "WRIGHT", "wmType": "Underground" }, "geometry": { "type": "LineString", "coordinates": [ [ -93.176895, 46.548397 ], [ -93.176904, 46.548382 ] ] } },
{ "type": "Feature", "properties": { "wmUplineSo": "WRIGHT", "wmType": "Underground" }, "geometry": { "type": "LineString", "coordinates": [ [ -93.083720712136298, 46.640643705479498 ], [ -93.083735840453997, 46.640478927024603 ] ] } },
{ "type": "Feature", "properties": { "wmUplineSo": "WRIGHT", "wmType": "Underground" }, "geometry": { "type": "LineString", "coordinates": [ [ -93.034687265314503, 46.654592597624401 ], [ -93.033952190239006, 46.654449509995899 ] ] } },
{ "type": "Feature", "properties": { "wmUplineSo": "WRIGHT", "wmType": "Underground" }, "geometry": { "type": "LineString", "coordinates": [ [ -93.048341553729102, 46.650428631408097 ], [ -93.049009897649796, 46.650489831937001 ], [ -93.049404202447803, 46.650627764642799 ], [ -93.049667111206503, 46.650760990951198 ], [ -93.052191381000796, 46.650893207493397 ] ] } },
{ "type": "Feature", "properties": { "wmUplineSo": "WRIGHT", "wmType": "Underground" }, "geometry": { "type": "LineString", "coordinates": [ [ -93.043403118600693, 46.6444423406762 ], [ -93.0442528, 46.644522800008403 ] ] } },
{ "type": "Feature", "properties": { "wmUplineSo": "WRIGHT", "wmType": "Underground" }, "geometry": { "type": "LineString", "coordinates": [ [ -93.049338275762295, 46.666411285991103 ], [ -93.0493561, 46.666430700008398 ] ] } },
{ "type": "Feature", "properties": { "wmUplineSo": "WRIGHT", "wmType": "Underground" }, "geometry": { "type": "LineString", "coordinates": [ [ -93.050005614465306, 46.666199081309202 ], [ -93.0501722, 46.665997800008398 ] ] } },
{ "type": "Feature", "properties": { "wmUplineSo": "WRIGHT", "wmType": "Underground" }, "geometry": { "type": "LineString", "coordinates": [ [ -93.028169546163994, 46.666927690336898 ], [ -93.0267798, 46.666179200008401 ] ] } },
{ "type": "Feature", "properties": { "wmUplineSo": "WRIGHT", "wmType": "Underground" }, "geometry": { "type": "LineString", "coordinates": [ [ -93.042110093385503, 46.662093912850303 ], [ -93.0421843, 46.6621881000084 ] ] } },
{ "type": "Feature", "properties": { "wmUplineSo": "WRIGHT", "wmType": "Underground" }, "geometry": { "type": "LineString", "coordinates": [ [ -93.042110093385503, 46.662093912850303 ], [ -93.0421488, 46.662189700008398 ] ] } },
{ "type": "Feature", "properties": { "wmUplineSo": "WRIGHT", "wmType": "Underground" }, "geometry": { "type": "LineString", "coordinates": [ [ -93.033877633546794, 46.651191011289399 ], [ -93.0333906, 46.651258400008402 ] ] } },
{ "type": "Feature", "properties": { "wmUplineSo": "WRIGHT", "wmType": "Underground" }, "geometry": { "type": "LineString", "coordinates": [ [ -93.031092374786297, 46.650846466358502 ], [ -93.0307707, 46.6508959000084 ] ] } },
{ "type": "Feature", "properties": { "wmUplineSo": "WRIGHT", "wmType": "Underground" }, "geometry": { "type": "LineString", "coordinates": [ [ -93.0362786947085, 46.606784288334602 ], [ -93.0361447, 46.606963600008299 ] ] } },
{ "type": "Feature", "properties": { "wmUplineSo": "WRIGHT", "wmType": "Underground" }, "geometry": { "type": "LineString", "coordinates": [ [ -93.082086985436206, 46.645967039974202 ], [ -93.0818729, 46.645726900008398 ] ] } },
{ "type": "Feature", "properties": { "wmUplineSo": "WRIGHT", "wmType": "Underground" }, "geometry": { "type": "LineString", "coordinates": [ [ -93.085952, 46.627485 ], [ -93.085922, 46.6274815000084 ] ] } },
{ "type": "Feature", "properties": { "wmUplineSo": "WRIGHT", "wmType": "Underground" }, "geometry": { "type": "LineString", "coordinates": [ [ -93.0894962189235, 46.627690587085198 ], [ -93.0893917, 46.627750900008401 ] ] } },
{ "type": "Feature", "properties": { "wmUplineSo": "WRIGHT", "wmType": "Underground" }, "geometry": { "type": "LineString", "coordinates": [ [ -93.098745644852798, 46.625241861421998 ], [ -93.0982182, 46.625587800008297 ] ] } },
{ "type": "Feature", "properties": { "wmUplineSo": "WRIGHT", "wmType": "Underground" }, "geometry": { "type": "LineString", "coordinates": [ [ -93.099105463442598, 46.625789707908098 ], [ -93.0990507, 46.625721000008298 ] ] } },
{ "type": "Feature", "properties": { "wmUplineSo": "WRIGHT", "wmType": "Underground" }, "geometry": { "type": "LineString", "coordinates": [ [ -93.159405748108796, 46.6245651561008 ], [ -93.159633, 46.625231700008399 ] ] } },
{ "type": "Feature", "properties": { "wmUplineSo": "WRIGHT", "wmType": "Underground" }, "geometry": { "type": "LineString", "coordinates": [ [ -93.179450906111896, 46.611205809821797 ], [ -93.1792844, 46.611236500008303 ] ] } },
{ "type": "Feature", "properties": { "wmUplineSo": "WRIGHT", "wmType": "Underground" }, "geometry": { "type": "LineString", "coordinates": [ [ -93.153351253197002, 46.603041858190899 ], [ -93.1535375, 46.603080700008299 ] ] } },
{ "type": "Feature", "properties": { "wmUplineSo": "WRIGHT", "wmType": "Underground" }, "geometry": { "type": "LineString", "coordinates": [ [ -93.201711289092401, 46.569517121736197 ], [ -93.20206, 46.5692643000083 ] ] } },
{ "type": "Feature", "properties": { "wmUplineSo": "WRIGHT", "wmType": "Underground" }, "geometry": { "type": "LineString", "coordinates": [ [ -93.162553329267695, 46.563674972450599 ], [ -93.1626049, 46.5637915000083 ] ] } },
{ "type": "Feature", "properties": { "wmUplineSo": "WRIGHT", "wmType": "Underground" }, "geometry": { "type": "LineString", "coordinates": [ [ -93.131261708417, 46.534211130277697 ], [ -93.1316334, 46.534014000008199 ] ] } },
{ "type": "Feature", "properties": { "wmUplineSo": "WRIGHT", "wmType": "Underground" }, "geometry": { "type": "LineString", "coordinates": [ [ -93.171830380793907, 46.5416492499578 ], [ -93.1719071, 46.541630100008298 ] ] } },
{ "type": "Feature", "properties": { "wmUplineSo": "WRIGHT", "wmType": "Underground" }, "geometry": { "type": "LineString", "coordinates": [ [ -93.168840058024699, 46.539725323268399 ], [ -93.168639397649002, 46.539678560842503 ] ] } },
{ "type": "Feature", "properties": { "wmUplineSo": "WRIGHT", "wmType": "Underground" }, "geometry": { "type": "LineString", "coordinates": [ [ -93.199740018525702, 46.538956851638197 ], [ -93.1996306, 46.538927800008302 ] ] } },
{ "type": "Feature", "properties": { "wmUplineSo": "WRIGHT", "wmType": "Underground" }, "geometry": { "type": "LineString", "coordinates": [ [ -93.203987803500596, 46.539118478916798 ], [ -93.2040063, 46.539870300008303 ] ] } },
{ "type": "Feature", "properties": { "wmUplineSo": "WRIGHT", "wmType": "Underground" }, "geometry": { "type": "LineString", "coordinates": [ [ -93.1626377978438, 46.526108938988301 ], [ -93.1619004, 46.525723600008199 ] ] } },
{ "type": "Feature", "properties": { "wmUplineSo": "WRIGHT", "wmType": "Underground" }, "geometry": { "type": "LineString", "coordinates": [ [ -93.151647460857404, 46.503849216508698 ], [ -93.1517657, 46.503869800008196 ] ] } },
{ "type": "Feature", "properties": { "wmUplineSo": "WRIGHT", "wmType": "Underground" }, "geometry": { "type": "LineString", "coordinates": [ [ -93.182856567251307, 46.463327617042602 ], [ -93.1825891, 46.463157300008199 ] ] } },
{ "type": "Feature", "properties": { "wmUplineSo": "WRIGHT", "wmType": "Underground" }, "geometry": { "type": "LineString", "coordinates": [ [ -93.232142318175306, 46.492701288112997 ], [ -93.232049839950704, 46.492562559098701 ] ] } },
{ "type": "Feature", "properties": { "wmUplineSo": "WRIGHT", "wmType": "Underground" }, "geometry": { "type": "LineString", "coordinates": [ [ -93.156507067075097, 46.613952664266399 ], [ -93.1568359, 46.613130900008301 ] ] } },
{ "type": "Feature", "properties": { "wmUplineSo": "WRIGHT", "wmType": "Underground" }, "geometry": { "type": "LineString", "coordinates": [ [ -93.125034589168706, 46.647654484208999 ], [ -93.124939021227704, 46.647877179171502 ] ] } },
{ "type": "Feature", "properties": { "wmUplineSo": "WRIGHT", "wmType": "Underground" }, "geometry": { "type": "LineString", "coordinates": [ [ -93.125034589168706, 46.647654484208999 ], [ -93.1254922, 46.647594600008397 ] ] } },
{ "type": "Feature", "properties": { "wmUplineSo": "WRIGHT", "wmType": "Underground" }, "geometry": { "type": "LineString", "coordinates": [ [ -93.128094049229603, 46.645996152528198 ], [ -93.1278446, 46.645734400008401 ] ] } },
{ "type": "Feature", "properties": { "wmUplineSo": "WRIGHT", "wmType": "Underground" }, "geometry": { "type": "LineString", "coordinates": [ [ -93.1264942849471, 46.647356684766699 ], [ -93.1265439, 46.647231700008398 ], [ -93.1265439, 46.647231700008398 ] ] } },
{ "type": "Feature", "properties": { "wmUplineSo": "WRIGHT", "wmType": "Underground" }, "geometry": { "type": "LineString", "coordinates": [ [ -93.1264942849471, 46.647356684766699 ], [ -93.1267912, 46.647242200008399 ] ] } },
{ "type": "Feature", "properties": { "wmUplineSo": "WRIGHT", "wmType": "Underground" }, "geometry": { "type": "LineString", "coordinates": [ [ -93.126559163935397, 46.645731411485798 ], [ -93.1262391, 46.645695600008402 ] ] } },
{ "type": "Feature", "properties": { "wmUplineSo": "WRIGHT", "wmType": "Underground" }, "geometry": { "type": "LineString", "coordinates": [ [ -93.047744177926702, 46.648351181320301 ], [ -93.0473607, 46.648312200008398 ] ] } },
{ "type": "Feature", "properties": { "wmUplineSo": "WRIGHT", "wmType": "Underground" }, "geometry": { "type": "LineString", "coordinates": [ [ -93.165376067129799, 46.543791811333698 ], [ -93.1644963, 46.5445275000083 ] ] } },
{ "type": "Feature", "properties": { "wmUplineSo": "WRIGHT", "wmType": "Underground" }, "geometry": { "type": "LineString", "coordinates": [ [ -93.031958972255197, 46.608591178326897 ], [ -93.0317542, 46.608414300008299 ] ] } },
{ "type": "Feature", "properties": { "wmUplineSo": "WRIGHT", "wmType": "Underground" }, "geometry": { "type": "LineString", "coordinates": [ [ -93.180149053360196, 46.608163195040198 ], [ -93.1799386, 46.608335200008298 ] ] } },
{ "type": "Feature", "properties": { "wmUplineSo": "WRIGHT", "wmType": "Underground" }, "geometry": { "type": "LineString", "coordinates": [ [ -93.160699837140697, 46.581855637677499 ], [ -93.160775882631, 46.582087786092202 ] ] } },
{ "type": "Feature", "properties": { "wmUplineSo": "WRIGHT", "wmType": "Underground" }, "geometry": { "type": "LineString", "coordinates": [ [ -93.160699837140697, 46.581855637677499 ], [ -93.160870889921398, 46.581844223834302 ] ] } },
{ "type": "Feature", "properties": { "wmUplineSo": "WRIGHT", "wmType": "Underground" }, "geometry": { "type": "LineString", "coordinates": [ [ -93.160699837140697, 46.581855637677499 ], [ -93.1607783, 46.582040400008303 ] ] } },
{ "type": "Feature", "properties": { "wmUplineSo": "WRIGHT", "wmType": "Underground" }, "geometry": { "type": "LineString", "coordinates": [ [ -93.201069527917298, 46.567700320568697 ], [ -93.2012378, 46.5675205000083 ] ] } },
{ "type": "Feature", "properties": { "wmUplineSo": "WRIGHT", "wmType": "Underground" }, "geometry": { "type": "LineString", "coordinates": [ [ -93.202868556046496, 46.576777933457201 ], [ -93.2030123, 46.576818500008301 ] ] } },
{ "type": "Feature", "properties": { "wmUplineSo": "WRIGHT", "wmType": "Underground" }, "geometry": { "type": "LineString", "coordinates": [ [ -93.202868556046496, 46.576777933457201 ], [ -93.2031598, 46.576820300008301 ] ] } },
{ "type": "Feature", "properties": { "wmUplineSo": "WRIGHT", "wmType": "Underground" }, "geometry": { "type": "LineString", "coordinates": [ [ -93.202868556046496, 46.576777933457201 ], [ -93.2031943, 46.576850300008303 ] ] } },
{ "type": "Feature", "properties": { "wmUplineSo": "WRIGHT", "wmType": "Underground" }, "geometry": { "type": "LineString", "coordinates": [ [ -93.220220661046, 46.565257669406698 ], [ -93.2202916, 46.564737800008302 ] ] } },
{ "type": "Feature", "properties": { "wmUplineSo": "WRIGHT", "wmType": "Underground" }, "geometry": { "type": "LineString", "coordinates": [ [ -93.209448024260197, 46.622485607730702 ], [ -93.2093488, 46.622490900008302 ] ] } },
{ "type": "Feature", "properties": { "wmUplineSo": "WRIGHT", "wmType": "Underground" }, "geometry": { "type": "LineString", "coordinates": [ [ -93.1265511, 46.645421300008401 ], [ -93.126631, 46.6447761000084 ] ] } },
{ "type": "Feature", "properties": { "wmUplineSo": "WRIGHT", "wmType": "Underground" }, "geometry": { "type": "LineString", "coordinates": [ [ -93.176145295975005, 46.564878878242098 ], [ -93.1761435, 46.564972100008298 ] ] } },
{ "type": "Feature", "properties": { "wmUplineSo": "WRIGHT", "wmType": "Underground" }, "geometry": { "type": "LineString", "coordinates": [ [ -93.155847080198299, 46.653084529853103 ], [ -93.1560128, 46.652878500008399 ] ] } },
{ "type": "Feature", "properties": { "wmUplineSo": "WRIGHT", "wmType": "Underground" }, "geometry": { "type": "LineString", "coordinates": [ [ -93.149283794398897, 46.652374876104297 ], [ -93.149582731784093, 46.652527940078201 ] ] } },
{ "type": "Feature", "properties": { "wmUplineSo": "WRIGHT", "wmType": "Underground" }, "geometry": { "type": "LineString", "coordinates": [ [ -93.125329196256203, 46.647875770812597 ], [ -93.125144891410898, 46.647871477808202 ] ] } },
{ "type": "Feature", "properties": { "wmUplineSo": "WRIGHT", "wmType": "Underground" }, "geometry": { "type": "LineString", "coordinates": [ [ -93.164217704158304, 46.579734678270299 ], [ -93.1640285, 46.5797290000083 ] ] } },
{ "type": "Feature", "properties": { "wmUplineSo": "WRIGHT", "wmType": "Underground" }, "geometry": { "type": "LineString", "coordinates": [ [ -93.202868556046496, 46.576777933457201 ], [ -93.202999, 46.5767905000083 ] ] } },
{ "type": "Feature", "properties": { "wmUplineSo": "WRIGHT", "wmType": "Underground" }, "geometry": { "type": "LineString", "coordinates": [ [ -93.246963318870996, 46.593067831435199 ], [ -93.246944400000103, 46.5931998000083 ] ] } },
{ "type": "Feature", "properties": { "wmUplineSo": "WRIGHT", "wmType": "Underground" }, "geometry": { "type": "LineString", "coordinates": [ [ -93.148986863214404, 46.652031899967596 ], [ -93.1494339, 46.651832400008402 ] ] } },
{ "type": "Feature", "properties": { "wmUplineSo": "WRIGHT", "wmType": "Underground" }, "geometry": { "type": "LineString", "coordinates": [ [ -93.199387614888295, 46.542845665252102 ], [ -93.1996379, 46.542881100008302 ] ] } },
{ "type": "Feature", "properties": { "wmUplineSo": "WRIGHT", "wmType": "Underground" }, "geometry": { "type": "LineString", "coordinates": [ [ -93.147980308011597, 46.543192877339898 ], [ -93.1476543, 46.543119800008199 ] ] } },
{ "type": "Feature", "properties": { "wmUplineSo": "WRIGHT", "wmType": "Underground" }, "geometry": { "type": "LineString", "coordinates": [ [ -93.038032400324596, 46.654654803163702 ], [ -93.0380549, 46.654664100008397 ] ] } },
{ "type": "Feature", "properties": { "wmUplineSo": "WRIGHT", "wmType": "Underground" }, "geometry": { "type": "LineString", "coordinates": [ [ -93.033952190239006, 46.654449509995899 ], [ -93.033922782784998, 46.654438754277201 ] ] } },
{ "type": "Feature", "properties": { "wmUplineSo": "WRIGHT", "wmType": "Underground" }, "geometry": { "type": "LineString", "coordinates": [ [ -93.148986863214404, 46.652031899967596 ], [ -93.149011542463697, 46.652014075415501 ] ] } },
{ "type": "Feature", "properties": { "wmUplineSo": "WRIGHT", "wmType": "Underground" }, "geometry": { "type": "LineString", "coordinates": [ [ -93.239013986386396, 46.489667972962799 ], [ -93.2387697, 46.4894089000082 ] ] } },
{ "type": "Feature", "properties": { "wmUplineSo": "WRIGHT", "wmType": "Underground" }, "geometry": { "type": "LineString", "coordinates": [ [ -93.035556610329394, 46.657798309932502 ], [ -93.0358221, 46.658207500008402 ] ] } },
{ "type": "Feature", "properties": { "wmUplineSo": "WRIGHT", "wmType": "Underground" }, "geometry": { "type": "LineString", "coordinates": [ [ -93.149346400120393, 46.652005313574399 ], [ -93.149388842147204, 46.652029283968297 ] ] } },
{ "type": "Feature", "properties": { "wmUplineSo": "WRIGHT", "wmType": "Underground" }, "geometry": { "type": "LineString", "coordinates": [ [ -93.083735840453997, 46.640478927024603 ], [ -93.083705401067903, 46.640478326053397 ] ] } },
{ "type": "Feature", "properties": { "wmUplineSo": "WRIGHT", "wmType": "Underground" }, "geometry": { "type": "LineString", "coordinates": [ [ -93.123205000006905, 46.614681003456397 ], [ -93.122901000006905, 46.614910003456302 ] ] } },
{ "type": "Feature", "properties": { "wmUplineSo": "WRIGHT", "wmType": "Underground" }, "geometry": { "type": "LineString", "coordinates": [ [ -93.124515000006994, 46.613324003455901 ], [ -93.123954000006904, 46.613964003456203 ] ] } },
{ "type": "Feature", "properties": { "wmUplineSo": "WRIGHT", "wmType": "Underground" }, "geometry": { "type": "LineString", "coordinates": [ [ -93.149011542463697, 46.652014075415501 ], [ -93.149346400120393, 46.652005313574399 ] ] } },
{ "type": "Feature", "properties": { "wmUplineSo": "WRIGHT", "wmType": "Underground" }, "geometry": { "type": "LineString", "coordinates": [ [ -93.052191381000796, 46.650893207493397 ], [ -93.052539, 46.650892100008399 ] ] } },
{ "type": "Feature", "properties": { "wmUplineSo": "WRIGHT", "wmType": "Underground" }, "geometry": { "type": "LineString", "coordinates": [ [ -93.189231468177695, 46.490811469258801 ], [ -93.189257334996498, 46.490807583375101 ] ] } },
{ "type": "Feature", "properties": { "wmUplineSo": "WRIGHT", "wmType": "Underground" }, "geometry": { "type": "LineString", "coordinates": [ [ -93.123954000006904, 46.613964003456203 ], [ -93.123465000006902, 46.614460003456301 ] ] } },
{ "type": "Feature", "properties": { "wmUplineSo": "WRIGHT", "wmType": "Underground" }, "geometry": { "type": "LineString", "coordinates": [ [ -93.131804106619697, 46.534541250762601 ], [ -93.131261708417, 46.534211130277697 ] ] } },
{ "type": "Feature", "properties": { "wmUplineSo": "WRIGHT", "wmType": "Underground" }, "geometry": { "type": "LineString", "coordinates": [ [ -93.048190012494501, 46.655367632005003 ], [ -93.0459039454839, 46.655767013254803 ] ] } },
{ "type": "Feature", "properties": { "wmUplineSo": "WRIGHT", "wmType": "Underground" }, "geometry": { "type": "LineString", "coordinates": [ [ -93.045008231516604, 46.6445199781216 ], [ -93.043403118600693, 46.6444423406762 ] ] } },
{ "type": "Feature", "properties": { "wmUplineSo": "WRIGHT", "wmType": "Underground" }, "geometry": { "type": "LineString", "coordinates": [ [ -93.049338275762295, 46.666411285991103 ], [ -93.050005614465306, 46.666199081309202 ] ] } },
{ "type": "Feature", "properties": { "wmUplineSo": "WRIGHT", "wmType": "Underground" }, "geometry": { "type": "LineString", "coordinates": [ [ -93.048455556335199, 46.666225357821503 ], [ -93.049338275762295, 46.666411285991103 ] ] } },
{ "type": "Feature", "properties": { "wmUplineSo": "WRIGHT", "wmType": "Underground" }, "geometry": { "type": "LineString", "coordinates": [ [ -93.028888822078699, 46.667271714067397 ], [ -93.028169546163994, 46.666927690336898 ] ] } },
{ "type": "Feature", "properties": { "wmUplineSo": "WRIGHT", "wmType": "Underground" }, "geometry": { "type": "LineString", "coordinates": [ [ -93.042290310112804, 46.663446948968598 ], [ -93.041904861487595, 46.663163015444702 ], [ -93.041887506014106, 46.662775989842899 ], [ -93.041971752199601, 46.662485254507899 ], [ -93.042121971830198, 46.662338045948196 ], [ -93.042110093385503, 46.662093912850303 ] ] } },
{ "type": "Feature", "properties": { "wmUplineSo": "WRIGHT", "wmType": "Underground" }, "geometry": { "type": "LineString", "coordinates": [ [ -93.037253299723403, 46.6510490556918 ], [ -93.033877633546794, 46.651191011289399 ] ] } },
{ "type": "Feature", "properties": { "wmUplineSo": "WRIGHT", "wmType": "Underground" }, "geometry": { "type": "LineString", "coordinates": [ [ -93.033877633546794, 46.651191011289399 ], [ -93.032727246451699, 46.651090651729703 ], [ -93.032397124689297, 46.651030093467902 ], [ -93.031789026494096, 46.650935465237801 ], [ -93.031281012576699, 46.650872603650498 ], [ -93.031092374786297, 46.650846466358502 ] ] } },
{ "type": "Feature", "properties": { "wmUplineSo": "WRIGHT", "wmType": "Underground" }, "geometry": { "type": "LineString", "coordinates": [ [ -93.0310301961959, 46.6080423335356 ], [ -93.031639094291407, 46.608477907674398 ], [ -93.031761342737198, 46.608532382237399 ], [ -93.031958972255197, 46.608591178326897 ] ] } },
{ "type": "Feature", "properties": { "wmUplineSo": "WRIGHT", "wmType": "Underground" }, "geometry": { "type": "LineString", "coordinates": [ [ -93.036074301715701, 46.607561392076498 ], [ -93.0362786947085, 46.606784288334602 ] ] } },
{ "type": "Feature", "properties": { "wmUplineSo": "WRIGHT", "wmType": "Underground" }, "geometry": { "type": "LineString", "coordinates": [ [ -93.082125899519298, 46.644166595650802 ], [ -93.081944014122399, 46.644458867518402 ] ] } },
{ "type": "Feature", "properties": { "wmUplineSo": "WRIGHT", "wmType": "Underground" }, "geometry": { "type": "LineString", "coordinates": [ [ -93.081944014122399, 46.644458867518402 ], [ -93.081688563454605, 46.644858145342099 ], [ -93.081260240086493, 46.645144542633403 ], [ -93.081525434454093, 46.645903186316403 ], [ -93.082086985436206, 46.645967039974202 ] ] } },
{ "type": "Feature", "properties": { "wmUplineSo": "WRIGHT", "wmType": "Underground" }, "geometry": { "type": "LineString", "coordinates": [ [ -93.086470872413003, 46.626758248041803 ], [ -93.085955, 46.627375999999899 ] ] } },
{ "type": "Feature", "properties": { "wmUplineSo": "WRIGHT", "wmType": "Underground" }, "geometry": { "type": "LineString", "coordinates": [ [ -93.090709943656606, 46.627001412011097 ], [ -93.0894962189235, 46.627690587085198 ] ] } },
{ "type": "Feature", "properties": { "wmUplineSo": "WRIGHT", "wmType": "Underground" }, "geometry": { "type": "LineString", "coordinates": [ [ -93.098316908993297, 46.624577595488503 ], [ -93.098745644852798, 46.625241861421998 ] ] } },
{ "type": "Feature", "properties": { "wmUplineSo": "WRIGHT", "wmType": "Underground" }, "geometry": { "type": "LineString", "coordinates": [ [ -93.098745644852798, 46.625241861421998 ], [ -93.099105463442598, 46.625789707908098 ] ] } },
{ "type": "Feature", "properties": { "wmUplineSo": "WRIGHT", "wmType": "Underground" }, "geometry": { "type": "LineString", "coordinates": [ [ -93.179748524633894, 46.611205313346296 ], [ -93.179450906111896, 46.611205809821897 ], [ -93.179450906111896, 46.611205809821797 ] ] } },
{ "type": "Feature", "properties": { "wmUplineSo": "WRIGHT", "wmType": "Underground" }, "geometry": { "type": "LineString", "coordinates": [ [ -93.179825558450602, 46.612703305633502 ], [ -93.179748524633894, 46.611205313346296 ] ] } },
{ "type": "Feature", "properties": { "wmUplineSo": "WRIGHT", "wmType": "Underground" }, "geometry": { "type": "LineString", "coordinates": [ [ -93.157570138064699, 46.602969016053699 ], [ -93.155239359867593, 46.602931315793199 ], [ -93.153603338828603, 46.602872864687299 ], [ -93.153351253197002, 46.603041858190899 ] ] } },
{ "type": "Feature", "properties": { "wmUplineSo": "WRIGHT", "wmType": "Underground" }, "geometry": { "type": "LineString", "coordinates": [ [ -93.160037158401096, 46.581452764167203 ], [ -93.160428060071794, 46.581830505560298 ] ] } },
{ "type": "Feature", "properties": { "wmUplineSo": "WRIGHT", "wmType": "Underground" }, "geometry": { "type": "LineString", "coordinates": [ [ -93.200433773716, 46.568790742824703 ], [ -93.201711289092401, 46.569517121736197 ] ] } },
{ "type": "Feature", "properties": { "wmUplineSo": "WRIGHT", "wmType": "Underground" }, "geometry": { "type": "LineString", "coordinates": [ [ -93.160038033373098, 46.5642699329739 ], [ -93.160704460466107, 46.563996287737197 ] ] } },
{ "type": "Feature", "properties": { "wmUplineSo": "WRIGHT", "wmType": "Underground" }, "geometry": { "type": "LineString", "coordinates": [ [ -93.160704460466107, 46.563996287737197 ], [ -93.162553329267695, 46.563674972450599 ] ] } },
{ "type": "Feature", "properties": { "wmUplineSo": "WRIGHT", "wmType": "Underground" }, "geometry": { "type": "LineString", "coordinates": [ [ -93.170489230944597, 46.542117673134697 ], [ -93.171594389015198, 46.5418026004361 ], [ -93.171830380793907, 46.5416492499578 ] ] } },
{ "type": "Feature", "properties": { "wmUplineSo": "WRIGHT", "wmType": "Underground" }, "geometry": { "type": "LineString", "coordinates": [ [ -93.200232164241498, 46.538968935516003 ], [ -93.199740018525702, 46.538956851638197 ] ] } },
{ "type": "Feature", "properties": { "wmUplineSo": "WRIGHT", "wmType": "Underground" }, "geometry": { "type": "LineString", "coordinates": [ [ -93.200449566522295, 46.538977595337798 ], [ -93.203987803500596, 46.539118478916798 ] ] } },
{ "type": "Feature", "properties": { "wmUplineSo": "WRIGHT", "wmType": "Underground" }, "geometry": { "type": "LineString", "coordinates": [ [ -93.1657296231174, 46.5208887665882 ], [ -93.163786116203099, 46.522035987229202 ], [ -93.1629693663849, 46.525019441554598 ], [ -93.1626377978438, 46.526108938988301 ] ] } },
{ "type": "Feature", "properties": { "wmUplineSo": "WRIGHT", "wmType": "Underground" }, "geometry": { "type": "LineString", "coordinates": [ [ -93.159890622833302, 46.505966206737597 ], [ -93.154105557242602, 46.5058476702267 ], [ -93.153663661996404, 46.5053397543522 ], [ -93.153516974482699, 46.504969451328002 ], [ -93.152902817993194, 46.504601450370899 ], [ -93.152101622474603, 46.5043316132911 ], [ -93.151647460857404, 46.503849216508698 ] ] } },
{ "type": "Feature", "properties": { "wmUplineSo": "WRIGHT", "wmType": "Underground" }, "geometry": { "type": "LineString", "coordinates": [ [ -93.1840854776584, 46.462842039868796 ], [ -93.183444909875107, 46.4633295890672 ], [ -93.182856567251307, 46.463327617042602 ] ] } },
{ "type": "Feature", "properties": { "wmUplineSo": "WRIGHT", "wmType": "Underground" }, "geometry": { "type": "LineString", "coordinates": [ [ -93.233116822024698, 46.491437576998997 ], [ -93.233061027535797, 46.491769443729197 ], [ -93.232502932704605, 46.492698265100501 ], [ -93.232142318175306, 46.492701288112997 ] ] } },
{ "type": "Feature", "properties": { "wmUplineSo": "WRIGHT", "wmType": "Underground" }, "geometry": { "type": "LineString", "coordinates": [ [ -93.157239753506303, 46.614285602087598 ], [ -93.157144315652999, 46.614115742938203 ], [ -93.156913888072793, 46.6139497795007 ], [ -93.156507067075097, 46.613952664266399 ] ] } },
{ "type": "Feature", "properties": { "wmUplineSo": "WRIGHT", "wmType": "Underground" }, "geometry": { "type": "LineString", "coordinates": [ [ -93.047919232380096, 46.648258498870703 ], [ -93.047744177926702, 46.648351181320301 ] ] } },
{ "type": "Feature", "properties": { "wmUplineSo": "WRIGHT", "wmType": "Underground" }, "geometry": { "type": "LineString", "coordinates": [ [ -93.047776645332902, 46.628907329555702 ], [ -93.048213775513503, 46.628362672189603 ], [ -93.048577786514699, 46.628231722611801 ], [ -93.048854237160697, 46.628309851338102 ], [ -93.048912648644702, 46.628516944260397 ] ] } },
{ "type": "Feature", "properties": { "wmUplineSo": "WRIGHT", "wmType": "Underground" }, "geometry": { "type": "LineString", "coordinates": [ [ -93.160428060071794, 46.581830505560298 ], [ -93.160699837140697, 46.581855637677499 ] ] } },
{ "type": "Feature", "properties": { "wmUplineSo": "WRIGHT", "wmType": "Underground" }, "geometry": { "type": "LineString", "coordinates": [ [ -93.200464717744097, 46.567241026079401 ], [ -93.200704717390806, 46.567561712465 ], [ -93.201069527917298, 46.567700320568697 ] ] } },
{ "type": "Feature", "properties": { "wmUplineSo": "WRIGHT", "wmType": "Underground" }, "geometry": { "type": "LineString", "coordinates": [ [ -93.1700234733852, 46.540035112415701 ], [ -93.168840058024699, 46.539725323268399 ] ] } },
{ "type": "Feature", "properties": { "wmUplineSo": "WRIGHT", "wmType": "Underground" }, "geometry": { "type": "LineString", "coordinates": [ [ -93.209321470391501, 46.622786325723098 ], [ -93.209448024260197, 46.622485607730702 ] ] } },
{ "type": "Feature", "properties": { "wmUplineSo": "WRIGHT", "wmType": "Underground" }, "geometry": { "type": "LineString", "coordinates": [ [ -93.220512640152904, 46.563607053024498 ], [ -93.220369556516005, 46.565049517080801 ], [ -93.220220661046, 46.565257669406698 ] ] } },
{ "type": "Feature", "properties": { "wmUplineSo": "WRIGHT", "wmType": "Underground" }, "geometry": { "type": "LineString", "coordinates": [ [ -93.175843021594702, 46.5642150268528 ], [ -93.175705266465101, 46.564841321211198 ], [ -93.176145295975005, 46.564878878242098 ] ] } },
{ "type": "Feature", "properties": { "wmUplineSo": "WRIGHT", "wmType": "Underground" }, "geometry": { "type": "LineString", "coordinates": [ [ -93.127815574627604, 46.652006192536298 ], [ -93.137492743086497, 46.652134333424002 ], [ -93.143259144001206, 46.652196113795199 ] ] } },
{ "type": "Feature", "properties": { "wmUplineSo": "WRIGHT", "wmType": "Underground" }, "geometry": { "type": "LineString", "coordinates": [ [ -93.149388842147204, 46.652029283968297 ], [ -93.155614461811197, 46.6521348819414 ] ] } },
{ "type": "Feature", "properties": { "wmUplineSo": "WRIGHT", "wmType": "Underground" }, "geometry": { "type": "LineString", "coordinates": [ [ -93.155614461811197, 46.6521348819414 ], [ -93.155847080198299, 46.653084529853103 ] ] } },
{ "type": "Feature", "properties": { "wmUplineSo": "WRIGHT", "wmType": "Underground" }, "geometry": { "type": "LineString", "coordinates": [ [ -93.148986863214404, 46.652031899967596 ], [ -93.149283794398897, 46.652374876104297 ] ] } },
{ "type": "Feature", "properties": { "wmUplineSo": "WRIGHT", "wmType": "Underground" }, "geometry": { "type": "LineString", "coordinates": [ [ -93.200449566522295, 46.538977595337798 ], [ -93.200558105144395, 46.541627541021803 ], [ -93.199387614888295, 46.542845665252102 ] ] } },
{ "type": "Feature", "properties": { "wmUplineSo": "WRIGHT", "wmType": "Underground" }, "geometry": { "type": "LineString", "coordinates": [ [ -93.200232164241498, 46.538968935516003 ], [ -93.200449566522295, 46.538977595337798 ] ] } },
{ "type": "Feature", "properties": { "wmUplineSo": "WRIGHT", "wmType": "Underground" }, "geometry": { "type": "LineString", "coordinates": [ [ -93.164037964032104, 46.577844531170598 ], [ -93.164217704158304, 46.579734678270299 ] ] } },
{ "type": "Feature", "properties": { "wmUplineSo": "WRIGHT", "wmType": "Underground" }, "geometry": { "type": "LineString", "coordinates": [ [ -93.2005345128523, 46.576635213818101 ], [ -93.2007381701615, 46.576590248546999 ] ] } },
{ "type": "Feature", "properties": { "wmUplineSo": "WRIGHT", "wmType": "Underground" }, "geometry": { "type": "LineString", "coordinates": [ [ -93.2007381701615, 46.576590248546999 ], [ -93.201446680698695, 46.576393593040201 ], [ -93.202231748235405, 46.5765007425167 ], [ -93.202868556046496, 46.576777933457201 ] ] } },
{ "type": "Feature", "properties": { "wmUplineSo": "WRIGHT", "wmType": "Underground" }, "geometry": { "type": "LineString", "coordinates": [ [ -93.245701168012104, 46.594125803199702 ], [ -93.245716097875302, 46.593758992829898 ], [ -93.245873911542901, 46.5935689013236 ], [ -93.246963318870996, 46.593067831435199 ] ] } },
{ "type": "Feature", "properties": { "wmUplineSo": "WRIGHT", "wmType": "Underground" }, "geometry": { "type": "LineString", "coordinates": [ [ -93.143259144001206, 46.652196113795199 ], [ -93.148329885833505, 46.652250202294901 ], [ -93.148986863214404, 46.652031899967596 ] ] } },
{ "type": "Feature", "properties": { "wmUplineSo": "WRIGHT", "wmType": "Underground" }, "geometry": { "type": "LineString", "coordinates": [ [ -93.143259144001206, 46.652196113795199 ], [ -93.143264176416906, 46.651950417637103 ] ] } },
{ "type": "Feature", "properties": { "wmUplineSo": "WRIGHT", "wmType": "Underground" }, "geometry": { "type": "LineString", "coordinates": [ [ -93.0377477091846, 46.654475760800402 ], [ -93.038032400324596, 46.654654803163702 ] ] } },
{ "type": "Feature", "properties": { "wmUplineSo": "WRIGHT", "wmType": "Underground" }, "geometry": { "type": "LineString", "coordinates": [ [ -93.148819844418497, 46.541982373322902 ], [ -93.148162238937104, 46.542833072965401 ], [ -93.147980308011597, 46.543192877339898 ] ] } },
{ "type": "Feature", "properties": { "wmUplineSo": "WRIGHT", "wmType": "Underground" }, "geometry": { "type": "LineString", "coordinates": [ [ -93.122901000006905, 46.614910003456302 ], [ -93.1228623, 46.614933100008301 ] ] } },
{ "type": "Feature", "properties": { "wmUplineSo": "WRIGHT", "wmType": "Underground" }, "geometry": { "type": "LineString", "coordinates": [ [ -93.123465000006902, 46.614460003456301 ], [ -93.123205000006905, 46.614681003456397 ] ] } },
{ "type": "Feature", "properties": { "wmUplineSo": "WRIGHT", "wmType": "Underground" }, "geometry": { "type": "LineString", "coordinates": [ [ -93.179748524633894, 46.611205313346296 ], [ -93.179635182584903, 46.609001119286397 ], [ -93.179804045114594, 46.608845576195598 ], [ -93.180076798169694, 46.6086767180051 ], [ -93.180174638880501, 46.608404557819902 ], [ -93.180149053360196, 46.608163195040198 ] ] } },
{ "type": "Feature", "properties": { "wmUplineSo": "WRIGHT", "wmType": "Underground" }, "geometry": { "type": "LineString", "coordinates": [ [ -93.040179415187694, 46.653821570287903 ], [ -93.040232693031498, 46.6538989448755 ] ] } },
{ "type": "Feature", "properties": { "wmUplineSo": "WRIGHT", "wmType": "Underground" }, "geometry": { "type": "LineString", "coordinates": [ [ -93.040949024496499, 46.6613906663056 ], [ -93.0403095, 46.661273800008402 ] ] } },
{ "type": "Feature", "properties": { "wmUplineSo": "WRIGHT", "wmType": "Underground" }, "geometry": { "type": "LineString", "coordinates": [ [ -93.209448024260197, 46.622485607730702 ], [ -93.2093578, 46.622466800008297 ] ] } },
{ "type": "Feature", "properties": { "wmUplineSo": "WRIGHT", "wmType": "Underground" }, "geometry": { "type": "LineString", "coordinates": [ [ -93.15102, 46.555799999999898 ], [ -93.151055, 46.555799999999898 ] ] } }
]
}
