{
"type": "FeatureCollection",
"crs": { "type": "name", "properties": { "name": "urn:ogc:def:crs:OGC:1.3:CRS84" } },
"features": [
{ "type": "Feature", "properties": { "wmUplineSo": "WRIGHT", "wmType": "Underground" }, "geometry": { "type": "LineString", "coordinates": [ [ -93.000181, 46.651052127127997 ], [ -93.000181, 46.6510768315935 ] ] } },
{ "type": "Feature", "properties": { "wmUplineSo": "WRIGHT", "wmType": "Underground" }, "geometry": { "type": "LineString", "coordinates": [ [ -93.000181, 46.651052127127997 ], [ -93.000181, 46.6510768315935 ] ] } },
{ "type": "Feature", "properties": { "wmUplineSo": "WRIGHT", "wmType": "Underground" }, "geometry": { "type": "LineString", "coordinates": [ [ -93.000261484333507, 46.651047361742201 ], [ -92.989825985748894, 46.651079948427601 ] ] } },
{ "type": "Feature", "properties": { "wmUplineSo": "WRIGHT", "wmType": "Underground" }, "geometry": { "type": "LineString", "coordinates": [ [ -93.000261484333507, 46.651047361742201 ], [ -93.000181, 46.651052127127997 ] ] } },
{ "type": "Feature", "properties": { "wmUplineSo": "WRIGHT", "wmType": "Underground" }, "geometry": { "type": "LineString", "coordinates": [ [ -92.996327777640005, 46.7012842770201 ], [ -92.996365999869795, 46.7012751087398 ] ] } },
{ "type": "Feature", "properties": { "wmUplineSo": "WRIGHT", "wmType": "Underground" }, "geometry": { "type": "LineString", "coordinates": [ [ -92.986004710501902, 46.667588529468198 ], [ -92.986253085301897, 46.6676203683542 ] ] } },
{ "type": "Feature", "properties": { "wmUplineSo": "WRIGHT", "wmType": "Underground" }, "geometry": { "type": "LineString", "coordinates": [ [ -92.986253085301897, 46.6676203683542 ], [ -92.986550462600604, 46.667600678273899 ] ] } },
{ "type": "Feature", "properties": { "wmUplineSo": "WRIGHT", "wmType": "Underground" }, "geometry": { "type": "LineString", "coordinates": [ [ -92.986550462600604, 46.667600678273899 ], [ -92.987193447263394, 46.667480918576601 ] ] } },
{ "type": "Feature", "properties": { "wmUplineSo": "WRIGHT", "wmType": "Underground" }, "geometry": { "type": "LineString", "coordinates": [ [ -92.987193447263394, 46.667480918576601 ], [ -92.987580901624398, 46.6674015513169 ] ] } },
{ "type": "Feature", "properties": { "wmUplineSo": "WRIGHT", "wmType": "Underground" }, "geometry": { "type": "LineString", "coordinates": [ [ -92.987580901624398, 46.6674015513169 ], [ -92.987615857400101, 46.667319521400103 ] ] } },
{ "type": "Feature", "properties": { "wmUplineSo": "WRIGHT", "wmType": "Underground" }, "geometry": { "type": "LineString", "coordinates": [ [ -92.987615857400101, 46.667319521400103 ], [ -92.987765611521496, 46.667101000130003 ] ] } },
{ "type": "Feature", "properties": { "wmUplineSo": "WRIGHT", "wmType": "Underground" }, "geometry": { "type": "LineString", "coordinates": [ [ -92.987765611521496, 46.667101000130003 ], [ -92.987872223945203, 46.666927352958901 ] ] } },
{ "type": "Feature", "properties": { "wmUplineSo": "WRIGHT", "wmType": "Underground" }, "geometry": { "type": "LineString", "coordinates": [ [ -92.987872223945203, 46.666927352958901 ], [ -92.987886358002797, 46.666841957211901 ] ] } },
{ "type": "Feature", "properties": { "wmUplineSo": "WRIGHT", "wmType": "Underground" }, "geometry": { "type": "LineString", "coordinates": [ [ -92.987886358002797, 46.666841957211901 ], [ -92.9879415, 46.666856300008398 ] ] } },
{ "type": "Feature", "properties": { "wmUplineSo": "WRIGHT", "wmType": "Underground" }, "geometry": { "type": "LineString", "coordinates": [ [ -93.003627774922293, 46.658393644478501 ], [ -93.0036713, 46.658372800008401 ] ] } },
{ "type": "Feature", "properties": { "wmUplineSo": "WRIGHT", "wmType": "Underground" }, "geometry": { "type": "LineString", "coordinates": [ [ -92.989825985748894, 46.651079948427601 ], [ -92.988698487366307, 46.651133663523403 ] ] } },
{ "type": "Feature", "properties": { "wmUplineSo": "WRIGHT", "wmType": "Underground" }, "geometry": { "type": "LineString", "coordinates": [ [ -92.988698487366307, 46.651133663523403 ], [ -92.9886209999991, 46.651142003466198 ] ] } },
{ "type": "Feature", "properties": { "wmUplineSo": "WRIGHT", "wmType": "Underground" }, "geometry": { "type": "LineString", "coordinates": [ [ -92.9886209999991, 46.651142003466198 ], [ -92.988544999999107, 46.650977003465997 ] ] } },
{ "type": "Feature", "properties": { "wmUplineSo": "WRIGHT", "wmType": "Underground" }, "geometry": { "type": "LineString", "coordinates": [ [ -92.988544999999107, 46.650977003465997 ], [ -92.988527999999107, 46.650788003465998 ] ] } },
{ "type": "Feature", "properties": { "wmUplineSo": "WRIGHT", "wmType": "Underground" }, "geometry": { "type": "LineString", "coordinates": [ [ -92.988527999999107, 46.650788003465998 ], [ -92.988503999999097, 46.650656003465997 ] ] } },
{ "type": "Feature", "properties": { "wmUplineSo": "WRIGHT", "wmType": "Underground" }, "geometry": { "type": "LineString", "coordinates": [ [ -92.988503999999097, 46.650656003465997 ], [ -92.988368999999096, 46.650448003466003 ] ] } },
{ "type": "Feature", "properties": { "wmUplineSo": "WRIGHT", "wmType": "Underground" }, "geometry": { "type": "LineString", "coordinates": [ [ -92.988368999999096, 46.650448003466003 ], [ -92.9882999999991, 46.6502810034658 ] ] } },
{ "type": "Feature", "properties": { "wmUplineSo": "WRIGHT", "wmType": "Underground" }, "geometry": { "type": "LineString", "coordinates": [ [ -93.000887436604003, 46.651078707462901 ], [ -93.000261484333507, 46.651047361742201 ] ] } },
{ "type": "Feature", "properties": { "wmUplineSo": "WRIGHT", "wmType": "Underground" }, "geometry": { "type": "LineString", "coordinates": [ [ -92.984028980731395, 46.6515560918414 ], [ -92.9842933, 46.651614300008397 ] ] } },
{ "type": "Feature", "properties": { "wmUplineSo": "WRIGHT", "wmType": "Underground" }, "geometry": { "type": "LineString", "coordinates": [ [ -93.001643888698496, 46.659209330106499 ], [ -93.001641301167595, 46.659188796244599 ] ] } },
{ "type": "Feature", "properties": { "wmUplineSo": "WRIGHT", "wmType": "Underground" }, "geometry": { "type": "LineString", "coordinates": [ [ -93.002530040530104, 46.658987875422099 ], [ -93.001641984988197, 46.659249475874503 ] ] } },
{ "type": "Feature", "properties": { "wmUplineSo": "WRIGHT", "wmType": "Underground" }, "geometry": { "type": "LineString", "coordinates": [ [ -93.001641984988197, 46.659249475874503 ], [ -93.001643888698496, 46.659209330106499 ] ] } },
{ "type": "Feature", "properties": { "wmUplineSo": "WRIGHT", "wmType": "Underground" }, "geometry": { "type": "LineString", "coordinates": [ [ -93.025784233560998, 46.679823053199698 ], [ -93.025690926729297, 46.680650676665003 ] ] } },
{ "type": "Feature", "properties": { "wmUplineSo": "WRIGHT", "wmType": "Underground" }, "geometry": { "type": "LineString", "coordinates": [ [ -93.025690926729297, 46.680650676665003 ], [ -93.025704346616294, 46.6807186263852 ] ] } },
{ "type": "Feature", "properties": { "wmUplineSo": "WRIGHT", "wmType": "Underground" }, "geometry": { "type": "LineString", "coordinates": [ [ -92.9886209999991, 46.651142003466198 ], [ -92.986613965873104, 46.651047607801303 ], [ -92.984028980731395, 46.6515560918414 ] ] } },
{ "type": "Feature", "properties": { "wmUplineSo": "WRIGHT", "wmType": "Underground" }, "geometry": { "type": "LineString", "coordinates": [ [ -93.009293105478605, 46.656660477195103 ], [ -93.0092101, 46.656641400008397 ] ] } },
{ "type": "Feature", "properties": { "wmUplineSo": "WRIGHT", "wmType": "Underground" }, "geometry": { "type": "LineString", "coordinates": [ [ -93.005331205140607, 46.658773482869798 ], [ -93.0053278, 46.658791800008402 ] ] } },
{ "type": "Feature", "properties": { "wmUplineSo": "WRIGHT", "wmType": "Underground" }, "geometry": { "type": "LineString", "coordinates": [ [ -93.004900837347407, 46.6584080078052 ], [ -93.0048908, 46.658412100008398 ] ] } },
{ "type": "Feature", "properties": { "wmUplineSo": "WRIGHT", "wmType": "Underground" }, "geometry": { "type": "LineString", "coordinates": [ [ -93.004900837347407, 46.6584080078052 ], [ -93.004963, 46.658370600008404 ] ] } },
{ "type": "Feature", "properties": { "wmUplineSo": "WRIGHT", "wmType": "Underground" }, "geometry": { "type": "LineString", "coordinates": [ [ -93.006251775763204, 46.657795049077599 ], [ -93.0061439, 46.658002800008397 ] ] } },
{ "type": "Feature", "properties": { "wmUplineSo": "WRIGHT", "wmType": "Underground" }, "geometry": { "type": "LineString", "coordinates": [ [ -93.002263829742603, 46.680711188837698 ], [ -93.0022565, 46.680609800008398 ] ] } },
{ "type": "Feature", "properties": { "wmUplineSo": "WRIGHT", "wmType": "Underground" }, "geometry": { "type": "LineString", "coordinates": [ [ -92.998004982529906, 46.738527119753101 ], [ -92.9979, 46.738234600008496 ] ] } },
{ "type": "Feature", "properties": { "wmUplineSo": "WRIGHT", "wmType": "Underground" }, "geometry": { "type": "LineString", "coordinates": [ [ -93.005817236194403, 46.665133352480403 ], [ -93.0057096, 46.665122500008401 ] ] } },
{ "type": "Feature", "properties": { "wmUplineSo": "WRIGHT", "wmType": "Underground" }, "geometry": { "type": "LineString", "coordinates": [ [ -93.002980967878102, 46.661420306422997 ], [ -93.0029616, 46.661393600008402 ] ] } },
{ "type": "Feature", "properties": { "wmUplineSo": "WRIGHT", "wmType": "Underground" }, "geometry": { "type": "LineString", "coordinates": [ [ -93.000884243961096, 46.658629263392697 ], [ -93.001075, 46.658559300008399 ] ] } },
{ "type": "Feature", "properties": { "wmUplineSo": "WRIGHT", "wmType": "Underground" }, "geometry": { "type": "LineString", "coordinates": [ [ -92.996909194042999, 46.660936837519401 ], [ -92.9968218, 46.660865500008398 ] ] } },
{ "type": "Feature", "properties": { "wmUplineSo": "WRIGHT", "wmType": "Underground" }, "geometry": { "type": "LineString", "coordinates": [ [ -92.996313016012607, 46.661376821027403 ], [ -92.9962881, 46.661352600008399 ] ] } },
{ "type": "Feature", "properties": { "wmUplineSo": "WRIGHT", "wmType": "Underground" }, "geometry": { "type": "LineString", "coordinates": [ [ -93.002508404696101, 46.6585176145067 ], [ -93.0024808, 46.658566300008403 ] ] } },
{ "type": "Feature", "properties": { "wmUplineSo": "WRIGHT", "wmType": "Underground" }, "geometry": { "type": "LineString", "coordinates": [ [ -93.002508404696101, 46.6585176145067 ], [ -93.0025016, 46.658508800008399 ] ] } },
{ "type": "Feature", "properties": { "wmUplineSo": "WRIGHT", "wmType": "Underground" }, "geometry": { "type": "LineString", "coordinates": [ [ -93.012989443936405, 46.674547408932703 ], [ -93.0129251, 46.674578100008397 ] ] } },
{ "type": "Feature", "properties": { "wmUplineSo": "WRIGHT", "wmType": "Underground" }, "geometry": { "type": "LineString", "coordinates": [ [ -93.006442084837104, 46.672486601404501 ], [ -93.005794905604702, 46.672287195203403 ] ] } },
{ "type": "Feature", "properties": { "wmUplineSo": "WRIGHT", "wmType": "Underground" }, "geometry": { "type": "LineString", "coordinates": [ [ -93.005794905604702, 46.672287195203403 ], [ -93.005651593226801, 46.6723346933912 ] ] } },
{ "type": "Feature", "properties": { "wmUplineSo": "WRIGHT", "wmType": "Underground" }, "geometry": { "type": "LineString", "coordinates": [ [ -93.005438533352404, 46.673532615400497 ], [ -93.005467, 46.673524900008402 ] ] } },
{ "type": "Feature", "properties": { "wmUplineSo": "WRIGHT", "wmType": "Underground" }, "geometry": { "type": "LineString", "coordinates": [ [ -93.005837365456898, 46.671497833197598 ], [ -93.005819859925694, 46.671463742443798 ] ] } },
{ "type": "Feature", "properties": { "wmUplineSo": "WRIGHT", "wmType": "Underground" }, "geometry": { "type": "LineString", "coordinates": [ [ -93.007896607822502, 46.670929599770098 ], [ -93.0082926, 46.670666100008397 ] ] } },
{ "type": "Feature", "properties": { "wmUplineSo": "WRIGHT", "wmType": "Underground" }, "geometry": { "type": "LineString", "coordinates": [ [ -93.011369124005398, 46.669333572217099 ], [ -93.0110623, 46.669231600008402 ] ] } },
{ "type": "Feature", "properties": { "wmUplineSo": "WRIGHT", "wmType": "Underground" }, "geometry": { "type": "LineString", "coordinates": [ [ -93.011250178190096, 46.669437919269399 ], [ -93.0113296, 46.669598400008397 ] ] } },
{ "type": "Feature", "properties": { "wmUplineSo": "WRIGHT", "wmType": "Underground" }, "geometry": { "type": "LineString", "coordinates": [ [ -93.011222381681307, 46.670238442247303 ], [ -93.0113724, 46.670650100008402 ] ] } },
{ "type": "Feature", "properties": { "wmUplineSo": "WRIGHT", "wmType": "Underground" }, "geometry": { "type": "LineString", "coordinates": [ [ -93.004221919818704, 46.672504089251298 ], [ -93.004785484210799, 46.672528443148003 ] ] } },
{ "type": "Feature", "properties": { "wmUplineSo": "WRIGHT", "wmType": "Underground" }, "geometry": { "type": "LineString", "coordinates": [ [ -93.004221919818704, 46.672504089251298 ], [ -93.0042386, 46.672501800008398 ] ] } },
{ "type": "Feature", "properties": { "wmUplineSo": "WRIGHT", "wmType": "Underground" }, "geometry": { "type": "LineString", "coordinates": [ [ -93.002960261961206, 46.668881999868901 ], [ -93.0032031, 46.669027800008401 ] ] } },
{ "type": "Feature", "properties": { "wmUplineSo": "WRIGHT", "wmType": "Underground" }, "geometry": { "type": "LineString", "coordinates": [ [ -93.002960261961206, 46.668881999868901 ], [ -93.003160767210304, 46.668830804211801 ], [ -93.0035955, 46.668506800008402 ] ] } },
{ "type": "Feature", "properties": { "wmUplineSo": "WRIGHT", "wmType": "Underground" }, "geometry": { "type": "LineString", "coordinates": [ [ -93.005794905604702, 46.672287195203403 ], [ -93.005676598215899, 46.672024972853798 ] ] } },
{ "type": "Feature", "properties": { "wmUplineSo": "WRIGHT", "wmType": "Underground" }, "geometry": { "type": "LineString", "coordinates": [ [ -93.006840528027894, 46.665687740052597 ], [ -93.0063395, 46.665488000008402 ] ] } },
{ "type": "Feature", "properties": { "wmUplineSo": "WRIGHT", "wmType": "Underground" }, "geometry": { "type": "LineString", "coordinates": [ [ -93.026068959986802, 46.672454148074998 ], [ -93.0259564, 46.672479400008399 ] ] } },
{ "type": "Feature", "properties": { "wmUplineSo": "WRIGHT", "wmType": "Underground" }, "geometry": { "type": "LineString", "coordinates": [ [ -93.026068959986802, 46.672454148074998 ], [ -93.0259668, 46.6724649000084 ] ] } },
{ "type": "Feature", "properties": { "wmUplineSo": "WRIGHT", "wmType": "Underground" }, "geometry": { "type": "LineString", "coordinates": [ [ -92.989780973293904, 46.672863636695901 ], [ -92.9896773, 46.672921600008401 ] ] } },
{ "type": "Feature", "properties": { "wmUplineSo": "WRIGHT", "wmType": "Underground" }, "geometry": { "type": "LineString", "coordinates": [ [ -93.003627774922293, 46.658393644478501 ], [ -93.003606226368703, 46.658380716099799 ] ] } },
{ "type": "Feature", "properties": { "wmUplineSo": "WRIGHT", "wmType": "Underground" }, "geometry": { "type": "LineString", "coordinates": [ [ -92.9882999999991, 46.6502810034658 ], [ -92.9883292, 46.6502258000084 ] ] } },
{ "type": "Feature", "properties": { "wmUplineSo": "WRIGHT", "wmType": "Underground" }, "geometry": { "type": "LineString", "coordinates": [ [ -92.984517805145302, 46.674663435009599 ], [ -92.982719999523596, 46.674813707974501 ] ] } },
{ "type": "Feature", "properties": { "wmUplineSo": "WRIGHT", "wmType": "Underground" }, "geometry": { "type": "LineString", "coordinates": [ [ -93.004907568825502, 46.6587526674586 ], [ -93.004900837347407, 46.6584080078052 ] ] } },
{ "type": "Feature", "properties": { "wmUplineSo": "WRIGHT", "wmType": "Underground" }, "geometry": { "type": "LineString", "coordinates": [ [ -93.001806313891194, 46.680719604124398 ], [ -93.0022330011017, 46.680768414955502 ], [ -93.002263829742603, 46.680711188837698 ] ] } },
{ "type": "Feature", "properties": { "wmUplineSo": "WRIGHT", "wmType": "Underground" }, "geometry": { "type": "LineString", "coordinates": [ [ -93.0061439, 46.658002800008397 ], [ -93.005812907937596, 46.6580894969185 ] ] } },
{ "type": "Feature", "properties": { "wmUplineSo": "WRIGHT", "wmType": "Underground" }, "geometry": { "type": "LineString", "coordinates": [ [ -92.986048960680506, 46.674563322597599 ], [ -92.984517805145302, 46.674663435009599 ] ] } },
{ "type": "Feature", "properties": { "wmUplineSo": "WRIGHT", "wmType": "Underground" }, "geometry": { "type": "LineString", "coordinates": [ [ -93.003156312757795, 46.661683915514097 ], [ -93.002980967878102, 46.661420306422997 ] ] } },
{ "type": "Feature", "properties": { "wmUplineSo": "WRIGHT", "wmType": "Underground" }, "geometry": { "type": "LineString", "coordinates": [ [ -92.9999528, 46.659538800008399 ], [ -93.000202221222494, 46.659716632031099 ], [ -93.000776619992806, 46.659553574084299 ], [ -93.000997739757693, 46.659217379693899 ], [ -93.000881430927606, 46.658826411698101 ], [ -93.000884243961096, 46.658629263392697 ] ] } },
{ "type": "Feature", "properties": { "wmUplineSo": "WRIGHT", "wmType": "Underground" }, "geometry": { "type": "LineString", "coordinates": [ [ -92.996358838891297, 46.661898778031698 ], [ -92.996313016012607, 46.661376821027403 ] ] } },
{ "type": "Feature", "properties": { "wmUplineSo": "WRIGHT", "wmType": "Underground" }, "geometry": { "type": "LineString", "coordinates": [ [ -93.0061439, 46.658002800008397 ], [ -93.006251775763204, 46.657795049077599 ] ] } },
{ "type": "Feature", "properties": { "wmUplineSo": "WRIGHT", "wmType": "Underground" }, "geometry": { "type": "LineString", "coordinates": [ [ -93.005812907937596, 46.6580894969185 ], [ -93.004907568825502, 46.6587526674586 ] ] } },
{ "type": "Feature", "properties": { "wmUplineSo": "WRIGHT", "wmType": "Underground" }, "geometry": { "type": "LineString", "coordinates": [ [ -93.004907568825502, 46.6587526674586 ], [ -93.005144288946695, 46.658878595042196 ], [ -93.005331205140607, 46.658773482869798 ] ] } },
{ "type": "Feature", "properties": { "wmUplineSo": "WRIGHT", "wmType": "Underground" }, "geometry": { "type": "LineString", "coordinates": [ [ -93.004907568825502, 46.6587526674586 ], [ -93.0042634828215, 46.658892581151697 ] ] } },
{ "type": "Feature", "properties": { "wmUplineSo": "WRIGHT", "wmType": "Underground" }, "geometry": { "type": "LineString", "coordinates": [ [ -93.003869328244704, 46.658899782419802 ], [ -93.003031484521202, 46.658937265492703 ], [ -93.002530040530104, 46.658987875422099 ] ] } },
{ "type": "Feature", "properties": { "wmUplineSo": "WRIGHT", "wmType": "Underground" }, "geometry": { "type": "LineString", "coordinates": [ [ -93.002530040530104, 46.658987875422099 ], [ -93.002508404696101, 46.6585176145067 ] ] } },
{ "type": "Feature", "properties": { "wmUplineSo": "WRIGHT", "wmType": "Underground" }, "geometry": { "type": "LineString", "coordinates": [ [ -93.0042634828215, 46.658892581151697 ], [ -93.003869328244704, 46.658899782419802 ], [ -93.003869328244704, 46.658899782419802 ] ] } },
{ "type": "Feature", "properties": { "wmUplineSo": "WRIGHT", "wmType": "Underground" }, "geometry": { "type": "LineString", "coordinates": [ [ -92.984517805145302, 46.674663435009599 ], [ -92.984602090181298, 46.675051325408397 ] ] } },
{ "type": "Feature", "properties": { "wmUplineSo": "WRIGHT", "wmType": "Underground" }, "geometry": { "type": "LineString", "coordinates": [ [ -93.006827171822394, 46.665187147652702 ], [ -93.005817236194403, 46.665133352480403 ] ] } },
{ "type": "Feature", "properties": { "wmUplineSo": "WRIGHT", "wmType": "Underground" }, "geometry": { "type": "LineString", "coordinates": [ [ -93.012734677117606, 46.674324306188403 ], [ -93.012565625112899, 46.6744350454331 ], [ -93.012745047875697, 46.674580717223797 ], [ -93.012989443936405, 46.674547408932703 ] ] } },
{ "type": "Feature", "properties": { "wmUplineSo": "WRIGHT", "wmType": "Underground" }, "geometry": { "type": "LineString", "coordinates": [ [ -93.008755062190204, 46.6562393815137 ], [ -93.009293105478605, 46.656660477195103 ] ] } },
{ "type": "Feature", "properties": { "wmUplineSo": "WRIGHT", "wmType": "Underground" }, "geometry": { "type": "LineString", "coordinates": [ [ -93.022880394858007, 46.672575312766199 ], [ -93.0241814811246, 46.672588608200797 ], [ -93.024522664517207, 46.672393532247497 ], [ -93.024764167897899, 46.672351946479402 ], [ -93.026006557718503, 46.672376208036802 ], [ -93.026068959986802, 46.672454148074998 ] ] } },
{ "type": "Feature", "properties": { "wmUplineSo": "WRIGHT", "wmType": "Underground" }, "geometry": { "type": "LineString", "coordinates": [ [ -92.989901845603995, 46.672862847911198 ], [ -92.989780973293904, 46.672863636695901 ] ] } },
{ "type": "Feature", "properties": { "wmUplineSo": "WRIGHT", "wmType": "Underground" }, "geometry": { "type": "LineString", "coordinates": [ [ -93.003869328244704, 46.658899782419802 ], [ -93.003627774922293, 46.658393644478501 ] ] } }
]
}
