{
"type": "FeatureCollection",
"name": "LAKEHEAD GOWAN_consumer",
"crs": { "type": "name", "properties": { "name": "urn:ogc:def:crs:OGC:1.3:CRS84" } },
"features": [
{ "type": "Feature", "properties": { "Name": "ENBRIDGE ENERGY L TD PT", "Address": "BLACKBERRY/GOWAN PUMPS", "Phone": "2187556702.0", "Phase": "ABC", "Substation": "LAKEHEAD GOWAN", "Map_location": "30510&38602", "PARCEL_NUMBER": null }, "geometry": { "type": "Point", "coordinates": [ -92.8292107181896, 46.851945356895101 ] } }
]
}
